{
  "id": 2015203631,
  "type": "Feature",
  "properties": {
    "geom:area": 0,
    "geom:bbox": "-122.361990,36.718020,-121.875480,37.613230",
    "geom:latitude": 37.21175503618435,
    "geom:longitude": -122.07028425310224,
    "src:alt_label": "swim-approach",
    "src:geom": "swim",
    "swim:elevations": [
      5571,
      5255,
      4981,
      4670,
      4469,
      3997,
      3628,
      3389,
      3243,
      3091,
      2865,
      2787,
      2539,
      2408,
      2080,
      1928,
      1586,
      1429,
      1274,
      1101,
      887,
      753,
      481,
      368,
      271,
      142,
      35
    ],
    "swim:geom": "approach",
    "swim:timestamps": [
      1775295829,
      1775295860,
      1775295883,
      1775295914,
      1775295931,
      1775295978,
      1775296018,
      1775296043,
      1775296059,
      1775296089,
      1775296133,
      1775296145,
      1775296178,
      1775296207,
      1775296253,
      1775296270,
      1775296316,
      1775296339,
      1775296364,
      1775296389,
      1775296427,
      1775296446,
      1775296496,
      1775296514,
      1775296539,
      1775296574,
      1775296609
    ],
    "wof:geomhash": "1b45ce828e9360bc3ed348664715857a",
    "wof:id": 2015203631,
    "wof:repo": "sfomuseum-data-flights-2026-04"
  },
  "bbox": [
    -122.36199,
    36.71802,
    -121.87548,
    37.61323
  ],
  "geometry": {"coordinates":[[-121.87548,36.71802],[-121.90111,36.76724],[-121.91229,36.80648],[-121.92662,36.85679],[-121.93428,36.88443],[-121.95605,36.95956],[-121.98015,37.02133],[-121.99473,37.05895],[-122.00403,37.08289],[-122.02125,37.12716],[-122.04469,37.18633],[-122.05072,37.20166],[-122.06762,37.24525],[-122.08192,37.28185],[-122.10488,37.33952],[-122.11318,37.36024],[-122.13366,37.41794],[-122.143,37.446],[-122.15397,37.47717],[-122.16446,37.50753],[-122.18637,37.54807],[-122.21034,37.5549],[-122.26761,37.57387],[-122.2855,37.58105],[-122.30725,37.59022],[-122.33448,37.60171],[-122.36199,37.61323]],"type":"LineString"}
}
