{
  "id": 2031123945,
  "type": "Feature",
  "properties": {
    "geom:area": 0,
    "geom:bbox": "-122.324722,33.920556,-118.529167,37.597500",
    "geom:latitude": 35.5604543303855,
    "geom:longitude": -120.62195948769713,
    "src:alt_label": "swim-path",
    "src:geom": "swim",
    "swim:altitudes": [
      "030",
      "030",
      "030",
      "030",
      "056",
      "056",
      "056",
      "084",
      "084",
      "084",
      "108",
      "108",
      "108",
      "187",
      "187",
      "187",
      "187",
      "215",
      "215",
      "215",
      "215",
      "236",
      "236",
      "236",
      "236",
      "252",
      "252",
      "271",
      "271",
      "288",
      "288",
      "288",
      "305",
      "305",
      "305",
      "305",
      "305",
      "305",
      "321",
      "354",
      "354",
      "354",
      "354",
      "362",
      "362",
      "362",
      "362",
      "362",
      "362",
      "380C",
      "380C",
      "380C",
      "380C",
      "380C",
      "380C",
      "379",
      "379",
      "379",
      "359",
      "359",
      "359",
      "359",
      "359",
      "359",
      "340",
      "340",
      "340",
      "340",
      "340",
      "340",
      "340",
      "340",
      "340",
      "340",
      "340",
      "340",
      "340",
      "328",
      "328",
      "328",
      "328",
      "328",
      "328",
      "299",
      "299",
      "299",
      "299",
      "299",
      "277",
      "277",
      "277",
      "277",
      "261",
      "253",
      "253",
      "253",
      "253",
      "216",
      "216",
      "216",
      "203",
      "203",
      "183",
      "183",
      "183",
      "177",
      "177",
      "177",
      "177",
      "158",
      "158",
      "145",
      "145",
      "145",
      "126",
      "126",
      "119",
      "119",
      "108",
      "108",
      "108",
      "104",
      "090",
      "090",
      "090",
      "087",
      "078",
      "078",
      "078",
      "063",
      "063",
      "051",
      "051",
      "039",
      "039",
      "039",
      "037",
      "024",
      "024",
      "024",
      "024",
      "006",
      "006",
      "006",
      "006",
      "006"
    ],
    "swim:geom": "path",
    "swim:speeds": [
      229,
      229,
      229,
      229,
      250,
      250,
      250,
      264,
      264,
      264,
      281,
      281,
      281,
      363,
      363,
      363,
      363,
      370,
      370,
      370,
      370,
      387,
      387,
      387,
      387,
      394,
      394,
      405,
      405,
      417,
      417,
      417,
      428,
      428,
      428,
      428,
      428,
      428,
      429,
      424,
      424,
      424,
      424,
      424,
      424,
      424,
      424,
      424,
      424,
      423,
      423,
      423,
      423,
      423,
      423,
      424,
      424,
      424,
      419,
      419,
      419,
      419,
      419,
      419,
      419,
      419,
      419,
      419,
      419,
      419,
      419,
      419,
      419,
      419,
      419,
      419,
      419,
      412,
      412,
      412,
      412,
      412,
      412,
      394,
      394,
      394,
      394,
      394,
      376,
      376,
      376,
      376,
      364,
      362,
      362,
      362,
      362,
      337,
      337,
      337,
      326,
      326,
      320,
      320,
      320,
      324,
      324,
      324,
      324,
      322,
      322,
      327,
      327,
      327,
      317,
      317,
      319,
      319,
      308,
      308,
      308,
      308,
      252,
      252,
      252,
      246,
      230,
      230,
      230,
      190,
      190,
      191,
      191,
      187,
      187,
      187,
      190,
      157,
      157,
      157,
      157,
      145,
      145,
      145,
      145,
      145
    ],
    "swim:timestamps": [
      1777306967,
      1777306967,
      1777306967,
      1777306967,
      1777307027,
      1777307027,
      1777307027,
      1777307087,
      1777307087,
      1777307087,
      1777307148,
      1777307148,
      1777307148,
      1777307328,
      1777307328,
      1777307328,
      1777307328,
      1777307388,
      1777307388,
      1777307388,
      1777307388,
      1777307448,
      1777307448,
      1777307448,
      1777307448,
      1777307504,
      1777307504,
      1777307564,
      1777307564,
      1777307624,
      1777307624,
      1777307624,
      1777307688,
      1777307688,
      1777307688,
      1777307688,
      1777307688,
      1777307688,
      1777307744,
      1777307869,
      1777307869,
      1777307869,
      1777307869,
      1777307924,
      1777307924,
      1777307924,
      1777307924,
      1777307924,
      1777307924,
      1777308105,
      1777308105,
      1777308105,
      1777308105,
      1777308105,
      1777308105,
      1777308165,
      1777308165,
      1777308165,
      1777308285,
      1777308285,
      1777308285,
      1777308285,
      1777308285,
      1777308285,
      1777308409,
      1777308409,
      1777308409,
      1777308409,
      1777308409,
      1777308465,
      1777308465,
      1777308465,
      1777308525,
      1777308525,
      1777308590,
      1777308590,
      1777308590,
      1777308706,
      1777308706,
      1777308706,
      1777308706,
      1777308706,
      1777308706,
      1777308886,
      1777308886,
      1777308886,
      1777308886,
      1777308886,
      1777308942,
      1777308942,
      1777308942,
      1777308942,
      1777308984,
      1777309006,
      1777309006,
      1777309006,
      1777309006,
      1777309126,
      1777309126,
      1777309126,
      1777309165,
      1777309165,
      1777309225,
      1777309225,
      1777309225,
      1777309246,
      1777309246,
      1777309246,
      1777309246,
      1777309306,
      1777309306,
      1777309345,
      1777309345,
      1777309345,
      1777309405,
      1777309405,
      1777309427,
      1777309427,
      1777309465,
      1777309465,
      1777309465,
      1777309487,
      1777309586,
      1777309586,
      1777309586,
      1777309607,
      1777309667,
      1777309667,
      1777309667,
      1777309766,
      1777309766,
      1777309831,
      1777309831,
      1777309891,
      1777309891,
      1777309891,
      1777309907,
      1777310006,
      1777310006,
      1777310006,
      1777310006,
      1777310148,
      1777310148,
      1777310148,
      1777310148,
      1777310148
    ],
    "wof:geomhash": "ad5c1ce78685c43a2880b7e3f927a2cd",
    "wof:id": 2031123945,
    "wof:repo": "sfomuseum-data-flights-2026-04"
  },
  "bbox": [
    -122.32472222222222,
    33.92055555555555,
    -118.52916666666667,
    37.597500000000004
  ],
  "geometry": {"coordinates":[[-118.52916666666667,33.94083333333333],[-118.52916666666667,33.94083333333333],[-118.52916666666667,33.94083333333333],[-118.52916666666667,33.94083333333333],[-118.61055555555555,33.93416666666666],[-118.61055555555555,33.93416666666666],[-118.61055555555555,33.93416666666666],[-118.69916666666667,33.92777777777778],[-118.69916666666667,33.92777777777778],[-118.69916666666667,33.92777777777778],[-118.78944444444444,33.92055555555555],[-118.78944444444444,33.92055555555555],[-118.78944444444444,33.92055555555555],[-119.07555555555555,34.03722222222222],[-119.07555555555555,34.03722222222222],[-119.07555555555555,34.03722222222222],[-119.07555555555555,34.03722222222222],[-119.15944444444445,34.11416666666667],[-119.15944444444445,34.11416666666667],[-119.15944444444445,34.11416666666667],[-119.15944444444445,34.11416666666667],[-119.24555555555555,34.19305555555555],[-119.24555555555555,34.19305555555555],[-119.24555555555555,34.19305555555555],[-119.24555555555555,34.19305555555555],[-119.32527777777777,34.26444444444444],[-119.32527777777777,34.26444444444444],[-119.41861111111112,34.348333333333336],[-119.41861111111112,34.348333333333336],[-119.51222222222222,34.43722222222222],[-119.51222222222222,34.43722222222222],[-119.51222222222222,34.43722222222222],[-119.6236111111111,34.53638888888889],[-119.6236111111111,34.53638888888889],[-119.6236111111111,34.53638888888889],[-119.6236111111111,34.53638888888889],[-119.6236111111111,34.53638888888889],[-119.6236111111111,34.53638888888889],[-119.71333333333334,34.61694444444444],[-119.92361111111111,34.80583333333333],[-119.92361111111111,34.80583333333333],[-119.92361111111111,34.80583333333333],[-119.92361111111111,34.80583333333333],[-120.0038888888889,34.87777777777778],[-120.0038888888889,34.87777777777778],[-120.0038888888889,34.87777777777778],[-120.0038888888889,34.87777777777778],[-120.0038888888889,34.87777777777778],[-120.0038888888889,34.87777777777778],[-120.29527777777777,35.13722222222222],[-120.29527777777777,35.13722222222222],[-120.29527777777777,35.13722222222222],[-120.29527777777777,35.13722222222222],[-120.29527777777777,35.13722222222222],[-120.29527777777777,35.13722222222222],[-120.39444444444445,35.224444444444444],[-120.39444444444445,35.224444444444444],[-120.39444444444445,35.224444444444444],[-120.58666666666666,35.403888888888886],[-120.58666666666666,35.403888888888886],[-120.58666666666666,35.403888888888886],[-120.58666666666666,35.403888888888886],[-120.58666666666666,35.403888888888886],[-120.58666666666666,35.403888888888886],[-120.77194444444444,35.58916666666667],[-120.77194444444444,35.58916666666667],[-120.77194444444444,35.58916666666667],[-120.77194444444444,35.58916666666667],[-120.77194444444444,35.58916666666667],[-120.85888888888888,35.67583333333333],[-120.85888888888888,35.67583333333333],[-120.85888888888888,35.67583333333333],[-120.94972222222222,35.765],[-120.94972222222222,35.765],[-121.03888888888889,35.8525],[-121.03888888888889,35.8525],[-121.03888888888889,35.8525],[-121.22361111111111,36.034166666666664],[-121.22361111111111,36.034166666666664],[-121.22361111111111,36.034166666666664],[-121.22361111111111,36.034166666666664],[-121.22361111111111,36.034166666666664],[-121.22361111111111,36.034166666666664],[-121.48722222222223,36.29083333333333],[-121.48722222222223,36.29083333333333],[-121.48722222222223,36.29083333333333],[-121.48722222222223,36.29083333333333],[-121.48722222222223,36.29083333333333],[-121.56666666666666,36.36666666666667],[-121.56666666666666,36.36666666666667],[-121.56666666666666,36.36666666666667],[-121.56666666666666,36.36666666666667],[-121.63333333333334,36.416666666666664],[-121.65111111111112,36.44916666666666],[-121.65111111111112,36.44916666666666],[-121.65111111111112,36.44916666666666],[-121.65111111111112,36.44916666666666],[-121.78583333333333,36.60472222222222],[-121.78583333333333,36.60472222222222],[-121.78583333333333,36.60472222222222],[-121.83333333333333,36.666666666666664],[-121.83333333333333,36.666666666666664],[-121.88333333333334,36.733333333333334],[-121.88333333333334,36.733333333333334],[-121.88333333333334,36.733333333333334],[-121.9,36.76166666666666],[-121.9,36.76166666666666],[-121.9,36.76166666666666],[-121.9,36.76166666666666],[-121.92416666666666,36.84861111111111],[-121.92416666666666,36.84861111111111],[-121.93333333333334,36.916666666666664],[-121.93333333333334,36.916666666666664],[-121.93333333333334,36.916666666666664],[-121.96666666666667,37],[-121.96666666666667,37],[-121.98027777777779,37.02166666666667],[-121.98027777777779,37.02166666666667],[-122,37.083333333333336],[-122,37.083333333333336],[-122,37.083333333333336],[-122.01277777777777,37.10444444444445],[-122.06666666666666,37.21666666666667],[-122.06666666666666,37.21666666666667],[-122.06666666666666,37.21666666666667],[-122.06722222222221,37.24277777777778],[-122.09027777777777,37.30333333333333],[-122.09027777777777,37.30333333333333],[-122.09027777777777,37.30333333333333],[-122.11666666666666,37.4],[-122.11666666666666,37.4],[-122.13333333333334,37.45],[-122.13333333333334,37.45],[-122.13333333333334,37.5],[-122.13333333333334,37.5],[-122.13333333333334,37.5],[-122.1388888888889,37.50805555555556],[-122.21666666666667,37.55],[-122.21666666666667,37.55],[-122.21666666666667,37.55],[-122.21666666666667,37.55],[-122.32472222222222,37.597500000000004],[-122.32472222222222,37.597500000000004],[-122.32472222222222,37.597500000000004],[-122.32472222222222,37.597500000000004],[-122.32472222222222,37.597500000000004]],"type":"LineString"}
}
