{
  "id": 2015214101,
  "type": "Feature",
  "properties": {
    "geom:area": 0,
    "geom:bbox": "-122.539620,36.722530,-121.442830,37.659430",
    "geom:latitude": 37.20892377418602,
    "geom:longitude": -122.06561534577821,
    "src:alt_label": "swim-takeoff",
    "src:geom": "swim",
    "swim:elevations": [
      152,
      283,
      647,
      799,
      1343,
      1801,
      2064,
      2420,
      2667,
      3216,
      3508,
      3760,
      4204,
      5083,
      5786,
      6133,
      6577,
      6720,
      7389,
      7422,
      7888,
      8038,
      8503,
      8576,
      9052,
      9158,
      9378,
      9711,
      10094,
      10115
    ],
    "swim:geom": "takeoff",
    "swim:timestamps": [
      1775398105,
      1775398114,
      1775398164,
      1775398178,
      1775398224,
      1775398258,
      1775398276,
      1775398304,
      1775398322,
      1775398362,
      1775398394,
      1775398414,
      1775398441,
      1775398504,
      1775398552,
      1775398577,
      1775398610,
      1775398620,
      1775398677,
      1775398680,
      1775398724,
      1775398740,
      1775398793,
      1775398804,
      1775398853,
      1775398865,
      1775398893,
      1775398922,
      1775398975,
      1775398980
    ],
    "wof:geomhash": "79b34590d474304dfd697ced3db14761",
    "wof:id": 2015214101,
    "wof:repo": "sfomuseum-data-flights-2026-04"
  },
  "bbox": [
    -122.53962,
    36.72253,
    -121.44283,
    37.65943
  ],
  "geometry": {"coordinates":[[-122.39142,37.62792],[-122.39929,37.63113],[-122.44907,37.65177],[-122.4662,37.6588],[-122.52773,37.65943],[-122.53962,37.62406],[-122.53004,37.60384],[-122.51482,37.57232],[-122.50471,37.55136],[-122.48018,37.50276],[-122.44427,37.46757],[-122.41616,37.44669],[-122.37618,37.41719],[-122.27932,37.34669],[-122.20295,37.29014],[-122.16309,37.26053],[-122.1087,37.22016],[-122.09154,37.20746],[-121.99602,37.13651],[-121.99007,37.13209],[-121.91341,37.07479],[-121.88526,37.05402],[-121.79083,36.98363],[-121.76942,36.96728],[-121.678,36.89984],[-121.65744,36.88436],[-121.60565,36.84502],[-121.55096,36.80446],[-121.45199,36.72948],[-121.44283,36.72253]],"type":"LineString"}
}
