{
  "id": 2031101111,
  "type": "Feature",
  "properties": {
    "geom:area": 0,
    "geom:bbox": "-127.150000,37.215278,-122.130556,38.495000",
    "geom:latitude": 37.763995099906815,
    "geom:longitude": -124.59983313864981,
    "src:alt_label": "swim-path",
    "src:geom": "swim",
    "swim:altitudes": [
      "370",
      "370",
      "370",
      "370",
      "370",
      "370",
      "370",
      "370",
      "370",
      "370",
      "370",
      "370",
      "370",
      "370",
      "370",
      "370",
      "370",
      "370",
      "370",
      "370",
      "370",
      "370",
      "370",
      "370",
      "243",
      "243",
      "243",
      "203",
      "203",
      "203",
      "183",
      "163",
      "163",
      "163",
      "146",
      "120",
      "105",
      "105",
      "105",
      "105",
      "105",
      "100",
      "100",
      "100C",
      "100C",
      "100C",
      "095",
      "095",
      "080",
      "080",
      "080",
      "080",
      "080",
      "080",
      "073",
      "073",
      "070",
      "068",
      "068",
      "066",
      "044",
      "044",
      "040",
      "040",
      "040",
      "037",
      "037",
      "037"
    ],
    "swim:geom": "path",
    "swim:speeds": [
      501,
      501,
      501,
      501,
      501,
      501,
      501,
      501,
      498,
      498,
      498,
      498,
      498,
      498,
      498,
      498,
      496,
      496,
      496,
      496,
      496,
      496,
      496,
      496,
      454,
      454,
      454,
      428,
      428,
      428,
      415,
      400,
      400,
      400,
      387,
      374,
      352,
      358,
      358,
      358,
      358,
      316,
      316,
      327,
      327,
      327,
      266,
      266,
      254,
      254,
      249,
      249,
      252,
      252,
      252,
      252,
      244,
      241,
      241,
      244,
      226,
      226,
      200,
      200,
      200,
      193,
      193,
      193
    ],
    "swim:timestamps": [
      1777048730,
      1777048730,
      1777048730,
      1777048850,
      1777048911,
      1777048911,
      1777048911,
      1777048971,
      1777049151,
      1777049151,
      1777049211,
      1777049211,
      1777049211,
      1777049211,
      1777049271,
      1777049271,
      1777049391,
      1777049391,
      1777049391,
      1777049451,
      1777049451,
      1777049511,
      1777049511,
      1777049511,
      1777049932,
      1777049932,
      1777049932,
      1777050052,
      1777050052,
      1777050052,
      1777050112,
      1777050172,
      1777050172,
      1777050172,
      1777050211,
      1777050284,
      1777050344,
      1777050353,
      1777050353,
      1777050353,
      1777050353,
      1777050404,
      1777050404,
      1777050413,
      1777050413,
      1777050413,
      1777050473,
      1777050473,
      1777050585,
      1777050585,
      1777050593,
      1777050593,
      1777050653,
      1777050653,
      1777050713,
      1777050713,
      1777050765,
      1777050824,
      1777050824,
      1777050833,
      1777050950,
      1777050950,
      1777051014,
      1777051014,
      1777051014,
      1777051074,
      1777051074,
      1777051074
    ],
    "wof:geomhash": "d682a441cf557c45c484debdc62b83be",
    "wof:id": 2031101111,
    "wof:repo": "sfomuseum-data-flights-2026-04"
  },
  "bbox": [
    -127.15,
    37.21527777777778,
    -122.13055555555555,
    38.495
  ],
  "geometry": {"coordinates":[[-127.15,38.495],[-127.15,38.495],[-127.15,38.495],[-126.81194444444444,38.41555555555556],[-126.64361111111111,38.36944444444445],[-126.64361111111111,38.36944444444445],[-126.64361111111111,38.36944444444445],[-126.47805555555556,38.323888888888895],[-125.99416666666667,38.18944444444444],[-125.99416666666667,38.18944444444444],[-125.82944444444443,38.143055555555556],[-125.82944444444443,38.143055555555556],[-125.82944444444443,38.143055555555556],[-125.82944444444443,38.143055555555556],[-125.66388888888889,38.096111111111114],[-125.66388888888889,38.096111111111114],[-125.35277777777777,37.97277777777778],[-125.35277777777777,37.97277777777778],[-125.35277777777777,37.97277777777778],[-125.20222222222222,37.90611111111111],[-125.20222222222222,37.90611111111111],[-125.04805555555555,37.83722222222222],[-125.04805555555555,37.83722222222222],[-125.04805555555555,37.83722222222222],[-123.95472222222223,37.49055555555556],[-123.95472222222223,37.49055555555556],[-123.95472222222223,37.49055555555556],[-123.66333333333334,37.42944444444444],[-123.66333333333334,37.42944444444444],[-123.66333333333334,37.42944444444444],[-123.52277777777778,37.39972222222222],[-123.38916666666667,37.37138888888889],[-123.38916666666667,37.37138888888889],[-123.38916666666667,37.37138888888889],[-123.28333333333333,37.35],[-123.13333333333334,37.31666666666667],[-123,37.28333333333333],[-123.00777777777778,37.28916666666667],[-123.00777777777778,37.28916666666667],[-123.00777777777778,37.28916666666667],[-123.00777777777778,37.28916666666667],[-122.9,37.266666666666666],[-122.9,37.266666666666666],[-122.89611111111111,37.264722222222225],[-122.89611111111111,37.264722222222225],[-122.89611111111111,37.264722222222225],[-122.80305555555556,37.24472222222222],[-122.80305555555556,37.24472222222222],[-122.63333333333334,37.21666666666667],[-122.63333333333334,37.21666666666667],[-122.63555555555556,37.21527777777778],[-122.63555555555556,37.21527777777778],[-122.55027777777778,37.23083333333334],[-122.55027777777778,37.23083333333334],[-122.44861111111112,37.25111111111111],[-122.44861111111112,37.25111111111111],[-122.38333333333334,37.266666666666666],[-122.3,37.28333333333333],[-122.3,37.28333333333333],[-122.28944444444444,37.294444444444444],[-122.18333333333334,37.36666666666667],[-122.18333333333334,37.36666666666667],[-122.1463888888889,37.427499999999995],[-122.1463888888889,37.427499999999995],[-122.1463888888889,37.427499999999995],[-122.13055555555555,37.47833333333333],[-122.13055555555555,37.47833333333333],[-122.13055555555555,37.47833333333333]],"type":"LineString"}
}
