{
  "id": 2031092917,
  "type": "Feature",
  "properties": {
    "geom:area": 0,
    "geom:bbox": "-126.826389,37.266667,-122.166667,38.413611",
    "geom:latitude": 37.72990349714535,
    "geom:longitude": -124.37934277015741,
    "src:alt_label": "swim-path",
    "src:geom": "swim",
    "swim:altitudes": [
      "370C",
      "370C",
      "369",
      "359",
      "347",
      "339",
      "331",
      "322",
      "313",
      "310",
      "310",
      "310",
      "310",
      "297",
      "212",
      "172",
      "151",
      "148",
      "131",
      "111",
      "103",
      "094",
      "089",
      "086",
      "064",
      "060",
      "060",
      "060",
      "060",
      "054",
      "050",
      "044",
      "041",
      "020",
      "003",
      "100"
    ],
    "swim:geom": "path",
    "swim:speeds": [
      489,
      489,
      489,
      489,
      488,
      481,
      472,
      462,
      457,
      449,
      448,
      430,
      408,
      405,
      433,
      405,
      377,
      370,
      368,
      367,
      348,
      282,
      263,
      251,
      281,
      284,
      281,
      283,
      239,
      236,
      224,
      216,
      200,
      183,
      146,
      132
    ],
    "swim:timestamps": [
      1777042794,
      1777042854,
      1777042974,
      1777043035,
      1777043095,
      1777043155,
      1777043215,
      1777043275,
      1777043335,
      1777043455,
      1777043515,
      1777043575,
      1777043695,
      1777043816,
      1777044056,
      1777044176,
      1777044236,
      1777044243,
      1777044296,
      1777044356,
      1777044416,
      1777044501,
      1777044537,
      1777044556,
      1777044622,
      1777044681,
      1777044717,
      1777044747,
      1777044861,
      1777044897,
      1777044922,
      1777044957,
      1777044982,
      1777045102,
      1777045216,
      1777045257
    ],
    "wof:geomhash": "6291449eac8a8d18c70ce8b89c8bd8c8",
    "wof:id": 2031092917,
    "wof:repo": "sfomuseum-data-flights-2026-04"
  },
  "bbox": [
    -126.82638888888889,
    37.266666666666666,
    -122.16666666666667,
    38.41361111111111
  ],
  "geometry": {"coordinates":[[-126.82638888888889,38.41361111111111],[-126.66777777777779,38.365],[-126.34583333333333,38.26611111111111],[-126.1975,38.219722222222224],[-126.03833333333333,38.17027777777778],[-125.88138888888888,38.12083333333334],[-125.72694444444444,38.07222222222222],[-125.57638888888889,38.02444444444444],[-125.43111111111112,37.97222222222222],[-125.15166666666667,37.85916666666667],[-125.00694444444444,37.81027777777778],[-124.86138888888888,37.77388888888889],[-124.58777777777777,37.70527777777778],[-124.31833333333333,37.6375],[-123.70111111111112,37.47888888888889],[-123.42944444444444,37.408055555555556],[-123.30305555555556,37.374722222222225],[-123.28333333333333,37.36666666666667],[-123.18166666666667,37.3425],[-123.06055555555555,37.31055555555555],[-122.94361111111111,37.27916666666667],[-122.8,37.266666666666666],[-122.7461111111111,37.28472222222222],[-122.71666666666667,37.3],[-122.61666666666666,37.31666666666667],[-122.51666666666667,37.333333333333336],[-122.47472222222223,37.34805555555556],[-122.41666666666667,37.36666666666667],[-122.25,37.4],[-122.2175,37.413333333333334],[-122.2,37.43333333333333],[-122.18472222222222,37.468611111111116],[-122.16666666666667,37.5],[-122.25,37.56666666666667],[-122.35,37.61666666666667],[-122.37277777777777,37.62]],"type":"LineString"}
}
