{
  "id": 2031149955,
  "type": "Feature",
  "properties": {
    "geom:area": 0,
    "geom:bbox": "-122.344410,37.446450,-121.254790,37.608290",
    "geom:latitude": 37.52508254478601,
    "geom:longitude": -121.8063787332949,
    "src:alt_label": "swim-approach",
    "src:geom": "swim",
    "swim:elevations": [
      4705,
      4521,
      4237,
      3955,
      3784,
      3645,
      3355,
      3353,
      3319,
      3160,
      3009,
      2638,
      2469,
      2243,
      2172,
      1887,
      1829,
      1742,
      1595,
      1432,
      1393,
      1230,
      980,
      918,
      732,
      659,
      370,
      303,
      203,
      91
    ],
    "swim:geom": "approach",
    "swim:timestamps": [
      1777540643,
      1777540665,
      1777540700,
      1777540736,
      1777540758,
      1777540774,
      1777540821,
      1777540843,
      1777540876,
      1777540906,
      1777540934,
      1777540992,
      1777541022,
      1777541061,
      1777541077,
      1777541127,
      1777541154,
      1777541185,
      1777541211,
      1777541238,
      1777541252,
      1777541271,
      1777541308,
      1777541317,
      1777541355,
      1777541371,
      1777541428,
      1777541444,
      1777541467,
      1777541499
    ],
    "wof:geomhash": "ed1c85099638cc7bfb7bcc4ed719b884",
    "wof:id": 2031149955,
    "wof:repo": "sfomuseum-data-flights-2026-04"
  },
  "bbox": [
    -122.34441,
    37.44645,
    -121.25479,
    37.60829
  ],
  "geometry": {"coordinates":[[-121.25479,37.5941],[-121.29698,37.58862],[-121.36306,37.5811],[-121.42674,37.57388],[-121.46643,37.5692],[-121.49435,37.56599],[-121.57581,37.55657],[-121.60965,37.54852],[-121.64916,37.5251],[-121.68489,37.5044],[-121.71665,37.4866],[-121.78797,37.45507],[-121.83106,37.45195],[-121.88512,37.44813],[-121.90748,37.44645],[-121.97471,37.45184],[-122.0069,37.46569],[-122.04338,37.48143],[-122.07543,37.49487],[-122.10835,37.50854],[-122.12428,37.51523],[-122.1444,37.5239],[-122.18028,37.53935],[-122.18841,37.54273],[-122.2252,37.5583],[-122.24019,37.5646],[-122.29158,37.58595],[-122.30377,37.59112],[-122.32107,37.59838],[-122.34441,37.60829]],"type":"LineString"}
}
