{
  "id": 2031122735,
  "type": "Feature",
  "properties": {
    "geom:area": 0,
    "geom:bbox": "-122.380000,35.170000,-80.950000,40.070000",
    "geom:latitude": 38.12403996002986,
    "geom:longitude": -101.62936967931623,
    "src:alt_label": "swim-route",
    "src:geom": "swim",
    "swim:geom": "route",
    "wof:geomhash": "236d00dd12a04f3a9857e77e9326ffc3",
    "wof:id": 2031122735,
    "wof:repo": "sfomuseum-data-flights-2026-04"
  },
  "bbox": [
    -122.38,
    35.17,
    -80.95,
    40.07
  ],
  "geometry": {"coordinates":[[-80.95,35.21],[-81.13,35.2],[-81.18,35.2],[-81.33,35.19],[-81.35,35.19],[-81.53,35.19],[-81.57,35.19],[-81.59,35.19],[-81.63,35.19],[-82.21,35.17],[-82.52,35.25],[-83.25,35.41],[-83.26,35.42],[-83.38,35.44],[-83.71,35.52],[-84.06,35.46],[-84.42,35.48],[-84.52,35.49],[-84.53,35.5],[-84.82,35.59],[-85.3,35.73],[-85.76,35.87],[-86.23,36.01],[-86.29,36.03],[-86.6,36.1],[-87.11,36.21],[-87.32,36.25],[-87.55,36.3],[-87.68,36.33],[-88.25,36.45],[-88.71,36.54],[-89.41,36.67],[-90.35,36.85],[-91.18,37],[-91.36,37.03],[-93.06,37.31],[-93.33,37.36],[-93.84,37.55],[-94.64,37.86],[-94.86,37.94],[-95.18,38.06],[-95.32,38.11],[-96,38.36],[-96.82,38.65],[-97.02,38.72],[-97.62,38.93],[-97.64,38.93],[-98.15,39.01],[-99.38,39.19],[-103.22,39.66],[-104.57,39.8],[-105.11,39.85],[-107.04,40.01],[-107.92,40.07],[-109.01,39.93],[-109.36,39.89],[-109.51,39.88],[-109.7,39.85],[-109.75,39.85],[-109.9,39.83],[-109.93,39.83],[-110.55,39.75],[-111.15,39.66],[-111.62,39.58],[-111.74,39.56],[-113.25,39.3],[-113.32,39.28],[-116,38.5],[-116.2,38.42],[-116.47,38.37],[-117.27,38.21],[-118.76,37.9],[-119.1,37.86],[-119.61,37.8],[-119.72,37.78],[-119.82,37.77],[-119.92,37.76],[-120.02,37.75],[-120.31,37.71],[-120.4,37.7],[-120.4,37.7],[-120.57,37.68],[-120.69,37.67],[-120.75,37.66],[-120.79,37.65],[-120.8,37.65],[-120.96,37.63],[-121,37.63],[-121.01,37.63],[-121.07,37.62],[-121.17,37.61],[-121.26,37.59],[-121.39,37.58],[-121.41,37.58],[-121.6,37.55],[-121.61,37.55],[-121.62,37.55],[-121.72,37.53],[-121.8,37.51],[-121.88,37.49],[-121.89,37.49],[-122.01,37.53],[-122.08,37.54],[-122.18,37.57],[-122.18,37.57],[-122.28,37.59],[-122.33,37.61],[-122.36,37.61],[-122.38,37.62]],"type":"LineString"}
}
