{
  "id": 2015237049,
  "type": "Feature",
  "properties": {
    "geom:area": 0,
    "geom:bbox": "-122.133333,29.980556,-90.173333,38.114722",
    "geom:latitude": 35.52187142977951,
    "geom:longitude": -106.05495310677297,
    "src:alt_label": "swim-path",
    "src:geom": "swim",
    "swim:altitudes": [
      "018",
      "018",
      "042",
      "042",
      "131",
      "131",
      "166",
      "186",
      "201",
      "201",
      "285",
      "285",
      "285",
      "313",
      "313",
      "360C",
      "360C",
      "360C",
      "360C",
      "360C",
      "360C",
      "360C",
      "360C",
      "360C",
      "360C",
      "360C",
      "360C",
      "360C",
      "360C",
      "360C",
      "360C",
      "360C",
      "360C",
      "360C",
      "360C",
      "360C",
      "360C",
      "360C",
      "360C",
      "360C",
      "360C",
      "360C",
      "360C",
      "360C",
      "360C",
      "360C",
      "360C",
      "360C",
      "360C",
      "360C",
      "360C",
      "360C",
      "360C",
      "360C",
      "360C",
      "360C",
      "360C",
      "360C",
      "360C",
      "360C",
      "360C",
      "360C",
      "360C",
      "360C",
      "360C",
      "360C",
      "360C",
      "360C",
      "360C",
      "360C",
      "360C",
      "360C",
      "360C",
      "360C",
      "360C",
      "360C",
      "360C",
      "360C",
      "360C",
      "360C",
      "360C",
      "360C",
      "360C",
      "360C",
      "360C",
      "360C",
      "360C",
      "360C",
      "360C",
      "360C",
      "360C",
      "360C",
      "360C",
      "360C",
      "360C",
      "360C",
      "360C",
      "360C",
      "360C",
      "360C",
      "360C",
      "360C",
      "360C",
      "360C",
      "360C",
      "360C",
      "360C",
      "360C",
      "360C",
      "360C",
      "360C",
      "360C",
      "360C",
      "360C",
      "360C",
      "360C",
      "360C",
      "360C",
      "360C",
      "360C",
      "360C",
      "360C",
      "360C",
      "360C",
      "360C",
      "360C",
      "360C",
      "360C",
      "360C",
      "360C",
      "360C",
      "360C",
      "360C",
      "360C",
      "360C",
      "360C",
      "360C",
      "360C",
      "360C",
      "360C",
      "360C",
      "360C",
      "360C",
      "360C",
      "360C",
      "360C",
      "360C",
      "360C",
      "360C",
      "360C",
      "360C",
      "360C",
      "360C",
      "360C",
      "360C",
      "360C",
      "360C",
      "360C",
      "360C",
      "360C",
      "360C",
      "360C",
      "360C",
      "360C",
      "360C",
      "360C",
      "360C",
      "360C",
      "360C",
      "360C",
      "360C",
      "360C",
      "360C",
      "360C",
      "360C",
      "360C",
      "360C",
      "360C",
      "360C",
      "360C",
      "360C",
      "360",
      "360",
      "340C",
      "340C",
      "340",
      "340",
      "340",
      "340",
      "340",
      "329",
      "308",
      "308",
      "300C",
      "300C",
      "300",
      "300",
      "300",
      "300",
      "300",
      "247",
      "247",
      "247",
      "155",
      "155",
      "156",
      "105",
      "093",
      "093",
      "093",
      "072",
      "072",
      "052",
      "039",
      "039"
    ],
    "swim:geom": "path",
    "swim:speeds": [
      182,
      182,
      247,
      247,
      338,
      338,
      358,
      361,
      368,
      368,
      414,
      414,
      414,
      418,
      418,
      385,
      387,
      387,
      385,
      385,
      384,
      384,
      385,
      385,
      386,
      387,
      388,
      388,
      389,
      389,
      389,
      389,
      389,
      390,
      390,
      390,
      393,
      393,
      393,
      393,
      394,
      394,
      396,
      396,
      398,
      398,
      399,
      400,
      400,
      400,
      399,
      399,
      399,
      398,
      398,
      398,
      398,
      398,
      399,
      399,
      399,
      401,
      401,
      401,
      401,
      401,
      401,
      401,
      401,
      402,
      402,
      402,
      404,
      405,
      405,
      405,
      405,
      405,
      407,
      408,
      408,
      408,
      410,
      412,
      412,
      414,
      415,
      414,
      413,
      412,
      411,
      411,
      411,
      410,
      410,
      407,
      407,
      408,
      408,
      414,
      416,
      421,
      419,
      419,
      419,
      419,
      413,
      413,
      409,
      404,
      403,
      403,
      403,
      407,
      407,
      408,
      408,
      408,
      408,
      408,
      408,
      408,
      408,
      407,
      407,
      407,
      407,
      407,
      407,
      407,
      408,
      408,
      407,
      407,
      407,
      407,
      409,
      405,
      405,
      405,
      407,
      410,
      410,
      411,
      410,
      410,
      410,
      410,
      412,
      412,
      413,
      413,
      412,
      412,
      412,
      413,
      414,
      415,
      415,
      408,
      408,
      407,
      407,
      407,
      407,
      407,
      407,
      410,
      410,
      410,
      410,
      410,
      410,
      410,
      407,
      407,
      407,
      407,
      408,
      410,
      410,
      411,
      411,
      418,
      418,
      405,
      388,
      410,
      409,
      406,
      381,
      365,
      365,
      353,
      352,
      352,
      352,
      352,
      357,
      357,
      327,
      327,
      327,
      302,
      302,
      307,
      248,
      232,
      232,
      232,
      228,
      228,
      225,
      224,
      224
    ],
    "swim:timestamps": [
      1775694142,
      1775694142,
      1775694202,
      1775694202,
      1775694440,
      1775694440,
      1775694502,
      1775694562,
      1775694622,
      1775694622,
      1775694983,
      1775694983,
      1775694983,
      1775695101,
      1775695101,
      1775695581,
      1775695822,
      1775695822,
      1775695942,
      1775695942,
      1775696062,
      1775696062,
      1775696242,
      1775696242,
      1775696305,
      1775696363,
      1775696423,
      1775696423,
      1775696783,
      1775696783,
      1775696783,
      1775696964,
      1775696964,
      1775697084,
      1775697084,
      1775697084,
      1775697264,
      1775697264,
      1775697264,
      1775697324,
      1775697384,
      1775697384,
      1775697504,
      1775697504,
      1775697685,
      1775697685,
      1775697745,
      1775697805,
      1775697805,
      1775697865,
      1775697985,
      1775697985,
      1775698045,
      1775698165,
      1775698165,
      1775698346,
      1775698346,
      1775698346,
      1775698526,
      1775698526,
      1775698586,
      1775698766,
      1775698766,
      1775698766,
      1775698887,
      1775698887,
      1775698887,
      1775699067,
      1775699067,
      1775699187,
      1775699187,
      1775699187,
      1775699307,
      1775699367,
      1775699441,
      1775699548,
      1775699548,
      1775699621,
      1775699728,
      1775699802,
      1775699802,
      1775699802,
      1775699968,
      1775700102,
      1775700102,
      1775700162,
      1775700209,
      1775700269,
      1775700342,
      1775700449,
      1775700509,
      1775700509,
      1775700569,
      1775700643,
      1775700643,
      1775700883,
      1775700883,
      1775701003,
      1775701003,
      1775701183,
      1775701244,
      1775701403,
      1775701424,
      1775701484,
      1775701484,
      1775701484,
      1775701704,
      1775701704,
      1775701784,
      1775701965,
      1775702004,
      1775702085,
      1775702085,
      1775702265,
      1775702265,
      1775702325,
      1775702364,
      1775702364,
      1775702364,
      1775702445,
      1775702485,
      1775702485,
      1775702565,
      1775702746,
      1775702746,
      1775702806,
      1775702845,
      1775702905,
      1775702926,
      1775702926,
      1775703025,
      1775703025,
      1775703145,
      1775703145,
      1775703266,
      1775703326,
      1775703506,
      1775703686,
      1775703686,
      1775703811,
      1775703987,
      1775704111,
      1775704111,
      1775704167,
      1775704473,
      1775704473,
      1775704527,
      1775704527,
      1775704828,
      1775704828,
      1775705072,
      1775705072,
      1775705132,
      1775705252,
      1775705252,
      1775705373,
      1775705433,
      1775705493,
      1775705493,
      1775705733,
      1775705733,
      1775705793,
      1775705793,
      1775705973,
      1775706033,
      1775706033,
      1775706033,
      1775706154,
      1775706336,
      1775706336,
      1775706336,
      1775706454,
      1775706454,
      1775706454,
      1775706696,
      1775706754,
      1775706814,
      1775706814,
      1775706876,
      1775706995,
      1775706995,
      1775707115,
      1775707115,
      1775707355,
      1775707355,
      1775707475,
      1775707535,
      1775707717,
      1775707777,
      1775707897,
      1775708017,
      1775708137,
      1775708137,
      1775708317,
      1775708377,
      1775708498,
      1775708498,
      1775708498,
      1775708738,
      1775708738,
      1775709092,
      1775709092,
      1775709092,
      1775709392,
      1775709392,
      1775709398,
      1775709639,
      1775709759,
      1775709759,
      1775709759,
      1775709939,
      1775709939,
      1775710119,
      1775710173,
      1775710173
    ],
    "wof:geomhash": "2c415fe38ff65a9b1cbe743c988a13a6",
    "wof:id": 2015237049,
    "wof:repo": "sfomuseum-data-flights-2026-04"
  },
  "bbox": [
    -122.13333333333334,
    29.980555555555554,
    -90.17333333333333,
    38.11472222222223
  ],
  "geometry": {"coordinates":[[-90.21666666666667,29.980555555555554],[-90.21666666666667,29.980555555555554],[-90.17333333333333,30.015833333333333],[-90.17333333333333,30.015833333333333],[-90.43277777777779,30.263055555555557],[-90.43277777777779,30.263055555555557],[-90.51472222222222,30.351666666666667],[-90.59861111111111,30.421111111111113],[-90.67083333333333,30.47583333333333],[-90.67083333333333,30.47583333333333],[-91.33749999999999,30.80527777777778],[-91.33749999999999,30.80527777777778],[-91.33749999999999,30.80527777777778],[-91.59083333333332,30.929166666666667],[-91.59083333333332,30.929166666666667],[-92.47083333333333,31.354444444444447],[-92.90111111111112,31.558611111111112],[-92.90111111111112,31.558611111111112],[-93.12055555555555,31.661666666666665],[-93.12055555555555,31.661666666666665],[-93.33916666666666,31.764166666666668],[-93.33916666666666,31.764166666666668],[-93.6713888888889,31.915],[-93.6713888888889,31.915],[-93.78416666666666,31.96472222222222],[-93.9025,32.016666666666666],[-94.01527777777778,32.06583333333333],[-94.01527777777778,32.06583333333333],[-94.70194444444445,32.36222222222222],[-94.70194444444445,32.36222222222222],[-94.70194444444445,32.36222222222222],[-95.04638888888888,32.50888888888889],[-95.04638888888888,32.50888888888889],[-95.27583333333334,32.605555555555554],[-95.27583333333334,32.605555555555554],[-95.27583333333334,32.605555555555554],[-95.62416666666665,32.75138888888889],[-95.62416666666665,32.75138888888889],[-95.62416666666665,32.75138888888889],[-95.74111111111111,32.8],[-95.85694444444444,32.84805555555556],[-95.85694444444444,32.84805555555556],[-96.0936111111111,32.94555555555555],[-96.0936111111111,32.94555555555555],[-96.44888888888889,33.090833333333336],[-96.44888888888889,33.090833333333336],[-96.56916666666666,33.13972222222222],[-96.68833333333333,33.18805555555555],[-96.68833333333333,33.18805555555555],[-96.80749999999999,33.23583333333333],[-97.0475,33.33222222222223],[-97.0475,33.33222222222223],[-97.16722222222222,33.38],[-97.4075,33.47555555555556],[-97.4075,33.47555555555556],[-97.76722222222222,33.61694444444444],[-97.76722222222222,33.61694444444444],[-97.76722222222222,33.61694444444444],[-98.12916666666666,33.757777777777775],[-98.12916666666666,33.757777777777775],[-98.25055555555555,33.80472222222222],[-98.61444444444444,33.94416666666666],[-98.61444444444444,33.94416666666666],[-98.61444444444444,33.94416666666666],[-98.85888888888888,34.03722222222222],[-98.85888888888888,34.03722222222222],[-98.85888888888888,34.03722222222222],[-99.22694444444444,34.17583333333333],[-99.22694444444444,34.17583333333333],[-99.4725,34.26722222222222],[-99.4725,34.26722222222222],[-99.4725,34.26722222222222],[-99.72055555555556,34.35916666666667],[-99.84444444444443,34.40472222222222],[-99.99361111111111,34.45944444444445],[-100.2088888888889,34.53805555555555],[-100.2088888888889,34.53805555555555],[-100.36833333333333,34.595555555555556],[-100.59277777777777,34.67666666666666],[-100.7461111111111,34.731388888888894],[-100.7461111111111,34.731388888888894],[-100.7461111111111,34.731388888888894],[-101.10194444444444,34.85777777777778],[-101.38583333333334,34.9575],[-101.38583333333334,34.9575],[-101.51722222222222,35.00333333333333],[-101.61944444444444,35.038888888888884],[-101.75194444444445,35.085],[-101.90472222222223,35.1375],[-102.11583333333333,35.21],[-102.24527777777777,35.25416666666667],[-102.24527777777777,35.25416666666667],[-102.37416666666665,35.29805555555556],[-102.52805555555555,35.35],[-102.52805555555555,35.35],[-103.06194444444444,35.52361111111111],[-103.06194444444444,35.52361111111111],[-103.325,35.596111111111114],[-103.325,35.596111111111114],[-103.72777777777777,35.705555555555556],[-103.86277777777777,35.74194444444444],[-104.21805555555555,35.836111111111116],[-104.26638888888888,35.849444444444444],[-104.39972222222222,35.88472222222222],[-104.39972222222222,35.88472222222222],[-104.39972222222222,35.88472222222222],[-104.89444444444445,36.01361111111111],[-104.89444444444445,36.01361111111111],[-105.06805555555555,36.05833333333333],[-105.46333333333334,36.159166666666664],[-105.56305555555555,36.18416666666666],[-105.73805555555556,36.22805555555556],[-105.73805555555556,36.22805555555556],[-106.1463888888889,36.32916666666667],[-106.1463888888889,36.32916666666667],[-106.28305555555555,36.36277777777778],[-106.36749999999999,36.38333333333333],[-106.36749999999999,36.38333333333333],[-106.36749999999999,36.38333333333333],[-106.54638888888888,36.426944444444445],[-106.62527777777777,36.44583333333333],[-106.62527777777777,36.44583333333333],[-106.81472222222222,36.49138888888889],[-107.21833333333333,36.58722222222222],[-107.21833333333333,36.58722222222222],[-107.35249999999999,36.618611111111115],[-107.43194444444445,36.63722222222222],[-107.56888888888888,36.66888888888889],[-107.62138888888889,36.68111111111111],[-107.62138888888889,36.68111111111111],[-107.83833333333332,36.73111111111111],[-107.83833333333332,36.73111111111111],[-108.10944444444443,36.79277777777778],[-108.10944444444443,36.79277777777778],[-108.37972222222221,36.853611111111114],[-108.51444444444445,36.88361111111111],[-108.92222222222223,36.97361111111111],[-109.35499999999999,37.0675],[-109.35499999999999,37.0675],[-109.62027777777777,37.12416666666667],[-110.03527777777778,37.211111111111116],[-110.30722222222222,37.26694444444444],[-110.30722222222222,37.26694444444444],[-110.45083333333334,37.296388888888885],[-111.14166666666668,37.434999999999995],[-111.14166666666668,37.434999999999995],[-111.28333333333333,37.463055555555556],[-111.28333333333333,37.463055555555556],[-111.97666666666667,37.61],[-111.97666666666667,37.61],[-112.52055555555556,37.750277777777775],[-112.52055555555556,37.750277777777775],[-112.65611111111112,37.78472222222222],[-112.95527777777778,37.86027777777778],[-112.95527777777778,37.86027777777778],[-113.22888888888889,37.92833333333333],[-113.36916666666666,37.963055555555556],[-113.5075,37.99722222222222],[-113.5075,37.99722222222222],[-114.06555555555555,38.11472222222223],[-114.06555555555555,38.11472222222223],[-114.20805555555556,38.111111111111114],[-114.20805555555556,38.111111111111114],[-114.6363888888889,38.098333333333336],[-114.7786111111111,38.093611111111116],[-114.7786111111111,38.093611111111116],[-114.7786111111111,38.093611111111116],[-115.05722222222222,38.08416666666667],[-115.49694444444445,38.06805555555556],[-115.49694444444445,38.06805555555556],[-115.49694444444445,38.06805555555556],[-115.78333333333333,38.056666666666665],[-115.78333333333333,38.056666666666665],[-115.78333333333333,38.056666666666665],[-116.35833333333333,38.03138888888889],[-116.49805555555555,38.025],[-116.64250000000001,38.018055555555556],[-116.64250000000001,38.018055555555556],[-116.78944444444444,38.01083333333333],[-117.07805555555555,37.99611111111111],[-117.07805555555555,37.99611111111111],[-117.37138888888889,37.97138888888889],[-117.37138888888889,37.97138888888889],[-117.69,37.58916666666667],[-117.69,37.58916666666667],[-117.84805555555555,37.39555555555555],[-117.97583333333334,37.36888888888889],[-118.21305555555556,37.6325],[-118.26611111111112,37.73777777777778],[-118.37249999999999,37.948611111111106],[-118.59416666666667,38.00888888888889],[-118.84666666666666,37.96805555555556],[-118.84666666666666,37.96805555555556],[-119.19666666666667,37.90972222222222],[-119.31833333333333,37.88916666666667],[-119.55888888888889,37.84805555555556],[-119.55888888888889,37.84805555555556],[-119.55888888888889,37.84805555555556],[-120.05055555555555,37.76222222222222],[-120.05055555555555,37.76222222222222],[-120.76666666666667,37.65],[-120.76666666666667,37.65],[-120.76666666666667,37.65],[-121.31666666666666,37.583333333333336],[-121.31666666666666,37.583333333333336],[-121.30749999999999,37.58722222222222],[-121.66277777777778,37.57611111111112],[-121.80888888888889,37.599722222222226],[-121.80888888888889,37.599722222222226],[-121.80888888888889,37.599722222222226],[-121.86666666666666,37.43333333333333],[-121.86666666666666,37.43333333333333],[-122.06694444444445,37.49111111111111],[-122.13333333333334,37.516666666666666],[-122.13333333333334,37.516666666666666]],"type":"LineString"}
}
