{
  "id": 2031096677,
  "type": "Feature",
  "properties": {
    "geom:area": 0,
    "geom:bbox": "-122.538889,33.300000,-111.779167,37.668611",
    "geom:latitude": 34.86040204036031,
    "geom:longitude": -117.36462211330054,
    "src:alt_label": "swim-path",
    "src:geom": "swim",
    "swim:altitudes": [
      "006",
      "006",
      "006",
      "051",
      "077",
      "133",
      "133",
      "136",
      "136",
      "182",
      "219",
      "219",
      "237",
      "237",
      "255",
      "255",
      "255",
      "281",
      "281",
      "281",
      "281",
      "311",
      "311",
      "311",
      "311",
      "322",
      "322",
      "330",
      "352",
      "352",
      "364",
      "370C",
      "370C",
      "370C",
      "370C",
      "370C",
      "370C",
      "370C",
      "370C",
      "370C",
      "370C",
      "370C",
      "370C",
      "370C",
      "370C",
      "370C",
      "370C",
      "370C",
      "370C",
      "370C",
      "370C",
      "370C",
      "370C",
      "370C",
      "370C",
      "370C",
      "370C",
      "370C",
      "370C",
      "370C",
      "370C",
      "370C",
      "370C",
      "370C",
      "370C",
      "370C",
      "356",
      "356",
      "356",
      "356",
      "330C",
      "330C",
      "330C",
      "330",
      "330",
      "311",
      "311",
      "274",
      "274",
      "274",
      "256",
      "256",
      "256",
      "249",
      "249",
      "247",
      "229",
      "229",
      "229",
      "220",
      "220",
      "220",
      "149",
      "149",
      "149",
      "149",
      "120",
      "120",
      "120",
      "117",
      "117",
      "103",
      "103",
      "103",
      "103",
      "089",
      "089",
      "080",
      "070",
      "070",
      "057",
      "055",
      "055",
      "055",
      "049",
      "046",
      "046",
      "030",
      "030",
      "030",
      "023",
      "023",
      "023",
      "023",
      "014"
    ],
    "swim:geom": "path",
    "swim:speeds": [
      168,
      168,
      168,
      241,
      290,
      334,
      334,
      320,
      320,
      362,
      404,
      404,
      422,
      422,
      422,
      422,
      422,
      466,
      466,
      466,
      466,
      477,
      477,
      477,
      477,
      485,
      485,
      518,
      506,
      506,
      506,
      501,
      501,
      499,
      499,
      500,
      501,
      501,
      500,
      500,
      508,
      508,
      509,
      509,
      509,
      500,
      495,
      495,
      493,
      491,
      490,
      489,
      489,
      509,
      509,
      509,
      509,
      528,
      528,
      528,
      528,
      535,
      535,
      537,
      537,
      537,
      540,
      540,
      540,
      540,
      530,
      537,
      537,
      537,
      537,
      528,
      528,
      496,
      496,
      496,
      485,
      485,
      485,
      466,
      466,
      466,
      457,
      457,
      457,
      440,
      440,
      440,
      362,
      362,
      362,
      362,
      343,
      343,
      343,
      346,
      346,
      335,
      335,
      335,
      335,
      268,
      268,
      261,
      245,
      245,
      230,
      228,
      228,
      228,
      193,
      193,
      193,
      169,
      169,
      169,
      164,
      164,
      164,
      164,
      164
    ],
    "swim:timestamps": [
      1776955729,
      1776955729,
      1776955729,
      1776955849,
      1776955909,
      1776956029,
      1776956029,
      1776956035,
      1776956035,
      1776956149,
      1776956269,
      1776956269,
      1776956329,
      1776956329,
      1776956395,
      1776956395,
      1776956395,
      1776956510,
      1776956510,
      1776956510,
      1776956510,
      1776956630,
      1776956630,
      1776956630,
      1776956630,
      1776956690,
      1776956690,
      1776956756,
      1776956870,
      1776956870,
      1776956930,
      1776956996,
      1776956996,
      1776957116,
      1776957116,
      1776957171,
      1776957231,
      1776957231,
      1776957351,
      1776957351,
      1776957411,
      1776957411,
      1776957531,
      1776957531,
      1776957531,
      1776957591,
      1776957657,
      1776957657,
      1776957717,
      1776957837,
      1776957897,
      1776957958,
      1776957958,
      1776958198,
      1776958198,
      1776958198,
      1776958198,
      1776958498,
      1776958498,
      1776958498,
      1776958498,
      1776958679,
      1776958679,
      1776958739,
      1776958739,
      1776958739,
      1776958859,
      1776958859,
      1776958859,
      1776958859,
      1776958972,
      1776959099,
      1776959099,
      1776959160,
      1776959160,
      1776959333,
      1776959333,
      1776959460,
      1776959460,
      1776959460,
      1776959513,
      1776959513,
      1776959513,
      1776959693,
      1776959693,
      1776959700,
      1776959753,
      1776959753,
      1776959753,
      1776959821,
      1776959821,
      1776959821,
      1776960155,
      1776960155,
      1776960155,
      1776960155,
      1776960275,
      1776960275,
      1776960275,
      1776960294,
      1776960294,
      1776960354,
      1776960354,
      1776960354,
      1776960354,
      1776960475,
      1776960475,
      1776960510,
      1776960564,
      1776960564,
      1776960630,
      1776960655,
      1776960655,
      1776960655,
      1776960696,
      1776960715,
      1776960715,
      1776960816,
      1776960816,
      1776960816,
      1776960895,
      1776960895,
      1776960895,
      1776960895,
      1776960955
    ],
    "wof:geomhash": "cb37c3772e08cb752aa12e3a6a7ce203",
    "wof:id": 2031096677,
    "wof:repo": "sfomuseum-data-flights-2026-04"
  },
  "bbox": [
    -122.53888888888889,
    33.3,
    -111.77916666666667,
    37.66861111111111
  ],
  "geometry": {"coordinates":[[-122.39250000000001,37.626111111111115],[-122.39250000000001,37.626111111111115],[-122.39250000000001,37.626111111111115],[-122.51638888888888,37.66861111111111],[-122.53888888888889,37.60194444444445],[-122.42,37.455555555555556],[-122.42,37.455555555555556],[-122.41694444444445,37.44777777777777],[-122.41694444444445,37.44777777777777],[-122.2286111111111,37.33166666666667],[-122.01833333333333,37.195277777777775],[-122.01833333333333,37.195277777777775],[-121.905,37.12111111111111],[-121.905,37.12111111111111],[-121.775,37.03861111111111],[-121.775,37.03861111111111],[-121.775,37.03861111111111],[-121.54333333333334,36.884166666666665],[-121.54333333333334,36.884166666666665],[-121.54333333333334,36.884166666666665],[-121.54333333333334,36.884166666666665],[-121.26916666666666,36.702222222222225],[-121.26916666666666,36.702222222222225],[-121.26916666666666,36.702222222222225],[-121.26916666666666,36.702222222222225],[-121.14,36.61638888888889],[-121.14,36.61638888888889],[-121.0125,36.53111111111111],[-120.73777777777778,36.34722222222222],[-120.73777777777778,36.34722222222222],[-120.60527777777777,36.25833333333333],[-120.47638888888889,36.171388888888885],[-120.47638888888889,36.171388888888885],[-120.21333333333334,35.99305555555556],[-120.21333333333334,35.99305555555556],[-120.07805555555555,35.900555555555556],[-119.94472222222223,35.80888888888889],[-119.94472222222223,35.80888888888889],[-119.7088888888889,35.64833333333333],[-119.7088888888889,35.64833333333333],[-119.54638888888888,35.59138888888889],[-119.54638888888888,35.59138888888889],[-119.22666666666667,35.481944444444444],[-119.22666666666667,35.481944444444444],[-119.22666666666667,35.481944444444444],[-119.08194444444445,35.40972222222222],[-118.93555555555555,35.29944444444444],[-118.93555555555555,35.29944444444444],[-118.81361111111111,35.20583333333334],[-118.57138888888889,35.02111111111111],[-118.45805555555556,34.934999999999995],[-118.33972222222222,34.84388888888889],[-118.33972222222222,34.84388888888889],[-117.75722222222223,34.54],[-117.75722222222223,34.54],[-117.75722222222223,34.54],[-117.75722222222223,34.54],[-116.935,34.290277777777774],[-116.935,34.290277777777774],[-116.935,34.290277777777774],[-116.935,34.290277777777774],[-116.43166666666667,34.13388888888889],[-116.43166666666667,34.13388888888889],[-116.28083333333333,34.086666666666666],[-116.28083333333333,34.086666666666666],[-116.28083333333333,34.086666666666666],[-115.93972222222223,33.98027777777778],[-115.93972222222223,33.98027777777778],[-115.93972222222223,33.98027777777778],[-115.93972222222223,33.98027777777778],[-115.62138888888889,33.894999999999996],[-115.25444444444445,33.79361111111111],[-115.25444444444445,33.79361111111111],[-115.08611111111111,33.746944444444445],[-115.08611111111111,33.746944444444445],[-114.60138888888888,33.611111111111114],[-114.60138888888888,33.611111111111114],[-114.26194444444444,33.513888888888886],[-114.26194444444444,33.513888888888886],[-114.26194444444444,33.513888888888886],[-114.13,33.47638888888889],[-114.13,33.47638888888889],[-114.13,33.47638888888889],[-113.67555555555556,33.380833333333335],[-113.67555555555556,33.380833333333335],[-113.66111111111111,33.378055555555555],[-113.52944444444444,33.35111111111111],[-113.52944444444444,33.35111111111111],[-113.52944444444444,33.35111111111111],[-113.35527777777777,33.31888888888889],[-113.35527777777777,33.31888888888889],[-113.35527777777777,33.31888888888889],[-112.61666666666666,33.3],[-112.61666666666666,33.3],[-112.61666666666666,33.3],[-112.61666666666666,33.3],[-112.38333333333334,33.31666666666667],[-112.38333333333334,33.31666666666667],[-112.38333333333334,33.31666666666667],[-112.36,33.32333333333334],[-112.36,33.32333333333334],[-112.2525,33.333333333333336],[-112.2525,33.333333333333336],[-112.2525,33.333333333333336],[-112.2525,33.333333333333336],[-112.05138888888888,33.346944444444446],[-112.05138888888888,33.346944444444446],[-112,33.35],[-111.91666666666667,33.35],[-111.91666666666667,33.35],[-111.83333333333333,33.35],[-111.8125,33.34388888888889],[-111.8125,33.34388888888889],[-111.8125,33.34388888888889],[-111.78333333333333,33.36666666666667],[-111.77916666666667,33.3825],[-111.77916666666667,33.3825],[-111.86666666666666,33.43333333333333],[-111.86666666666666,33.43333333333333],[-111.86666666666666,33.43333333333333],[-111.93111111111112,33.42861111111111],[-111.93111111111112,33.42861111111111],[-111.93111111111112,33.42861111111111],[-111.93111111111112,33.42861111111111],[-111.98333333333333,33.428888888888885]],"type":"LineString"}
}
