{
  "id": 2031135999,
  "type": "Feature",
  "properties": {
    "geom:area": 0,
    "geom:bbox": "-122.549360,36.726000,-121.433030,37.668200",
    "geom:latitude": 37.22278638301174,
    "geom:longitude": -122.05473003570634,
    "src:alt_label": "swim-takeoff",
    "src:geom": "swim",
    "swim:elevations": [
      297,
      554,
      746,
      1365,
      1893,
      2089,
      2514,
      2950,
      3224,
      3411,
      3975,
      4907,
      5509,
      5815,
      6156,
      6684,
      7144,
      7532,
      8001,
      8304,
      8471,
      8620,
      8759,
      8842,
      8982,
      9721,
      10099,
      10454,
      10477,
      10588
    ],
    "swim:geom": "takeoff",
    "swim:timestamps": [
      1777400599,
      1777400630,
      1777400662,
      1777400708,
      1777400748,
      1777400761,
      1777400785,
      1777400815,
      1777400834,
      1777400856,
      1777400891,
      1777400951,
      1777400992,
      1777401010,
      1777401034,
      1777401078,
      1777401111,
      1777401139,
      1777401178,
      1777401205,
      1777401219,
      1777401238,
      1777401253,
      1777401261,
      1777401277,
      1777401342,
      1777401373,
      1777401409,
      1777401416,
      1777401434
    ],
    "wof:geomhash": "8c004e69345dc58f2f5464b1c4dc96af",
    "wof:id": 2031135999,
    "wof:repo": "sfomuseum-data-flights-2026-04"
  },
  "bbox": [
    -122.54936,
    36.726,
    -121.43303,
    37.6682
  ],
  "geometry": {"coordinates":[[-122.39241,37.62645],[-122.41776,37.63761],[-122.45171,37.65216],[-122.51363,37.6682],[-122.54936,37.63015],[-122.54642,37.61347],[-122.52607,37.58687],[-122.49707,37.55323],[-122.47677,37.53247],[-122.44798,37.51004],[-122.3966,37.47122],[-122.30591,37.40306],[-122.24012,37.35284],[-122.21085,37.33031],[-122.17109,37.29978],[-122.09706,37.24292],[-122.03762,37.19693],[-121.98705,37.15781],[-121.91683,37.10358],[-121.86677,37.06478],[-121.84098,37.04485],[-121.80512,37.01691],[-121.77672,36.99478],[-121.76118,36.9826],[-121.73089,36.95901],[-121.60677,36.86262],[-121.54743,36.81572],[-121.47958,36.76252],[-121.46806,36.75341],[-121.43303,36.726]],"type":"LineString"}
}
