{
  "id": 2015199811,
  "type": "Feature",
  "properties": {
    "geom:area": 0,
    "geom:bbox": "-122.404550,37.630190,-122.115120,38.509220",
    "geom:latitude": 38.01951633353458,
    "geom:longitude": -122.19017975236969,
    "src:alt_label": "swim-takeoff",
    "src:geom": "swim",
    "swim:elevations": [
      274,
      742,
      1094,
      1194,
      1577,
      1718,
      2475,
      2653,
      3268,
      3343,
      3563,
      3824,
      4504,
      4757,
      5057,
      5328,
      5718,
      5910,
      6087,
      6271,
      6721,
      7102,
      7267,
      7497
    ],
    "swim:geom": "takeoff",
    "swim:timestamps": [
      1775214532,
      1775214568,
      1775214595,
      1775214613,
      1775214655,
      1775214664,
      1775214716,
      1775214727,
      1775214778,
      1775214799,
      1775214822,
      1775214840,
      1775214896,
      1775214920,
      1775214947,
      1775214973,
      1775215008,
      1775215024,
      1775215037,
      1775215053,
      1775215094,
      1775215138,
      1775215157,
      1775215192
    ],
    "wof:geomhash": "6a207fa5ebb1b961efb4192dbe3c4273",
    "wof:id": 2015199811,
    "wof:repo": "sfomuseum-data-flights-2026-04"
  },
  "bbox": [
    -122.40455,
    37.63019,
    -122.11512,
    38.50922
  ],
  "geometry": {"coordinates":[[-122.40197,37.63019],[-122.40455,37.6555],[-122.37974,37.66258],[-122.36091,37.66886],[-122.30855,37.68591],[-122.29511,37.69054],[-122.2238,37.7185],[-122.2144,37.7301],[-122.20203,37.7949],[-122.19685,37.82476],[-122.19091,37.86004],[-122.18635,37.88791],[-122.17171,37.97882],[-122.16519,38.01863],[-122.1574,38.06531],[-122.15024,38.10925],[-122.13969,38.17306],[-122.13504,38.20106],[-122.13122,38.22449],[-122.12648,38.25291],[-122.11512,38.32667],[-122.11626,38.4056],[-122.117,38.44234],[-122.11813,38.50922]],"type":"LineString"}
}
