{
  "id": 2015185595,
  "type": "Feature",
  "properties": {
    "geom:area": 0,
    "geom:bbox": "-122.352880,37.465650,-122.145070,37.609420",
    "geom:latitude": 37.55165865563901,
    "geom:longitude": -122.23412231415196,
    "src:alt_label": "swim-approach",
    "src:geom": "swim",
    "swim:elevations": [
      1196,
      1003,
      909,
      791,
      824,
      613,
      487,
      426,
      254,
      193,
      56
    ],
    "swim:geom": "approach",
    "swim:timestamps": [
      1775148888,
      1775148927,
      1775148940,
      1775148979,
      1775149013,
      1775149057,
      1775149090,
      1775149110,
      1775149157,
      1775149175,
      1775149219
    ],
    "wof:geomhash": "118855266f30d0bd813703acca1bddcb",
    "wof:id": 2015185595,
    "wof:repo": "sfomuseum-data-flights-2026-04"
  },
  "bbox": [
    -122.35288,
    37.46565,
    -122.14507,
    37.60942
  ],
  "geometry": {"coordinates":[[-122.14507,37.46565],[-122.15099,37.49684],[-122.15467,37.50682],[-122.18034,37.53182],[-122.20506,37.54726],[-122.2413,37.5625],[-122.26621,37.57301],[-122.27964,37.57859],[-122.31201,37.59223],[-122.32367,37.59708],[-122.35288,37.60942]],"type":"LineString"}
}
