{
  "id": 2031100505,
  "type": "Feature",
  "properties": {
    "geom:area": 0,
    "geom:bbox": "-122.351700,37.491610,-121.260980,37.611220",
    "geom:latitude": 37.54206257069024,
    "geom:longitude": -121.8132099457142,
    "src:alt_label": "swim-approach",
    "src:geom": "swim",
    "swim:elevations": [
      4473,
      4373,
      4117,
      3849,
      3687,
      3575,
      3447,
      3207,
      3170,
      3060,
      2984,
      2903,
      2789,
      2667,
      2577,
      2362,
      2145,
      1975,
      1760,
      1725,
      1642,
      1480,
      1292,
      1272,
      1099,
      881,
      865,
      734,
      580,
      469,
      398,
      331,
      198,
      177,
      56
    ],
    "swim:geom": "approach",
    "swim:timestamps": [
      1777068418,
      1777068427,
      1777068461,
      1777068501,
      1777068532,
      1777068565,
      1777068586,
      1777068627,
      1777068635,
      1777068662,
      1777068683,
      1777068696,
      1777068716,
      1777068738,
      1777068754,
      1777068793,
      1777068824,
      1777068853,
      1777068895,
      1777068901,
      1777068916,
      1777068949,
      1777068988,
      1777068994,
      1777069042,
      1777069078,
      1777069081,
      1777069108,
      1777069135,
      1777069162,
      1777069177,
      1777069195,
      1777069228,
      1777069235,
      1777069265
    ],
    "wof:geomhash": "8e39d736845faeea1942be54f0f14ae6",
    "wof:id": 2031100505,
    "wof:repo": "sfomuseum-data-flights-2026-04"
  },
  "bbox": [
    -122.3517,
    37.49161,
    -121.26098,
    37.61122
  ],
  "geometry": {"coordinates":[[-121.26098,37.59298],[-121.2795,37.59057],[-121.34735,37.58297],[-121.42179,37.57461],[-121.47555,37.56835],[-121.5274,37.56233],[-121.56146,37.55828],[-121.62399,37.55053],[-121.63575,37.54815],[-121.67342,37.53931],[-121.70133,37.53264],[-121.7186,37.52832],[-121.74504,37.52196],[-121.77337,37.5151],[-121.79528,37.50999],[-121.8454,37.49804],[-121.88573,37.49161],[-121.92525,37.49379],[-121.98383,37.49718],[-121.99178,37.49767],[-122.01147,37.4989],[-122.05325,37.50123],[-122.10401,37.50707],[-122.11084,37.50956],[-122.16078,37.53102],[-122.19794,37.54656],[-122.20098,37.54782],[-122.22746,37.55906],[-122.25169,37.5692],[-122.27431,37.57874],[-122.28578,37.58351],[-122.29896,37.58912],[-122.3232,37.59917],[-122.32865,37.60155],[-122.3517,37.61122]],"type":"LineString"}
}
