{
  "id": 2015177649,
  "type": "Feature",
  "properties": {
    "geom:area": 0,
    "geom:bbox": "-122.728010,37.345060,-122.087810,38.437090",
    "geom:latitude": 37.818766740103,
    "geom:longitude": -122.42767417137166,
    "src:alt_label": "swim-approach",
    "src:geom": "swim",
    "swim:elevations": [
      8575,
      8281,
      8111,
      7775,
      7585,
      7223,
      6502,
      4596,
      3746,
      3450,
      3382,
      3353,
      3353,
      3353,
      3353,
      3237,
      3159,
      2982,
      2798,
      2720,
      2468,
      2438,
      2438,
      2438,
      2438,
      2391,
      2299,
      2230,
      1930,
      1768,
      1453,
      1351,
      1203,
      1070,
      926,
      914,
      914,
      887,
      642,
      518,
      403,
      287,
      191,
      81,
      91
    ],
    "swim:geom": "approach",
    "swim:timestamps": [
      1775089766,
      1775089797,
      1775089815,
      1775089851,
      1775089871,
      1775089910,
      1775089987,
      1775090169,
      1775090247,
      1775090275,
      1775090290,
      1775090332,
      1775090367,
      1775090392,
      1775090402,
      1775090457,
      1775090468,
      1775090493,
      1775090513,
      1775090523,
      1775090564,
      1775090603,
      1775090614,
      1775090668,
      1775090680,
      1775090694,
      1775090707,
      1775090716,
      1775090754,
      1775090773,
      1775090817,
      1775090845,
      1775090873,
      1775090894,
      1775090921,
      1775090966,
      1775090992,
      1775091001,
      1775091055,
      1775091080,
      1775091110,
      1775091143,
      1775091170,
      1775091203,
      1775091225
    ],
    "wof:geomhash": "75d9ba4cefe5dc0d062bfee46e483498",
    "wof:id": 2015177649,
    "wof:repo": "sfomuseum-data-flights-2026-04"
  },
  "bbox": [
    -122.72801,
    37.34506,
    -122.08781,
    38.43709
  ],
  "geometry": {"coordinates":[[-122.34307,38.43709],[-122.40028,38.40825],[-122.43133,38.39274],[-122.49692,38.35982],[-122.53248,38.34229],[-122.60177,38.30755],[-122.72801,38.23305],[-122.67497,37.91036],[-122.56757,37.80075],[-122.52833,37.76329],[-122.50953,37.74532],[-122.45704,37.69538],[-122.41773,37.65856],[-122.39046,37.63314],[-122.3807,37.62403],[-122.33716,37.56478],[-122.3309,37.55232],[-122.31764,37.52683],[-122.30539,37.50519],[-122.29982,37.4959],[-122.27399,37.45388],[-122.25089,37.4156],[-122.24418,37.40465],[-122.20285,37.35602],[-122.18573,37.35203],[-122.1657,37.34903],[-122.14714,37.34628],[-122.13386,37.34506],[-122.09214,37.36928],[-122.08781,37.38926],[-122.08868,37.43595],[-122.08885,37.4636],[-122.08968,37.4883],[-122.10146,37.50319],[-122.12378,37.51495],[-122.1636,37.53207],[-122.18669,37.54179],[-122.19462,37.54513],[-122.2412,37.56481],[-122.26225,37.57369],[-122.2834,37.5825],[-122.3053,37.59171],[-122.32334,37.59929],[-122.34516,37.60844],[-122.36041,37.61438]],"type":"LineString"}
}
