{
  "id": 2031126353,
  "type": "Feature",
  "properties": {
    "geom:area": 0,
    "geom:bbox": "-122.761290,37.540840,-122.084390,38.471350",
    "geom:latitude": 37.86324245138951,
    "geom:longitude": -122.48128733631509,
    "src:alt_label": "swim-approach",
    "src:geom": "swim",
    "swim:elevations": [
      6957,
      6652,
      6417,
      6086,
      5865,
      5679,
      5429,
      5272,
      5134,
      4972,
      4711,
      4467,
      4353,
      4079,
      3814,
      3559,
      3411,
      3382,
      3383,
      3268,
      3168,
      2764,
      2622,
      2274,
      2099,
      1938,
      1711,
      1401,
      1213,
      949,
      657,
      517,
      368,
      248,
      215,
      128,
      24
    ],
    "swim:geom": "approach",
    "swim:timestamps": [
      1777294458,
      1777294491,
      1777294519,
      1777294556,
      1777294585,
      1777294609,
      1777294639,
      1777294660,
      1777294680,
      1777294699,
      1777294733,
      1777294765,
      1777294786,
      1777294816,
      1777294843,
      1777294886,
      1777294913,
      1777294941,
      1777294960,
      1777294982,
      1777295010,
      1777295068,
      1777295088,
      1777295142,
      1777295167,
      1777295192,
      1777295227,
      1777295275,
      1777295336,
      1777295390,
      1777295428,
      1777295451,
      1777295488,
      1777295518,
      1777295531,
      1777295560,
      1777295586
    ],
    "wof:geomhash": "5836323b246caf3849a5b11ea2106f6f",
    "wof:id": 2031126353,
    "wof:repo": "sfomuseum-data-flights-2026-04"
  },
  "bbox": [
    -122.76129,
    37.54084,
    -122.08439,
    38.47135
  ],
  "geometry": {"coordinates":[[-122.69851,38.47135],[-122.7154,38.41129],[-122.72941,38.36099],[-122.7481,38.29515],[-122.76089,38.24495],[-122.76129,38.20292],[-122.74768,38.15245],[-122.73656,38.11504],[-122.72626,38.08132],[-122.71665,38.04991],[-122.70032,37.99456],[-122.68503,37.94343],[-122.67282,37.90931],[-122.64308,37.86841],[-122.60714,37.83696],[-122.55132,37.78665],[-122.51808,37.7552],[-122.48527,37.7261],[-122.45651,37.71394],[-122.42388,37.70527],[-122.38423,37.69398],[-122.30582,37.67079],[-122.27885,37.66236],[-122.20671,37.63965],[-122.17422,37.62987],[-122.1428,37.62006],[-122.09758,37.60582],[-122.08439,37.56242],[-122.15133,37.54084],[-122.21081,37.55214],[-122.24569,37.56756],[-122.26584,37.57536],[-122.29238,37.58616],[-122.31183,37.59464],[-122.31999,37.59802],[-122.33761,37.60535],[-122.35446,37.61242]],"type":"LineString"}
}
