{
  "id": 2015241099,
  "type": "Feature",
  "properties": {
    "geom:area": 0,
    "geom:bbox": "-122.409510,37.624940,-121.289380,38.106360",
    "geom:latitude": 37.872532648511296,
    "geom:longitude": -121.86560566946278,
    "src:alt_label": "swim-takeoff",
    "src:geom": "swim",
    "swim:elevations": [
      122,
      834,
      1219,
      1347,
      1548,
      1796,
      1894,
      2328,
      2811,
      3137,
      3357,
      3751,
      3774,
      3986,
      4306,
      4592,
      5501,
      5720,
      5964,
      6232,
      6659,
      6838,
      7211
    ],
    "swim:geom": "takeoff",
    "swim:timestamps": [
      1775684430,
      1775684481,
      1775684513,
      1775684531,
      1775684547,
      1775684564,
      1775684576,
      1775684607,
      1775684635,
      1775684657,
      1775684676,
      1775684728,
      1775684731,
      1775684755,
      1775684777,
      1775684798,
      1775684883,
      1775684900,
      1775684919,
      1775684945,
      1775684989,
      1775685015,
      1775685054
    ],
    "wof:geomhash": "43b11658ade91fbbed380887a1abc30a",
    "wof:id": 2015241099,
    "wof:repo": "sfomuseum-data-flights-2026-04"
  },
  "bbox": [
    -122.40951,
    37.62494,
    -121.28938,
    38.10636
  ],
  "geometry": {"coordinates":[[-122.38986,37.62494],[-122.40951,37.6562],[-122.37744,37.67047],[-122.35456,37.67608],[-122.33322,37.68255],[-122.3094,37.68978],[-122.29223,37.69497],[-122.24296,37.70981],[-122.19866,37.72572],[-122.16714,37.74231],[-122.13695,37.75826],[-122.04459,37.80293],[-122.03873,37.80555],[-121.99126,37.82552],[-121.94493,37.84404],[-121.89999,37.86214],[-121.70834,37.93892],[-121.66819,37.95495],[-121.6234,37.9732],[-121.55985,37.99868],[-121.45357,38.04089],[-121.388,38.06687],[-121.28938,38.10636]],"type":"LineString"}
}
