{
  "id": 2031096167,
  "type": "Feature",
  "properties": {
    "geom:area": 0,
    "geom:bbox": "-122.400000,37.627778,-87.441111,41.850000",
    "geom:latitude": 40.02419051695399,
    "geom:longitude": -104.9024820091788,
    "src:alt_label": "swim-path",
    "src:geom": "swim",
    "swim:altitudes": [
      "010",
      "024",
      "053",
      "085",
      "108",
      "127",
      "241",
      "254",
      "281",
      "290",
      "340",
      "350C",
      "350C",
      "350C",
      "350C",
      "350C",
      "350C",
      "350C",
      "350C",
      "350C",
      "350C",
      "350C",
      "350C",
      "350C",
      "350C",
      "350C",
      "350C",
      "350C",
      "350C",
      "350C",
      "350C",
      "350C",
      "350C",
      "350C",
      "350C",
      "350C",
      "350C",
      "350C",
      "350C",
      "350C",
      "350C",
      "350C",
      "350C",
      "350C",
      "350C",
      "350C",
      "350C",
      "350C",
      "350C",
      "350C",
      "350C",
      "350C",
      "350C",
      "350C",
      "350C",
      "350C",
      "350C",
      "350C",
      "350C",
      "350C",
      "350C",
      "350C",
      "350C",
      "350C",
      "350C",
      "350C",
      "350C",
      "350C",
      "350C",
      "350C",
      "350C",
      "350C",
      "350C",
      "350C",
      "350C",
      "350",
      "358",
      "364",
      "370C",
      "370C",
      "370C",
      "370C",
      "370C",
      "370C",
      "370C",
      "370C",
      "370C",
      "370C",
      "370C",
      "370C",
      "370C",
      "370C",
      "370C",
      "370C",
      "370C",
      "370C",
      "370C",
      "370C",
      "370C",
      "370C",
      "370C",
      "370C",
      "370C",
      "370C",
      "357",
      "355",
      "347",
      "340",
      "311",
      "300",
      "291",
      "270",
      "260",
      "240",
      "239",
      "223",
      "176",
      "134",
      "100",
      "100",
      "095",
      "082",
      "050",
      "042",
      "040",
      "040",
      "040",
      "040",
      "040",
      "040",
      "040",
      "040",
      "040",
      "030",
      "030",
      "030",
      "020",
      "015",
      "007"
    ],
    "swim:geom": "path",
    "swim:speeds": [
      158,
      199,
      265,
      279,
      299,
      350,
      447,
      466,
      514,
      490,
      497,
      496,
      494,
      494,
      493,
      491,
      492,
      494,
      496,
      499,
      501,
      502,
      503,
      504,
      505,
      506,
      507,
      506,
      506,
      508,
      510,
      511,
      512,
      511,
      511,
      511,
      509,
      509,
      505,
      502,
      491,
      488,
      490,
      493,
      495,
      496,
      498,
      498,
      501,
      502,
      503,
      504,
      504,
      503,
      502,
      502,
      501,
      500,
      500,
      500,
      502,
      488,
      470,
      469,
      480,
      487,
      493,
      498,
      506,
      505,
      503,
      502,
      503,
      497,
      497,
      497,
      497,
      500,
      506,
      507,
      511,
      513,
      515,
      515,
      515,
      512,
      504,
      498,
      495,
      496,
      497,
      499,
      501,
      493,
      480,
      479,
      478,
      482,
      493,
      495,
      495,
      497,
      497,
      497,
      496,
      499,
      508,
      500,
      496,
      494,
      494,
      478,
      469,
      455,
      458,
      454,
      428,
      407,
      388,
      370,
      328,
      322,
      296,
      293,
      295,
      288,
      288,
      288,
      271,
      247,
      251,
      250,
      250,
      192,
      189,
      190,
      149,
      128,
      140
    ],
    "swim:timestamps": [
      1777016885,
      1777016924,
      1777017005,
      1777017065,
      1777017125,
      1777017185,
      1777017545,
      1777017605,
      1777017729,
      1777017785,
      1777018025,
      1777018089,
      1777018149,
      1777018269,
      1777018329,
      1777018386,
      1777018449,
      1777018566,
      1777018630,
      1777018746,
      1777018806,
      1777018870,
      1777018926,
      1777018986,
      1777019050,
      1777019106,
      1777019230,
      1777019470,
      1777019530,
      1777019890,
      1777019950,
      1777020010,
      1777020310,
      1777020370,
      1777020430,
      1777020490,
      1777020610,
      1777020670,
      1777020850,
      1777020952,
      1777021072,
      1777021151,
      1777021211,
      1777021271,
      1777021331,
      1777021372,
      1777021451,
      1777021492,
      1777021612,
      1777021751,
      1777021792,
      1777021852,
      1777021871,
      1777021991,
      1777022033,
      1777022051,
      1777022093,
      1777022153,
      1777022453,
      1777022513,
      1777022693,
      1777022933,
      1777022993,
      1777023113,
      1777023173,
      1777023233,
      1777023293,
      1777023593,
      1777023713,
      1777023773,
      1777023833,
      1777023893,
      1777024253,
      1777024434,
      1777024494,
      1777024554,
      1777024633,
      1777024674,
      1777024813,
      1777024854,
      1777024974,
      1777025053,
      1777025233,
      1777025293,
      1777025334,
      1777025413,
      1777025593,
      1777025713,
      1777025773,
      1777026193,
      1777026253,
      1777026314,
      1777026374,
      1777026494,
      1777026674,
      1777026683,
      1777026734,
      1777026865,
      1777026925,
      1777026974,
      1777026985,
      1777027034,
      1777027046,
      1777027106,
      1777027274,
      1777027286,
      1777027334,
      1777027394,
      1777027574,
      1777027647,
      1777027707,
      1777027825,
      1777027885,
      1777028066,
      1777028126,
      1777028186,
      1777028306,
      1777028426,
      1777028546,
      1777028606,
      1777028667,
      1777028727,
      1777028967,
      1777029010,
      1777029027,
      1777029087,
      1777029184,
      1777029207,
      1777029244,
      1777029310,
      1777029328,
      1777029448,
      1777029508,
      1777029610,
      1777029670,
      1777029688,
      1777029748,
      1777029790,
      1777029850
    ],
    "wof:geomhash": "1cd0f1ced4eb8e0390da45655cd1bb97",
    "wof:id": 2031096167,
    "wof:repo": "sfomuseum-data-flights-2026-04"
  },
  "bbox": [
    -122.4,
    37.62777777777778,
    -87.44111111111111,
    41.85
  ],
  "geometry": {"coordinates":[[-122.3963888888889,37.62777777777778],[-122.4,37.666666666666664],[-122.33666666666666,37.73416666666667],[-122.36833333333333,37.8075],[-122.385,37.88638888888889],[-122.31305555555555,37.95472222222222],[-121.48694444444445,38.01861111111111],[-121.32666666666667,38.04055555555556],[-120.9888888888889,38.08444444444444],[-120.82777777777777,38.10777777777778],[-120.10222222222221,38.20194444444445],[-119.9563888888889,38.218611111111116],[-119.78666666666666,38.23916666666667],[-119.40944444444445,38.285],[-119.23916666666666,38.30555555555555],[-119.10444444444444,38.322500000000005],[-118.89805555555556,38.346111111111114],[-118.5886111111111,38.38194444444444],[-118.38055555555555,38.405],[-118.06527777777778,38.43944444444444],[-117.87694444444443,38.45944444444445],[-117.70277777777778,38.47777777777778],[-117.51944444444445,38.50194444444445],[-117.34638888888888,38.53777777777778],[-117.1725,38.57416666666667],[-116.99416666666667,38.61027777777778],[-116.64472222222223,38.680277777777775],[-115.94305555555556,38.81722222222223],[-115.7675,38.85111111111111],[-114.69972222222222,39.049166666666665],[-114.52111111111111,39.081388888888895],[-114.3436111111111,39.113055555555555],[-113.44888888888889,39.26777777777777],[-113.27055555555556,39.297777777777775],[-113.08999999999999,39.32777777777778],[-112.9088888888889,39.35777777777778],[-112.565,39.41305555555555],[-112.38583333333334,39.44194444444444],[-111.85749999999999,39.524166666666666],[-111.56388888888888,39.56916666666667],[-111.21277777777777,39.62166666666667],[-110.97055555555556,39.6575],[-110.7961111111111,39.68277777777777],[-110.62083333333332,39.70777777777778],[-110.44305555555556,39.73277777777778],[-110.33972222222222,39.74722222222222],[-110.08916666666666,39.78194444444444],[-109.98361111111112,39.79666666666667],[-109.6275,39.84444444444445],[-109.19611111111111,39.901111111111106],[-109.08694444444444,39.915277777777774],[-108.9063888888889,39.93833333333333],[-108.85555555555555,39.94499999999999],[-108.50666666666666,39.98833333333334],[-108.36194444444443,40.005833333333335],[-108.32472222222222,40.01027777777778],[-108.18222222222222,40.027499999999996],[-108.00305555555556,40.04888888888889],[-107.14166666666668,40.1475],[-106.92055555555557,40.17194444444444],[-106.38972222222223,40.228611111111114],[-105.67694444444444,40.3],[-105.50638888888889,40.316944444444445],[-105.16666666666667,40.34916666666667],[-104.9925,40.36527777777778],[-104.81472222222222,40.38111111111111],[-104.63694444444445,40.39694444444444],[-103.73111111111112,40.47361111111111],[-103.36416666666666,40.5025],[-103.18305555555555,40.51611111111111],[-102.99972222222222,40.52972222222222],[-102.81833333333333,40.54333333333333],[-101.71972222222223,40.6175],[-101.18055555555556,40.65],[-101.00166666666667,40.66],[-100.82249999999999,40.669999999999995],[-100.59527777777777,40.68472222222222],[-100.46555555555555,40.689166666666665],[-100.035,40.71055555555556],[-99.91222222222223,40.71638888888889],[-99.51277777777777,40.73416666666667],[-99.28861111111111,40.743611111111115],[-98.7063888888889,40.76638888888889],[-98.51916666666666,40.77305555555555],[-98.3913888888889,40.777499999999996],[-98.13166666666666,40.78583333333333],[-97.58,40.801944444444445],[-97.22944444444444,40.81083333333333],[-97.05222222222221,40.81472222222222],[-95.79777777777778,40.83527777777778],[-95.61555555555555,40.83694444444445],[-95.43194444444445,40.83888888888889],[-95.24888888888889,40.84],[-94.8888888888889,40.84166666666667],[-94.34805555555555,40.841944444444444],[-94.31527777777778,40.841944444444444],[-94.17583333333334,40.84138888888889],[-93.78583333333333,40.83972222222222],[-93.60694444444444,40.849722222222226],[-93.46083333333334,40.86416666666667],[-93.42500000000001,40.867777777777775],[-93.27666666666667,40.88194444444444],[-93.24361111111111,40.88527777777778],[-93.06138888888889,40.902499999999996],[-92.55,40.94916666666666],[-92.51638888888888,40.952222222222225],[-92.36472222222221,40.965833333333336],[-92.18,40.981944444444444],[-91.6388888888889,41.026666666666664],[-91.44416666666667,41.04277777777778],[-91.26388888888889,41.05694444444444],[-90.90861111111111,41.08416666666667],[-90.73777777777778,41.096944444444446],[-90.23722222222223,41.144999999999996],[-90.06833333333333,41.16861111111111],[-89.90361111111112,41.19138888888889],[-89.58722222222222,41.23444444444444],[-89.28611111111111,41.27444444444444],[-89.00416666666666,41.31111111111111],[-88.86805555555554,41.328611111111115],[-88.75666666666666,41.34277777777778],[-88.62083333333332,41.36],[-88.24055555555556,41.53],[-88.16666666666667,41.56666666666667],[-88.14777777777779,41.57277777777778],[-88.05749999999999,41.61472222222223],[-87.9,41.68333333333333],[-87.87472222222222,41.698611111111106],[-87.81666666666666,41.733333333333334],[-87.71666666666667,41.75],[-87.69888888888889,41.75694444444444],[-87.51305555555555,41.75861111111111],[-87.44111111111111,41.78666666666666],[-87.53333333333333,41.85],[-87.6,41.85],[-87.61583333333333,41.846944444444446],[-87.67361111111111,41.83722222222222],[-87.7,41.81666666666667],[-87.73333333333333,41.8]],"type":"LineString"}
}
