{
  "id": 2031145693,
  "type": "Feature",
  "properties": {
    "geom:area": 0,
    "geom:bbox": "-122.407222,37.642500,-77.459444,39.166667",
    "geom:latitude": 38.18784066718885,
    "geom:longitude": -99.83329201491432,
    "src:alt_label": "swim-path",
    "src:geom": "swim",
    "swim:altitudes": [
      "017",
      "017",
      "038",
      "087",
      "125",
      "125",
      "125",
      "125",
      "163",
      "163",
      "163",
      "217",
      "217",
      "232",
      "244",
      "274",
      "274",
      "274",
      "274",
      "319",
      "319",
      "321",
      "321",
      "332",
      "332",
      "339",
      "339",
      "339",
      "342",
      "350C",
      "350C",
      "350C",
      "350C",
      "350C",
      "350C",
      "350C",
      "350C",
      "350C",
      "350C",
      "350C",
      "350C",
      "350C",
      "350C",
      "350C",
      "350C",
      "350C",
      "350C",
      "350C",
      "350C",
      "350C",
      "350C",
      "350C",
      "350C",
      "350C",
      "350C",
      "350C",
      "350C",
      "350C",
      "350C",
      "350C",
      "350C",
      "350C",
      "350C",
      "350C",
      "350C",
      "350C",
      "350C",
      "350C",
      "350C",
      "350C",
      "350C",
      "350C",
      "350C",
      "350C",
      "350C",
      "350C",
      "350C",
      "350C",
      "350C",
      "350C",
      "350C",
      "350C",
      "350C",
      "350C",
      "350C",
      "350C",
      "350C",
      "350C",
      "350C",
      "350C",
      "350C",
      "350C",
      "354",
      "358C",
      "360C",
      "360C",
      "360C",
      "360C",
      "360C",
      "360C",
      "360C",
      "360C",
      "360C",
      "360C",
      "360C",
      "360C",
      "350C",
      "350C",
      "350C",
      "350C",
      "350C",
      "350C",
      "350C",
      "350C",
      "350C",
      "350C",
      "350C",
      "350C",
      "350C",
      "350C",
      "350C",
      "350C",
      "350C",
      "350C",
      "350C",
      "350C",
      "350C",
      "350C",
      "350C",
      "350C",
      "350C",
      "350C",
      "350C",
      "350C",
      "350C",
      "350C",
      "350C",
      "350C",
      "350C",
      "350C",
      "350C",
      "350C",
      "350C",
      "350C",
      "350C",
      "350C",
      "350C",
      "350C",
      "350C",
      "350C",
      "350",
      "317",
      "134",
      "091",
      "072",
      "060",
      "040",
      "003"
    ],
    "swim:geom": "path",
    "swim:speeds": [
      172,
      172,
      207,
      264,
      324,
      324,
      324,
      324,
      364,
      364,
      364,
      391,
      391,
      397,
      413,
      429,
      429,
      429,
      429,
      454,
      454,
      453,
      453,
      472,
      472,
      473,
      473,
      473,
      474,
      475,
      475,
      475,
      476,
      476,
      477,
      477,
      477,
      477,
      476,
      476,
      477,
      477,
      477,
      479,
      481,
      483,
      484,
      484,
      488,
      492,
      492,
      493,
      493,
      496,
      496,
      496,
      496,
      496,
      496,
      496,
      496,
      502,
      502,
      514,
      514,
      514,
      514,
      527,
      532,
      532,
      533,
      533,
      539,
      539,
      539,
      542,
      542,
      546,
      546,
      549,
      551,
      555,
      555,
      556,
      557,
      561,
      562,
      583,
      583,
      583,
      594,
      591,
      607,
      609,
      609,
      606,
      600,
      599,
      599,
      599,
      594,
      585,
      584,
      578,
      578,
      578,
      562,
      562,
      566,
      567,
      567,
      567,
      564,
      564,
      562,
      559,
      551,
      551,
      548,
      548,
      546,
      545,
      544,
      546,
      546,
      546,
      546,
      551,
      552,
      552,
      549,
      547,
      546,
      546,
      542,
      542,
      542,
      542,
      541,
      540,
      537,
      539,
      539,
      539,
      541,
      550,
      554,
      558,
      559,
      562,
      561,
      561,
      450,
      314,
      305,
      287,
      163,
      156
    ],
    "swim:timestamps": [
      1777524839,
      1777524839,
      1777524899,
      1777525019,
      1777525140,
      1777525140,
      1777525140,
      1777525140,
      1777525260,
      1777525260,
      1777525260,
      1777525440,
      1777525440,
      1777525500,
      1777525560,
      1777525680,
      1777525680,
      1777525680,
      1777525680,
      1777525980,
      1777525980,
      1777526016,
      1777526016,
      1777526100,
      1777526100,
      1777526160,
      1777526160,
      1777526160,
      1777526196,
      1777526280,
      1777526316,
      1777526316,
      1777526437,
      1777526437,
      1777526461,
      1777526521,
      1777526557,
      1777526617,
      1777526701,
      1777526701,
      1777526761,
      1777526761,
      1777526821,
      1777526881,
      1777526941,
      1777526977,
      1777527001,
      1777527001,
      1777527037,
      1777527157,
      1777527157,
      1777527181,
      1777527181,
      1777527277,
      1777527277,
      1777527337,
      1777527337,
      1777527361,
      1777527397,
      1777527397,
      1777527421,
      1777527698,
      1777527698,
      1777527998,
      1777527998,
      1777527998,
      1777527998,
      1777528238,
      1777528418,
      1777528418,
      1777528658,
      1777528658,
      1777528778,
      1777528778,
      1777528778,
      1777528838,
      1777528838,
      1777528958,
      1777528958,
      1777529018,
      1777529083,
      1777529319,
      1777529319,
      1777529379,
      1777529744,
      1777529984,
      1777530044,
      1777530404,
      1777530404,
      1777530404,
      1777530924,
      1777530944,
      1777531244,
      1777531285,
      1777531346,
      1777531485,
      1777531785,
      1777531885,
      1777532125,
      1777532125,
      1777532486,
      1777532725,
      1777532847,
      1777533265,
      1777533265,
      1777533265,
      1777533808,
      1777533808,
      1777534106,
      1777534169,
      1777534169,
      1777534226,
      1777534346,
      1777534346,
      1777534409,
      1777534469,
      1777534828,
      1777534828,
      1777534949,
      1777534949,
      1777535010,
      1777535067,
      1777535188,
      1777535309,
      1777535309,
      1777535369,
      1777535429,
      1777535548,
      1777535670,
      1777535670,
      1777535789,
      1777535910,
      1777535968,
      1777535968,
      1777536089,
      1777536089,
      1777536331,
      1777536390,
      1777536452,
      1777536572,
      1777536691,
      1777536932,
      1777536932,
      1777536932,
      1777537050,
      1777537170,
      1777537291,
      1777537411,
      1777537471,
      1777537837,
      1777538260,
      1777538371,
      1777538798,
      1777539042,
      1777539108,
      1777539218,
      1777539648,
      1777540058
    ],
    "wof:geomhash": "affc44295eccb37ba5d476f0df7dd146",
    "wof:id": 2031145693,
    "wof:repo": "sfomuseum-data-flights-2026-04"
  },
  "bbox": [
    -122.40722222222223,
    37.6425,
    -77.45944444444444,
    39.166666666666664
  ],
  "geometry": {"coordinates":[[-122.40722222222223,37.6425],[-122.40722222222223,37.6425],[-122.35,37.6725],[-122.18611111111112,37.73222222222223],[-122.00944444444444,37.82194444444445],[-122.00944444444444,37.82194444444445],[-122.00944444444444,37.82194444444445],[-122.00944444444444,37.82194444444445],[-121.77194444444444,37.86944444444445],[-121.77194444444444,37.86944444444445],[-121.77194444444444,37.86944444444445],[-121.3825,37.94083333333333],[-121.3825,37.94083333333333],[-121.24694444444445,37.96527777777778],[-121.10555555555555,37.99055555555556],[-120.78222222222222,38.04055555555556],[-120.78222222222222,38.04055555555556],[-120.78222222222222,38.04055555555556],[-120.78222222222222,38.04055555555556],[-120.00888888888889,38.156388888888884],[-120.00888888888889,38.156388888888884],[-119.9325,38.166666666666664],[-119.9325,38.166666666666664],[-119.68222222222222,38.178888888888885],[-119.68222222222222,38.178888888888885],[-119.51416666666667,38.1825],[-119.51416666666667,38.1825],[-119.51416666666667,38.1825],[-119.43138888888889,38.183055555555555],[-119.19722222222222,38.18888888888888],[-119.09694444444445,38.19],[-119.09694444444445,38.19],[-118.76166666666667,38.195277777777775],[-118.76166666666667,38.195277777777775],[-118.69388888888889,38.197222222222216],[-118.52805555555555,38.19888888888889],[-118.42805555555556,38.19972222222222],[-118.24472222222222,38.20194444444445],[-118.00833333333334,38.205000000000005],[-118.00833333333334,38.205000000000005],[-117.83749999999999,38.20638888888889],[-117.83749999999999,38.20638888888889],[-117.67,38.2075],[-117.5,38.208333333333336],[-117.35555555555555,38.20888888888889],[-117.22055555555556,38.20916666666667],[-117.17666666666668,38.20916666666667],[-117.17666666666668,38.20916666666667],[-117.07638888888889,38.20916666666667],[-116.72444444444444,38.20888888888889],[-116.72444444444444,38.20888888888889],[-116.65027777777779,38.20861111111111],[-116.65027777777779,38.20861111111111],[-116.37083333333332,38.2075],[-116.37083333333332,38.2075],[-116.19611111111111,38.20638888888889],[-116.19611111111111,38.20638888888889],[-116.1261111111111,38.20611111111111],[-116.02277777777778,38.20527777777778],[-116.02277777777778,38.20527777777778],[-115.94944444444445,38.20472222222222],[-115.13722222222223,38.19416666666666],[-115.13722222222223,38.19416666666666],[-114.23972222222223,38.17666666666666],[-114.23972222222223,38.17666666666666],[-114.23972222222223,38.17666666666666],[-114.23972222222223,38.17666666666666],[-113.49805555555555,38.15694444444444],[-112.93,38.138333333333335],[-112.93,38.138333333333335],[-112.17722222222223,38.11],[-112.17722222222223,38.11],[-111.7961111111111,38.093611111111116],[-111.7961111111111,38.093611111111116],[-111.7961111111111,38.093611111111116],[-111.60194444444444,38.085],[-111.60194444444444,38.085],[-111.2175,38.06638888888889],[-111.2175,38.06638888888889],[-111.02527777777777,38.05694444444444],[-110.80833333333334,38.04555555555555],[-110.02972222222222,38.001666666666665],[-110.02972222222222,38.001666666666665],[-109.83361111111111,38.00111111111111],[-108.67027777777778,38.00388888888889],[-107.87972222222221,38.00055555555556],[-107.68083333333334,38.00388888888889],[-106.44916666666667,38.01027777777778],[-106.44916666666667,38.01027777777778],[-106.44916666666667,38.01027777777778],[-104.66083333333334,38.01555555555556],[-104.58111111111111,38.01611111111111],[-103.51666666666667,38.016666666666666],[-103.3963888888889,38.01583333333333],[-103.18,38.014722222222225],[-102.70027777777779,38.01],[-101.61583333333333,38.014722222222225],[-101.28027777777778,38.026666666666664],[-100.43194444444445,38.05277777777778],[-100.43194444444445,38.05277777777778],[-99.15666666666667,38.080000000000005],[-98.37333333333332,38.08916666666667],[-97.95833333333334,38.07666666666667],[-96.52305555555556,38.132777777777775],[-96.52305555555556,38.132777777777775],[-96.52305555555556,38.132777777777775],[-94.73277777777778,38.19777777777777],[-94.73277777777778,38.19777777777777],[-93.72055555555556,38.222500000000004],[-93.51861111111111,38.22666666666667],[-93.51861111111111,38.22666666666667],[-93.31638888888888,38.230000000000004],[-92.91777777777779,38.23583333333333],[-92.91777777777779,38.23583333333333],[-92.71694444444445,38.23833333333334],[-92.51805555555555,38.24],[-91.3786111111111,38.24611111111111],[-91.3786111111111,38.24611111111111],[-90.99666666666667,38.24527777777778],[-90.99666666666667,38.24527777777778],[-90.80666666666666,38.24472222222222],[-90.61444444444444,38.243611111111115],[-90.2375,38.24055555555556],[-89.81638888888888,38.23638888888889],[-89.81638888888888,38.23638888888889],[-89.62416666666665,38.23361111111111],[-89.43444444444445,38.230555555555554],[-89.04388888888889,38.223333333333336],[-88.6563888888889,38.21472222222223],[-88.6563888888889,38.21472222222223],[-88.26138888888889,38.22638888888889],[-87.91416666666667,38.24194444444444],[-87.71944444444445,38.25055555555556],[-87.71944444444445,38.25055555555556],[-87.30194444444444,38.26722222222222],[-87.30194444444444,38.26722222222222],[-86.55027777777778,38.29361111111111],[-86.35833333333333,38.29972222222222],[-86.16833333333334,38.30555555555555],[-85.78833333333333,38.31583333333333],[-85.40833333333335,38.324444444444445],[-84.6413888888889,38.339444444444446],[-84.6413888888889,38.339444444444446],[-84.6413888888889,38.339444444444446],[-84.25638888888889,38.344722222222224],[-83.86833333333333,38.34916666666667],[-83.4725,38.352222222222224],[-83.07944444444443,38.35333333333333],[-82.88055555555555,38.35416666666667],[-81.68333333333334,38.348333333333336],[-80.30749999999999,38.3775],[-79.95861111111111,38.44361111111111],[-78.68666666666667,38.67666666666666],[-78.18333333333334,38.86666666666667],[-78.06666666666666,38.88333333333333],[-77.88861111111112,38.933611111111105],[-77.56666666666666,39.166666666666664],[-77.45944444444444,38.95722222222223]],"type":"LineString"}
}
