{
  "id": 2031110121,
  "type": "Feature",
  "properties": {
    "geom:area": 0,
    "geom:bbox": "-122.390000,37.620000,-87.510000,42.530000",
    "geom:latitude": 40.76584608604094,
    "geom:longitude": -104.92779675634442,
    "src:alt_label": "swim-route",
    "src:geom": "swim",
    "swim:geom": "route",
    "wof:geomhash": "1664702de86b7d49fbc91c28ed00f2f3",
    "wof:id": 2031110121,
    "wof:repo": "sfomuseum-data-flights-2026-04"
  },
  "bbox": [
    -122.39,
    37.62,
    -87.51,
    42.53
  ],
  "geometry": {"coordinates":[[-122.38,37.62],[-122.3,37.68],[-122.31,37.7],[-122.31,37.7],[-122.34,37.75],[-122.34,37.76],[-122.35,37.76],[-122.36,37.79],[-122.38,37.83],[-122.39,37.85],[-122.39,37.85],[-122.38,37.86],[-122.36,37.88],[-122.31,37.95],[-122.22,37.96],[-122.02,38],[-121.94,38.01],[-121.83,38.03],[-121.7,38.05],[-121.67,38.05],[-121.59,38.07],[-121.51,38.08],[-121.43,38.09],[-121.41,38.1],[-121.28,38.12],[-121.25,38.12],[-121.17,38.14],[-120.92,38.18],[-120.82,38.19],[-120.72,38.21],[-120.67,38.21],[-120.62,38.22],[-120.2,38.28],[-119.72,38.35],[-119.21,38.43],[-118.93,38.47],[-118.69,38.5],[-117.6,38.64],[-117.3,38.68],[-117.29,38.68],[-116.05,38.89],[-115.4,38.99],[-114.68,39.1],[-114.46,39.13],[-113.77,39.24],[-113.32,39.31],[-112.2,39.47],[-112,39.5],[-111.21,39.69],[-109.36,40.13],[-109.19,40.17],[-109.15,40.18],[-108.91,40.24],[-105.66,41.02],[-105.22,41.11],[-104.77,41.21],[-104.55,41.26],[-102.94,41.63],[-102.93,41.63],[-102.01,41.77],[-100.08,42.03],[-99.14,42.15],[-97.43,42.33],[-97.14,42.36],[-96.55,42.42],[-96.28,42.45],[-95.95,42.47],[-95.64,42.49],[-95.1,42.5],[-93.11,42.52],[-92.06,42.52],[-91.43,42.53],[-91.11,42.53],[-90.87,42.53],[-90.82,42.53],[-90.49,42.52],[-90.32,42.52],[-90.16,42.52],[-90.15,42.52],[-89.78,42.52],[-89.68,42.51],[-89.62,42.5],[-89.4,42.47],[-89.32,42.46],[-89.12,42.44],[-89.06,42.43],[-88.89,42.41],[-88.82,42.4],[-88.81,42.4],[-88.69,42.38],[-88.67,42.38],[-88.63,42.38],[-88.57,42.37],[-88.52,42.36],[-88.5,42.36],[-88.43,42.35],[-88.39,42.34],[-88.31,42.3],[-88.15,42.2],[-88.07,42.13],[-88.03,42.09],[-87.79,42.09],[-87.54,42.09],[-87.51,42.09],[-87.55,42.08],[-87.69,42.04],[-87.8,42.01],[-87.9,41.98],[-87.91,41.98]],"type":"LineString"}
}
