{
  "id": 2031150895,
  "type": "Feature",
  "properties": {
    "geom:area": 0,
    "geom:bbox": "-122.263333,37.704444,-87.901389,42.642778",
    "geom:latitude": 41.60030164308899,
    "geom:longitude": -105.20514930757892,
    "src:alt_label": "swim-path",
    "src:geom": "swim",
    "swim:altitudes": [
      "061",
      "061",
      "092",
      "092",
      "111",
      "111",
      "111",
      "132",
      "132",
      "181",
      "181",
      "181",
      "201",
      "220",
      "220",
      "220",
      "236",
      "236",
      "236",
      "306",
      "306",
      "306",
      "324",
      "324",
      "324",
      "328",
      "330",
      "330",
      "330",
      "330",
      "330",
      "330",
      "330",
      "330",
      "330",
      "330",
      "330",
      "330",
      "330",
      "330",
      "330",
      "330",
      "330",
      "330",
      "330",
      "330",
      "330",
      "330",
      "330",
      "331",
      "331",
      "331",
      "346",
      "348C",
      "348C",
      "350C",
      "350C",
      "350C",
      "350C",
      "350C",
      "350C",
      "350C",
      "350C",
      "350C",
      "350C",
      "350C",
      "350C",
      "350C",
      "350C",
      "350C",
      "350C",
      "350C",
      "350C",
      "350C",
      "350C",
      "350C",
      "350C",
      "350C",
      "350C",
      "350C",
      "350C",
      "350C",
      "350C",
      "350C",
      "350C",
      "350C",
      "350C",
      "350C",
      "350C",
      "350C",
      "350C",
      "350C",
      "350C",
      "350C",
      "350C",
      "350C",
      "350C",
      "350C",
      "350C",
      "350C",
      "350C",
      "350C",
      "350C",
      "350C",
      "350C",
      "350C",
      "350C",
      "350C",
      "350C",
      "350C",
      "350C",
      "350C",
      "350C",
      "350C",
      "350C",
      "350C",
      "350C",
      "350C",
      "350C",
      "350C",
      "350C",
      "350C",
      "350C",
      "350C",
      "350C",
      "350C",
      "350C",
      "350C",
      "350C",
      "350C",
      "350C",
      "350C",
      "350C",
      "350C",
      "350C",
      "350C",
      "350C",
      "350C",
      "350C",
      "350C",
      "350C",
      "350C",
      "350C",
      "350C",
      "350C",
      "350C",
      "350C",
      "350C",
      "350C",
      "350C",
      "350C",
      "350C",
      "350C",
      "350C",
      "350C",
      "350C",
      "350C",
      "350C",
      "350C",
      "350",
      "350",
      "350",
      "369C",
      "369C",
      "370C",
      "370C",
      "370C",
      "370C",
      "370C",
      "370C",
      "370C",
      "370C",
      "370C",
      "370C",
      "370C",
      "370C",
      "370C",
      "370C",
      "370C",
      "370C",
      "370C",
      "370C",
      "370C",
      "370C",
      "370C",
      "370C",
      "370C",
      "370C",
      "370C",
      "370C",
      "370C",
      "370C",
      "370C",
      "370C",
      "370C",
      "370C",
      "370C",
      "370C",
      "370C",
      "370C",
      "370C",
      "370C",
      "370C",
      "370C",
      "370C",
      "370C",
      "370C",
      "370C",
      "370C",
      "370C",
      "370C",
      "370C",
      "370C",
      "370C",
      "370C",
      "370C",
      "370C",
      "370C",
      "370C",
      "370C",
      "370C",
      "370C",
      "370C",
      "370C",
      "370C",
      "370C",
      "370C",
      "370C",
      "370C",
      "370C",
      "370C",
      "370C",
      "370C",
      "370C",
      "370C",
      "370C",
      "370C",
      "370C",
      "370C",
      "370C",
      "370C",
      "370C",
      "370C",
      "370C",
      "370C",
      "370C",
      "370C",
      "370C",
      "370C",
      "370C",
      "370C",
      "370C",
      "370C",
      "370C",
      "370C",
      "370C",
      "370C",
      "370C",
      "370C",
      "370C",
      "370C",
      "370C",
      "370C",
      "370C",
      "370C",
      "370C",
      "366",
      "357",
      "348",
      "338",
      "318",
      "318",
      "310C",
      "305",
      "305",
      "294",
      "294",
      "294",
      "275",
      "269",
      "269",
      "238",
      "238",
      "183",
      "183",
      "183",
      "134",
      "134",
      "107",
      "107",
      "083",
      "083",
      "070",
      "070",
      "070",
      "060",
      "060",
      "040",
      "040",
      "040",
      "040",
      "040",
      "040",
      "028",
      "021",
      "019",
      "013",
      "007",
      "007",
      "007"
    ],
    "swim:geom": "path",
    "swim:speeds": [
      269,
      269,
      278,
      278,
      316,
      316,
      316,
      353,
      353,
      377,
      377,
      377,
      394,
      407,
      407,
      407,
      420,
      420,
      420,
      456,
      456,
      456,
      458,
      458,
      458,
      461,
      461,
      461,
      459,
      459,
      459,
      460,
      460,
      460,
      460,
      459,
      459,
      459,
      460,
      468,
      468,
      464,
      464,
      464,
      473,
      477,
      475,
      475,
      475,
      477,
      477,
      477,
      477,
      477,
      477,
      476,
      475,
      476,
      476,
      476,
      479,
      479,
      479,
      479,
      479,
      479,
      478,
      478,
      477,
      477,
      477,
      478,
      478,
      478,
      478,
      478,
      479,
      480,
      480,
      481,
      482,
      482,
      482,
      482,
      482,
      481,
      481,
      481,
      481,
      481,
      480,
      480,
      480,
      480,
      484,
      484,
      484,
      484,
      485,
      485,
      485,
      484,
      484,
      492,
      492,
      492,
      492,
      492,
      493,
      493,
      488,
      488,
      488,
      486,
      486,
      486,
      486,
      484,
      484,
      483,
      483,
      483,
      479,
      479,
      477,
      477,
      476,
      476,
      476,
      476,
      476,
      476,
      476,
      476,
      476,
      478,
      478,
      479,
      480,
      480,
      480,
      484,
      484,
      484,
      484,
      483,
      483,
      483,
      483,
      481,
      481,
      477,
      477,
      477,
      477,
      475,
      475,
      476,
      476,
      478,
      478,
      478,
      488,
      488,
      492,
      492,
      492,
      494,
      494,
      494,
      494,
      495,
      495,
      495,
      495,
      496,
      496,
      496,
      496,
      496,
      495,
      495,
      495,
      492,
      492,
      492,
      495,
      495,
      495,
      495,
      495,
      496,
      496,
      495,
      495,
      495,
      495,
      495,
      495,
      495,
      491,
      492,
      492,
      492,
      491,
      491,
      493,
      499,
      499,
      500,
      500,
      500,
      505,
      505,
      508,
      508,
      510,
      510,
      510,
      508,
      510,
      510,
      510,
      510,
      510,
      507,
      507,
      507,
      508,
      508,
      507,
      507,
      507,
      507,
      507,
      510,
      510,
      510,
      510,
      511,
      511,
      511,
      511,
      511,
      508,
      508,
      508,
      508,
      512,
      512,
      510,
      509,
      509,
      513,
      515,
      517,
      517,
      517,
      518,
      518,
      518,
      519,
      518,
      518,
      518,
      518,
      522,
      523,
      525,
      520,
      524,
      524,
      517,
      513,
      513,
      486,
      486,
      486,
      498,
      502,
      502,
      456,
      456,
      410,
      410,
      410,
      352,
      352,
      313,
      313,
      278,
      278,
      232,
      233,
      233,
      210,
      210,
      224,
      232,
      232,
      202,
      202,
      205,
      179,
      137,
      136,
      137,
      135,
      135,
      135
    ],
    "swim:timestamps": [
      1777584724,
      1777584724,
      1777584784,
      1777584784,
      1777584845,
      1777584845,
      1777584845,
      1777584905,
      1777584905,
      1777585025,
      1777585025,
      1777585025,
      1777585085,
      1777585145,
      1777585145,
      1777585145,
      1777585205,
      1777585205,
      1777585205,
      1777585505,
      1777585505,
      1777585505,
      1777585603,
      1777585603,
      1777585603,
      1777585626,
      1777585686,
      1777585686,
      1777585723,
      1777585783,
      1777585783,
      1777585806,
      1777585866,
      1777585866,
      1777585866,
      1777585903,
      1777585903,
      1777585903,
      1777585963,
      1777585986,
      1777585986,
      1777586023,
      1777586023,
      1777586023,
      1777586046,
      1777586106,
      1777586144,
      1777586144,
      1777586144,
      1777586264,
      1777586264,
      1777586264,
      1777586324,
      1777586347,
      1777586347,
      1777586384,
      1777586407,
      1777586444,
      1777586467,
      1777586467,
      1777586504,
      1777586504,
      1777586504,
      1777586587,
      1777586587,
      1777586587,
      1777586684,
      1777586684,
      1777586744,
      1777586767,
      1777586767,
      1777586804,
      1777586804,
      1777586827,
      1777586827,
      1777586827,
      1777586864,
      1777586925,
      1777586925,
      1777587008,
      1777587045,
      1777587068,
      1777587068,
      1777587105,
      1777587105,
      1777587128,
      1777587128,
      1777587237,
      1777587237,
      1777587237,
      1777587308,
      1777587308,
      1777587308,
      1777587308,
      1777587597,
      1777587597,
      1777587597,
      1777587597,
      1777587718,
      1777587718,
      1777587718,
      1777587778,
      1777587778,
      1777588439,
      1777588439,
      1777588439,
      1777588499,
      1777588499,
      1777588559,
      1777588559,
      1777588679,
      1777588679,
      1777588679,
      1777588859,
      1777588859,
      1777588859,
      1777588859,
      1777588979,
      1777588979,
      1777589039,
      1777589039,
      1777589039,
      1777589160,
      1777589160,
      1777589220,
      1777589220,
      1777589280,
      1777589280,
      1777589280,
      1777589280,
      1777589340,
      1777589340,
      1777589400,
      1777589400,
      1777589400,
      1777589460,
      1777589460,
      1777589580,
      1777589640,
      1777589640,
      1777589640,
      1777589819,
      1777589819,
      1777589819,
      1777589819,
      1777589881,
      1777589941,
      1777589941,
      1777589941,
      1777589999,
      1777589999,
      1777590119,
      1777590119,
      1777590119,
      1777590119,
      1777590240,
      1777590240,
      1777590360,
      1777590360,
      1777590420,
      1777590420,
      1777590420,
      1777590601,
      1777590601,
      1777590660,
      1777590660,
      1777590660,
      1777590722,
      1777590722,
      1777590840,
      1777590840,
      1777590902,
      1777590902,
      1777590902,
      1777590902,
      1777591021,
      1777591021,
      1777591201,
      1777591201,
      1777591201,
      1777591261,
      1777591261,
      1777591261,
      1777591441,
      1777591441,
      1777591441,
      1777591561,
      1777591561,
      1777591622,
      1777591622,
      1777591622,
      1777591682,
      1777591682,
      1777591796,
      1777591802,
      1777591802,
      1777591856,
      1777591856,
      1777591856,
      1777591856,
      1777592042,
      1777592102,
      1777592102,
      1777592102,
      1777592108,
      1777592108,
      1777592162,
      1777592222,
      1777592222,
      1777592289,
      1777592289,
      1777592289,
      1777592349,
      1777592349,
      1777592403,
      1777592463,
      1777592469,
      1777592469,
      1777592469,
      1777592523,
      1777592529,
      1777592529,
      1777592589,
      1777592649,
      1777592649,
      1777592763,
      1777592763,
      1777592763,
      1777592769,
      1777592769,
      1777592829,
      1777592889,
      1777592889,
      1777592950,
      1777592950,
      1777593070,
      1777593070,
      1777593070,
      1777593070,
      1777593130,
      1777593190,
      1777593190,
      1777593190,
      1777593250,
      1777593370,
      1777593370,
      1777593370,
      1777593370,
      1777593791,
      1777593791,
      1777593851,
      1777593911,
      1777593971,
      1777594031,
      1777594091,
      1777594151,
      1777594151,
      1777594151,
      1777594211,
      1777594392,
      1777594512,
      1777594572,
      1777594872,
      1777594933,
      1777594933,
      1777594933,
      1777595113,
      1777595173,
      1777595233,
      1777595293,
      1777595413,
      1777595413,
      1777595473,
      1777595594,
      1777595594,
      1777595654,
      1777595654,
      1777595654,
      1777595834,
      1777595894,
      1777595894,
      1777596075,
      1777596075,
      1777596255,
      1777596255,
      1777596255,
      1777596435,
      1777596435,
      1777596532,
      1777596532,
      1777596676,
      1777596676,
      1777596796,
      1777596826,
      1777596826,
      1777596952,
      1777596952,
      1777597097,
      1777597126,
      1777597126,
      1777597247,
      1777597247,
      1777597277,
      1777597372,
      1777597426,
      1777597457,
      1777597486,
      1777597577,
      1777597577,
      1777597577
    ],
    "wof:geomhash": "d297662596f6442b5a9bf667a42d7673",
    "wof:id": 2031150895,
    "wof:repo": "sfomuseum-data-flights-2026-04"
  },
  "bbox": [
    -122.26333333333334,
    37.70444444444445,
    -87.90138888888889,
    42.64277777777778
  ],
  "geometry": {"coordinates":[[-122.26333333333334,37.70444444444445],[-122.26333333333334,37.70444444444445],[-122.19166666666668,37.75666666666667],[-122.19166666666668,37.75666666666667],[-122.11555555555555,37.8125],[-122.11555555555555,37.8125],[-122.11555555555555,37.8125],[-122.02472222222222,37.87861111111111],[-122.02472222222222,37.87861111111111],[-121.83027777777778,38.019444444444446],[-121.83027777777778,38.019444444444446],[-121.83027777777778,38.019444444444446],[-121.72416666666666,38.09583333333334],[-121.61833333333333,38.17222222222222],[-121.61833333333333,38.17222222222222],[-121.61833333333333,38.17222222222222],[-121.5075,38.251666666666665],[-121.5075,38.251666666666665],[-121.5075,38.251666666666665],[-120.89916666666667,38.63916666666667],[-120.89916666666667,38.63916666666667],[-120.89916666666667,38.63916666666667],[-120.68416666666667,38.769999999999996],[-120.68416666666667,38.769999999999996],[-120.68416666666667,38.769999999999996],[-120.64083333333333,38.79694444444444],[-120.5111111111111,38.87555555555556],[-120.5111111111111,38.87555555555556],[-120.4238888888889,38.92472222222222],[-120.29527777777777,39.00361111111111],[-120.29527777777777,39.00361111111111],[-120.25055555555555,39.032222222222224],[-120.11083333333333,39.115833333333335],[-120.11083333333333,39.115833333333335],[-120.11083333333333,39.115833333333335],[-120.03333333333333,39.15972222222222],[-120.03333333333333,39.15972222222222],[-120.03333333333333,39.15972222222222],[-119.90305555555557,39.23861111111111],[-119.8461111111111,39.27361111111111],[-119.8461111111111,39.27361111111111],[-119.7675,39.318333333333335],[-119.7675,39.318333333333335],[-119.7675,39.318333333333335],[-119.71055555555556,39.35388888888889],[-119.57416666666666,39.43388888888889],[-119.49388888888889,39.481388888888894],[-119.49388888888889,39.481388888888894],[-119.49388888888889,39.481388888888894],[-119.24333333333334,39.62722222222222],[-119.24333333333334,39.62722222222222],[-119.24333333333334,39.62722222222222],[-119.07694444444444,39.723888888888894],[-119.04694444444445,39.74111111111111],[-119.04694444444445,39.74111111111111],[-118.94083333333333,39.802499999999995],[-118.90916666666668,39.82055555555556],[-118.8,39.882222222222225],[-118.76916666666666,39.89611111111111],[-118.76916666666666,39.89611111111111],[-118.64666666666668,39.94583333333333],[-118.64666666666668,39.94583333333333],[-118.64666666666668,39.94583333333333],[-118.45833333333334,40.0225],[-118.45833333333334,40.0225],[-118.45833333333334,40.0225],[-118.21638888888889,40.12],[-118.21638888888889,40.12],[-118.06222222222222,40.18138888888889],[-117.99805555555555,40.20527777777778],[-117.99805555555555,40.20527777777778],[-117.90277777777779,40.23388888888889],[-117.90277777777779,40.23388888888889],[-117.83444444444444,40.25472222222222],[-117.83444444444444,40.25472222222222],[-117.83444444444444,40.25472222222222],[-117.73944444444444,40.283055555555556],[-117.57777777777777,40.33111111111111],[-117.57777777777777,40.33111111111111],[-117.3436111111111,40.40083333333333],[-117.24861111111112,40.42861111111111],[-117.18166666666667,40.448055555555555],[-117.18166666666667,40.448055555555555],[-117.08472222222221,40.47638888888889],[-117.08472222222221,40.47638888888889],[-117.01777777777778,40.49583333333334],[-117.01777777777778,40.49583333333334],[-116.7575,40.57083333333334],[-116.7575,40.57083333333334],[-116.7575,40.57083333333334],[-116.52472222222222,40.63777777777778],[-116.52472222222222,40.63777777777778],[-116.52472222222222,40.63777777777778],[-116.52472222222222,40.63777777777778],[-115.71416666666667,40.86472222222223],[-115.71416666666667,40.86472222222223],[-115.71416666666667,40.86472222222223],[-115.71416666666667,40.86472222222223],[-115.38111111111111,40.95611111111111],[-115.38111111111111,40.95611111111111],[-115.38111111111111,40.95611111111111],[-115.21388888888889,41.001666666666665],[-115.21388888888889,41.001666666666665],[-113.32833333333333,41.42861111111111],[-113.32833333333333,41.42861111111111],[-113.32833333333333,41.42861111111111],[-113.14916666666667,41.45111111111111],[-113.14916666666667,41.45111111111111],[-112.96833333333333,41.47277777777778],[-112.96833333333333,41.47277777777778],[-112.60972222222222,41.51638888888889],[-112.60972222222222,41.51638888888889],[-112.60972222222222,41.51638888888889],[-112.0736111111111,41.573888888888895],[-112.0736111111111,41.573888888888895],[-112.0736111111111,41.573888888888895],[-112.0736111111111,41.573888888888895],[-111.715,41.61055555555556],[-111.715,41.61055555555556],[-111.53861111111111,41.62833333333333],[-111.53861111111111,41.62833333333333],[-111.53861111111111,41.62833333333333],[-111.18611111111112,41.66277777777778],[-111.18611111111112,41.66277777777778],[-111.01166666666667,41.67916666666667],[-111.01166666666667,41.67916666666667],[-110.85527777777777,41.69361111111111],[-110.85527777777777,41.69361111111111],[-110.85527777777777,41.69361111111111],[-110.85527777777777,41.69361111111111],[-110.67972222222222,41.709722222222226],[-110.67972222222222,41.709722222222226],[-110.505,41.72527777777778],[-110.505,41.72527777777778],[-110.505,41.72527777777778],[-110.32888888888888,41.740833333333335],[-110.32888888888888,41.740833333333335],[-109.97500000000001,41.77111111111111],[-109.7961111111111,41.78583333333333],[-109.7961111111111,41.78583333333333],[-109.7961111111111,41.78583333333333],[-109.25666666666666,41.830000000000005],[-109.25666666666666,41.830000000000005],[-109.25666666666666,41.830000000000005],[-109.25666666666666,41.830000000000005],[-109.07388888888889,41.843611111111116],[-108.89305555555556,41.856944444444444],[-108.89305555555556,41.856944444444444],[-108.89305555555556,41.856944444444444],[-108.71611111111112,41.87],[-108.71611111111112,41.87],[-108.36305555555555,41.89555555555555],[-108.36305555555555,41.89555555555555],[-108.36305555555555,41.89555555555555],[-108.36305555555555,41.89555555555555],[-108.0125,41.91972222222222],[-108.0125,41.91972222222222],[-107.65833333333335,41.94277777777778],[-107.65833333333335,41.94277777777778],[-107.47777777777777,41.95444444444445],[-107.47777777777777,41.95444444444445],[-107.47777777777777,41.95444444444445],[-106.93861111111111,41.986666666666665],[-106.93861111111111,41.986666666666665],[-106.75472222222223,41.99722222222222],[-106.75472222222223,41.99722222222222],[-106.75472222222223,41.99722222222222],[-106.55638888888889,42.007777777777775],[-106.55638888888889,42.007777777777775],[-106.18944444444445,42.02722222222222],[-106.18944444444445,42.02722222222222],[-106.00666666666666,42.03611111111111],[-106.00666666666666,42.03611111111111],[-106.00666666666666,42.03611111111111],[-106.00666666666666,42.03611111111111],[-105.6375,42.05361111111111],[-105.6375,42.05361111111111],[-105.08638888888889,42.081388888888895],[-105.08638888888889,42.081388888888895],[-105.08638888888889,42.081388888888895],[-104.90444444444445,42.09722222222222],[-104.90444444444445,42.09722222222222],[-104.90444444444445,42.09722222222222],[-104.36083333333333,42.14361111111111],[-104.36083333333333,42.14361111111111],[-104.36083333333333,42.14361111111111],[-103.9975,42.17305555555555],[-103.9975,42.17305555555555],[-103.8125,42.1875],[-103.8125,42.1875],[-103.8125,42.1875],[-103.62972222222221,42.20194444444445],[-103.62972222222221,42.20194444444445],[-103.29916666666666,42.22666666666667],[-103.26083333333334,42.22944444444445],[-103.26083333333334,42.22944444444445],[-103.1111111111111,42.24],[-103.1111111111111,42.24],[-103.1111111111111,42.24],[-103.1111111111111,42.24],[-102.53111111111112,42.28055555555555],[-102.34666666666666,42.2925],[-102.34666666666666,42.2925],[-102.34666666666666,42.2925],[-102.30472222222222,42.301111111111105],[-102.30472222222222,42.301111111111105],[-102.16305555555556,42.30416666666667],[-101.97583333333334,42.31583333333333],[-101.97583333333334,42.31583333333333],[-101.74666666666667,42.330000000000005],[-101.74666666666667,42.330000000000005],[-101.74666666666667,42.330000000000005],[-101.55638888888889,42.34111111111111],[-101.55638888888889,42.34111111111111],[-101.39027777777778,42.35027777777778],[-101.20138888888889,42.36083333333333],[-101.17416666666666,42.36222222222222],[-101.17416666666666,42.36222222222222],[-101.17416666666666,42.36222222222222],[-101.01166666666667,42.37111111111111],[-100.98277777777778,42.37277777777778],[-100.98277777777778,42.37277777777778],[-100.82527777777777,42.380833333333335],[-100.63388888888889,42.390277777777776],[-100.63388888888889,42.390277777777776],[-100.24666666666667,42.409166666666664],[-100.24666666666667,42.409166666666664],[-100.24666666666667,42.409166666666664],[-100.25694444444444,42.40861111111111],[-100.25694444444444,42.40861111111111],[-100.06388888888888,42.4175],[-99.8736111111111,42.425555555555555],[-99.8736111111111,42.425555555555555],[-99.68083333333334,42.433611111111105],[-99.68083333333334,42.433611111111105],[-99.29694444444445,42.44888888888889],[-99.29694444444445,42.44888888888889],[-99.29694444444445,42.44888888888889],[-99.29694444444445,42.44888888888889],[-99.10388888888889,42.45611111111111],[-98.90916666666668,42.463055555555556],[-98.90916666666668,42.463055555555556],[-98.90916666666668,42.463055555555556],[-98.71777777777778,42.469722222222224],[-98.33472222222221,42.48583333333333],[-98.33472222222221,42.48583333333333],[-98.33472222222221,42.48583333333333],[-98.33472222222221,42.48583333333333],[-96.97194444444445,42.53527777777778],[-96.97194444444445,42.53527777777778],[-96.77833333333334,42.54083333333333],[-96.58611111111111,42.54472222222222],[-96.39666666666668,42.547777777777775],[-96.20222222222222,42.55083333333333],[-96.00777777777778,42.55361111111111],[-95.81222222222222,42.55611111111111],[-95.81222222222222,42.55611111111111],[-95.81222222222222,42.55611111111111],[-95.61305555555555,42.558055555555555],[-95.0286111111111,42.56222222222222],[-94.63861111111112,42.56333333333333],[-94.47222222222223,42.56361111111111],[-93.4588888888889,42.558611111111105],[-93.26305555555555,42.55694444444444],[-93.26305555555555,42.55694444444444],[-93.26305555555555,42.55694444444444],[-92.67694444444444,42.54277777777778],[-92.48166666666667,42.536944444444444],[-92.28472222222221,42.53111111111111],[-92.08694444444444,42.52472222222222],[-91.70166666666667,42.52611111111111],[-91.70166666666667,42.52611111111111],[-91.50916666666667,42.526944444444446],[-91.13138888888888,42.526944444444446],[-91.13138888888888,42.526944444444446],[-90.94583333333334,42.534166666666664],[-90.94583333333334,42.534166666666664],[-90.94583333333334,42.534166666666664],[-90.4786111111111,42.64277777777778],[-90.2911111111111,42.61027777777778],[-90.2911111111111,42.61027777777778],[-89.75777777777778,42.51638888888889],[-89.75777777777778,42.51638888888889],[-89.28722222222223,42.458333333333336],[-89.28722222222223,42.458333333333336],[-89.28722222222223,42.458333333333336],[-88.8775,42.407222222222224],[-88.8775,42.407222222222224],[-88.65,42.38333333333333],[-88.65,42.38333333333333],[-88.41666666666667,42.34638888888889],[-88.41666666666667,42.34638888888889],[-88.29194444444444,42.24944444444444],[-88.28333333333333,42.21666666666667],[-88.28333333333333,42.21666666666667],[-88.38333333333334,42.13333333333333],[-88.38333333333334,42.13333333333333],[-88.41888888888889,42.021388888888886],[-88.38333333333334,42],[-88.38333333333334,42],[-88.21666666666667,42],[-88.21666666666667,42],[-88.18722222222223,42.0025],[-88.06666666666666,42],[-88.01666666666667,42],[-88.00555555555556,42.00277777777778],[-87.96666666666667,42],[-87.90138888888889,42.00277777777778],[-87.90138888888889,42.00277777777778],[-87.90138888888889,42.00277777777778]],"type":"LineString"}
}
