{
  "id": 2031126339,
  "type": "Feature",
  "properties": {
    "geom:area": 0,
    "geom:bbox": "-123.023070,37.312650,-122.102830,38.506330",
    "geom:latitude": 37.74627273682278,
    "geom:longitude": -122.50274090787681,
    "src:alt_label": "swim-approach",
    "src:geom": "swim",
    "swim:elevations": [
      7046,
      6957,
      6666,
      6395,
      6236,
      6008,
      5638,
      5376,
      5115,
      4999,
      4686,
      4609,
      4532,
      4327,
      3874,
      3634,
      3443,
      3352,
      3354,
      3353,
      3353,
      3353,
      3353,
      3323,
      3233,
      2985,
      2915,
      2595,
      2480,
      2183,
      2036,
      1849,
      1851,
      1829,
      1829,
      1829,
      1829,
      1829,
      1829,
      1829,
      1829,
      1829,
      1829,
      1800,
      1547,
      1523,
      1439,
      1257,
      1238,
      1171,
      1044,
      907,
      716,
      501,
      429,
      268,
      243,
      127
    ],
    "swim:geom": "approach",
    "swim:timestamps": [
      1777279637,
      1777279666,
      1777279702,
      1777279732,
      1777279750,
      1777279779,
      1777279824,
      1777279853,
      1777279887,
      1777279902,
      1777279942,
      1777279950,
      1777279961,
      1777279986,
      1777280031,
      1777280055,
      1777280094,
      1777280126,
      1777280133,
      1777280150,
      1777280165,
      1777280193,
      1777280232,
      1777280275,
      1777280291,
      1777280332,
      1777280343,
      1777280397,
      1777280414,
      1777280457,
      1777280480,
      1777280516,
      1777280536,
      1777280572,
      1777280601,
      1777280611,
      1777280626,
      1777280667,
      1777280685,
      1777280720,
      1777280734,
      1777280768,
      1777280781,
      1777280797,
      1777280847,
      1777280870,
      1777280896,
      1777280936,
      1777280941,
      1777280955,
      1777280976,
      1777281005,
      1777281043,
      1777281086,
      1777281098,
      1777281144,
      1777281151,
      1777281180
    ],
    "wof:geomhash": "eed0b955cdb25a9f28ca5e94ee8035f1",
    "wof:id": 2031126339,
    "wof:repo": "sfomuseum-data-flights-2026-04"
  },
  "bbox": [
    -123.02307,
    37.31265,
    -122.10283,
    38.50633
  ],
  "geometry": {"coordinates":[[-123.02307,38.50633],[-122.9916,38.45408],[-122.95344,38.38824],[-122.92217,38.33424],[-122.90322,38.30123],[-122.87487,38.2518],[-122.82947,38.17271],[-122.80142,38.12416],[-122.76884,38.06706],[-122.75496,38.04256],[-122.71806,37.97815],[-122.71079,37.96539],[-122.70107,37.94836],[-122.67916,37.91162],[-122.62144,37.85075],[-122.58886,37.81985],[-122.5385,37.77225],[-122.50109,37.73696],[-122.49313,37.72944],[-122.47474,37.71201],[-122.45954,37.69782],[-122.43096,37.67106],[-122.39267,37.63502],[-122.35427,37.59151],[-122.3451,37.57184],[-122.31912,37.52676],[-122.31168,37.51505],[-122.28208,37.45441],[-122.28988,37.43519],[-122.34042,37.40614],[-122.3704,37.39327],[-122.41579,37.37338],[-122.43132,37.35378],[-122.4143,37.31727],[-122.37703,37.31265],[-122.36408,37.31516],[-122.34421,37.31947],[-122.29016,37.33125],[-122.26597,37.33622],[-122.22112,37.34548],[-122.20176,37.3492],[-122.15747,37.36091],[-122.14632,37.37115],[-122.13337,37.38631],[-122.11077,37.43704],[-122.10283,37.46112],[-122.10707,37.48564],[-122.13269,37.51551],[-122.13612,37.51886],[-122.14796,37.52594],[-122.16903,37.53411],[-122.19595,37.54567],[-122.23071,37.56049],[-122.26924,37.57668],[-122.27924,37.58065],[-122.31223,37.59474],[-122.31697,37.59663],[-122.33663,37.60503]],"type":"LineString"}
}
