{
  "id": 2031122033,
  "type": "Feature",
  "properties": {
    "geom:area": 0,
    "geom:bbox": "-122.403400,37.627360,-121.296890,38.426830",
    "geom:latitude": 38.077082456698555,
    "geom:longitude": -121.88857472930223,
    "src:alt_label": "swim-takeoff",
    "src:geom": "swim",
    "swim:elevations": [
      91,
      316,
      1130,
      1265,
      1336,
      1427,
      1722,
      2045,
      2487,
      2851,
      3190,
      3434,
      3516,
      3638,
      3787,
      4276,
      4501,
      4874,
      4959,
      5129,
      5446,
      5510,
      5607,
      5723,
      5802,
      5999,
      6252,
      6373,
      6401,
      6401,
      6440,
      6721,
      6800
    ],
    "swim:geom": "takeoff",
    "swim:timestamps": [
      1777193658,
      1777193672,
      1777193750,
      1777193772,
      1777193781,
      1777193790,
      1777193811,
      1777193832,
      1777193865,
      1777193891,
      1777193917,
      1777193950,
      1777193959,
      1777193970,
      1777193986,
      1777194028,
      1777194052,
      1777194086,
      1777194097,
      1777194113,
      1777194145,
      1777194154,
      1777194173,
      1777194206,
      1777194222,
      1777194262,
      1777194289,
      1777194302,
      1777194334,
      1777194353,
      1777194376,
      1777194415,
      1777194427
    ],
    "wof:geomhash": "0380ba32db38dd6a0747e487fd9f23d0",
    "wof:id": 2031122033,
    "wof:repo": "sfomuseum-data-flights-2026-04"
  },
  "bbox": [
    -122.4034,
    37.62736,
    -121.29689,
    38.42683
  ],
  "geometry": {"coordinates":[[-122.38983,37.62736],[-122.4034,37.63361],[-122.35296,37.67765],[-122.33301,37.69563],[-122.32469,37.70396],[-122.31597,37.71283],[-122.295,37.73368],[-122.27301,37.75517],[-122.23779,37.78889],[-122.21023,37.81518],[-122.18288,37.84191],[-122.14576,37.87824],[-122.13492,37.88866],[-122.12121,37.9018],[-122.10101,37.92092],[-122.04762,37.97217],[-122.01554,38.00304],[-121.96986,38.04667],[-121.95513,38.06079],[-121.93368,38.08126],[-121.88905,38.12395],[-121.87728,38.13527],[-121.84901,38.16248],[-121.80007,38.20905],[-121.77398,38.23247],[-121.68822,38.27536],[-121.62363,38.30045],[-121.59161,38.31304],[-121.5166,38.34281],[-121.47199,38.36036],[-121.41875,38.38077],[-121.3237,38.41674],[-121.29689,38.42683]],"type":"LineString"}
}
