{
  "id": 2015355183,
  "type": "Feature",
  "properties": {
    "geom:area": 0,
    "geom:bbox": "-122.359900,36.723320,-121.879510,37.615280",
    "geom:latitude": 37.151369101138634,
    "geom:longitude": -122.07479766814214,
    "src:alt_label": "swim-approach",
    "src:geom": "swim",
    "swim:elevations": [
      5896,
      5754,
      5729,
      5374,
      5009,
      4750,
      4376,
      4085,
      3618,
      3361,
      3089,
      3033,
      2898,
      2761,
      2525,
      2410,
      2153,
      1915,
      1855,
      1644,
      1438,
      1293,
      1094,
      1018,
      886,
      651,
      615,
      531,
      457,
      366,
      211,
      151,
      0,
      5845,
      5629,
      5567,
      5334,
      4631,
      4435,
      4102,
      3832
    ],
    "swim:geom": "approach",
    "swim:timestamps": [
      1776842276,
      1776842309,
      1776842312,
      1776842356,
      1776842384,
      1776842412,
      1776842446,
      1776842470,
      1776842512,
      1776842536,
      1776842577,
      1776842595,
      1776842615,
      1776842633,
      1776842663,
      1776842691,
      1776842725,
      1776842758,
      1776842766,
      1776842800,
      1776842834,
      1776842859,
      1776842900,
      1776842922,
      1776842949,
      1776842997,
      1776843006,
      1776843023,
      1776843040,
      1776843066,
      1776843107,
      1776843126,
      1776843165,
      1776927378,
      1776927416,
      1776927425,
      1776927450,
      1776927508,
      1776927526,
      1776927555,
      1776927589
    ],
    "wof:geomhash": "c44fddb421204b880a9314910c6c70c1",
    "wof:id": 2015355183,
    "wof:repo": "sfomuseum-data-flights-2026-04"
  },
  "bbox": [
    -122.3599,
    36.72332,
    -121.87951,
    37.61528
  ],
  "geometry": {"coordinates":[[-121.87951,36.72332],[-121.90191,36.77015],[-121.90318,36.77463],[-121.92127,36.83874],[-121.93309,36.88036],[-121.94445,36.92145],[-121.95988,36.96944],[-121.97271,37.00289],[-121.9961,37.06172],[-122.00875,37.09462],[-122.03002,37.14988],[-122.03883,37.17225],[-122.04808,37.19543],[-122.05638,37.21642],[-122.06994,37.25068],[-122.08254,37.28311],[-122.09795,37.32236],[-122.11318,37.36073],[-122.11713,37.3707],[-122.13113,37.41017],[-122.14468,37.45012],[-122.15378,37.47632],[-122.16603,37.51481],[-122.17274,37.53272],[-122.19423,37.54504],[-122.23811,37.5635],[-122.24644,37.56688],[-122.26098,37.57325],[-122.27454,37.57889],[-122.29335,37.58661],[-122.32091,37.5983],[-122.33382,37.60367],[-122.3599,37.61528],[-121.88572,36.73312],[-121.90746,36.7902],[-121.91156,36.8044],[-121.9226,36.84285],[-121.94685,36.93059],[-121.95565,36.95714],[-121.99528,36.98764],[-122.04647,37.0153]],"type":"LineString"}
}
