{
  "id": 2031145845,
  "type": "Feature",
  "properties": {
    "geom:area": 0,
    "geom:bbox": "-122.407220,37.624250,-121.293790,38.073320",
    "geom:latitude": 37.94560447753279,
    "geom:longitude": -121.96616385649223,
    "src:alt_label": "swim-takeoff",
    "src:geom": "swim",
    "swim:elevations": [
      152,
      251,
      812,
      1127,
      1203,
      1287,
      1865,
      2259,
      2793,
      3058,
      3331,
      3488,
      3612,
      4001,
      4322,
      4705,
      4952,
      5450,
      5528,
      5705,
      5796,
      6404,
      6541,
      6941,
      7176,
      7384,
      7470,
      7642,
      7809
    ],
    "swim:geom": "takeoff",
    "swim:timestamps": [
      1777529428,
      1777529435,
      1777529477,
      1777529504,
      1777529512,
      1777529522,
      1777529577,
      1777529602,
      1777529638,
      1777529657,
      1777529675,
      1777529696,
      1777529712,
      1777529756,
      1777529780,
      1777529810,
      1777529827,
      1777529875,
      1777529883,
      1777529901,
      1777529910,
      1777529968,
      1777529982,
      1777530025,
      1777530051,
      1777530074,
      1777530099,
      1777530139,
      1777530161
    ],
    "wof:geomhash": "954bba6d1fc4e5959198426f65c09abe",
    "wof:id": 2031145845,
    "wof:repo": "sfomuseum-data-flights-2026-04"
  },
  "bbox": [
    -122.40722,
    37.62425,
    -121.29379,
    38.07332
  ],
  "geometry": {"coordinates":[[-122.38803,37.62425],[-122.39366,37.62673],[-122.40722,37.65509],[-122.38802,37.67337],[-122.38271,37.67853],[-122.37478,37.68629],[-122.33571,37.73936],[-122.3469,37.7701],[-122.37074,37.81281],[-122.38181,37.83633],[-122.38636,37.86087],[-122.38561,37.89178],[-122.38143,37.91593],[-122.31581,37.96413],[-122.26182,37.97066],[-122.19378,37.97996],[-122.15497,37.98591],[-122.04011,37.99003],[-122.02173,37.99011],[-121.97691,37.98994],[-121.95422,37.98981],[-121.80411,37.99007],[-121.76729,37.99026],[-121.6563,38.00246],[-121.59096,38.0179],[-121.53086,38.03058],[-121.46679,38.0429],[-121.35481,38.06288],[-121.29379,38.07332]],"type":"LineString"}
}
