{
  "id": 2031130365,
  "type": "Feature",
  "properties": {
    "geom:area": 0,
    "geom:bbox": "-122.406111,37.633333,-70.971111,45.087222",
    "geom:latitude": 43.275119069633234,
    "geom:longitude": -96.97931640194993,
    "src:alt_label": "swim-path",
    "src:geom": "swim",
    "swim:altitudes": [
      "006",
      "018",
      "029",
      "029",
      "054",
      "054",
      "079",
      "103",
      "103",
      "127",
      "127",
      "143",
      "143",
      "143",
      "143",
      "216",
      "216",
      "228",
      "238",
      "238",
      "238",
      "238",
      "267",
      "267",
      "267",
      "287",
      "287",
      "292",
      "292",
      "292",
      "309",
      "309",
      "309",
      "313",
      "313",
      "319",
      "319",
      "327",
      "330",
      "330",
      "330",
      "330",
      "330",
      "330",
      "330",
      "330",
      "330",
      "330",
      "330",
      "330",
      "330",
      "330",
      "330",
      "330",
      "330",
      "330",
      "330",
      "330",
      "330",
      "330",
      "330",
      "330",
      "330",
      "330",
      "330",
      "330",
      "330",
      "330",
      "338",
      "345",
      "345",
      "345",
      "349C",
      "350C",
      "350C",
      "350C",
      "350C",
      "350C",
      "350C",
      "350C",
      "350C",
      "350C",
      "350C",
      "350C",
      "350C",
      "350C",
      "350C",
      "350C",
      "350C",
      "350C",
      "350C",
      "350C",
      "350C",
      "350C",
      "350C",
      "350C",
      "350C",
      "350C",
      "350C",
      "350C",
      "350C",
      "350C",
      "350C",
      "350C",
      "350C",
      "350C",
      "350C",
      "350C",
      "350C",
      "350C",
      "350C",
      "350C",
      "350C",
      "350C",
      "350C",
      "350C",
      "350C",
      "350C",
      "350C",
      "350C",
      "350C",
      "350C",
      "350C",
      "350C",
      "350C",
      "350C",
      "350C",
      "350C",
      "350C",
      "350C",
      "350C",
      "350C",
      "350C",
      "350C",
      "350C",
      "350C",
      "350C",
      "350C",
      "350C",
      "350C",
      "350C",
      "350C",
      "350C",
      "350C",
      "350C",
      "350C",
      "350C",
      "350C",
      "350C",
      "350C",
      "350C",
      "350C",
      "350C",
      "350C",
      "350C",
      "350C",
      "350C",
      "350C",
      "350C",
      "350C",
      "350C",
      "350C",
      "350C",
      "350C",
      "350C",
      "350C",
      "350C",
      "350C",
      "350C",
      "350C",
      "350C",
      "350C",
      "350C",
      "350C",
      "350C",
      "350C",
      "350C",
      "350C",
      "350C",
      "350C",
      "350C",
      "350C",
      "350C",
      "350C",
      "350C",
      "350C",
      "350C",
      "350C",
      "350C",
      "350C",
      "350C",
      "350C",
      "350C",
      "350C",
      "350C",
      "350C",
      "350C",
      "350C",
      "350C",
      "350C",
      "350C",
      "350C",
      "350C",
      "350C",
      "350C",
      "350C",
      "350C",
      "350C",
      "350C",
      "350C",
      "350C",
      "350C",
      "350C",
      "350C",
      "350C",
      "350C",
      "350C",
      "350C",
      "350C",
      "350C",
      "350C",
      "350C",
      "350C",
      "350C",
      "350C",
      "350C",
      "350C",
      "350C",
      "350C",
      "350C",
      "350C",
      "350C",
      "350C",
      "350C",
      "350C",
      "350C",
      "350C",
      "350C",
      "350C",
      "350C",
      "350C",
      "350C",
      "350C",
      "350C",
      "350C",
      "350C",
      "350C",
      "350C",
      "350C",
      "350C",
      "350C",
      "350C",
      "350C",
      "350C",
      "350C",
      "350C",
      "350C",
      "350C",
      "350C",
      "350C",
      "350C",
      "350C",
      "350C",
      "350C",
      "350C",
      "350C",
      "350C",
      "350C",
      "350C",
      "350C",
      "350C",
      "350C",
      "350C",
      "350C",
      "350C",
      "350C",
      "350C",
      "350C",
      "350C",
      "350C",
      "350C",
      "350C",
      "350C",
      "350C",
      "350C",
      "350C",
      "350C",
      "350C",
      "350C",
      "350C",
      "350C",
      "350C",
      "350C",
      "350C",
      "350C",
      "350C",
      "350C",
      "350C",
      "350C",
      "350C",
      "350C",
      "350C",
      "350C",
      "350C",
      "350C",
      "350C",
      "350C",
      "350C",
      "350C",
      "350C",
      "350C",
      "350C",
      "350C",
      "350C",
      "350C",
      "350C",
      "350C",
      "350C",
      "350C",
      "350C",
      "350C",
      "350C",
      "350C",
      "350C",
      "350C",
      "350C",
      "350C",
      "350C",
      "350C",
      "350C",
      "350C",
      "350C",
      "350C",
      "350C",
      "350C",
      "350C",
      "350C",
      "350C",
      "350C",
      "350C",
      "350C",
      "350C",
      "350C",
      "350C",
      "350C",
      "350C",
      "350C",
      "350C",
      "350C",
      "350C",
      "350C",
      "350",
      "350",
      "344",
      "344",
      "344",
      "330C",
      "330C",
      "330C",
      "330C",
      "310C",
      "310C",
      "310C",
      "310C",
      "310C",
      "310C",
      "310C",
      "310C",
      "300",
      "300",
      "300",
      "290C",
      "290C",
      "290C",
      "290C",
      "290C",
      "290C",
      "290C",
      "290C",
      "290C",
      "290",
      "290",
      "290",
      "242",
      "242",
      "242",
      "228",
      "228",
      "228",
      "215",
      "193",
      "193",
      "124",
      "124",
      "114",
      "114",
      "100",
      "099",
      "071",
      "071",
      "051",
      "049",
      "024",
      "024",
      "024",
      "016",
      "009"
    ],
    "swim:geom": "path",
    "swim:speeds": [
      172,
      184,
      197,
      197,
      256,
      256,
      270,
      277,
      277,
      369,
      369,
      384,
      384,
      384,
      384,
      434,
      434,
      443,
      454,
      454,
      454,
      454,
      473,
      473,
      473,
      478,
      478,
      478,
      478,
      478,
      473,
      473,
      473,
      474,
      474,
      473,
      473,
      471,
      470,
      470,
      470,
      470,
      469,
      469,
      469,
      472,
      470,
      470,
      470,
      472,
      472,
      472,
      469,
      468,
      468,
      468,
      467,
      467,
      467,
      467,
      466,
      464,
      464,
      464,
      464,
      464,
      463,
      463,
      461,
      460,
      460,
      460,
      460,
      459,
      459,
      459,
      459,
      459,
      459,
      459,
      457,
      457,
      457,
      455,
      454,
      454,
      454,
      454,
      454,
      453,
      454,
      456,
      456,
      456,
      457,
      457,
      457,
      460,
      460,
      462,
      462,
      462,
      463,
      463,
      463,
      464,
      464,
      464,
      464,
      465,
      465,
      465,
      465,
      465,
      466,
      466,
      466,
      469,
      469,
      471,
      471,
      471,
      473,
      473,
      473,
      473,
      473,
      483,
      483,
      483,
      483,
      483,
      486,
      486,
      486,
      486,
      486,
      492,
      492,
      492,
      492,
      492,
      492,
      493,
      493,
      495,
      495,
      495,
      496,
      497,
      497,
      497,
      497,
      497,
      497,
      496,
      496,
      496,
      495,
      495,
      495,
      495,
      495,
      498,
      497,
      497,
      497,
      497,
      498,
      498,
      499,
      499,
      499,
      500,
      500,
      500,
      500,
      500,
      501,
      501,
      502,
      502,
      502,
      502,
      505,
      505,
      505,
      505,
      506,
      506,
      506,
      506,
      507,
      507,
      507,
      507,
      507,
      505,
      505,
      505,
      505,
      505,
      504,
      504,
      504,
      504,
      503,
      503,
      503,
      503,
      502,
      502,
      502,
      504,
      504,
      503,
      503,
      503,
      505,
      505,
      505,
      500,
      500,
      505,
      505,
      505,
      509,
      509,
      509,
      509,
      510,
      510,
      510,
      511,
      511,
      511,
      511,
      511,
      511,
      511,
      511,
      511,
      511,
      511,
      511,
      511,
      511,
      511,
      511,
      511,
      511,
      511,
      510,
      510,
      510,
      506,
      506,
      504,
      504,
      499,
      499,
      497,
      497,
      497,
      493,
      493,
      493,
      493,
      492,
      492,
      492,
      492,
      491,
      481,
      478,
      478,
      478,
      475,
      475,
      478,
      478,
      478,
      481,
      482,
      482,
      482,
      479,
      479,
      479,
      479,
      479,
      479,
      478,
      483,
      483,
      483,
      486,
      486,
      486,
      486,
      480,
      480,
      480,
      480,
      476,
      476,
      476,
      476,
      478,
      478,
      485,
      485,
      485,
      486,
      487,
      487,
      487,
      487,
      489,
      489,
      490,
      490,
      490,
      487,
      487,
      487,
      486,
      486,
      476,
      476,
      476,
      476,
      476,
      480,
      480,
      485,
      490,
      490,
      490,
      490,
      496,
      516,
      516,
      521,
      521,
      521,
      527,
      527,
      527,
      527,
      503,
      503,
      503,
      503,
      503,
      503,
      503,
      503,
      503,
      503,
      550,
      550,
      550,
      503,
      503,
      505,
      505,
      505,
      500,
      500,
      500,
      492,
      496,
      496,
      496,
      507,
      507,
      507,
      507,
      507,
      507,
      507,
      504,
      447,
      447,
      447,
      434,
      434,
      434,
      395,
      371,
      371,
      338,
      338,
      331,
      331,
      314,
      273,
      275,
      275,
      266,
      267,
      179,
      179,
      179,
      153,
      151
    ],
    "swim:timestamps": [
      1777326013,
      1777326046,
      1777326074,
      1777326074,
      1777326166,
      1777326166,
      1777326226,
      1777326286,
      1777326286,
      1777326406,
      1777326406,
      1777326467,
      1777326467,
      1777326467,
      1777326467,
      1777326767,
      1777326767,
      1777326827,
      1777326887,
      1777326887,
      1777326887,
      1777326887,
      1777327067,
      1777327067,
      1777327067,
      1777327188,
      1777327188,
      1777327230,
      1777327230,
      1777327230,
      1777327350,
      1777327350,
      1777327350,
      1777327368,
      1777327368,
      1777327410,
      1777327410,
      1777327470,
      1777327488,
      1777327488,
      1777327488,
      1777327530,
      1777327591,
      1777327591,
      1777327591,
      1777327608,
      1777327711,
      1777327711,
      1777327711,
      1777327728,
      1777327728,
      1777327728,
      1777327848,
      1777327891,
      1777327891,
      1777327891,
      1777327909,
      1777327909,
      1777327951,
      1777327951,
      1777327969,
      1777328029,
      1777328029,
      1777328029,
      1777328071,
      1777328071,
      1777328089,
      1777328089,
      1777328149,
      1777328209,
      1777328209,
      1777328209,
      1777328251,
      1777328312,
      1777328312,
      1777328329,
      1777328389,
      1777328389,
      1777328389,
      1777328389,
      1777328509,
      1777328509,
      1777328509,
      1777328570,
      1777328612,
      1777328612,
      1777328630,
      1777328630,
      1777328630,
      1777328690,
      1777328732,
      1777328792,
      1777328792,
      1777328792,
      1777328810,
      1777328810,
      1777328810,
      1777328972,
      1777328972,
      1777329033,
      1777329033,
      1777329033,
      1777329093,
      1777329093,
      1777329093,
      1777329153,
      1777329153,
      1777329153,
      1777329153,
      1777329393,
      1777329393,
      1777329393,
      1777329393,
      1777329393,
      1777329513,
      1777329513,
      1777329513,
      1777329633,
      1777329633,
      1777329693,
      1777329693,
      1777329693,
      1777329753,
      1777329753,
      1777329753,
      1777329753,
      1777329753,
      1777330354,
      1777330354,
      1777330354,
      1777330354,
      1777330354,
      1777330535,
      1777330535,
      1777330535,
      1777330535,
      1777330535,
      1777330835,
      1777330835,
      1777330835,
      1777330835,
      1777330835,
      1777330895,
      1777330955,
      1777330955,
      1777331015,
      1777331015,
      1777331015,
      1777331075,
      1777331135,
      1777331135,
      1777331135,
      1777331135,
      1777331135,
      1777331556,
      1777331616,
      1777331616,
      1777331616,
      1777331676,
      1777331676,
      1777331676,
      1777331676,
      1777331676,
      1777331856,
      1777331864,
      1777331864,
      1777331864,
      1777331864,
      1777331924,
      1777331924,
      1777331984,
      1777331984,
      1777331984,
      1777332044,
      1777332044,
      1777332097,
      1777332097,
      1777332097,
      1777332217,
      1777332217,
      1777332277,
      1777332277,
      1777332277,
      1777332277,
      1777332397,
      1777332397,
      1777332397,
      1777332397,
      1777332525,
      1777332525,
      1777332577,
      1777332577,
      1777332697,
      1777332697,
      1777332705,
      1777332705,
      1777332705,
      1777332765,
      1777332765,
      1777332765,
      1777332818,
      1777332818,
      1777332825,
      1777332825,
      1777332878,
      1777332878,
      1777332945,
      1777332945,
      1777332945,
      1777332945,
      1777333065,
      1777333065,
      1777333065,
      1777333118,
      1777333118,
      1777333186,
      1777333186,
      1777333186,
      1777333306,
      1777333306,
      1777333306,
      1777333393,
      1777333393,
      1777333454,
      1777333454,
      1777333454,
      1777333546,
      1777333546,
      1777333546,
      1777333546,
      1777333606,
      1777333634,
      1777333634,
      1777333726,
      1777333726,
      1777333726,
      1777333726,
      1777333847,
      1777333847,
      1777333847,
      1777333874,
      1777333874,
      1777333874,
      1777333907,
      1777333934,
      1777333934,
      1777333967,
      1777333994,
      1777333994,
      1777333994,
      1777334027,
      1777334027,
      1777334054,
      1777334054,
      1777334054,
      1777334115,
      1777334115,
      1777334147,
      1777334147,
      1777334235,
      1777334235,
      1777334295,
      1777334295,
      1777334295,
      1777334415,
      1777334415,
      1777334475,
      1777334475,
      1777334595,
      1777334595,
      1777334655,
      1777334776,
      1777334836,
      1777334956,
      1777335016,
      1777335016,
      1777335016,
      1777335136,
      1777335136,
      1777335256,
      1777335256,
      1777335256,
      1777335376,
      1777335437,
      1777335437,
      1777335497,
      1777335617,
      1777335617,
      1777335617,
      1777335617,
      1777335677,
      1777335677,
      1777335737,
      1777335917,
      1777335917,
      1777335917,
      1777336037,
      1777336037,
      1777336158,
      1777336158,
      1777336278,
      1777336278,
      1777336278,
      1777336278,
      1777336578,
      1777336578,
      1777336578,
      1777336578,
      1777336698,
      1777336698,
      1777336819,
      1777336819,
      1777336819,
      1777336879,
      1777337059,
      1777337059,
      1777337059,
      1777337059,
      1777337299,
      1777337299,
      1777337359,
      1777337359,
      1777337359,
      1777337540,
      1777337540,
      1777337540,
      1777337600,
      1777337600,
      1777337840,
      1777337840,
      1777337840,
      1777337900,
      1777337900,
      1777337960,
      1777337960,
      1777338081,
      1777338201,
      1777338201,
      1777338201,
      1777338201,
      1777338441,
      1777338501,
      1777338501,
      1777338621,
      1777338621,
      1777338621,
      1777338802,
      1777338802,
      1777338802,
      1777338802,
      1777339342,
      1777339403,
      1777339403,
      1777339463,
      1777339463,
      1777339463,
      1777339643,
      1777339643,
      1777339643,
      1777339643,
      1777341281,
      1777341281,
      1777341281,
      1777341462,
      1777341462,
      1777341582,
      1777341582,
      1777341582,
      1777341822,
      1777341822,
      1777341822,
      1777341942,
      1777342063,
      1777342063,
      1777342063,
      1777342423,
      1777342423,
      1777342423,
      1777342603,
      1777342603,
      1777342724,
      1777342724,
      1777342844,
      1777343145,
      1777343145,
      1777343145,
      1777343325,
      1777343325,
      1777343325,
      1777343385,
      1777343443,
      1777343443,
      1777343671,
      1777343671,
      1777343743,
      1777343743,
      1777343803,
      1777343863,
      1777343971,
      1777343971,
      1777344091,
      1777344104,
      1777344285,
      1777344285,
      1777344285,
      1777344345,
      1777344391
    ],
    "wof:geomhash": "5c224a243f248d1ba22598bf8eb602bb",
    "wof:id": 2031130365,
    "wof:repo": "sfomuseum-data-flights-2026-04"
  },
  "bbox": [
    -122.40611111111112,
    37.63333333333333,
    -70.97111111111111,
    45.08722222222222
  ],
  "geometry": {"coordinates":[[-122.38333333333334,37.63333333333333],[-122.40611111111112,37.64944444444444],[-122.38333333333334,37.666666666666664],[-122.38333333333334,37.666666666666664],[-122.26972222222223,37.7],[-122.26972222222223,37.7],[-122.19277777777778,37.74138888888889],[-122.13611111111112,37.80444444444444],[-122.13611111111112,37.80444444444444],[-121.99666666666667,37.958333333333336],[-121.99666666666667,37.958333333333336],[-121.91777777777779,38.04611111111111],[-121.91777777777779,38.04611111111111],[-121.91777777777779,38.04611111111111],[-121.91777777777779,38.04611111111111],[-121.47500000000001,38.4775],[-121.47500000000001,38.4775],[-121.34027777777777,38.541666666666664],[-121.18972222222223,38.61277777777778],[-121.18972222222223,38.61277777777778],[-121.18972222222223,38.61277777777778],[-121.18972222222223,38.61277777777778],[-120.75777777777778,38.81527777777777],[-120.75777777777778,38.81527777777777],[-120.75777777777778,38.81527777777777],[-120.46444444444445,38.95138888888889],[-120.46444444444445,38.95138888888889],[-120.37944444444443,38.98777777777778],[-120.37944444444443,38.98777777777778],[-120.37944444444443,38.98777777777778],[-120.10416666666666,39.13861111111111],[-120.10416666666666,39.13861111111111],[-120.10416666666666,39.13861111111111],[-120.05083333333333,39.175555555555555],[-120.05083333333333,39.175555555555555],[-119.97527777777778,39.225],[-119.97527777777778,39.225],[-119.84777777777778,39.30916666666666],[-119.79638888888888,39.34583333333334],[-119.79638888888888,39.34583333333334],[-119.79638888888888,39.34583333333334],[-119.71777777777778,39.39138888888889],[-119.56861111111111,39.45638888888889],[-119.56861111111111,39.45638888888889],[-119.56861111111111,39.45638888888889],[-119.50777777777778,39.48416666666667],[-119.2713888888889,39.58416666666667],[-119.2713888888889,39.58416666666667],[-119.2713888888889,39.58416666666667],[-119.20944444444444,39.611666666666665],[-119.20944444444444,39.611666666666665],[-119.20944444444444,39.611666666666665],[-118.91250000000001,39.738055555555555],[-118.82444444444444,39.775277777777774],[-118.82444444444444,39.775277777777774],[-118.82444444444444,39.775277777777774],[-118.76305555555555,39.80138888888889],[-118.76305555555555,39.80138888888889],[-118.6763888888889,39.83777777777778],[-118.6763888888889,39.83777777777778],[-118.61444444444444,39.86361111111111],[-118.46805555555555,39.925],[-118.46805555555555,39.925],[-118.46805555555555,39.925],[-118.38027777777778,39.961666666666666],[-118.38027777777778,39.961666666666666],[-118.31972222222223,39.98694444444445],[-118.31972222222223,39.98694444444445],[-118.17333333333333,40.04805555555556],[-118.02805555555555,40.10805555555556],[-118.02805555555555,40.10805555555556],[-118.02805555555555,40.10805555555556],[-117.94055555555556,40.14388888888889],[-117.79472222222222,40.203611111111115],[-117.79472222222222,40.203611111111115],[-117.73305555555555,40.228611111111114],[-117.58666666666666,40.288333333333334],[-117.58666666666666,40.288333333333334],[-117.58666666666666,40.288333333333334],[-117.58666666666666,40.288333333333334],[-117.29305555555555,40.40694444444444],[-117.29305555555555,40.40694444444444],[-117.29305555555555,40.40694444444444],[-117.14722222222223,40.46555555555556],[-117.0625,40.49916666666667],[-117.0625,40.49916666666667],[-117.00166666666667,40.52361111111111],[-117.00166666666667,40.52361111111111],[-117.00166666666667,40.52361111111111],[-116.85472222222222,40.58222222222223],[-116.76888888888888,40.615833333333335],[-116.62055555555555,40.674166666666665],[-116.62055555555555,40.674166666666665],[-116.62055555555555,40.674166666666665],[-116.55694444444444,40.69888888888889],[-116.55694444444444,40.69888888888889],[-116.55694444444444,40.69888888888889],[-116.15305555555557,40.85666666666667],[-116.15305555555557,40.85666666666667],[-116.00277777777778,40.91444444444444],[-116.00277777777778,40.91444444444444],[-116.00277777777778,40.91444444444444],[-115.85083333333333,40.97277777777778],[-115.85083333333333,40.97277777777778],[-115.85083333333333,40.97277777777778],[-115.69777777777779,41.03138888888889],[-115.69777777777779,41.03138888888889],[-115.69777777777779,41.03138888888889],[-115.69777777777779,41.03138888888889],[-115.08638888888889,41.26166666666666],[-115.08638888888889,41.26166666666666],[-115.08638888888889,41.26166666666666],[-115.08638888888889,41.26166666666666],[-115.08638888888889,41.26166666666666],[-114.7775,41.37638888888889],[-114.7775,41.37638888888889],[-114.7775,41.37638888888889],[-114.46527777777779,41.490833333333335],[-114.46527777777779,41.490833333333335],[-114.30777777777777,41.54805555555556],[-114.30777777777777,41.54805555555556],[-114.30777777777777,41.54805555555556],[-114.14750000000001,41.60611111111111],[-114.14750000000001,41.60611111111111],[-114.14750000000001,41.60611111111111],[-114.14750000000001,41.60611111111111],[-114.14750000000001,41.60611111111111],[-112.52666666666667,42.174166666666665],[-112.52666666666667,42.174166666666665],[-112.52666666666667,42.174166666666665],[-112.52666666666667,42.174166666666665],[-112.52666666666667,42.174166666666665],[-112.02833333333334,42.338055555555556],[-112.02833333333334,42.338055555555556],[-112.02833333333334,42.338055555555556],[-112.02833333333334,42.338055555555556],[-112.02833333333334,42.338055555555556],[-111.17611111111111,42.609722222222224],[-111.17611111111111,42.609722222222224],[-111.17611111111111,42.609722222222224],[-111.17611111111111,42.609722222222224],[-111.17611111111111,42.609722222222224],[-111.00444444444445,42.663333333333334],[-110.84916666666666,42.71138888888889],[-110.84916666666666,42.71138888888889],[-110.69111111111111,42.76027777777778],[-110.69111111111111,42.76027777777778],[-110.69111111111111,42.76027777777778],[-110.515,42.814166666666665],[-110.33972222222222,42.867777777777775],[-110.33972222222222,42.867777777777775],[-110.33972222222222,42.867777777777775],[-110.33972222222222,42.867777777777775],[-110.33972222222222,42.867777777777775],[-109.11055555555555,43.23222222222223],[-108.93583333333333,43.2825],[-108.93583333333333,43.2825],[-108.93583333333333,43.2825],[-108.7625,43.33222222222223],[-108.7625,43.33222222222223],[-108.7625,43.33222222222223],[-108.7625,43.33222222222223],[-108.7625,43.33222222222223],[-108.19861111111112,43.49277777777778],[-108.19833333333334,43.49277777777778],[-108.19833333333334,43.49277777777778],[-108.19833333333334,43.49277777777778],[-108.19833333333334,43.49277777777778],[-108.02416666666666,43.544999999999995],[-108.02416666666666,43.544999999999995],[-107.84722222222221,43.59722222222222],[-107.84722222222221,43.59722222222222],[-107.84722222222221,43.59722222222222],[-107.66972222222223,43.64888888888889],[-107.66972222222223,43.64888888888889],[-107.49083333333333,43.700833333333335],[-107.49083333333333,43.700833333333335],[-107.49083333333333,43.700833333333335],[-107.13444444444445,43.80333333333333],[-107.13444444444445,43.80333333333333],[-106.955,43.85444444444445],[-106.955,43.85444444444445],[-106.955,43.85444444444445],[-106.955,43.85444444444445],[-106.61638888888888,43.94944444444444],[-106.61638888888888,43.94944444444444],[-106.61638888888888,43.94944444444444],[-106.61638888888888,43.94944444444444],[-106.20027777777779,44.00138888888889],[-106.20027777777779,44.00138888888889],[-106.0425,44.0025],[-106.0425,44.0025],[-105.65138888888889,44.003055555555555],[-105.65138888888889,44.003055555555555],[-105.61277777777777,44.003055555555555],[-105.61277777777777,44.003055555555555],[-105.61277777777777,44.003055555555555],[-105.41805555555555,44.003055555555555],[-105.41805555555555,44.003055555555555],[-105.41805555555555,44.003055555555555],[-105.26305555555555,44.003055555555555],[-105.26305555555555,44.003055555555555],[-105.22416666666666,44.003055555555555],[-105.22416666666666,44.003055555555555],[-105.06861111111111,44.0025],[-105.06861111111111,44.0025],[-104.83722222222222,44.00138888888889],[-104.83722222222222,44.00138888888889],[-104.83722222222222,44.00138888888889],[-104.83722222222222,44.00138888888889],[-104.45194444444445,43.99861111111111],[-104.45194444444445,43.99861111111111],[-104.45194444444445,43.99861111111111],[-104.2925,43.99666666666667],[-104.2925,43.99666666666667],[-104.06194444444444,43.99444444444445],[-104.06194444444444,43.99444444444445],[-104.06194444444444,43.99444444444445],[-103.6725,43.98833333333334],[-103.6725,43.98833333333334],[-103.6725,43.98833333333334],[-103.4075,43.98416666666667],[-103.4075,43.98416666666667],[-103.20472222222223,43.980000000000004],[-103.20472222222223,43.980000000000004],[-103.20472222222223,43.980000000000004],[-102.8875,43.99166666666667],[-102.8875,43.99166666666667],[-102.8875,43.99166666666667],[-102.8875,43.99166666666667],[-102.69888888888889,44.01444444444444],[-102.62305555555555,44.02361111111111],[-102.62305555555555,44.02361111111111],[-102.30777777777777,44.06111111111111],[-102.30777777777777,44.06111111111111],[-102.30777777777777,44.06111111111111],[-102.30777777777777,44.06111111111111],[-101.9213888888889,44.10583333333334],[-101.9213888888889,44.10583333333334],[-101.9213888888889,44.10583333333334],[-101.84222222222222,44.11472222222223],[-101.84222222222222,44.11472222222223],[-101.84222222222222,44.11472222222223],[-101.72805555555556,44.12777777777778],[-101.64972222222222,44.13638888888889],[-101.64972222222222,44.13638888888889],[-101.53138888888888,44.14972222222222],[-101.45722222222223,44.158055555555556],[-101.45722222222223,44.158055555555556],[-101.45722222222223,44.158055555555556],[-101.33749999999999,44.17111111111111],[-101.33749999999999,44.17111111111111],[-101.25916666666667,44.17916666666667],[-101.25916666666667,44.17916666666667],[-101.25916666666667,44.17916666666667],[-101.06916666666666,44.2],[-101.06916666666666,44.2],[-100.95527777777778,44.212500000000006],[-100.95527777777778,44.212500000000006],[-100.65222222222222,44.24333333333333],[-100.65222222222222,44.24333333333333],[-100.46111111111111,44.26277777777778],[-100.46111111111111,44.26277777777778],[-100.46111111111111,44.26277777777778],[-100.08888888888889,44.29972222222222],[-100.08888888888889,44.29972222222222],[-99.90138888888889,44.31777777777778],[-99.90138888888889,44.31777777777778],[-99.52527777777777,44.35305555555556],[-99.52527777777777,44.35305555555556],[-99.33666666666666,44.370555555555555],[-98.95972222222223,44.403888888888886],[-98.7725,44.419999999999995],[-98.40083333333334,44.45111111111111],[-98.2213888888889,44.46611111111111],[-98.2213888888889,44.46611111111111],[-98.2213888888889,44.46611111111111],[-97.8586111111111,44.49444444444445],[-97.8586111111111,44.49444444444445],[-97.4875,44.5225],[-97.4875,44.5225],[-97.4875,44.5225],[-97.11416666666666,44.54972222222222],[-96.92527777777778,44.5625],[-96.92527777777778,44.5625],[-96.7388888888889,44.57527777777778],[-96.36388888888888,44.6],[-96.36388888888888,44.6],[-96.36388888888888,44.6],[-96.36388888888888,44.6],[-96.17888888888889,44.611666666666665],[-96.17888888888889,44.611666666666665],[-95.99138888888889,44.62305555555555],[-95.42833333333334,44.65611111111111],[-95.42833333333334,44.65611111111111],[-95.42833333333334,44.65611111111111],[-95.04638888888888,44.67638888888889],[-95.04638888888888,44.67638888888889],[-94.66722222222222,44.69555555555555],[-94.66722222222222,44.69555555555555],[-94.30611111111111,44.71277777777778],[-94.30611111111111,44.71277777777778],[-94.30611111111111,44.71277777777778],[-94.30611111111111,44.71277777777778],[-93.38,44.75083333333333],[-93.38,44.75083333333333],[-93.38,44.75083333333333],[-93.38,44.75083333333333],[-92.98972222222223,44.75138888888889],[-92.98972222222223,44.75138888888889],[-92.61638888888888,44.799166666666665],[-92.61638888888888,44.799166666666665],[-92.61638888888888,44.799166666666665],[-92.42805555555556,44.82638888888889],[-91.8761111111111,44.9225],[-91.8761111111111,44.9225],[-91.8761111111111,44.9225],[-91.8761111111111,44.9225],[-91.13333333333334,45.06083333333333],[-91.13333333333334,45.06083333333333],[-90.94583333333334,45.08722222222222],[-90.94583333333334,45.08722222222222],[-90.94583333333334,45.08722222222222],[-90.40472222222223,45.07416666666667],[-90.40472222222223,45.07416666666667],[-90.40472222222223,45.07416666666667],[-90.17777777777778,45.05888888888889],[-90.17777777777778,45.05888888888889],[-89.46222222222222,45.009166666666665],[-89.46222222222222,45.009166666666665],[-89.46222222222222,45.009166666666665],[-89.27444444444444,44.99527777777778],[-89.27444444444444,44.99527777777778],[-89.08694444444444,44.98111111111111],[-89.08694444444444,44.98111111111111],[-88.70833333333334,44.95111111111111],[-88.32333333333332,44.919999999999995],[-88.32333333333332,44.919999999999995],[-88.32333333333332,44.919999999999995],[-88.32333333333332,44.919999999999995],[-87.53,44.85111111111111],[-87.33194444444445,44.84444444444445],[-87.33194444444445,44.84444444444445],[-86.92416666666666,44.84],[-86.92416666666666,44.84],[-86.92416666666666,44.84],[-86.31416666666667,44.82972222222222],[-86.31416666666667,44.82972222222222],[-86.31416666666667,44.82972222222222],[-86.31416666666667,44.82972222222222],[-84.52083333333333,44.78138888888889],[-84.32444444444444,44.774166666666666],[-84.32444444444444,44.774166666666666],[-84.11749999999999,44.76638888888889],[-84.11749999999999,44.76638888888889],[-84.11749999999999,44.76638888888889],[-83.54194444444444,44.74277777777778],[-83.54194444444444,44.74277777777778],[-83.54194444444444,44.74277777777778],[-83.54194444444444,44.74277777777778],[-78.3125,44.30694444444444],[-78.3125,44.30694444444444],[-78.3125,44.30694444444444],[-77.78305555555555,44.13583333333333],[-77.78305555555555,44.13583333333333],[-77.42916666666667,44.019999999999996],[-77.42916666666667,44.019999999999996],[-77.42916666666667,44.019999999999996],[-76.72333333333333,43.78472222222222],[-76.72333333333333,43.78472222222222],[-76.72333333333333,43.78472222222222],[-76.37916666666666,43.66777777777777],[-76.035,43.54861111111111],[-76.035,43.54861111111111],[-76.035,43.54861111111111],[-75.01027777777777,43.18694444444444],[-75.01027777777777,43.18694444444444],[-75.01027777777777,43.18694444444444],[-74.49305555555556,42.99916666666667],[-74.49305555555556,42.99916666666667],[-74.15111111111112,42.87305555555555],[-74.15111111111112,42.87305555555555],[-73.77944444444444,42.74944444444444],[-72.94,42.720555555555556],[-72.94,42.720555555555556],[-72.94,42.720555555555556],[-72.45861111111111,42.663333333333334],[-72.45861111111111,42.663333333333334],[-72.45861111111111,42.663333333333334],[-72.29916666666666,42.64361111111111],[-72.13333333333334,42.63333333333333],[-72.13333333333334,42.63333333333333],[-71.63333333333334,42.55],[-71.63333333333334,42.55],[-71.4975,42.530833333333334],[-71.4975,42.530833333333334],[-71.38333333333334,42.50666666666667],[-71.28305555555555,42.486666666666665],[-71.13333333333334,42.4],[-71.13333333333334,42.4],[-70.98333333333333,42.3],[-70.97111111111111,42.288333333333334],[-71.06638888888888,42.23861111111111],[-71.06638888888888,42.23861111111111],[-71.06638888888888,42.23861111111111],[-71.04638888888888,42.279444444444444],[-71.03333333333333,42.31666666666667]],"type":"LineString"}
}
