{
  "id": 2015203407,
  "type": "Feature",
  "properties": {
    "geom:area": 0,
    "geom:bbox": "-122.358440,36.736480,-121.887560,37.611620",
    "geom:latitude": 37.24180391603356,
    "geom:longitude": -122.06548155223159,
    "src:alt_label": "swim-approach",
    "src:geom": "swim",
    "swim:elevations": [
      5430,
      5376,
      5091,
      4868,
      4608,
      4301,
      4031,
      3946,
      3819,
      3787,
      3693,
      3390,
      3239,
      3154,
      3048,
      3048,
      2992,
      2863,
      2645,
      2620,
      2457,
      2241,
      2031,
      1931,
      1739,
      1678,
      1559,
      1462,
      1180,
      1129,
      899,
      776,
      734,
      549,
      489,
      332,
      182,
      33,
      0
    ],
    "swim:geom": "approach",
    "swim:timestamps": [
      1775292745,
      1775292752,
      1775292777,
      1775292797,
      1775292825,
      1775292857,
      1775292883,
      1775292895,
      1775292912,
      1775292917,
      1775292936,
      1775292981,
      1775293009,
      1775293020,
      1775293069,
      1775293089,
      1775293104,
      1775293125,
      1775293168,
      1775293179,
      1775293222,
      1775293255,
      1775293285,
      1775293299,
      1775293335,
      1775293346,
      1775293367,
      1775293385,
      1775293433,
      1775293442,
      1775293495,
      1775293525,
      1775293531,
      1775293576,
      1775293590,
      1775293625,
      1775293667,
      1775293705,
      1775293710
    ],
    "wof:geomhash": "c73e54f48aa0f7869bfbf5ef58b4f5cc",
    "wof:id": 2015203407,
    "wof:repo": "sfomuseum-data-flights-2026-04"
  },
  "bbox": [
    -122.35844,
    36.73648,
    -121.88756,
    37.61162
  ],
  "geometry": {"coordinates":[[-121.88756,36.73648],[-121.89385,36.74857],[-121.90731,36.78935],[-121.91657,36.8224],[-121.92925,36.86793],[-121.94375,36.91964],[-121.95604,36.95981],[-121.96347,36.97853],[-121.97321,37.00353],[-121.97595,37.0108],[-121.98605,37.03727],[-122.00933,37.09736],[-122.02353,37.13293],[-122.02914,37.14678],[-122.05186,37.2047],[-122.06062,37.2269],[-122.06717,37.24354],[-122.07585,37.26597],[-122.09474,37.31398],[-122.09938,37.32576],[-122.10493,37.36705],[-122.08428,37.39496],[-122.06537,37.4198],[-122.05614,37.43217],[-122.03953,37.46399],[-122.04472,37.47327],[-122.06336,37.4863],[-122.08135,37.49492],[-122.12501,37.51346],[-122.13274,37.51665],[-122.18048,37.53696],[-122.20826,37.54864],[-122.21398,37.55108],[-122.25462,37.56813],[-122.26624,37.57311],[-122.29435,37.58483],[-122.32663,37.59845],[-122.35503,37.6103],[-122.35844,37.61162]],"type":"LineString"}
}
