{
  "id": 2015342525,
  "type": "Feature",
  "properties": {
    "geom:area": 0,
    "geom:bbox": "-122.260278,37.608889,-104.683333,40.837222",
    "geom:latitude": 40.160462901103834,
    "geom:longitude": -113.51129272923824,
    "src:alt_label": "swim-path",
    "src:geom": "swim",
    "swim:altitudes": [
      "050",
      "050",
      "111",
      "126",
      "126",
      "146",
      "146",
      "165",
      "180",
      "208",
      "208",
      "208",
      "271",
      "271",
      "281",
      "281",
      "292",
      "292",
      "306",
      "338",
      "349C",
      "349C",
      "350C",
      "350C",
      "350C",
      "350C",
      "351C",
      "351C",
      "351C",
      "351C",
      "351C",
      "351C",
      "351C",
      "350C",
      "350C",
      "350C",
      "350C",
      "351C",
      "351C",
      "350C",
      "351C",
      "351C",
      "351C",
      "351C",
      "351C",
      "351C",
      "350C",
      "350C",
      "350C",
      "350C",
      "350C",
      "350C",
      "351C",
      "351C",
      "351C",
      "351C",
      "351C",
      "351C",
      "350C",
      "351C",
      "351C",
      "350C",
      "351C",
      "351C",
      "351C",
      "351C",
      "351C",
      "351C",
      "351C",
      "351C",
      "351C",
      "350C",
      "350C",
      "350C",
      "350C",
      "350C",
      "350C",
      "350C",
      "350C",
      "350C",
      "350C",
      "350C",
      "351C",
      "351C",
      "351C",
      "350C",
      "350C",
      "350C",
      "350C",
      "350C",
      "351C",
      "351C",
      "351C",
      "351C",
      "351C",
      "351C",
      "351C",
      "351C",
      "350C",
      "350C",
      "350C",
      "351C",
      "351C",
      "351C",
      "351C",
      "351C",
      "351",
      "351",
      "349",
      "349",
      "341",
      "341",
      "334",
      "334",
      "334",
      "325",
      "315",
      "315",
      "279",
      "279",
      "279",
      "271",
      "271",
      "270",
      "270",
      "270",
      "254",
      "254",
      "244",
      "244",
      "214",
      "214",
      "209",
      "195",
      "174",
      "174",
      "171",
      "162",
      "159",
      "159",
      "126",
      "126",
      "115",
      "115",
      "109",
      "100",
      "100",
      "100",
      "097",
      "089",
      "086",
      "079",
      "079",
      "077",
      "069",
      "063",
      "061",
      "061",
      "054",
      "054"
    ],
    "swim:geom": "path",
    "swim:speeds": [
      244,
      244,
      305,
      381,
      381,
      402,
      402,
      415,
      433,
      471,
      471,
      471,
      503,
      503,
      508,
      508,
      512,
      512,
      509,
      491,
      491,
      491,
      489,
      490,
      490,
      493,
      490,
      490,
      490,
      501,
      501,
      485,
      485,
      484,
      484,
      484,
      484,
      485,
      486,
      486,
      487,
      487,
      487,
      486,
      486,
      486,
      481,
      481,
      479,
      476,
      475,
      475,
      476,
      476,
      476,
      476,
      477,
      477,
      477,
      476,
      476,
      474,
      474,
      474,
      471,
      471,
      471,
      472,
      472,
      471,
      471,
      470,
      469,
      469,
      469,
      470,
      470,
      465,
      465,
      463,
      463,
      463,
      466,
      467,
      467,
      467,
      467,
      467,
      467,
      467,
      470,
      470,
      475,
      475,
      476,
      477,
      477,
      476,
      474,
      472,
      472,
      471,
      472,
      472,
      472,
      472,
      472,
      472,
      473,
      473,
      471,
      471,
      471,
      471,
      471,
      472,
      471,
      471,
      458,
      458,
      458,
      455,
      455,
      452,
      452,
      452,
      436,
      436,
      426,
      426,
      400,
      400,
      402,
      397,
      378,
      378,
      375,
      368,
      368,
      368,
      351,
      351,
      332,
      332,
      257,
      249,
      249,
      249,
      238,
      214,
      212,
      205,
      205,
      204,
      190,
      152,
      153,
      153,
      69,
      69
    ],
    "swim:timestamps": [
      1776721132,
      1776721132,
      1776721253,
      1776721313,
      1776721313,
      1776721373,
      1776721373,
      1776721433,
      1776721493,
      1776721613,
      1776721613,
      1776721613,
      1776721913,
      1776721913,
      1776721973,
      1776721973,
      1776722034,
      1776722034,
      1776722094,
      1776722250,
      1776722310,
      1776722310,
      1776722334,
      1776722370,
      1776722370,
      1776722454,
      1776722490,
      1776722490,
      1776722490,
      1776722610,
      1776722610,
      1776722814,
      1776722814,
      1776722874,
      1776722911,
      1776722911,
      1776722911,
      1776722935,
      1776722971,
      1776722995,
      1776723055,
      1776723115,
      1776723115,
      1776723175,
      1776723175,
      1776723175,
      1776723271,
      1776723271,
      1776723331,
      1776723415,
      1776723475,
      1776723475,
      1776723512,
      1776723512,
      1776723535,
      1776723535,
      1776723572,
      1776723595,
      1776723872,
      1776723932,
      1776723932,
      1776723992,
      1776724052,
      1776724052,
      1776724233,
      1776724233,
      1776724233,
      1776724353,
      1776724353,
      1776724593,
      1776724593,
      1776724653,
      1776724713,
      1776724713,
      1776724713,
      1776724833,
      1776724833,
      1776725074,
      1776725074,
      1776725134,
      1776725134,
      1776725134,
      1776725314,
      1776725374,
      1776725434,
      1776725494,
      1776725494,
      1776725554,
      1776725554,
      1776725554,
      1776725674,
      1776725674,
      1776725772,
      1776725772,
      1776725832,
      1776725892,
      1776725892,
      1776725952,
      1776726012,
      1776726035,
      1776726035,
      1776726215,
      1776726253,
      1776726253,
      1776726313,
      1776726313,
      1776726335,
      1776726335,
      1776726373,
      1776726373,
      1776726433,
      1776726433,
      1776726493,
      1776726493,
      1776726493,
      1776726553,
      1776726636,
      1776726636,
      1776726914,
      1776726914,
      1776726914,
      1776726974,
      1776726974,
      1776727094,
      1776727094,
      1776727094,
      1776727334,
      1776727334,
      1776727371,
      1776727371,
      1776727494,
      1776727494,
      1776727514,
      1776727574,
      1776727671,
      1776727671,
      1776727695,
      1776727734,
      1776727755,
      1776727755,
      1776727914,
      1776727914,
      1776727973,
      1776727973,
      1776728055,
      1776728094,
      1776728094,
      1776728094,
      1776728115,
      1776728154,
      1776728175,
      1776728215,
      1776728215,
      1776728235,
      1776728295,
      1776728335,
      1776728356,
      1776728356,
      1776728476,
      1776728476
    ],
    "wof:geomhash": "f0c2d7b4ead7703bf199783498a5d118",
    "wof:id": 2015342525,
    "wof:repo": "sfomuseum-data-flights-2026-04"
  },
  "bbox": [
    -122.26027777777777,
    37.60888888888889,
    -104.68333333333334,
    40.83722222222222
  ],
  "geometry": {"coordinates":[[-122.26027777777777,37.60888888888889],[-122.26027777777777,37.60888888888889],[-122.09138888888889,37.69499999999999],[-122.00416666666666,37.76694444444444],[-122.00416666666666,37.76694444444444],[-121.91388888888889,37.85194444444445],[-121.91388888888889,37.85194444444445],[-121.82027777777778,37.93944444444444],[-121.73111111111112,38.02222222222222],[-121.52,38.21666666666667],[-121.52,38.21666666666667],[-121.52,38.21666666666667],[-120.84222222222222,38.67388888888889],[-120.84222222222222,38.67388888888889],[-120.70055555555555,38.76027777777778],[-120.70055555555555,38.76027777777778],[-120.55694444444444,38.84777777777778],[-120.55694444444444,38.84777777777778],[-120.41361111111112,38.93444444444444],[-120.04666666666667,39.15138888888889],[-119.9088888888889,39.23638888888889],[-119.9088888888889,39.23638888888889],[-119.85722222222222,39.26722222222222],[-119.77027777777778,39.316944444444445],[-119.77027777777778,39.316944444444445],[-119.57833333333333,39.43194444444444],[-119.49,39.48277777777778],[-119.49,39.48277777777778],[-119.49,39.48277777777778],[-119.20305555555557,39.65],[-119.20305555555557,39.65],[-118.70972222222223,39.92027777777778],[-118.70972222222223,39.92027777777778],[-118.55777777777777,39.98222222222223],[-118.46638888888889,40.019444444444446],[-118.46638888888889,40.019444444444446],[-118.46638888888889,40.019444444444446],[-118.39805555555556,40.04722222222222],[-118.31055555555555,40.0825],[-118.24083333333333,40.11027777777778],[-118.08527777777778,40.172777777777775],[-117.92027777777778,40.22277777777778],[-117.92027777777778,40.22277777777778],[-117.75555555555556,40.26111111111111],[-117.75555555555556,40.26111111111111],[-117.75555555555556,40.26111111111111],[-117.4925,40.32194444444445],[-117.4925,40.32194444444445],[-117.32555555555555,40.36027777777778],[-117.08944444444444,40.413888888888884],[-116.94388888888889,40.44638888888888],[-116.94388888888889,40.44638888888888],[-116.81722222222221,40.474722222222226],[-116.81722222222221,40.474722222222226],[-116.77638888888889,40.48388888888889],[-116.77638888888889,40.48388888888889],[-116.64527777777778,40.51277777777778],[-116.61,40.520833333333336],[-115.82083333333333,40.61083333333333],[-115.61444444444444,40.62583333333333],[-115.61444444444444,40.62583333333333],[-115.44305555555556,40.63805555555555],[-115.26805555555555,40.650277777777774],[-115.26805555555555,40.650277777777774],[-114.78999999999999,40.68194444444444],[-114.78999999999999,40.68194444444444],[-114.78999999999999,40.68194444444444],[-114.44166666666668,40.70305555555556],[-114.44166666666668,40.70305555555556],[-113.75472222222223,40.72666666666667],[-113.75472222222223,40.72666666666667],[-113.58361111111111,40.73972222222222],[-113.41444444444446,40.7525],[-113.41444444444446,40.7525],[-113.41444444444446,40.7525],[-113.06916666666666,40.77777777777778],[-113.06916666666666,40.77777777777778],[-112.38944444444445,40.824444444444445],[-112.38944444444445,40.824444444444445],[-112.18972222222223,40.83722222222222],[-112.18972222222223,40.83722222222222],[-112.18972222222223,40.83722222222222],[-111.68777777777778,40.83583333333333],[-111.5175,40.827222222222225],[-111.34638888888888,40.818333333333335],[-111.17777777777778,40.80916666666666],[-111.17777777777778,40.80916666666666],[-111.00888888888889,40.79972222222222],[-111.00888888888889,40.79972222222222],[-111.00888888888889,40.79972222222222],[-110.66305555555556,40.78],[-110.66305555555556,40.78],[-110.38472222222222,40.76305555555555],[-110.38472222222222,40.76305555555555],[-110.20972222222223,40.75222222222222],[-110.03666666666666,40.74111111111111],[-110.03666666666666,40.74111111111111],[-109.86388888888888,40.730000000000004],[-109.69361111111111,40.718611111111116],[-109.63944444444445,40.715],[-109.63944444444445,40.715],[-109.12222222222222,40.67861111111111],[-109.0225,40.671388888888885],[-109.0225,40.671388888888885],[-108.85194444444444,40.660555555555554],[-108.85194444444444,40.660555555555554],[-108.77305555555556,40.655277777777776],[-108.77305555555556,40.655277777777776],[-108.67611111111111,40.649166666666666],[-108.67611111111111,40.649166666666666],[-108.50583333333333,40.6375],[-108.50583333333333,40.6375],[-108.335,40.62583333333333],[-108.335,40.62583333333333],[-108.335,40.62583333333333],[-108.1463888888889,40.612500000000004],[-107.91916666666667,40.596111111111114],[-107.91916666666667,40.596111111111114],[-107.14416666666668,40.5375],[-107.14416666666668,40.5375],[-107.14416666666668,40.5375],[-106.98,40.524166666666666],[-106.98,40.524166666666666],[-106.65527777777778,40.49777777777778],[-106.65527777777778,40.49777777777778],[-106.65527777777778,40.49777777777778],[-105.99222222222222,40.439166666666665],[-105.99222222222222,40.439166666666665],[-105.9,40.43333333333333],[-105.9,40.43333333333333],[-105.6,40.38333333333333],[-105.6,40.38333333333333],[-105.54722222222222,40.37444444444444],[-105.4088888888889,40.352222222222224],[-105.21666666666667,40.25],[-105.21666666666667,40.25],[-105.17972222222222,40.235],[-105.11666666666666,40.2],[-105.07416666666666,40.17222222222222],[-105.07416666666666,40.17222222222222],[-104.81666666666666,39.983333333333334],[-104.81666666666666,39.983333333333334],[-104.8,39.9],[-104.8,39.9],[-104.80888888888889,39.78361111111111],[-104.81666666666666,39.733333333333334],[-104.81666666666666,39.733333333333334],[-104.81666666666666,39.733333333333334],[-104.80388888888889,39.717777777777776],[-104.76666666666667,39.7],[-104.73944444444444,39.69305555555555],[-104.7,39.71666666666667],[-104.7,39.71666666666667],[-104.69,39.73222222222223],[-104.68805555555556,39.78805555555555],[-104.68333333333334,39.81666666666667],[-104.68777777777778,39.83083333333334],[-104.68777777777778,39.83083333333334],[-104.68388888888889,39.88611111111111],[-104.68388888888889,39.88611111111111]],"type":"LineString"}
}
