{
  "id": 2015212099,
  "type": "Feature",
  "properties": {
    "geom:area": 0,
    "geom:bbox": "-122.854180,37.445290,-122.097860,38.518670",
    "geom:latitude": 37.92421336245274,
    "geom:longitude": -122.54190813050833,
    "src:alt_label": "swim-approach",
    "src:geom": "swim",
    "swim:elevations": [
      6205,
      5950,
      5571,
      5402,
      5195,
      4942,
      4519,
      4254,
      3982,
      3771,
      3691,
      3431,
      3390,
      3353,
      3353,
      3353,
      3353,
      3270,
      2951,
      2864,
      2616,
      2404,
      2236,
      1920,
      1497,
      1252,
      1218,
      1215,
      1127,
      1099,
      927,
      779,
      611,
      492,
      358,
      342,
      200,
      83,
      0,
      7947,
      7762,
      7331,
      7041,
      6723,
      6375,
      6256,
      6142
    ],
    "swim:geom": "approach",
    "swim:timestamps": [
      1775372415,
      1775372444,
      1775372486,
      1775372506,
      1775372529,
      1775372560,
      1775372606,
      1775372637,
      1775372667,
      1775372698,
      1775372712,
      1775372741,
      1775372747,
      1775372767,
      1775372806,
      1775372846,
      1775372865,
      1775372895,
      1775372937,
      1775372952,
      1775372995,
      1775373021,
      1775373038,
      1775373071,
      1775373111,
      1775373144,
      1775373171,
      1775373192,
      1775373227,
      1775373245,
      1775373294,
      1775373324,
      1775373356,
      1775373387,
      1775373418,
      1775373421,
      1775373461,
      1775373495,
      1775373510,
      1775458612,
      1775458630,
      1775458673,
      1775458700,
      1775458732,
      1775458768,
      1775458780,
      1775458792
    ],
    "wof:geomhash": "63371f38d88cc516ede9480b1f2a7268",
    "wof:id": 2015212099,
    "wof:repo": "sfomuseum-data-flights-2026-04"
  },
  "bbox": [
    -122.85418,
    37.44529,
    -122.09786,
    38.51867
  ],
  "geometry": {"coordinates":[[-122.76219,38.20617],[-122.7483,38.15843],[-122.72846,38.09015],[-122.71905,38.05774],[-122.70814,38.01989],[-122.69395,37.97098],[-122.66929,37.89883],[-122.63153,37.86018],[-122.59296,37.82387],[-122.55445,37.78746],[-122.53827,37.77223],[-122.50678,37.74213],[-122.50038,37.73604],[-122.48062,37.71757],[-122.4449,37.6841],[-122.40953,37.65083],[-122.39281,37.63507],[-122.36821,37.60819],[-122.3437,37.56663],[-122.33407,37.55157],[-122.30768,37.50894],[-122.28526,37.48767],[-122.26301,37.48053],[-122.22188,37.46821],[-122.17205,37.45301],[-122.13106,37.44529],[-122.10469,37.4626],[-122.09786,37.48474],[-122.12293,37.51379],[-122.14118,37.52229],[-122.18774,37.54232],[-122.21477,37.55368],[-122.24378,37.5659],[-122.27029,37.57703],[-122.29408,37.58701],[-122.29622,37.58791],[-122.32405,37.59961],[-122.34698,37.60924],[-122.35702,37.6135],[-122.85418,38.51867],[-122.84369,38.48437],[-122.82028,38.40544],[-122.80621,38.35757],[-122.78939,38.29986],[-122.77062,38.23534],[-122.76453,38.2146],[-122.75846,38.19401]],"type":"LineString"}
}
