{
  "id": 2031154225,
  "type": "Feature",
  "properties": {
    "geom:area": 0,
    "geom:bbox": "-122.456667,37.650000,-74.181111,41.467500",
    "geom:latitude": 39.47592157863747,
    "geom:longitude": -98.18811296561171,
    "src:alt_label": "swim-path",
    "src:geom": "swim",
    "swim:altitudes": [
      "030",
      "087",
      "087",
      "101",
      "101",
      "132",
      "132",
      "132",
      "219",
      "219",
      "219",
      "237",
      "251",
      "251",
      "279",
      "279",
      "279",
      "315",
      "315",
      "315",
      "351",
      "351",
      "351",
      "370C",
      "370C",
      "370C",
      "370C",
      "370C",
      "370C",
      "370C",
      "370C",
      "370C",
      "370C",
      "370C",
      "370C",
      "370C",
      "370C",
      "370C",
      "370C",
      "370C",
      "370C",
      "370C",
      "370C",
      "370C",
      "370C",
      "370C",
      "370C",
      "370C",
      "370C",
      "370C",
      "370C",
      "370C",
      "370C",
      "370C",
      "370C",
      "370C",
      "370C",
      "370C",
      "370C",
      "370C",
      "370C",
      "370C",
      "370C",
      "370C",
      "370C",
      "370C",
      "370C",
      "370C",
      "370C",
      "370C",
      "370C",
      "370C",
      "370C",
      "370C",
      "370C",
      "370C",
      "370C",
      "370C",
      "370C",
      "370C",
      "370C",
      "370C",
      "370C",
      "370C",
      "370C",
      "370C",
      "370C",
      "370C",
      "370C",
      "370C",
      "370C",
      "370C",
      "370C",
      "370C",
      "370C",
      "370C",
      "370C",
      "370C",
      "370C",
      "370C",
      "370C",
      "370C",
      "370C",
      "370C",
      "370C",
      "370C",
      "370C",
      "370C",
      "370C",
      "370C",
      "370C",
      "370C",
      "370C",
      "370C",
      "370C",
      "370C",
      "370C",
      "370C",
      "370C",
      "370C",
      "370C",
      "370C",
      "370C",
      "370C",
      "370C",
      "370C",
      "370C",
      "370C",
      "370C",
      "370C",
      "370C",
      "370C",
      "370C",
      "370C",
      "370C",
      "370C",
      "370C",
      "370C",
      "370C",
      "370C",
      "370C",
      "370C",
      "370C",
      "370C",
      "370C",
      "370C",
      "370C",
      "370C",
      "370C",
      "370C",
      "370C",
      "370C",
      "370C",
      "370C",
      "370C",
      "370C",
      "370C",
      "370C",
      "370C",
      "370C",
      "370C",
      "370C",
      "370C",
      "370C",
      "370C",
      "370C",
      "370C",
      "370C",
      "370C",
      "370C",
      "370C",
      "370C",
      "370C",
      "370C",
      "370C",
      "370C",
      "370C",
      "370C",
      "370C",
      "370C",
      "370C",
      "370C",
      "370C",
      "370C",
      "370C",
      "370C",
      "370C",
      "370C",
      "370C",
      "370C",
      "370C",
      "370C",
      "370C",
      "370C",
      "370C",
      "370C",
      "370C",
      "370C",
      "370C",
      "370C",
      "370C",
      "370C",
      "370C",
      "370C",
      "370C",
      "370C",
      "370C",
      "370C",
      "370C",
      "370C",
      "370C",
      "370C",
      "370C",
      "370C",
      "370C",
      "370C",
      "370C",
      "370C",
      "370C",
      "370C",
      "370C",
      "370C",
      "370C",
      "370C",
      "370C",
      "370C",
      "370C",
      "370C",
      "370C",
      "370C",
      "370C",
      "370C",
      "370C",
      "370C",
      "370C",
      "370C",
      "370C",
      "370C",
      "370C",
      "370C",
      "370C",
      "370C",
      "370C",
      "370C",
      "370C",
      "370C",
      "370C",
      "370C",
      "370C",
      "370C",
      "370C",
      "370C",
      "370C",
      "370C",
      "370C",
      "370C",
      "370C",
      "370C",
      "370C",
      "370C",
      "370C",
      "370C",
      "370C",
      "370C",
      "370C",
      "370C",
      "370C",
      "370C",
      "370C",
      "370C",
      "370C",
      "370C",
      "370C",
      "370C",
      "370C",
      "370C",
      "370C",
      "370C",
      "370C",
      "370C",
      "370C",
      "370C",
      "370C",
      "370C",
      "370C",
      "370C",
      "370C",
      "370C",
      "370C",
      "370C",
      "370C",
      "370C",
      "370C",
      "370C",
      "370C",
      "370C",
      "370C",
      "370C",
      "370C",
      "370C",
      "370C",
      "370C",
      "370C",
      "370C",
      "370C",
      "370C",
      "370C",
      "370C",
      "370C",
      "370C",
      "370C",
      "370C",
      "370C",
      "370C",
      "370C",
      "370C",
      "370C",
      "370C",
      "370C",
      "370C",
      "370C",
      "370C",
      "370C",
      "370C",
      "370C",
      "370C",
      "370C",
      "370C",
      "370C",
      "370C",
      "370C",
      "370C",
      "370C",
      "370C",
      "365",
      "336",
      "312",
      "312",
      "305",
      "288",
      "281",
      "281",
      "238",
      "232",
      "232",
      "204",
      "137",
      "114",
      "114",
      "114",
      "107",
      "093",
      "077",
      "077",
      "062",
      "060",
      "060",
      "042",
      "040",
      "040",
      "030",
      "030",
      "030",
      "030",
      "022",
      "022",
      "005",
      "005",
      "004"
    ],
    "swim:geom": "path",
    "swim:speeds": [
      186,
      276,
      276,
      365,
      365,
      364,
      364,
      364,
      421,
      421,
      421,
      434,
      447,
      447,
      475,
      475,
      475,
      510,
      510,
      510,
      523,
      523,
      523,
      521,
      521,
      521,
      520,
      520,
      519,
      520,
      520,
      520,
      524,
      523,
      523,
      523,
      523,
      523,
      523,
      524,
      524,
      526,
      526,
      526,
      527,
      527,
      527,
      527,
      527,
      527,
      525,
      525,
      525,
      525,
      527,
      528,
      528,
      528,
      528,
      528,
      528,
      529,
      529,
      529,
      530,
      530,
      533,
      533,
      533,
      533,
      533,
      535,
      535,
      535,
      544,
      542,
      543,
      543,
      543,
      543,
      545,
      545,
      547,
      547,
      547,
      547,
      548,
      548,
      548,
      548,
      549,
      549,
      549,
      550,
      550,
      550,
      550,
      552,
      552,
      553,
      554,
      554,
      559,
      559,
      559,
      559,
      564,
      564,
      564,
      566,
      571,
      571,
      571,
      575,
      575,
      575,
      576,
      576,
      577,
      577,
      577,
      579,
      579,
      579,
      582,
      582,
      583,
      583,
      583,
      583,
      583,
      583,
      583,
      583,
      583,
      584,
      584,
      585,
      589,
      589,
      588,
      588,
      588,
      588,
      588,
      587,
      587,
      590,
      590,
      588,
      588,
      591,
      591,
      588,
      588,
      591,
      591,
      589,
      592,
      593,
      589,
      589,
      594,
      594,
      593,
      593,
      594,
      598,
      598,
      598,
      595,
      595,
      597,
      597,
      597,
      596,
      596,
      596,
      596,
      596,
      596,
      597,
      597,
      597,
      597,
      597,
      598,
      598,
      598,
      598,
      598,
      598,
      598,
      599,
      599,
      599,
      599,
      601,
      601,
      601,
      601,
      601,
      601,
      601,
      602,
      602,
      602,
      602,
      602,
      602,
      602,
      602,
      602,
      602,
      602,
      602,
      604,
      604,
      604,
      604,
      604,
      604,
      604,
      604,
      604,
      605,
      605,
      605,
      606,
      606,
      607,
      607,
      606,
      606,
      606,
      606,
      606,
      606,
      606,
      606,
      606,
      606,
      605,
      605,
      605,
      596,
      596,
      595,
      595,
      593,
      589,
      589,
      589,
      587,
      587,
      584,
      584,
      582,
      582,
      582,
      583,
      583,
      583,
      583,
      583,
      583,
      584,
      584,
      584,
      584,
      584,
      584,
      584,
      584,
      583,
      583,
      583,
      582,
      582,
      582,
      582,
      582,
      582,
      582,
      582,
      582,
      582,
      582,
      580,
      580,
      579,
      579,
      579,
      581,
      581,
      578,
      578,
      576,
      576,
      575,
      575,
      574,
      567,
      567,
      546,
      546,
      546,
      545,
      545,
      544,
      543,
      543,
      537,
      537,
      539,
      539,
      544,
      543,
      542,
      543,
      543,
      526,
      526,
      519,
      519,
      518,
      521,
      521,
      521,
      520,
      520,
      522,
      521,
      520,
      520,
      515,
      505,
      505,
      492,
      473,
      465,
      465,
      446,
      441,
      441,
      417,
      367,
      320,
      320,
      320,
      302,
      298,
      292,
      292,
      287,
      284,
      284,
      283,
      271,
      271,
      180,
      180,
      173,
      173,
      171,
      171,
      149,
      149,
      149
    ],
    "swim:timestamps": [
      1777581471,
      1777581624,
      1777581624,
      1777581744,
      1777581744,
      1777581804,
      1777581804,
      1777581804,
      1777582044,
      1777582044,
      1777582044,
      1777582105,
      1777582165,
      1777582165,
      1777582285,
      1777582285,
      1777582285,
      1777582465,
      1777582465,
      1777582465,
      1777582645,
      1777582645,
      1777582645,
      1777582826,
      1777582826,
      1777582826,
      1777582886,
      1777582886,
      1777583006,
      1777583126,
      1777583126,
      1777583126,
      1777583188,
      1777583246,
      1777583246,
      1777583306,
      1777583306,
      1777583306,
      1777583366,
      1777583426,
      1777583426,
      1777583547,
      1777583547,
      1777583547,
      1777583607,
      1777583607,
      1777583787,
      1777583787,
      1777583787,
      1777583847,
      1777584029,
      1777584029,
      1777584029,
      1777584029,
      1777584329,
      1777584389,
      1777584389,
      1777584389,
      1777584449,
      1777584509,
      1777584509,
      1777584569,
      1777584569,
      1777584569,
      1777584630,
      1777584630,
      1777584750,
      1777584750,
      1777584750,
      1777584750,
      1777584870,
      1777584990,
      1777584990,
      1777584990,
      1777585324,
      1777585351,
      1777585411,
      1777585411,
      1777585471,
      1777585471,
      1777585505,
      1777585505,
      1777585651,
      1777585651,
      1777585651,
      1777585651,
      1777585685,
      1777585771,
      1777585771,
      1777585771,
      1777585817,
      1777585817,
      1777585891,
      1777585937,
      1777585937,
      1777585937,
      1777585951,
      1777586057,
      1777586057,
      1777586132,
      1777586178,
      1777586178,
      1777586298,
      1777586298,
      1777586298,
      1777586298,
      1777586418,
      1777586418,
      1777586418,
      1777586478,
      1777586658,
      1777586658,
      1777586658,
      1777586839,
      1777586839,
      1777586839,
      1777586899,
      1777586899,
      1777586959,
      1777586959,
      1777586959,
      1777587019,
      1777587019,
      1777587019,
      1777587139,
      1777587139,
      1777587199,
      1777587199,
      1777587259,
      1777587259,
      1777587259,
      1777587319,
      1777587319,
      1777587379,
      1777587379,
      1777587439,
      1777587439,
      1777587500,
      1777587567,
      1777587567,
      1777587620,
      1777587620,
      1777587627,
      1777587627,
      1777587627,
      1777587687,
      1777587687,
      1777587740,
      1777587740,
      1777587867,
      1777587867,
      1777587920,
      1777587920,
      1777587927,
      1777587927,
      1777588040,
      1777588040,
      1777588048,
      1777588100,
      1777588161,
      1777588168,
      1777588168,
      1777588221,
      1777588221,
      1777588228,
      1777588228,
      1777588281,
      1777588348,
      1777588348,
      1777588348,
      1777588461,
      1777588461,
      1777588468,
      1777588468,
      1777588468,
      1777588588,
      1777588649,
      1777588649,
      1777588701,
      1777588701,
      1777588701,
      1777588761,
      1777588761,
      1777588769,
      1777588769,
      1777588769,
      1777588889,
      1777589002,
      1777589009,
      1777589009,
      1777589009,
      1777589009,
      1777589062,
      1777589182,
      1777589182,
      1777589182,
      1777589182,
      1777589310,
      1777589310,
      1777589310,
      1777589310,
      1777589370,
      1777589370,
      1777589370,
      1777589430,
      1777589490,
      1777589490,
      1777589490,
      1777589550,
      1777589670,
      1777589670,
      1777589670,
      1777589670,
      1777590031,
      1777590031,
      1777590031,
      1777590211,
      1777590211,
      1777590331,
      1777590331,
      1777590331,
      1777590391,
      1777590391,
      1777590391,
      1777590391,
      1777590572,
      1777590572,
      1777590572,
      1777590692,
      1777590692,
      1777590812,
      1777590812,
      1777590872,
      1777590872,
      1777590872,
      1777590872,
      1777590932,
      1777590932,
      1777590932,
      1777590932,
      1777591052,
      1777591052,
      1777591173,
      1777591173,
      1777591173,
      1777591413,
      1777591413,
      1777591473,
      1777591473,
      1777591566,
      1777591593,
      1777591593,
      1777591593,
      1777591626,
      1777591626,
      1777591713,
      1777591713,
      1777591774,
      1777591774,
      1777591834,
      1777591867,
      1777591867,
      1777591891,
      1777591891,
      1777591951,
      1777591951,
      1777591987,
      1777591987,
      1777591987,
      1777591987,
      1777592047,
      1777592071,
      1777592131,
      1777592131,
      1777592167,
      1777592167,
      1777592191,
      1777592227,
      1777592227,
      1777592227,
      1777592468,
      1777592468,
      1777592468,
      1777592468,
      1777592528,
      1777592528,
      1777592528,
      1777592528,
      1777592648,
      1777592648,
      1777592805,
      1777592805,
      1777592805,
      1777592865,
      1777592865,
      1777592948,
      1777592948,
      1777592985,
      1777592985,
      1777593009,
      1777593009,
      1777593045,
      1777593309,
      1777593309,
      1777593406,
      1777593406,
      1777593406,
      1777593429,
      1777593429,
      1777593466,
      1777593526,
      1777593526,
      1777593706,
      1777593706,
      1777593790,
      1777593790,
      1777593886,
      1777593947,
      1777593979,
      1777594067,
      1777594067,
      1777594159,
      1777594159,
      1777594247,
      1777594247,
      1777594400,
      1777594580,
      1777594640,
      1777594640,
      1777594760,
      1777594760,
      1777594820,
      1777594880,
      1777594941,
      1777595149,
      1777595241,
      1777595449,
      1777595449,
      1777595481,
      1777595541,
      1777595569,
      1777595569,
      1777595722,
      1777595750,
      1777595750,
      1777595842,
      1777596082,
      1777596202,
      1777596202,
      1777596202,
      1777596247,
      1777596307,
      1777596383,
      1777596383,
      1777596503,
      1777596563,
      1777596563,
      1777596683,
      1777596727,
      1777596727,
      1777597044,
      1777597044,
      1777597087,
      1777597147,
      1777597208,
      1777597208,
      1777597328,
      1777597328,
      1777597344
    ],
    "wof:geomhash": "d8e13837229544af14e99a10d06548d3",
    "wof:id": 2031154225,
    "wof:repo": "sfomuseum-data-flights-2026-04"
  },
  "bbox": [
    -122.45666666666666,
    37.65,
    -74.18111111111112,
    41.4675
  ],
  "geometry": {"coordinates":[[-122.45,37.65],[-122.45666666666666,37.74638888888889],[-122.45666666666666,37.74638888888889],[-122.23833333333333,37.785555555555554],[-122.23833333333333,37.785555555555554],[-122.11333333333333,37.808611111111105],[-122.11333333333333,37.808611111111105],[-122.11333333333333,37.808611111111105],[-121.55027777777778,37.91138888888889],[-121.55027777777778,37.91138888888889],[-121.55027777777778,37.91138888888889],[-121.40277777777779,37.937777777777775],[-121.25055555555555,37.965],[-121.25055555555555,37.965],[-120.93083333333334,38.01777777777777],[-120.93083333333334,38.01777777777777],[-120.93083333333334,38.01777777777777],[-120.41638888888889,38.09583333333334],[-120.41638888888889,38.09583333333334],[-120.41638888888889,38.09583333333334],[-119.87527777777777,38.17583333333333],[-119.87527777777777,38.17583333333333],[-119.87527777777777,38.17583333333333],[-119.35083333333333,38.25055555555556],[-119.35083333333333,38.25055555555556],[-119.35083333333333,38.25055555555556],[-119.17222222222223,38.275277777777774],[-119.17222222222223,38.275277777777774],[-118.81277777777777,38.324444444444445],[-118.45083333333334,38.37277777777778],[-118.45083333333334,38.37277777777778],[-118.45083333333334,38.37277777777778],[-118.24555555555555,38.39972222222222],[-118.06138888888889,38.42388888888889],[-118.06138888888889,38.42388888888889],[-117.87583333333333,38.4475],[-117.87583333333333,38.4475],[-117.87583333333333,38.4475],[-117.6913888888889,38.470555555555556],[-117.50833333333334,38.49333333333333],[-117.50833333333334,38.49333333333333],[-117.13194444444444,38.52861111111111],[-117.13194444444444,38.52861111111111],[-117.13194444444444,38.52861111111111],[-116.94305555555556,38.538333333333334],[-116.94305555555556,38.538333333333334],[-116.41777777777779,38.56333333333333],[-116.41777777777779,38.56333333333333],[-116.41777777777779,38.56333333333333],[-116.22944444444444,38.57166666666667],[-115.63527777777779,38.59638888888889],[-115.63527777777779,38.59638888888889],[-115.63527777777779,38.59638888888889],[-115.63527777777779,38.59638888888889],[-114.70194444444445,38.62861111111111],[-114.51583333333333,38.634166666666665],[-114.51583333333333,38.634166666666665],[-114.51583333333333,38.634166666666665],[-114.3275,38.63972222222222],[-114.1413888888889,38.64472222222222],[-114.1413888888889,38.64472222222222],[-113.95111111111112,38.64944444444444],[-113.95111111111112,38.64944444444444],[-113.95111111111112,38.64944444444444],[-113.76416666666667,38.65361111111111],[-113.76416666666667,38.65361111111111],[-113.38305555555554,38.66166666666666],[-113.38305555555554,38.66166666666666],[-113.38305555555554,38.66166666666666],[-113.38305555555554,38.66166666666666],[-113.00166666666667,38.66861111111111],[-112.62166666666666,38.674166666666665],[-112.62166666666666,38.674166666666665],[-112.62166666666666,38.674166666666665],[-111.575,38.68277777777777],[-111.50361111111111,38.683055555555555],[-111.30944444444444,38.683611111111105],[-111.30944444444444,38.683611111111105],[-111.11777777777777,38.683611111111105],[-111.11777777777777,38.683611111111105],[-110.995,38.683611111111105],[-110.995,38.683611111111105],[-110.53027777777778,38.68222222222222],[-110.53027777777778,38.68222222222222],[-110.53027777777778,38.68222222222222],[-110.53027777777778,38.68222222222222],[-110.415,38.681666666666665],[-110.14194444444445,38.67944444444444],[-110.14194444444445,38.67944444444444],[-110.14194444444445,38.67944444444444],[-109.98555555555555,38.67861111111111],[-109.98555555555555,38.67861111111111],[-109.7538888888889,38.69611111111111],[-109.59888888888888,38.711111111111116],[-109.59888888888888,38.711111111111116],[-109.59888888888888,38.711111111111116],[-109.52222222222223,38.718333333333334],[-109.21333333333334,38.7475],[-109.21333333333334,38.7475],[-108.93833333333333,38.7725],[-108.82083333333333,38.783055555555556],[-108.82083333333333,38.783055555555556],[-108.39111111111112,38.82055555555556],[-108.39111111111112,38.82055555555556],[-108.39111111111112,38.82055555555556],[-108.39111111111112,38.82055555555556],[-107.99194444444444,38.85416666666667],[-107.99194444444444,38.85416666666667],[-107.99194444444444,38.85416666666667],[-107.79305555555555,38.87027777777778],[-107.1863888888889,38.91722222222222],[-107.1863888888889,38.91722222222222],[-107.1863888888889,38.91722222222222],[-106.57555555555555,38.96138888888889],[-106.57555555555555,38.96138888888889],[-106.57555555555555,38.96138888888889],[-106.37277777777777,38.97527777777778],[-106.37277777777777,38.97527777777778],[-106.16972222222223,38.98888888888889],[-106.16972222222223,38.98888888888889],[-106.16972222222223,38.98888888888889],[-105.96361111111112,39.00222222222222],[-105.96361111111112,39.00222222222222],[-105.96361111111112,39.00222222222222],[-105.54861111111111,39.03194444444444],[-105.54861111111111,39.03194444444444],[-105.34194444444444,39.04194444444444],[-105.34194444444444,39.04194444444444],[-105.13694444444445,39.03777777777778],[-105.13694444444445,39.03777777777778],[-105.13694444444445,39.03777777777778],[-104.92833333333334,39.03138888888889],[-104.92833333333334,39.03138888888889],[-104.72527777777778,39.025277777777774],[-104.72527777777778,39.025277777777774],[-104.51583333333333,39.01833333333333],[-104.51583333333333,39.01833333333333],[-104.30944444444444,39.01138888888889],[-104.08166666666666,39.00416666666667],[-104.08166666666666,39.00416666666667],[-103.89361111111111,39.00833333333333],[-103.89361111111111,39.00833333333333],[-103.87472222222222,39.00472222222222],[-103.87472222222222,39.00472222222222],[-103.87472222222222,39.00472222222222],[-103.66444444444446,39.024166666666666],[-103.66444444444446,39.024166666666666],[-103.47555555555556,39.04138888888889],[-103.47555555555556,39.04138888888889],[-103.03472222222221,39.07361111111111],[-103.03472222222221,39.07361111111111],[-102.8475,39.088055555555556],[-102.8475,39.088055555555556],[-102.82527777777777,39.087500000000006],[-102.82527777777777,39.087500000000006],[-102.40138888888889,39.11888888888889],[-102.40138888888889,39.11888888888889],[-102.40555555555557,39.117777777777775],[-102.19083333333333,39.132777777777775],[-101.9786111111111,39.14666666666667],[-101.98388888888888,39.14555555555555],[-101.98388888888888,39.14555555555555],[-101.76722222222222,39.15972222222222],[-101.76722222222222,39.15972222222222],[-101.77055555555556,39.15888888888889],[-101.77055555555556,39.15888888888889],[-101.55444444444444,39.172777777777775],[-101.34777777777778,39.184999999999995],[-101.34777777777778,39.184999999999995],[-101.34777777777778,39.184999999999995],[-100.92083333333333,39.20888888888889],[-100.92083333333333,39.20888888888889],[-100.92083333333333,39.20888888888889],[-100.92083333333333,39.20888888888889],[-100.92083333333333,39.20888888888889],[-100.49361111111111,39.231388888888894],[-100.28416666666666,39.24194444444444],[-100.28416666666666,39.24194444444444],[-100.07166666666666,39.249722222222225],[-100.07166666666666,39.249722222222225],[-100.07166666666666,39.249722222222225],[-99.86055555555555,39.255833333333335],[-99.86055555555555,39.255833333333335],[-99.85527777777777,39.255833333333335],[-99.85527777777777,39.255833333333335],[-99.85527777777777,39.255833333333335],[-99.39972222222222,39.26888888888889],[-99.00527777777778,39.27916666666667],[-98.97083333333333,39.27972222222222],[-98.97083333333333,39.27972222222222],[-98.97083333333333,39.27972222222222],[-98.97083333333333,39.27972222222222],[-98.80722222222222,39.28361111111111],[-98.37888888888888,39.29194444444444],[-98.37888888888888,39.29194444444444],[-98.37888888888888,39.29194444444444],[-98.37888888888888,39.29194444444444],[-97.91194444444444,39.29944444444444],[-97.91194444444444,39.29944444444444],[-97.91194444444444,39.29944444444444],[-97.91194444444444,39.29944444444444],[-97.69611111111111,39.30222222222222],[-97.69611111111111,39.30222222222222],[-97.69611111111111,39.30222222222222],[-97.47833333333334,39.30444444444444],[-97.2675,39.305277777777775],[-97.2675,39.305277777777775],[-97.2675,39.305277777777775],[-97.04888888888888,39.30555555555555],[-96.62027777777777,39.305277777777775],[-96.62027777777777,39.305277777777775],[-96.62027777777777,39.305277777777775],[-96.62027777777777,39.305277777777775],[-95.30805555555555,39.29472222222222],[-95.30805555555555,39.29472222222222],[-95.30805555555555,39.29472222222222],[-94.66027777777778,39.2925],[-94.66027777777778,39.2925],[-94.22833333333334,39.33027777777778],[-94.22833333333334,39.33027777777778],[-94.22833333333334,39.33027777777778],[-94.015,39.348333333333336],[-94.015,39.348333333333336],[-94.015,39.348333333333336],[-94.015,39.348333333333336],[-93.38416666666667,39.39972222222222],[-93.38416666666667,39.39972222222222],[-93.38416666666667,39.39972222222222],[-92.95055555555555,39.43277777777777],[-92.95055555555555,39.43277777777777],[-92.51944444444445,39.464444444444446],[-92.51944444444445,39.464444444444446],[-92.30555555555556,39.47916666666667],[-92.30555555555556,39.47916666666667],[-92.30555555555556,39.47916666666667],[-92.30555555555556,39.47916666666667],[-92.0911111111111,39.47833333333333],[-92.0911111111111,39.47833333333333],[-92.0911111111111,39.47833333333333],[-92.0911111111111,39.47833333333333],[-91.65722222222223,39.470555555555556],[-91.65722222222223,39.470555555555556],[-91.22777777777777,39.50888888888889],[-91.22777777777777,39.50888888888889],[-91.22777777777777,39.50888888888889],[-90.3711111111111,39.58694444444445],[-90.3711111111111,39.58694444444445],[-90.15555555555557,39.605555555555554],[-90.15555555555557,39.605555555555554],[-89.81861111111111,39.63388888888889],[-89.73444444444445,39.64083333333333],[-89.73444444444445,39.64083333333333],[-89.73444444444445,39.64083333333333],[-89.6086111111111,39.651111111111106],[-89.6086111111111,39.651111111111106],[-89.3125,39.67472222222222],[-89.3125,39.67472222222222],[-89.08277777777778,39.692499999999995],[-89.08277777777778,39.692499999999995],[-88.87249999999999,39.708333333333336],[-88.77277777777778,39.71555555555556],[-88.77277777777778,39.71555555555556],[-88.66444444444446,39.72361111111111],[-88.66444444444446,39.72361111111111],[-88.45694444444445,39.73833333333334],[-88.45694444444445,39.73833333333334],[-88.35555555555555,39.745555555555555],[-88.35555555555555,39.745555555555555],[-88.35555555555555,39.745555555555555],[-88.35555555555555,39.745555555555555],[-88.1261111111111,39.76138888888889],[-88.04166666666667,39.76694444444444],[-87.82638888888889,39.78111111111111],[-87.82638888888889,39.78111111111111],[-87.70722222222223,39.788888888888884],[-87.70722222222223,39.788888888888884],[-87.61833333333333,39.79472222222222],[-87.49833333333333,39.80222222222222],[-87.49833333333333,39.80222222222222],[-87.49833333333333,39.80222222222222],[-86.69027777777778,39.849722222222226],[-86.69027777777778,39.849722222222226],[-86.69027777777778,39.849722222222226],[-86.69027777777778,39.849722222222226],[-86.465,39.86194444444445],[-86.465,39.86194444444445],[-86.465,39.86194444444445],[-86.465,39.86194444444445],[-86.05388888888889,39.925],[-86.05388888888889,39.925],[-85.52833333333334,40.02361111111111],[-85.52833333333334,40.02361111111111],[-85.52833333333334,40.02361111111111],[-85.32166666666666,40.06166666666666],[-85.32166666666666,40.06166666666666],[-85.05222222222221,40.11055555555556],[-85.05222222222221,40.11055555555556],[-84.91722222222222,40.13472222222222],[-84.91722222222222,40.13472222222222],[-84.84194444444444,40.14833333333333],[-84.84194444444444,40.14833333333333],[-84.71611111111112,40.17055555555555],[-83.81416666666667,40.32777777777778],[-83.81416666666667,40.32777777777778],[-83.53472222222221,40.43611111111111],[-83.53472222222221,40.43611111111111],[-83.53472222222221,40.43611111111111],[-83.46194444444444,40.471111111111114],[-83.46194444444444,40.471111111111114],[-83.36805555555554,40.51638888888889],[-83.19888888888889,40.59777777777778],[-83.19888888888889,40.59777777777778],[-82.70361111111112,40.83388888888889],[-82.70361111111112,40.83388888888889],[-82.46194444444444,40.93333333333333],[-82.46194444444444,40.93333333333333],[-82.1563888888889,41.00805555555556],[-81.96694444444445,41.05277777777778],[-81.86472222222221,41.07277777777778],[-81.58749999999999,41.14083333333333],[-81.58749999999999,41.14083333333333],[-81.30194444444444,41.20388888888889],[-81.30194444444444,41.20388888888889],[-81.04694444444445,41.26277777777778],[-81.04694444444445,41.26277777777778],[-80.57111111111111,41.36694444444444],[-79.9975,41.41611111111111],[-79.80416666666666,41.42722222222222],[-79.80416666666666,41.42722222222222],[-79.41972222222223,41.447222222222216],[-79.41972222222223,41.447222222222216],[-79.20416666666667,41.45861111111111],[-79.02027777777778,41.4675],[-78.82777777777777,41.46416666666667],[-78.18777777777778,41.397777777777776],[-77.88583333333334,41.36472222222223],[-77.25666666666666,41.29222222222222],[-77.25666666666666,41.29222222222222],[-77.15055555555556,41.27972222222222],[-76.97944444444444,41.259166666666665],[-76.9113888888889,41.25083333333333],[-76.9113888888889,41.25083333333333],[-76.49027777777778,41.19916666666666],[-76.4225,41.190555555555555],[-76.4225,41.190555555555555],[-76.17166666666667,41.15888888888889],[-75.63111111111111,41.02722222222222],[-75.39666666666668,40.961666666666666],[-75.39666666666668,40.961666666666666],[-75.39666666666668,40.961666666666666],[-75.31666666666666,40.93333333333333],[-75.21666666666667,40.916666666666664],[-75.09277777777777,40.87638888888889],[-75.09277777777777,40.87638888888889],[-74.89222222222223,40.82416666666667],[-74.79527777777777,40.797777777777775],[-74.79527777777777,40.797777777777775],[-74.65111111111112,40.69611111111111],[-74.6,40.65],[-74.6,40.65],[-74.31166666666667,40.46055555555556],[-74.31166666666667,40.46055555555556],[-74.28333333333333,40.5],[-74.26666666666667,40.53333333333333],[-74.23333333333333,40.583333333333336],[-74.23333333333333,40.583333333333336],[-74.18333333333334,40.65],[-74.18333333333334,40.65],[-74.18111111111112,40.66694444444444]],"type":"LineString"}
}
