{
  "id": 2031108725,
  "type": "Feature",
  "properties": {
    "geom:area": 0,
    "geom:bbox": "-122.751944,37.437778,-110.140278,49.998056",
    "geom:latitude": 44.34117643910914,
    "geom:longitude": -117.50174011260621,
    "src:alt_label": "swim-path",
    "src:geom": "swim",
    "swim:altitudes": [
      "400C",
      "400C",
      "400C",
      "400C",
      "400C",
      "400C",
      "400C",
      "400C",
      "400C",
      "400C",
      "400C",
      "400C",
      "400C",
      "400C",
      "400C",
      "400C",
      "400C",
      "400C",
      "400C",
      "400C",
      "400C",
      "400C",
      "400C",
      "400C",
      "400C",
      "400C",
      "400C",
      "400C",
      "400C",
      "400C",
      "400C",
      "400C",
      "400C",
      "400C",
      "400C",
      "400C",
      "400C",
      "400C",
      "400C",
      "400C",
      "400C",
      "400C",
      "400C",
      "400C",
      "400C",
      "400C",
      "400C",
      "400C",
      "400C",
      "400C",
      "400C",
      "400C",
      "400C",
      "400C",
      "400C",
      "400C",
      "400C",
      "400C",
      "400C",
      "400C",
      "400C",
      "400C",
      "400C",
      "400C",
      "400C",
      "400C",
      "400C",
      "400C",
      "400C",
      "400C",
      "400C",
      "400C",
      "400C",
      "400C",
      "400C",
      "400C",
      "400C",
      "400C",
      "400C",
      "400C",
      "400C",
      "400C",
      "400C",
      "400C",
      "400C",
      "400C",
      "400C",
      "400C",
      "400C",
      "400C",
      "400C",
      "400C",
      "400C",
      "400C",
      "400C",
      "400C",
      "400C",
      "400C",
      "400C",
      "400C",
      "400C",
      "400C",
      "400C",
      "400C",
      "400C",
      "400C",
      "400C",
      "400C",
      "400C",
      "400C",
      "400C",
      "400C",
      "400C",
      "400C",
      "400C",
      "400C",
      "400C",
      "400C",
      "400C",
      "400C",
      "400C",
      "400C",
      "400C",
      "400C",
      "400C",
      "400C",
      "400C",
      "400C",
      "400C",
      "400C",
      "400C",
      "400C",
      "400C",
      "400C",
      "400C",
      "400C",
      "400C",
      "400C",
      "400C",
      "400C",
      "400C",
      "400C",
      "400C",
      "400C",
      "400C",
      "400C",
      "400C",
      "400C",
      "400C",
      "400C",
      "400C",
      "400C",
      "400C",
      "400C",
      "400C",
      "400C",
      "400C",
      "400C",
      "400C",
      "400C",
      "400C",
      "400C",
      "400C",
      "400C",
      "400C",
      "400C",
      "400C",
      "400C",
      "400C",
      "400C",
      "400C",
      "400C",
      "400C",
      "400C",
      "400C",
      "400C",
      "400C",
      "400C",
      "400C",
      "400C",
      "400C",
      "400C",
      "400C",
      "400C",
      "400C",
      "400C",
      "400C",
      "400C",
      "400C",
      "400C",
      "400C",
      "400C",
      "400C",
      "400C",
      "400C",
      "400C",
      "400C",
      "400C",
      "400C",
      "400C",
      "400C",
      "400C",
      "400C",
      "400C",
      "400C",
      "400C",
      "400C",
      "400C",
      "400C",
      "400C",
      "400C",
      "400C",
      "400C",
      "400C",
      "400C",
      "400C",
      "400C",
      "400C",
      "400C",
      "400C",
      "400C",
      "400C",
      "400C",
      "400C",
      "400C",
      "400C",
      "400C",
      "400C",
      "400C",
      "400C",
      "400C",
      "400C",
      "400C",
      "400C",
      "400C",
      "400C",
      "400C",
      "400C",
      "400C",
      "400C",
      "400C",
      "400C",
      "400C",
      "400C",
      "400C",
      "400C",
      "400C",
      "400C",
      "400C",
      "400C",
      "400C",
      "400C",
      "400C",
      "400C",
      "400C",
      "400C",
      "400C",
      "400C",
      "400C",
      "400C",
      "400C",
      "400C",
      "400C",
      "400C",
      "400C",
      "400",
      "400",
      "400",
      "400",
      "400",
      "400",
      "400",
      "400",
      "400",
      "394",
      "394",
      "394",
      "394",
      "394",
      "364",
      "332",
      "314",
      "314",
      "298",
      "298",
      "298",
      "298",
      "279",
      "279",
      "279",
      "279",
      "240",
      "240",
      "223",
      "223",
      "223",
      "190",
      "190",
      "173",
      "173",
      "166",
      "166",
      "155",
      "118",
      "118",
      "118",
      "118",
      "118",
      "111C",
      "111C",
      "110",
      "110",
      "110",
      "110",
      "085",
      "085",
      "081",
      "063",
      "063",
      "060",
      "060",
      "060",
      "044",
      "044",
      "044",
      "044",
      "015",
      "015",
      "013",
      "013",
      "013"
    ],
    "swim:geom": "path",
    "swim:speeds": [
      498,
      498,
      498,
      498,
      498,
      491,
      491,
      491,
      491,
      491,
      491,
      491,
      490,
      490,
      491,
      491,
      491,
      491,
      491,
      491,
      491,
      491,
      491,
      491,
      491,
      492,
      492,
      492,
      491,
      492,
      493,
      493,
      493,
      493,
      493,
      493,
      493,
      493,
      493,
      493,
      493,
      493,
      498,
      498,
      498,
      498,
      498,
      498,
      498,
      498,
      498,
      498,
      496,
      497,
      497,
      497,
      497,
      493,
      493,
      493,
      493,
      493,
      493,
      493,
      493,
      493,
      493,
      493,
      489,
      489,
      489,
      488,
      488,
      488,
      488,
      488,
      488,
      488,
      488,
      488,
      489,
      489,
      489,
      489,
      489,
      489,
      489,
      489,
      489,
      489,
      489,
      488,
      488,
      488,
      487,
      487,
      487,
      483,
      483,
      483,
      483,
      482,
      482,
      482,
      482,
      482,
      482,
      482,
      482,
      482,
      482,
      482,
      482,
      482,
      482,
      482,
      482,
      482,
      482,
      483,
      483,
      483,
      483,
      483,
      483,
      482,
      482,
      482,
      482,
      481,
      481,
      481,
      480,
      480,
      480,
      480,
      479,
      479,
      479,
      479,
      479,
      479,
      480,
      480,
      480,
      483,
      483,
      484,
      484,
      484,
      483,
      483,
      483,
      483,
      483,
      481,
      481,
      479,
      478,
      478,
      478,
      478,
      478,
      478,
      478,
      478,
      479,
      479,
      479,
      479,
      479,
      479,
      476,
      476,
      476,
      476,
      476,
      476,
      477,
      477,
      476,
      476,
      476,
      476,
      476,
      476,
      476,
      476,
      476,
      476,
      476,
      476,
      476,
      476,
      476,
      476,
      482,
      482,
      482,
      483,
      483,
      483,
      483,
      483,
      486,
      486,
      486,
      486,
      486,
      480,
      480,
      480,
      479,
      479,
      479,
      479,
      478,
      478,
      473,
      473,
      473,
      473,
      473,
      472,
      472,
      469,
      469,
      469,
      469,
      469,
      467,
      459,
      459,
      459,
      459,
      459,
      457,
      457,
      460,
      460,
      460,
      460,
      460,
      468,
      468,
      473,
      473,
      473,
      473,
      473,
      465,
      465,
      465,
      465,
      462,
      462,
      462,
      462,
      460,
      460,
      460,
      460,
      460,
      460,
      460,
      463,
      463,
      463,
      462,
      462,
      462,
      461,
      461,
      461,
      462,
      462,
      462,
      462,
      462,
      453,
      454,
      439,
      439,
      409,
      409,
      409,
      409,
      400,
      400,
      400,
      400,
      397,
      397,
      394,
      394,
      394,
      375,
      375,
      366,
      366,
      360,
      360,
      359,
      345,
      345,
      345,
      345,
      345,
      295,
      295,
      278,
      278,
      247,
      247,
      247,
      247,
      236,
      237,
      237,
      236,
      236,
      236,
      234,
      234,
      234,
      234,
      162,
      162,
      150,
      150,
      150
    ],
    "swim:timestamps": [
      1777145054,
      1777145054,
      1777145054,
      1777145054,
      1777145054,
      1777145303,
      1777145303,
      1777145303,
      1777145303,
      1777145303,
      1777145303,
      1777145303,
      1777145414,
      1777145414,
      1777145423,
      1777145423,
      1777145423,
      1777145475,
      1777145475,
      1777145475,
      1777145483,
      1777145535,
      1777145535,
      1777145543,
      1777145543,
      1777145595,
      1777145595,
      1777145595,
      1777145603,
      1777145715,
      1777145775,
      1777145775,
      1777145775,
      1777145775,
      1777145783,
      1777145783,
      1777145783,
      1777145903,
      1777145903,
      1777145903,
      1777145903,
      1777145903,
      1777146023,
      1777146023,
      1777146075,
      1777146075,
      1777146075,
      1777146075,
      1777146075,
      1777146084,
      1777146084,
      1777146084,
      1777146135,
      1777146144,
      1777146144,
      1777146144,
      1777146144,
      1777146316,
      1777146316,
      1777146316,
      1777146316,
      1777146316,
      1777146316,
      1777146316,
      1777146376,
      1777146376,
      1777146384,
      1777146384,
      1777146496,
      1777146496,
      1777146496,
      1777146564,
      1777146564,
      1777146616,
      1777146616,
      1777146616,
      1777146624,
      1777146624,
      1777146624,
      1777146624,
      1777146724,
      1777146724,
      1777146724,
      1777146744,
      1777146744,
      1777146744,
      1777146784,
      1777146904,
      1777146904,
      1777146904,
      1777146904,
      1777146965,
      1777146965,
      1777146965,
      1777146984,
      1777146984,
      1777146984,
      1777147045,
      1777147045,
      1777147045,
      1777147045,
      1777147105,
      1777147105,
      1777147145,
      1777147165,
      1777147165,
      1777147165,
      1777147205,
      1777147205,
      1777147205,
      1777147205,
      1777147265,
      1777147265,
      1777147285,
      1777147285,
      1777147345,
      1777147345,
      1777147345,
      1777147345,
      1777147405,
      1777147517,
      1777147517,
      1777147517,
      1777147525,
      1777147525,
      1777147585,
      1777147585,
      1777147585,
      1777147585,
      1777147645,
      1777147645,
      1777147645,
      1777147705,
      1777147705,
      1777147705,
      1777147705,
      1777147758,
      1777147758,
      1777147818,
      1777147818,
      1777147825,
      1777147825,
      1777147878,
      1777147878,
      1777147878,
      1777148006,
      1777148006,
      1777148066,
      1777148066,
      1777148066,
      1777148118,
      1777148118,
      1777148118,
      1777148118,
      1777148126,
      1777148178,
      1777148178,
      1777148246,
      1777148306,
      1777148306,
      1777148306,
      1777148306,
      1777148306,
      1777148366,
      1777148366,
      1777148366,
      1777148426,
      1777148426,
      1777148426,
      1777148426,
      1777148479,
      1777148479,
      1777148666,
      1777148666,
      1777148666,
      1777148666,
      1777148666,
      1777148666,
      1777148726,
      1777148726,
      1777148839,
      1777148839,
      1777148846,
      1777148906,
      1777148959,
      1777148959,
      1777148966,
      1777148966,
      1777148966,
      1777149019,
      1777149019,
      1777149019,
      1777149019,
      1777149027,
      1777149027,
      1777149027,
      1777149139,
      1777149139,
      1777149139,
      1777149199,
      1777149199,
      1777149199,
      1777149199,
      1777149207,
      1777149327,
      1777149327,
      1777149327,
      1777149327,
      1777149327,
      1777149380,
      1777149387,
      1777149387,
      1777149440,
      1777149447,
      1777149447,
      1777149447,
      1777149500,
      1777149500,
      1777149560,
      1777149560,
      1777149560,
      1777149567,
      1777149567,
      1777149627,
      1777149627,
      1777149680,
      1777149680,
      1777149680,
      1777149680,
      1777149680,
      1777149747,
      1777149800,
      1777149800,
      1777149800,
      1777149807,
      1777149807,
      1777149867,
      1777149867,
      1777149920,
      1777149920,
      1777149920,
      1777149920,
      1777149920,
      1777149987,
      1777149987,
      1777150108,
      1777150108,
      1777150108,
      1777150108,
      1777150108,
      1777150288,
      1777150288,
      1777150288,
      1777150288,
      1777150348,
      1777150348,
      1777150348,
      1777150348,
      1777150528,
      1777150528,
      1777150528,
      1777150528,
      1777150528,
      1777150528,
      1777150528,
      1777150951,
      1777150951,
      1777150951,
      1777151011,
      1777151011,
      1777151011,
      1777151131,
      1777151191,
      1777151191,
      1777151251,
      1777151251,
      1777151251,
      1777151251,
      1777151251,
      1777151371,
      1777151431,
      1777151492,
      1777151492,
      1777151552,
      1777151552,
      1777151552,
      1777151552,
      1777151612,
      1777151612,
      1777151612,
      1777151612,
      1777151732,
      1777151732,
      1777151792,
      1777151792,
      1777151792,
      1777151912,
      1777151912,
      1777151972,
      1777151972,
      1777151986,
      1777151986,
      1777152032,
      1777152152,
      1777152152,
      1777152152,
      1777152152,
      1777152152,
      1777152272,
      1777152272,
      1777152281,
      1777152281,
      1777152341,
      1777152341,
      1777152453,
      1777152453,
      1777152467,
      1777152573,
      1777152573,
      1777152587,
      1777152587,
      1777152587,
      1777152641,
      1777152641,
      1777152641,
      1777152641,
      1777152813,
      1777152813,
      1777152821,
      1777152821,
      1777152821
    ],
    "wof:geomhash": "8730cea2853c0d6c4ea5c3c7f503266e",
    "wof:id": 2031108725,
    "wof:repo": "sfomuseum-data-flights-2026-04"
  },
  "bbox": [
    -122.75194444444445,
    37.437777777777775,
    -110.14027777777778,
    49.99805555555556
  ],
  "geometry": {"coordinates":[[-110.14027777777778,49.99805555555556],[-110.14027777777778,49.99805555555556],[-110.14027777777778,49.99805555555556],[-110.14027777777778,49.99805555555556],[-110.14027777777778,49.99805555555556],[-110.8625,49.67777777777778],[-110.8625,49.67777777777778],[-110.8625,49.67777777777778],[-110.8625,49.67777777777778],[-110.8625,49.67777777777778],[-110.8625,49.67777777777778],[-110.8625,49.67777777777778],[-111.17750000000001,49.52722222222222],[-111.17750000000001,49.52722222222222],[-111.2038888888889,49.519999999999996],[-111.2038888888889,49.519999999999996],[-111.2038888888889,49.519999999999996],[-111.34583333333333,49.44888888888889],[-111.34583333333333,49.44888888888889],[-111.34583333333333,49.44888888888889],[-111.3736111111111,49.44194444444444],[-111.51527777777778,49.36972222222222],[-111.51527777777778,49.36972222222222],[-111.54444444444444,49.361666666666665],[-111.54444444444444,49.361666666666665],[-111.68527777777778,49.28972222222222],[-111.68527777777778,49.28972222222222],[-111.68527777777778,49.28972222222222],[-111.71444444444445,49.282777777777774],[-112.02222222222223,49.12972222222222],[-112.19166666666668,49.04833333333333],[-112.19166666666668,49.04833333333333],[-112.19166666666668,49.04833333333333],[-112.19166666666668,49.04833333333333],[-112.21916666666667,49.03861111111111],[-112.21916666666667,49.03861111111111],[-112.21916666666667,49.03861111111111],[-112.5225,48.85111111111111],[-112.5225,48.85111111111111],[-112.5225,48.85111111111111],[-112.5225,48.85111111111111],[-112.5225,48.85111111111111],[-112.81277777777777,48.64861111111111],[-112.81277777777777,48.64861111111111],[-112.92305555555556,48.56916666666667],[-112.92305555555556,48.56916666666667],[-112.92305555555556,48.56916666666667],[-112.92305555555556,48.56916666666667],[-112.92305555555556,48.56916666666667],[-112.95527777777778,48.549166666666665],[-112.95527777777778,48.549166666666665],[-112.95527777777778,48.549166666666665],[-113.06777777777778,48.46888888888889],[-113.09916666666666,48.45055555555556],[-113.09916666666666,48.45055555555556],[-113.09916666666666,48.45055555555556],[-113.09916666666666,48.45055555555556],[-113.49138888888889,48.17194444444444],[-113.49138888888889,48.17194444444444],[-113.49138888888889,48.17194444444444],[-113.49138888888889,48.17194444444444],[-113.49138888888889,48.17194444444444],[-113.49138888888889,48.17194444444444],[-113.49138888888889,48.17194444444444],[-113.63222222222221,48.07194444444445],[-113.63222222222221,48.07194444444445],[-113.6613888888889,48.05138888888889],[-113.6613888888889,48.05138888888889],[-113.9113888888889,47.8725],[-113.9113888888889,47.8725],[-113.9113888888889,47.8725],[-114.07777777777777,47.7525],[-114.07777777777777,47.7525],[-114.18666666666667,47.67333333333333],[-114.18666666666667,47.67333333333333],[-114.18666666666667,47.67333333333333],[-114.21611111111112,47.651944444444446],[-114.21611111111112,47.651944444444446],[-114.21611111111112,47.651944444444446],[-114.21611111111112,47.651944444444446],[-114.435,47.49194444444444],[-114.435,47.49194444444444],[-114.435,47.49194444444444],[-114.49194444444444,47.45],[-114.49194444444444,47.45],[-114.49194444444444,47.45],[-114.57222222222222,47.39083333333333],[-114.84166666666667,47.190555555555555],[-114.84166666666667,47.190555555555555],[-114.84166666666667,47.190555555555555],[-114.84166666666667,47.190555555555555],[-114.97527777777778,47.090833333333336],[-114.97527777777778,47.090833333333336],[-114.97527777777778,47.090833333333336],[-115.03027777777778,47.04944444444444],[-115.03027777777778,47.04944444444444],[-115.03027777777778,47.04944444444444],[-115.16083333333334,46.95111111111111],[-115.16083333333334,46.95111111111111],[-115.16083333333334,46.95111111111111],[-115.16083333333334,46.95111111111111],[-115.29194444444444,46.85166666666667],[-115.29194444444444,46.85166666666667],[-115.36722222222221,46.794444444444444],[-115.42694444444444,46.74861111111111],[-115.42694444444444,46.74861111111111],[-115.42694444444444,46.74861111111111],[-115.49861111111112,46.69416666666666],[-115.49861111111112,46.69416666666666],[-115.49861111111112,46.69416666666666],[-115.49861111111112,46.69416666666666],[-115.62777777777777,46.594722222222224],[-115.62777777777777,46.594722222222224],[-115.66194444444444,46.56861111111112],[-115.66194444444444,46.56861111111112],[-115.79222222222222,46.467777777777776],[-115.79222222222222,46.467777777777776],[-115.79222222222222,46.467777777777776],[-115.79222222222222,46.467777777777776],[-115.92055555555557,46.36805555555556],[-116.17527777777778,46.16861111111111],[-116.17527777777778,46.16861111111111],[-116.17527777777778,46.16861111111111],[-116.17861111111111,46.16583333333333],[-116.17861111111111,46.16583333333333],[-116.30416666666666,46.06666666666667],[-116.30416666666666,46.06666666666667],[-116.30416666666666,46.06666666666667],[-116.30416666666666,46.06666666666667],[-116.43138888888889,45.965833333333336],[-116.43138888888889,45.965833333333336],[-116.43138888888889,45.965833333333336],[-116.55722222222222,45.86555555555556],[-116.55722222222222,45.86555555555556],[-116.55722222222222,45.86555555555556],[-116.55722222222222,45.86555555555556],[-116.66916666666667,45.77583333333333],[-116.66916666666667,45.77583333333333],[-116.79472222222222,45.675],[-116.79472222222222,45.675],[-116.80777777777777,45.66444444444444],[-116.80777777777777,45.66444444444444],[-116.91888888888889,45.574444444444445],[-116.91888888888889,45.574444444444445],[-116.91888888888889,45.574444444444445],[-117.19333333333334,45.350833333333334],[-117.19333333333334,45.350833333333334],[-117.31888888888888,45.2475],[-117.31888888888888,45.2475],[-117.31888888888888,45.2475],[-117.415,45.16833333333333],[-117.415,45.16833333333333],[-117.415,45.16833333333333],[-117.415,45.16833333333333],[-117.42972222222222,45.15611111111111],[-117.53944444444444,45.06527777777777],[-117.53944444444444,45.06527777777777],[-117.6825,44.94611111111111],[-117.80333333333333,44.844722222222224],[-117.80333333333333,44.844722222222224],[-117.80333333333333,44.844722222222224],[-117.80333333333333,44.844722222222224],[-117.80333333333333,44.844722222222224],[-117.92527777777778,44.743611111111115],[-117.92527777777778,44.743611111111115],[-117.92527777777778,44.743611111111115],[-118.0475,44.6425],[-118.0475,44.6425],[-118.0475,44.6425],[-118.0475,44.6425],[-118.165,44.544444444444444],[-118.165,44.544444444444444],[-118.51777777777778,44.24722222222222],[-118.51777777777778,44.24722222222222],[-118.51777777777778,44.24722222222222],[-118.51777777777778,44.24722222222222],[-118.51777777777778,44.24722222222222],[-118.51777777777778,44.24722222222222],[-118.6375,44.145833333333336],[-118.6375,44.145833333333336],[-118.87416666666665,43.94305555555555],[-118.87416666666665,43.94305555555555],[-118.87805555555555,43.94],[-118.99305555555556,43.84055555555556],[-119.10888888888888,43.74027777777778],[-119.10888888888888,43.74027777777778],[-119.11083333333333,43.73861111111111],[-119.11083333333333,43.73861111111111],[-119.11083333333333,43.73861111111111],[-119.22666666666667,43.63777777777778],[-119.22666666666667,43.63777777777778],[-119.22666666666667,43.63777777777778],[-119.22666666666667,43.63777777777778],[-119.22666666666667,43.63777777777778],[-119.22666666666667,43.63777777777778],[-119.22666666666667,43.63777777777778],[-119.4363888888889,43.41972222222222],[-119.4363888888889,43.41972222222222],[-119.4363888888889,43.41972222222222],[-119.52638888888889,43.301111111111105],[-119.52638888888889,43.301111111111105],[-119.52638888888889,43.301111111111105],[-119.52638888888889,43.301111111111105],[-119.52638888888889,43.301111111111105],[-119.7075,43.058055555555555],[-119.7075,43.058055555555555],[-119.7075,43.058055555555555],[-119.7075,43.058055555555555],[-119.7075,43.058055555555555],[-119.79083333333332,42.94555555555555],[-119.79444444444444,42.94083333333333],[-119.79444444444444,42.94083333333333],[-119.87666666666667,42.82944444444445],[-119.88083333333333,42.82361111111111],[-119.88083333333333,42.82361111111111],[-119.88083333333333,42.82361111111111],[-119.96111111111111,42.71388888888889],[-119.96111111111111,42.71388888888889],[-120.04638888888888,42.597500000000004],[-120.04638888888888,42.597500000000004],[-120.04638888888888,42.597500000000004],[-120.04972222222221,42.59277777777778],[-120.04972222222221,42.59277777777778],[-120.13388888888889,42.477222222222224],[-120.13388888888889,42.477222222222224],[-120.21388888888889,42.36694444444444],[-120.21388888888889,42.36694444444444],[-120.21388888888889,42.36694444444444],[-120.21388888888889,42.36694444444444],[-120.21388888888889,42.36694444444444],[-120.29888888888888,42.24888888888889],[-120.37638888888888,42.141666666666666],[-120.37638888888888,42.141666666666666],[-120.37638888888888,42.141666666666666],[-120.38055555555555,42.135555555555555],[-120.38055555555555,42.135555555555555],[-120.46083333333334,42.02333333333333],[-120.46083333333334,42.02333333333333],[-120.52722222222222,41.930277777777775],[-120.52722222222222,41.930277777777775],[-120.52722222222222,41.930277777777775],[-120.52722222222222,41.930277777777775],[-120.52722222222222,41.930277777777775],[-120.62388888888889,41.79472222222222],[-120.62388888888889,41.79472222222222],[-120.78833333333333,41.561388888888885],[-120.78833333333333,41.561388888888885],[-120.78833333333333,41.561388888888885],[-120.78833333333333,41.561388888888885],[-120.78833333333333,41.561388888888885],[-121.0325,41.21222222222222],[-121.0325,41.21222222222222],[-121.0325,41.21222222222222],[-121.0325,41.21222222222222],[-121.1111111111111,41.09861111111111],[-121.1111111111111,41.09861111111111],[-121.1111111111111,41.09861111111111],[-121.1111111111111,41.09861111111111],[-121.34555555555555,40.757777777777775],[-121.34555555555555,40.757777777777775],[-121.34555555555555,40.757777777777775],[-121.34555555555555,40.757777777777775],[-121.34555555555555,40.757777777777775],[-121.34555555555555,40.757777777777775],[-121.34555555555555,40.757777777777775],[-121.82805555555555,39.933611111111105],[-121.82805555555555,39.933611111111105],[-121.82805555555555,39.933611111111105],[-121.89472222222223,39.81472222222222],[-121.89472222222223,39.81472222222222],[-121.89472222222223,39.81472222222222],[-122.02777777777777,39.5775],[-122.0936111111111,39.459722222222226],[-122.0936111111111,39.459722222222226],[-122.15666666666667,39.34583333333334],[-122.15666666666667,39.34583333333334],[-122.15666666666667,39.34583333333334],[-122.15666666666667,39.34583333333334],[-122.15666666666667,39.34583333333334],[-122.28555555555555,39.113055555555555],[-122.34916666666666,38.996944444444445],[-122.41194444444444,38.882222222222225],[-122.41194444444444,38.882222222222225],[-122.46916666666667,38.777499999999996],[-122.46916666666667,38.777499999999996],[-122.46916666666667,38.777499999999996],[-122.46916666666667,38.777499999999996],[-122.52388888888889,38.67666666666666],[-122.52388888888889,38.67666666666666],[-122.52388888888889,38.67666666666666],[-122.52388888888889,38.67666666666666],[-122.63555555555556,38.47083333333334],[-122.63555555555556,38.47083333333334],[-122.6888888888889,38.37166666666667],[-122.6888888888889,38.37166666666667],[-122.6888888888889,38.37166666666667],[-122.75194444444445,38.17027777777778],[-122.75194444444445,38.17027777777778],[-122.72333333333333,38.072500000000005],[-122.72333333333333,38.072500000000005],[-122.71666666666667,38.03333333333333],[-122.71666666666667,38.03333333333333],[-122.69583333333334,37.97638888888889],[-122.57,37.801944444444445],[-122.57,37.801944444444445],[-122.57,37.801944444444445],[-122.57,37.801944444444445],[-122.57,37.801944444444445],[-122.43138888888889,37.67111111111111],[-122.43138888888889,37.67111111111111],[-122.41666666666667,37.666666666666664],[-122.41666666666667,37.666666666666664],[-122.36666666666666,37.6],[-122.36666666666666,37.6],[-122.29861111111111,37.49333333333333],[-122.29861111111111,37.49333333333333],[-122.28333333333333,37.483333333333334],[-122.15861111111111,37.437777777777775],[-122.15861111111111,37.437777777777775],[-122.13333333333334,37.45],[-122.13333333333334,37.45],[-122.13333333333334,37.45],[-122.11666666666666,37.5],[-122.11666666666666,37.5],[-122.11666666666666,37.5],[-122.11666666666666,37.5],[-122.27972222222222,37.58083333333334],[-122.27972222222222,37.58083333333334],[-122.28333333333333,37.583333333333336],[-122.28333333333333,37.583333333333336],[-122.28333333333333,37.583333333333336]],"type":"LineString"}
}
