{
  "id": 2015303731,
  "type": "Feature",
  "properties": {
    "geom:area": 0,
    "geom:bbox": "-122.962590,37.356340,-122.090960,38.500070",
    "geom:latitude": 37.79590350884389,
    "geom:longitude": -122.4896085840964,
    "src:alt_label": "swim-approach",
    "src:geom": "swim",
    "swim:elevations": [
      6857,
      6780,
      6541,
      6500,
      6436,
      6223,
      6163,
      6013,
      5831,
      5636,
      5482,
      5343,
      5191,
      4943,
      4695,
      4667,
      4513,
      4032,
      3874,
      3636,
      3451,
      3428,
      3354,
      3353,
      3353,
      3325,
      3080,
      3070,
      2806,
      2623,
      2496,
      2289,
      2207,
      2134,
      1958,
      1796,
      1711,
      1669,
      1553,
      1526,
      1452,
      1280,
      1158,
      1096,
      943,
      829,
      628,
      475,
      314,
      257,
      120,
      83,
      333
    ],
    "swim:geom": "approach",
    "swim:timestamps": [
      1776347182,
      1776347199,
      1776347245,
      1776347255,
      1776347265,
      1776347308,
      1776347319,
      1776347351,
      1776347376,
      1776347410,
      1776347427,
      1776347456,
      1776347474,
      1776347509,
      1776347547,
      1776347551,
      1776347583,
      1776347631,
      1776347654,
      1776347683,
      1776347719,
      1776347728,
      1776347755,
      1776347788,
      1776347792,
      1776347831,
      1776347877,
      1776347881,
      1776347938,
      1776347967,
      1776347992,
      1776348025,
      1776348041,
      1776348072,
      1776348107,
      1776348142,
      1776348156,
      1776348167,
      1776348189,
      1776348213,
      1776348247,
      1776348279,
      1776348317,
      1776348339,
      1776348373,
      1776348392,
      1776348434,
      1776348471,
      1776348508,
      1776348525,
      1776348565,
      1776348581,
      1776348601
    ],
    "wof:geomhash": "d89375350226653ee33ac8c00230e485",
    "wof:id": 2015303731,
    "wof:repo": "sfomuseum-data-flights-2026-04"
  },
  "bbox": [
    -122.96259,
    37.35634,
    -122.09096,
    38.50007
  ],
  "geometry": {"coordinates":[[-122.96259,38.50007],[-122.94309,38.47258],[-122.89051,38.39832],[-122.87967,38.383],[-122.86828,38.3669],[-122.82017,38.29886],[-122.80867,38.2825],[-122.77285,38.23117],[-122.75701,38.18985],[-122.74131,38.13221],[-122.73309,38.10433],[-122.71894,38.0564],[-122.71028,38.02652],[-122.69401,37.97007],[-122.67585,37.90864],[-122.67315,37.90246],[-122.63317,37.86164],[-122.57488,37.80688],[-122.54829,37.78146],[-122.51695,37.75153],[-122.47859,37.71541],[-122.46942,37.70673],[-122.441,37.68007],[-122.40594,37.6472],[-122.40171,37.64321],[-122.3613,37.60453],[-122.33124,37.55103],[-122.32897,37.54652],[-122.29122,37.481],[-122.28327,37.44616],[-122.29472,37.41731],[-122.28759,37.37871],[-122.26916,37.3678],[-122.22852,37.35634],[-122.18435,37.36008],[-122.1429,37.37128],[-122.13057,37.38044],[-122.12197,37.38742],[-122.10269,37.40294],[-122.09113,37.42364],[-122.09096,37.45551],[-122.0983,37.48532],[-122.12895,37.51336],[-122.15152,37.52651],[-122.18611,37.54115],[-122.2048,37.54932],[-122.24168,37.56492],[-122.27317,37.5782],[-122.30093,37.58989],[-122.31149,37.59434],[-122.33827,37.60558],[-122.34844,37.60991],[-122.36177,37.61495]],"type":"LineString"}
}
