{
  "id": 2031112681,
  "type": "Feature",
  "properties": {
    "geom:area": 0,
    "geom:bbox": "-122.480000,33.270000,-112.010000,37.660000",
    "geom:latitude": 34.84798032792638,
    "geom:longitude": -117.56975391965594,
    "src:alt_label": "swim-route",
    "src:geom": "swim",
    "swim:geom": "route",
    "wof:geomhash": "87944303620b8be0234a356a11a9ce17",
    "wof:id": 2031112681,
    "wof:repo": "sfomuseum-data-flights-2026-04"
  },
  "bbox": [
    -122.48,
    33.27,
    -112.01,
    37.66
  ],
  "geometry": {"coordinates":[[-122.38,37.62],[-122.48,37.66],[-122.48,37.66],[-122.48,37.65],[-122.48,37.59],[-122.48,37.59],[-122.48,37.56],[-122.48,37.51],[-122.47,37.5],[-122.47,37.49],[-122.43,37.46],[-122.33,37.4],[-122.17,37.29],[-122.14,37.27],[-122.11,37.25],[-122.05,37.21],[-121.93,37.14],[-121.92,37.13],[-121.85,37.08],[-121.72,37],[-121.66,36.96],[-121.53,36.88],[-121.47,36.83],[-121.39,36.78],[-121.27,36.71],[-121.24,36.68],[-120.95,36.49],[-120.92,36.47],[-120.55,36.22],[-120,35.85],[-119.96,35.82],[-119.4,35.42],[-118.06,34.45],[-118.04,34.43],[-118.03,34.42],[-117.35,34.26],[-116.89,34.15],[-116.34,34.01],[-115.37,33.76],[-115.14,33.7],[-114.76,33.6],[-114.45,33.53],[-114.08,33.46],[-114.08,33.46],[-114.07,33.46],[-114,33.45],[-113.97,33.44],[-113.95,33.44],[-113.64,33.37],[-113.46,33.34],[-113.41,33.33],[-113.23,33.3],[-113.07,33.27],[-113.02,33.28],[-112.82,33.28],[-112.79,33.29],[-112.69,33.33],[-112.59,33.33],[-112.25,33.33],[-112.24,33.34],[-112.19,33.36],[-112.17,33.37],[-112.14,33.38],[-112.12,33.39],[-112.06,33.41],[-112.01,33.43]],"type":"LineString"}
}
