{
  "id": 2031109239,
  "type": "Feature",
  "properties": {
    "geom:area": 0,
    "geom:bbox": "-122.316667,36.150000,-86.650000,38.359444",
    "geom:latitude": 37.70064162558464,
    "geom:longitude": -104.52125834736917,
    "src:alt_label": "swim-path",
    "src:geom": "swim",
    "swim:altitudes": [
      "017",
      "017",
      "017",
      "017",
      "053",
      "053",
      "100",
      "100",
      "100",
      "100",
      "100",
      "133",
      "133",
      "133",
      "133",
      "189",
      "189",
      "189",
      "189",
      "218",
      "218",
      "222",
      "248",
      "248",
      "248",
      "252",
      "252",
      "268",
      "270",
      "270",
      "278",
      "278",
      "278",
      "304",
      "304",
      "304",
      "314",
      "314",
      "314",
      "314",
      "320C",
      "320C",
      "320C",
      "320C",
      "320C",
      "320C",
      "320C",
      "320C",
      "320C",
      "320C",
      "320C",
      "320C",
      "320C",
      "320C",
      "320C",
      "320C",
      "320C",
      "320C",
      "320C",
      "320C",
      "320C",
      "320C",
      "320C",
      "320C",
      "320C",
      "320C",
      "320C",
      "320C",
      "320C",
      "320C",
      "320C",
      "320C",
      "320C",
      "320C",
      "320C",
      "320C",
      "320C",
      "320C",
      "320C",
      "320C",
      "320C",
      "320C",
      "320C",
      "320C",
      "320C",
      "320C",
      "320C",
      "320C",
      "320C",
      "320C",
      "320C",
      "320C",
      "324",
      "324",
      "324",
      "324",
      "324",
      "328",
      "328",
      "328",
      "329",
      "329",
      "340C",
      "340C",
      "340C",
      "340C",
      "340C",
      "340C",
      "340C",
      "340C",
      "340C",
      "340C",
      "340C",
      "340C",
      "340C",
      "340C",
      "340C",
      "340C",
      "340C",
      "340C",
      "340C",
      "340C",
      "340C",
      "340C",
      "340C",
      "340C",
      "340C",
      "340C",
      "340C",
      "340C",
      "340C",
      "340C",
      "340C",
      "340C",
      "340C",
      "340C",
      "340C",
      "340C",
      "340C",
      "340C",
      "340C",
      "340C",
      "340C",
      "340C",
      "340C",
      "340C",
      "340C",
      "340C",
      "340C",
      "340C",
      "340C",
      "340C",
      "340C",
      "340C",
      "340C",
      "340C",
      "340C",
      "340C",
      "341C",
      "341C",
      "341C",
      "341C",
      "340C",
      "340C",
      "340C",
      "340C",
      "340C",
      "340C",
      "340C",
      "340C",
      "340C",
      "340C",
      "340C",
      "340C",
      "340C",
      "340C",
      "340C",
      "340C",
      "340C",
      "340C",
      "340C",
      "340C",
      "340C",
      "340C",
      "340C",
      "340C",
      "340C",
      "340C",
      "340C",
      "340C",
      "340C",
      "340C",
      "340C",
      "340C",
      "340C",
      "340C",
      "340C",
      "340C",
      "340C",
      "340C",
      "340C",
      "340C",
      "340C",
      "340C",
      "340C",
      "340C",
      "340C",
      "340C",
      "340C",
      "340C",
      "340C",
      "340C",
      "340C",
      "340C",
      "340C",
      "340C",
      "340C",
      "340C",
      "340C",
      "340C",
      "340C",
      "340C",
      "340C",
      "340C",
      "340C",
      "340C",
      "340C",
      "340C",
      "340C",
      "340C",
      "340C",
      "340C",
      "340C",
      "340C",
      "340C",
      "340C",
      "340C",
      "340C",
      "340C",
      "340C",
      "340C",
      "340C",
      "340C",
      "340C",
      "340C",
      "340C",
      "340C",
      "340C",
      "340C",
      "340C",
      "340C",
      "340C",
      "340C",
      "340C",
      "340C",
      "340C",
      "340C",
      "340C",
      "340C",
      "340C",
      "340C",
      "340C",
      "340C",
      "340C",
      "340C",
      "340C",
      "340C",
      "340C",
      "340C",
      "340C",
      "340C",
      "340C",
      "340C",
      "340C",
      "340C",
      "340C",
      "340C",
      "340C",
      "339C",
      "339C",
      "340C",
      "340C",
      "340C",
      "340C",
      "340C",
      "340C",
      "340C",
      "340C",
      "340C",
      "340C",
      "340C",
      "340C",
      "340C",
      "340C",
      "340C",
      "340C",
      "340C",
      "340C",
      "340C",
      "340C",
      "340C",
      "340C",
      "340C",
      "340C",
      "340C",
      "340C",
      "340C",
      "340C",
      "340C",
      "340C",
      "340C",
      "340C",
      "340C",
      "339C",
      "339C",
      "339C",
      "339C",
      "339C",
      "340C",
      "340C",
      "340C",
      "340C",
      "340C",
      "340C",
      "340C",
      "340C",
      "340C",
      "340C",
      "340C",
      "340C",
      "340C",
      "340C",
      "340C",
      "340C",
      "340C",
      "340C",
      "340C",
      "340C",
      "340C",
      "340C",
      "340C",
      "340C",
      "340C",
      "340C",
      "340C",
      "340C",
      "340C",
      "340C",
      "340C",
      "340C",
      "340C",
      "340C",
      "340C",
      "340C",
      "340C",
      "340C",
      "340C",
      "340C",
      "340C",
      "340C",
      "340C",
      "340C",
      "340C",
      "340C",
      "340C",
      "340C",
      "340C",
      "340C",
      "340C",
      "340C",
      "340C",
      "340C",
      "340C",
      "340C",
      "340C",
      "340C",
      "340C",
      "340C",
      "340C",
      "340C",
      "340C",
      "340C",
      "339C",
      "339C",
      "339C",
      "339C",
      "340C",
      "340C",
      "340C",
      "340C",
      "339C",
      "339C",
      "339C",
      "339C",
      "340C",
      "340C",
      "340C",
      "340C",
      "340C",
      "340C",
      "340C",
      "340C",
      "340C",
      "340C",
      "340C",
      "340C",
      "340C",
      "340C",
      "340C",
      "340C",
      "333",
      "330",
      "330",
      "330",
      "327",
      "327",
      "322",
      "322",
      "320",
      "317",
      "316",
      "316",
      "316",
      "312",
      "312",
      "307",
      "307",
      "306",
      "306",
      "306",
      "306",
      "300C",
      "300C",
      "300C",
      "300C",
      "300C",
      "300C",
      "300C",
      "300C",
      "300C",
      "300C",
      "300C",
      "300C",
      "300C",
      "300C",
      "300C",
      "300C",
      "299C",
      "299C",
      "299C",
      "299C",
      "299C",
      "299C",
      "300C",
      "300C",
      "300C",
      "300C",
      "300C",
      "300C",
      "300C",
      "300C",
      "300C",
      "299",
      "299",
      "292",
      "262",
      "258",
      "206",
      "153",
      "153",
      "141",
      "137",
      "112",
      "112",
      "112",
      "070",
      "070",
      "070",
      "060",
      "060",
      "060",
      "055",
      "048",
      "014",
      "007",
      "007",
      "007",
      "007"
    ],
    "swim:geom": "path",
    "swim:speeds": [
      147,
      147,
      147,
      147,
      272,
      272,
      275,
      275,
      275,
      275,
      275,
      355,
      355,
      355,
      355,
      390,
      390,
      390,
      390,
      392,
      392,
      399,
      401,
      401,
      401,
      401,
      401,
      408,
      413,
      413,
      414,
      414,
      414,
      416,
      416,
      416,
      410,
      410,
      410,
      410,
      404,
      404,
      404,
      402,
      402,
      402,
      401,
      401,
      401,
      401,
      401,
      401,
      401,
      401,
      400,
      400,
      400,
      400,
      399,
      399,
      398,
      398,
      398,
      398,
      398,
      398,
      398,
      398,
      398,
      398,
      397,
      397,
      397,
      397,
      397,
      397,
      396,
      397,
      397,
      397,
      397,
      398,
      398,
      398,
      398,
      397,
      397,
      395,
      395,
      395,
      395,
      395,
      396,
      396,
      396,
      396,
      396,
      396,
      396,
      396,
      395,
      395,
      392,
      392,
      392,
      391,
      391,
      391,
      391,
      391,
      391,
      391,
      391,
      391,
      391,
      389,
      389,
      389,
      389,
      389,
      389,
      389,
      389,
      389,
      390,
      390,
      391,
      391,
      391,
      390,
      390,
      390,
      390,
      390,
      384,
      384,
      383,
      383,
      383,
      383,
      383,
      389,
      389,
      389,
      389,
      390,
      390,
      390,
      390,
      407,
      407,
      407,
      407,
      407,
      407,
      398,
      398,
      398,
      389,
      389,
      389,
      389,
      386,
      386,
      386,
      366,
      359,
      359,
      359,
      358,
      358,
      358,
      358,
      358,
      358,
      358,
      358,
      360,
      360,
      360,
      360,
      360,
      360,
      360,
      360,
      369,
      369,
      363,
      363,
      380,
      380,
      380,
      380,
      380,
      380,
      380,
      380,
      380,
      380,
      380,
      378,
      378,
      379,
      379,
      379,
      376,
      376,
      376,
      376,
      376,
      376,
      381,
      381,
      380,
      380,
      379,
      379,
      379,
      379,
      379,
      378,
      378,
      378,
      377,
      377,
      376,
      376,
      376,
      376,
      376,
      376,
      376,
      375,
      375,
      375,
      375,
      375,
      376,
      376,
      376,
      376,
      376,
      376,
      377,
      377,
      377,
      377,
      377,
      377,
      381,
      381,
      381,
      381,
      381,
      378,
      378,
      378,
      378,
      378,
      378,
      378,
      378,
      378,
      378,
      378,
      378,
      378,
      378,
      378,
      378,
      380,
      380,
      380,
      376,
      376,
      376,
      370,
      370,
      371,
      371,
      371,
      370,
      370,
      373,
      373,
      373,
      373,
      373,
      381,
      378,
      385,
      385,
      385,
      385,
      383,
      383,
      383,
      380,
      383,
      380,
      384,
      384,
      383,
      385,
      385,
      385,
      384,
      384,
      384,
      384,
      390,
      387,
      387,
      386,
      386,
      386,
      386,
      386,
      390,
      392,
      392,
      392,
      394,
      394,
      394,
      394,
      394,
      395,
      395,
      395,
      395,
      395,
      395,
      395,
      396,
      396,
      399,
      399,
      399,
      399,
      399,
      398,
      398,
      398,
      398,
      398,
      398,
      398,
      398,
      399,
      399,
      399,
      400,
      400,
      400,
      399,
      399,
      399,
      399,
      399,
      399,
      399,
      399,
      399,
      399,
      399,
      399,
      398,
      398,
      399,
      399,
      399,
      402,
      402,
      402,
      403,
      403,
      403,
      403,
      402,
      402,
      402,
      404,
      404,
      404,
      404,
      402,
      402,
      403,
      403,
      404,
      404,
      404,
      404,
      407,
      407,
      408,
      408,
      409,
      410,
      410,
      410,
      409,
      409,
      409,
      409,
      409,
      409,
      409,
      409,
      388,
      377,
      377,
      377,
      376,
      376,
      375,
      375,
      375,
      369,
      369,
      369,
      369,
      366,
      366,
      363,
      363,
      362,
      362,
      362,
      362,
      359,
      364,
      364,
      364,
      364,
      368,
      368,
      369,
      369,
      370,
      370,
      370,
      373,
      373,
      373,
      373,
      375,
      375,
      375,
      376,
      376,
      376,
      381,
      381,
      385,
      385,
      385,
      395,
      395,
      395,
      395,
      395,
      395,
      394,
      380,
      379,
      348,
      335,
      335,
      327,
      329,
      297,
      297,
      297,
      225,
      226,
      226,
      224,
      224,
      224,
      227,
      222,
      185,
      135,
      135,
      135,
      135
    ],
    "swim:timestamps": [
      1777154603,
      1777154603,
      1777154603,
      1777154603,
      1777154730,
      1777154730,
      1777154831,
      1777154831,
      1777154831,
      1777154831,
      1777154831,
      1777154951,
      1777154951,
      1777154951,
      1777154951,
      1777155132,
      1777155132,
      1777155132,
      1777155132,
      1777155240,
      1777155240,
      1777155252,
      1777155361,
      1777155361,
      1777155361,
      1777155372,
      1777155372,
      1777155481,
      1777155492,
      1777155492,
      1777155541,
      1777155541,
      1777155541,
      1777155672,
      1777155672,
      1777155672,
      1777155732,
      1777155732,
      1777155732,
      1777155732,
      1777155841,
      1777155841,
      1777155841,
      1777155913,
      1777155913,
      1777155913,
      1777155973,
      1777155973,
      1777155973,
      1777156033,
      1777156033,
      1777156033,
      1777156033,
      1777156153,
      1777156262,
      1777156262,
      1777156262,
      1777156262,
      1777156322,
      1777156322,
      1777156393,
      1777156393,
      1777156393,
      1777156453,
      1777156453,
      1777156453,
      1777156453,
      1777156514,
      1777156514,
      1777156563,
      1777156574,
      1777156574,
      1777156574,
      1777156574,
      1777156623,
      1777156623,
      1777156634,
      1777156743,
      1777156743,
      1777156743,
      1777156743,
      1777156863,
      1777156863,
      1777156863,
      1777156863,
      1777156874,
      1777156874,
      1777157043,
      1777157043,
      1777157043,
      1777157103,
      1777157103,
      1777157174,
      1777157174,
      1777157174,
      1777157174,
      1777157174,
      1777157224,
      1777157224,
      1777157224,
      1777157235,
      1777157235,
      1777157415,
      1777157415,
      1777157415,
      1777157464,
      1777157464,
      1777157464,
      1777157475,
      1777157475,
      1777157475,
      1777157535,
      1777157644,
      1777157644,
      1777157644,
      1777157704,
      1777157704,
      1777157764,
      1777157824,
      1777157824,
      1777157824,
      1777157824,
      1777157824,
      1777157824,
      1777157945,
      1777157945,
      1777158065,
      1777158065,
      1777158065,
      1777158125,
      1777158125,
      1777158125,
      1777158125,
      1777158125,
      1777158245,
      1777158245,
      1777158305,
      1777158305,
      1777158305,
      1777158305,
      1777158305,
      1777158666,
      1777158666,
      1777158666,
      1777158666,
      1777158726,
      1777158726,
      1777158726,
      1777158726,
      1777159086,
      1777159086,
      1777159086,
      1777159086,
      1777159086,
      1777159086,
      1777159267,
      1777159267,
      1777159267,
      1777159387,
      1777159387,
      1777159387,
      1777159387,
      1777159567,
      1777159567,
      1777159567,
      1777159747,
      1777159807,
      1777159807,
      1777159807,
      1777159928,
      1777159928,
      1777159928,
      1777159928,
      1777159928,
      1777159928,
      1777160228,
      1777160228,
      1777160243,
      1777160243,
      1777160243,
      1777160303,
      1777160303,
      1777160303,
      1777160303,
      1777160303,
      1777160348,
      1777160348,
      1777160363,
      1777160363,
      1777160543,
      1777160543,
      1777160543,
      1777160543,
      1777160543,
      1777160586,
      1777160586,
      1777160663,
      1777160663,
      1777160663,
      1777160663,
      1777160706,
      1777160706,
      1777160783,
      1777160783,
      1777160783,
      1777160826,
      1777160826,
      1777160826,
      1777160886,
      1777160886,
      1777160886,
      1777160904,
      1777160904,
      1777160964,
      1777160964,
      1777161066,
      1777161066,
      1777161066,
      1777161127,
      1777161127,
      1777161187,
      1777161187,
      1777161187,
      1777161264,
      1777161264,
      1777161307,
      1777161307,
      1777161307,
      1777161384,
      1777161384,
      1777161384,
      1777161384,
      1777161504,
      1777161504,
      1777161504,
      1777161547,
      1777161547,
      1777161607,
      1777161607,
      1777161625,
      1777161745,
      1777161745,
      1777161787,
      1777161847,
      1777161847,
      1777161847,
      1777161908,
      1777161908,
      1777161908,
      1777162045,
      1777162045,
      1777162088,
      1777162088,
      1777162088,
      1777162346,
      1777162346,
      1777162346,
      1777162346,
      1777162346,
      1777162406,
      1777162526,
      1777162526,
      1777162526,
      1777162646,
      1777162646,
      1777162646,
      1777162646,
      1777162886,
      1777162886,
      1777162886,
      1777163006,
      1777163006,
      1777163006,
      1777163127,
      1777163127,
      1777163127,
      1777163187,
      1777163187,
      1777163269,
      1777163269,
      1777163329,
      1777163367,
      1777163389,
      1777163487,
      1777163570,
      1777163570,
      1777163570,
      1777163570,
      1777163607,
      1777163630,
      1777163727,
      1777163788,
      1777163788,
      1777163788,
      1777163870,
      1777163870,
      1777163870,
      1777164028,
      1777164050,
      1777164088,
      1777164208,
      1777164208,
      1777164230,
      1777164328,
      1777164328,
      1777164328,
      1777164448,
      1777164448,
      1777164448,
      1777164448,
      1777164509,
      1777164651,
      1777164651,
      1777164749,
      1777164749,
      1777164771,
      1777164771,
      1777164771,
      1777164891,
      1777164929,
      1777164929,
      1777164929,
      1777164989,
      1777165072,
      1777165132,
      1777165192,
      1777165192,
      1777165312,
      1777165350,
      1777165350,
      1777165372,
      1777165372,
      1777165410,
      1777165410,
      1777165470,
      1777165470,
      1777165662,
      1777165662,
      1777165662,
      1777165662,
      1777165662,
      1777165913,
      1777165913,
      1777165913,
      1777165913,
      1777165973,
      1777165973,
      1777166033,
      1777166033,
      1777166153,
      1777166153,
      1777166153,
      1777166213,
      1777166213,
      1777166213,
      1777166513,
      1777166513,
      1777166513,
      1777166513,
      1777166694,
      1777166694,
      1777166694,
      1777166814,
      1777166814,
      1777166814,
      1777166874,
      1777166874,
      1777166934,
      1777166934,
      1777166994,
      1777166994,
      1777166994,
      1777167114,
      1777167114,
      1777167114,
      1777167174,
      1777167174,
      1777167234,
      1777167234,
      1777167354,
      1777167354,
      1777167354,
      1777167492,
      1777167492,
      1777167492,
      1777167492,
      1777167535,
      1777167535,
      1777167595,
      1777167655,
      1777167672,
      1777167732,
      1777167732,
      1777167732,
      1777167835,
      1777167835,
      1777167895,
      1777167895,
      1777167955,
      1777168015,
      1777168015,
      1777168015,
      1777168075,
      1777168075,
      1777168093,
      1777168093,
      1777168136,
      1777168136,
      1777168153,
      1777168153,
      1777168256,
      1777168273,
      1777168273,
      1777168273,
      1777168316,
      1777168316,
      1777168376,
      1777168376,
      1777168393,
      1777168436,
      1777168453,
      1777168453,
      1777168453,
      1777168496,
      1777168496,
      1777168556,
      1777168556,
      1777168573,
      1777168573,
      1777168573,
      1777168573,
      1777168796,
      1777168813,
      1777168813,
      1777168813,
      1777168813,
      1777168873,
      1777168873,
      1777168917,
      1777168917,
      1777168977,
      1777168977,
      1777168977,
      1777169114,
      1777169114,
      1777169114,
      1777169114,
      1777169234,
      1777169234,
      1777169234,
      1777169294,
      1777169294,
      1777169294,
      1777169474,
      1777169474,
      1777169534,
      1777169534,
      1777169534,
      1777169714,
      1777169714,
      1777169714,
      1777169714,
      1777169894,
      1777169894,
      1777169954,
      1777170052,
      1777170074,
      1777170237,
      1777170435,
      1777170435,
      1777170472,
      1777170495,
      1777170615,
      1777170615,
      1777170615,
      1777170838,
      1777170855,
      1777170855,
      1777170915,
      1777170915,
      1777170915,
      1777170975,
      1777171012,
      1777171192,
      1777171246,
      1777171246,
      1777171246,
      1777171246
    ],
    "wof:geomhash": "3b31c3199fb700be6b3b617a158a6d44",
    "wof:id": 2031109239,
    "wof:repo": "sfomuseum-data-flights-2026-04"
  },
  "bbox": [
    -122.31666666666666,
    36.15,
    -86.65,
    38.35944444444445
  ],
  "geometry": {"coordinates":[[-86.65,36.15],[-86.65,36.15],[-86.65,36.15],[-86.65,36.15],[-86.76666666666667,36.2],[-86.76666666666667,36.2],[-86.91305555555556,36.22777777777778],[-86.91305555555556,36.22777777777778],[-86.91305555555556,36.22777777777778],[-86.91305555555556,36.22777777777778],[-86.91305555555556,36.22777777777778],[-87.14555555555556,36.260555555555555],[-87.14555555555556,36.260555555555555],[-87.14555555555556,36.260555555555555],[-87.14555555555556,36.260555555555555],[-87.52777777777777,36.32916666666667],[-87.52777777777777,36.32916666666667],[-87.52777777777777,36.32916666666667],[-87.52777777777777,36.32916666666667],[-87.75277777777778,36.37444444444444],[-87.75277777777778,36.37444444444444],[-87.79388888888889,36.382777777777775],[-88.02277777777778,36.42777777777778],[-88.02277777777778,36.42777777777778],[-88.02277777777778,36.42777777777778],[-88.06416666666667,36.43694444444444],[-88.06416666666667,36.43694444444444],[-88.29527777777777,36.48277777777778],[-88.32444444444444,36.48861111111111],[-88.32444444444444,36.48861111111111],[-88.43611111111112,36.51138888888889],[-88.43611111111112,36.51138888888889],[-88.43611111111112,36.51138888888889],[-88.74416666666667,36.57],[-88.74416666666667,36.57],[-88.74416666666667,36.57],[-88.87916666666666,36.59583333333334],[-88.87916666666666,36.59583333333334],[-88.87916666666666,36.59583333333334],[-88.87916666666666,36.59583333333334],[-89.12277777777777,36.64222222222222],[-89.12277777777777,36.64222222222222],[-89.12277777777777,36.64222222222222],[-89.30888888888889,36.67722222222222],[-89.30888888888889,36.67722222222222],[-89.30888888888889,36.67722222222222],[-89.44305555555556,36.702222222222225],[-89.44305555555556,36.702222222222225],[-89.44305555555556,36.702222222222225],[-89.57638888888889,36.72694444444445],[-89.57638888888889,36.72694444444445],[-89.57638888888889,36.72694444444445],[-89.57638888888889,36.72694444444445],[-89.84666666666666,36.776666666666664],[-90.08916666666666,36.82027777777778],[-90.08916666666666,36.82027777777778],[-90.08916666666666,36.82027777777778],[-90.08916666666666,36.82027777777778],[-90.22305555555556,36.84444444444445],[-90.22305555555556,36.84444444444445],[-90.38583333333334,36.873333333333335],[-90.38583333333334,36.873333333333335],[-90.38583333333334,36.873333333333335],[-90.52083333333333,36.89722222222222],[-90.52083333333333,36.89722222222222],[-90.52083333333333,36.89722222222222],[-90.52083333333333,36.89722222222222],[-90.65444444444445,36.92055555555555],[-90.65444444444445,36.92055555555555],[-90.76444444444445,36.939722222222215],[-90.78833333333333,36.943888888888885],[-90.78833333333333,36.943888888888885],[-90.78833333333333,36.943888888888885],[-90.78833333333333,36.943888888888885],[-90.89694444444446,36.96277777777778],[-90.89694444444446,36.96277777777778],[-90.92277777777778,36.967222222222226],[-91.15027777777779,37.00611111111111],[-91.15027777777779,37.00611111111111],[-91.15027777777779,37.00611111111111],[-91.15027777777779,37.00611111111111],[-91.42361111111111,37.052499999999995],[-91.42361111111111,37.052499999999995],[-91.42361111111111,37.052499999999995],[-91.42361111111111,37.052499999999995],[-91.44972222222222,37.05694444444444],[-91.44972222222222,37.05694444444444],[-91.8261111111111,37.119166666666665],[-91.8261111111111,37.119166666666665],[-91.8261111111111,37.119166666666665],[-91.9625,37.14138888888889],[-91.9625,37.14138888888889],[-92.12305555555555,37.1675],[-92.12305555555555,37.1675],[-92.12305555555555,37.1675],[-92.12305555555555,37.1675],[-92.12305555555555,37.1675],[-92.23416666666667,37.18527777777778],[-92.23416666666667,37.18527777777778],[-92.23416666666667,37.18527777777778],[-92.25777777777778,37.189166666666665],[-92.25777777777778,37.189166666666665],[-92.66194444444444,37.253055555555555],[-92.66194444444444,37.253055555555555],[-92.66194444444444,37.253055555555555],[-92.76972222222223,37.269999999999996],[-92.76972222222223,37.269999999999996],[-92.76972222222223,37.269999999999996],[-92.7961111111111,37.274166666666666],[-92.7961111111111,37.274166666666666],[-92.7961111111111,37.274166666666666],[-92.93166666666667,37.294999999999995],[-93.1725,37.331944444444446],[-93.1725,37.331944444444446],[-93.1725,37.331944444444446],[-93.30694444444444,37.352222222222224],[-93.30694444444444,37.352222222222224],[-93.44083333333333,37.36805555555556],[-93.5761111111111,37.382777777777775],[-93.5761111111111,37.382777777777775],[-93.5761111111111,37.382777777777775],[-93.5761111111111,37.382777777777775],[-93.5761111111111,37.382777777777775],[-93.5761111111111,37.382777777777775],[-93.8475,37.41166666666666],[-93.8475,37.41166666666666],[-94.11861111111111,37.44],[-94.11861111111111,37.44],[-94.11861111111111,37.44],[-94.24138888888889,37.4525],[-94.24138888888889,37.4525],[-94.24138888888889,37.4525],[-94.24138888888889,37.4525],[-94.24138888888889,37.4525],[-94.50666666666666,37.47944444444445],[-94.50666666666666,37.47944444444445],[-94.63694444444445,37.506388888888885],[-94.63694444444445,37.506388888888885],[-94.63694444444445,37.506388888888885],[-94.63694444444445,37.506388888888885],[-94.63694444444445,37.506388888888885],[-95.41250000000001,37.691111111111105],[-95.41250000000001,37.691111111111105],[-95.41250000000001,37.691111111111105],[-95.41250000000001,37.691111111111105],[-95.53833333333333,37.72916666666667],[-95.53833333333333,37.72916666666667],[-95.53833333333333,37.72916666666667],[-95.53833333333333,37.72916666666667],[-96.32916666666667,37.750277777777775],[-96.32916666666667,37.750277777777775],[-96.32916666666667,37.750277777777775],[-96.32916666666667,37.750277777777775],[-96.32916666666667,37.750277777777775],[-96.32916666666667,37.750277777777775],[-96.70222222222222,37.599444444444444],[-96.70222222222222,37.599444444444444],[-96.70222222222222,37.599444444444444],[-96.95916666666668,37.501666666666665],[-96.95916666666668,37.501666666666665],[-96.95916666666668,37.501666666666665],[-96.95916666666668,37.501666666666665],[-97.3236111111111,37.37277777777778],[-97.3236111111111,37.37277777777778],[-97.3236111111111,37.37277777777778],[-97.69777777777779,37.29666666666667],[-97.82194444444444,37.31361111111111],[-97.82194444444444,37.31361111111111],[-97.82194444444444,37.31361111111111],[-98.06694444444445,37.34638888888889],[-98.06694444444445,37.34638888888889],[-98.06694444444445,37.34638888888889],[-98.06694444444445,37.34638888888889],[-98.06694444444445,37.34638888888889],[-98.06694444444445,37.34638888888889],[-98.68722222222223,37.426944444444445],[-98.68722222222223,37.426944444444445],[-98.71611111111112,37.43111111111111],[-98.71611111111112,37.43111111111111],[-98.71611111111112,37.43111111111111],[-98.8425,37.44638888888888],[-98.8425,37.44638888888888],[-98.8425,37.44638888888888],[-98.8425,37.44638888888888],[-98.8425,37.44638888888888],[-98.94055555555556,37.45888888888889],[-98.94055555555556,37.45888888888889],[-98.96944444444445,37.46277777777778],[-98.96944444444445,37.46277777777778],[-99.36388888888888,37.51111111111111],[-99.36388888888888,37.51111111111111],[-99.36388888888888,37.51111111111111],[-99.36388888888888,37.51111111111111],[-99.36388888888888,37.51111111111111],[-99.46611111111112,37.52333333333333],[-99.46611111111112,37.52333333333333],[-99.6261111111111,37.543055555555554],[-99.6261111111111,37.543055555555554],[-99.6261111111111,37.543055555555554],[-99.6261111111111,37.543055555555554],[-99.72916666666667,37.55472222222222],[-99.72916666666667,37.55472222222222],[-99.88527777777779,37.573055555555555],[-99.88527777777779,37.573055555555555],[-99.88527777777779,37.573055555555555],[-99.98861111111111,37.58527777777778],[-99.98861111111111,37.58527777777778],[-99.98861111111111,37.58527777777778],[-100.11999999999999,37.60027777777778],[-100.11999999999999,37.60027777777778],[-100.11999999999999,37.60027777777778],[-100.14666666666668,37.60333333333333],[-100.14666666666668,37.60333333333333],[-100.2775,37.61833333333333],[-100.2775,37.61833333333333],[-100.51333333333334,37.64472222222222],[-100.51333333333334,37.64472222222222],[-100.51333333333334,37.64472222222222],[-100.64444444444445,37.659444444444446],[-100.64444444444445,37.659444444444446],[-100.77305555555556,37.67333333333333],[-100.77305555555556,37.67333333333333],[-100.77305555555556,37.67333333333333],[-100.94861111111112,37.69222222222222],[-100.94861111111112,37.69222222222222],[-101.02333333333333,37.70027777777778],[-101.02333333333333,37.70027777777778],[-101.02333333333333,37.70027777777778],[-101.20666666666666,37.719722222222224],[-101.20666666666666,37.719722222222224],[-101.20666666666666,37.719722222222224],[-101.20666666666666,37.719722222222224],[-101.46861111111112,37.746944444444445],[-101.46861111111112,37.746944444444445],[-101.46861111111112,37.746944444444445],[-101.54388888888889,37.75472222222222],[-101.54388888888889,37.75472222222222],[-101.67611111111111,37.768055555555556],[-101.67611111111111,37.768055555555556],[-101.7286111111111,37.77333333333333],[-101.9888888888889,37.79944444444444],[-101.9888888888889,37.79944444444444],[-102.06638888888888,37.80694444444444],[-102.19861111111112,37.819722222222225],[-102.19861111111112,37.819722222222225],[-102.19861111111112,37.819722222222225],[-102.3286111111111,37.83222222222223],[-102.3286111111111,37.83222222222223],[-102.3286111111111,37.83222222222223],[-102.65472222222223,37.86277777777778],[-102.65472222222223,37.86277777777778],[-102.73027777777779,37.86972222222222],[-102.73027777777779,37.86972222222222],[-102.73027777777779,37.86972222222222],[-103.31472222222222,37.92194444444444],[-103.31472222222222,37.92194444444444],[-103.31472222222222,37.92194444444444],[-103.31472222222222,37.92194444444444],[-103.31472222222222,37.92194444444444],[-103.44527777777778,37.93333333333333],[-103.70805555555556,37.955555555555556],[-103.70805555555556,37.955555555555556],[-103.70805555555556,37.955555555555556],[-103.97055555555556,37.977222222222224],[-103.97055555555556,37.977222222222224],[-103.97055555555556,37.977222222222224],[-103.97055555555556,37.977222222222224],[-104.49555555555555,38.01861111111111],[-104.49555555555555,38.01861111111111],[-104.49555555555555,38.01861111111111],[-104.76194444444444,38.03861111111111],[-104.76194444444444,38.03861111111111],[-104.76194444444444,38.03861111111111],[-105.02583333333334,38.058055555555555],[-105.02583333333334,38.058055555555555],[-105.02583333333334,38.058055555555555],[-105.15305555555557,38.06722222222223],[-105.15305555555557,38.06722222222223],[-105.32249999999999,38.07638888888889],[-105.32249999999999,38.07638888888889],[-105.45083333333334,38.08444444444444],[-105.53888888888889,38.09388888888889],[-105.58083333333333,38.095555555555556],[-105.80277777777778,38.11138888888889],[-105.97805555555556,38.11972222222222],[-105.97805555555556,38.11972222222222],[-105.97805555555556,38.11972222222222],[-105.97805555555556,38.11972222222222],[-106.07027777777778,38.12861111111111],[-106.11277777777777,38.13],[-106.33333333333333,38.144999999999996],[-106.46861111111112,38.153055555555554],[-106.46861111111112,38.153055555555554],[-106.46861111111112,38.153055555555554],[-106.65527777777778,38.16222222222222],[-106.65527777777778,38.16222222222222],[-106.65527777777778,38.16222222222222],[-107.00833333333334,38.18416666666666],[-107.05611111111111,38.183611111111105],[-107.14277777777778,38.19138888888889],[-107.42972222222222,38.20638888888889],[-107.42972222222222,38.20638888888889],[-107.45944444444444,38.206944444444446],[-107.70166666666667,38.22],[-107.70166666666667,38.22],[-107.70166666666667,38.22],[-107.97333333333333,38.23305555555556],[-107.97333333333333,38.23305555555556],[-107.97333333333333,38.23305555555556],[-107.97333333333333,38.23305555555556],[-108.11083333333333,38.239444444444445],[-108.41777777777779,38.25222222222222],[-108.41777777777779,38.25222222222222],[-108.6588888888889,38.263333333333335],[-108.6588888888889,38.263333333333335],[-108.70694444444445,38.265277777777776],[-108.70694444444445,38.265277777777776],[-108.70694444444445,38.265277777777776],[-108.96277777777777,38.275277777777774],[-109.07305555555556,38.279444444444444],[-109.07305555555556,38.279444444444444],[-109.07305555555556,38.279444444444444],[-109.21277777777777,38.28444444444444],[-109.38166666666666,38.29055555555556],[-109.51361111111112,38.294999999999995],[-109.66000000000001,38.3],[-109.66000000000001,38.3],[-109.93805555555556,38.308611111111105],[-110.05,38.31194444444444],[-110.05,38.31194444444444],[-110.07722222222222,38.312777777777775],[-110.07722222222222,38.312777777777775],[-110.18861111111111,38.31583333333333],[-110.18861111111111,38.31583333333333],[-110.33027777777778,38.319722222222225],[-110.33027777777778,38.319722222222225],[-110.78055555555555,38.33083333333334],[-110.78055555555555,38.33083333333334],[-110.78055555555555,38.33083333333334],[-110.78055555555555,38.33083333333334],[-110.78055555555555,38.33083333333334],[-111.35472222222222,38.3425],[-111.35472222222222,38.3425],[-111.35472222222222,38.3425],[-111.35472222222222,38.3425],[-111.49527777777777,38.345],[-111.49527777777777,38.345],[-111.63472222222222,38.34722222222222],[-111.63472222222222,38.34722222222222],[-111.91694444444445,38.35138888888889],[-111.91694444444445,38.35138888888889],[-111.91694444444445,38.35138888888889],[-112.05888888888889,38.35305555555556],[-112.05888888888889,38.35305555555556],[-112.05888888888889,38.35305555555556],[-112.76194444444444,38.35944444444445],[-112.76194444444444,38.35944444444445],[-112.76194444444444,38.35944444444445],[-112.76194444444444,38.35944444444445],[-113.18083333333334,38.35944444444445],[-113.18083333333334,38.35944444444445],[-113.18083333333334,38.35944444444445],[-113.46222222222222,38.35638888888889],[-113.46222222222222,38.35638888888889],[-113.46222222222222,38.35638888888889],[-113.60277777777777,38.35444444444445],[-113.60277777777777,38.35444444444445],[-113.74166666666667,38.35277777777778],[-113.74166666666667,38.35277777777778],[-113.88222222222221,38.35055555555556],[-113.88222222222221,38.35055555555556],[-113.88222222222221,38.35055555555556],[-114.16555555555556,38.346111111111114],[-114.16555555555556,38.346111111111114],[-114.16555555555556,38.346111111111114],[-114.30833333333334,38.343333333333334],[-114.30833333333334,38.343333333333334],[-114.45138888888889,38.34055555555556],[-114.45138888888889,38.34055555555556],[-114.73555555555555,38.33444444444444],[-114.73555555555555,38.33444444444444],[-114.73555555555555,38.33444444444444],[-115.07777777777777,38.33027777777778],[-115.07777777777777,38.33027777777778],[-115.07777777777777,38.33027777777778],[-115.07777777777777,38.33027777777778],[-115.18805555555556,38.33111111111111],[-115.18805555555556,38.33111111111111],[-115.32972222222222,38.331944444444446],[-115.44861111111112,38.3325],[-115.50555555555556,38.33361111111111],[-115.64944444444446,38.33361111111111],[-115.64944444444446,38.33361111111111],[-115.64944444444446,38.33361111111111],[-115.88,38.33388888888889],[-115.88,38.33388888888889],[-116.02305555555556,38.33416666666667],[-116.02305555555556,38.33416666666667],[-116.17,38.33388888888889],[-116.31555555555555,38.33083333333334],[-116.31555555555555,38.33083333333334],[-116.31555555555555,38.33083333333334],[-116.45555555555556,38.30583333333333],[-116.45555555555556,38.30583333333333],[-116.51194444444444,38.29333333333333],[-116.51194444444444,38.29333333333333],[-116.59388888888888,38.275],[-116.59388888888888,38.275],[-116.65111111111112,38.261944444444445],[-116.65111111111112,38.261944444444445],[-116.86972222222222,38.21222222222222],[-116.92166666666667,38.20027777777778],[-116.92166666666667,38.20027777777778],[-116.92166666666667,38.20027777777778],[-116.99555555555555,38.183611111111105],[-116.99555555555555,38.183611111111105],[-117.12194444444444,38.15416666666667],[-117.12194444444444,38.15416666666667],[-117.16416666666667,38.144444444444446],[-117.23694444444445,38.094722222222224],[-117.25055555555555,38.077222222222225],[-117.25055555555555,38.077222222222225],[-117.25055555555555,38.077222222222225],[-117.30361111111111,38.00888888888889],[-117.30361111111111,38.00888888888889],[-117.37138888888889,37.9225],[-117.37138888888889,37.9225],[-117.38472222222222,37.905833333333334],[-117.38472222222222,37.905833333333334],[-117.38472222222222,37.905833333333334],[-117.38472222222222,37.905833333333334],[-117.66722222222222,37.61472222222223],[-117.69555555555556,37.612500000000004],[-117.69555555555556,37.612500000000004],[-117.69555555555556,37.612500000000004],[-117.69555555555556,37.612500000000004],[-117.82416666666666,37.617777777777775],[-117.82416666666666,37.617777777777775],[-117.92750000000001,37.621944444444445],[-117.92750000000001,37.621944444444445],[-118.05805555555555,37.62722222222222],[-118.05805555555555,37.62722222222222],[-118.05805555555555,37.62722222222222],[-118.34694444444445,37.63861111111111],[-118.34694444444445,37.63861111111111],[-118.34694444444445,37.63861111111111],[-118.34694444444445,37.63861111111111],[-118.6111111111111,37.64833333333333],[-118.6111111111111,37.64833333333333],[-118.6111111111111,37.64833333333333],[-118.74277777777777,37.653055555555554],[-118.74277777777777,37.653055555555554],[-118.74277777777777,37.653055555555554],[-119.13777777777779,37.66611111111111],[-119.13777777777779,37.66611111111111],[-119.27305555555556,37.67027777777778],[-119.27305555555556,37.67027777777778],[-119.27305555555556,37.67027777777778],[-119.68777777777778,37.68222222222222],[-119.68777777777778,37.68222222222222],[-119.68777777777778,37.68222222222222],[-119.68777777777778,37.68222222222222],[-120.10444444444444,37.69277777777778],[-120.10444444444444,37.69277777777778],[-120.24305555555556,37.69583333333333],[-120.48333333333333,37.7],[-120.51361111111112,37.68666666666666],[-120.86666666666666,37.65],[-121.24027777777778,37.596111111111114],[-121.24027777777778,37.596111111111114],[-121.33333333333333,37.583333333333336],[-121.35388888888889,37.58222222222223],[-121.56805555555555,37.5575],[-121.56805555555555,37.5575],[-121.56805555555555,37.5575],[-121.86666666666666,37.46666666666667],[-121.87472222222222,37.46805555555556],[-121.87472222222222,37.46805555555556],[-121.95222222222222,37.46333333333334],[-121.95222222222222,37.46333333333334],[-121.95222222222222,37.46333333333334],[-122.0275,37.48277777777778],[-122.08333333333333,37.5],[-122.28333333333333,37.583333333333336],[-122.31666666666666,37.6],[-122.31666666666666,37.6],[-122.31666666666666,37.6],[-122.31666666666666,37.6]],"type":"LineString"}
}
