{
  "id": 2031100037,
  "type": "Feature",
  "properties": {
    "geom:area": 0,
    "geom:bbox": "-123.481910,37.175500,-122.152970,37.610700",
    "geom:latitude": 37.35172391561133,
    "geom:longitude": -122.68134393172753,
    "src:alt_label": "swim-approach",
    "src:geom": "swim",
    "swim:elevations": [
      5326,
      5027,
      4765,
      4517,
      4420,
      4230,
      4120,
      3732,
      3498,
      3254,
      3107,
      3083,
      3048,
      3048,
      3048,
      3048,
      3048,
      2912,
      2900,
      2803,
      2744,
      2743,
      2598,
      2578,
      2494,
      2375,
      2277,
      2044,
      1919,
      1894,
      1829,
      1829,
      1829,
      1829,
      1829,
      1829,
      1829,
      1829,
      1829,
      1829,
      1829,
      1829,
      1829,
      1829,
      1576,
      1328,
      1167,
      943,
      902,
      638,
      526,
      365,
      228,
      71,
      52
    ],
    "swim:geom": "approach",
    "swim:timestamps": [
      1777020598,
      1777020626,
      1777020655,
      1777020680,
      1777020692,
      1777020711,
      1777020724,
      1777020766,
      1777020794,
      1777020834,
      1777020867,
      1777020872,
      1777020894,
      1777020919,
      1777020940,
      1777020968,
      1777020997,
      1777021035,
      1777021039,
      1777021067,
      1777021106,
      1777021122,
      1777021178,
      1777021185,
      1777021202,
      1777021225,
      1777021244,
      1777021282,
      1777021313,
      1777021323,
      1777021358,
      1777021371,
      1777021395,
      1777021438,
      1777021466,
      1777021472,
      1777021510,
      1777021522,
      1777021541,
      1777021589,
      1777021617,
      1777021626,
      1777021640,
      1777021658,
      1777021698,
      1777021732,
      1777021759,
      1777021798,
      1777021806,
      1777021854,
      1777021877,
      1777021914,
      1777021945,
      1777021977,
      1777021983
    ],
    "wof:geomhash": "1ba54d2babe6d96f336142378d286640",
    "wof:id": 2031100037,
    "wof:repo": "sfomuseum-data-flights-2026-04"
  },
  "bbox": [
    -123.48191,
    37.1755,
    -122.15297,
    37.6107
  ],
  "geometry": {"coordinates":[[-123.48191,37.44984],[-123.42127,37.43113],[-123.36154,37.41277],[-123.31154,37.39734],[-123.2853,37.38922],[-123.24704,37.37731],[-123.22157,37.36941],[-123.13833,37.34366],[-123.08516,37.32714],[-123.00801,37.30293],[-122.94752,37.28405],[-122.93838,37.28125],[-122.90147,37.27022],[-122.85989,37.25775],[-122.82805,37.24836],[-122.78959,37.23715],[-122.75088,37.22585],[-122.69997,37.20978],[-122.69541,37.20836],[-122.6568,37.19703],[-122.6046,37.18204],[-122.58154,37.1755],[-122.50906,37.1806],[-122.5043,37.18736],[-122.50082,37.2057],[-122.50203,37.23117],[-122.50339,37.25215],[-122.50615,37.29349],[-122.50864,37.32583],[-122.50947,37.33707],[-122.50993,37.37346],[-122.50125,37.38655],[-122.4714,37.39744],[-122.42062,37.37375],[-122.39123,37.35252],[-122.38425,37.34804],[-122.33254,37.34595],[-122.31618,37.34935],[-122.29075,37.3547],[-122.2269,37.36786],[-122.18966,37.37597],[-122.17787,37.38041],[-122.16508,37.39202],[-122.15933,37.41065],[-122.15514,37.4529],[-122.15297,37.48793],[-122.15789,37.51345],[-122.18698,37.54126],[-122.19487,37.54511],[-122.24223,37.56519],[-122.26304,37.57397],[-122.29457,37.58727],[-122.31905,37.59751],[-122.34555,37.60871],[-122.35034,37.6107]],"type":"LineString"}
}
