{
  "id": 2031108757,
  "type": "Feature",
  "properties": {
    "geom:area": 0,
    "geom:bbox": "-122.380000,36.120000,-86.680000,39.690000",
    "geom:latitude": 38.679509276493626,
    "geom:longitude": -104.34353071666672,
    "src:alt_label": "swim-route",
    "src:geom": "swim",
    "swim:geom": "route",
    "wof:geomhash": "2d0fa76047019e053cd62f350f79d921",
    "wof:id": 2031108757,
    "wof:repo": "sfomuseum-data-flights-2026-04"
  },
  "bbox": [
    -122.38,
    36.12,
    -86.68,
    39.69
  ],
  "geometry": {"coordinates":[[-86.68,36.12],[-86.78,36.15],[-86.86,36.17],[-86.95,36.2],[-87.15,36.25],[-87.23,36.27],[-87.35,36.29],[-87.5,36.32],[-87.5,36.32],[-87.51,36.32],[-87.73,36.42],[-87.84,36.47],[-87.93,36.51],[-88.15,36.61],[-88.24,36.65],[-88.25,36.65],[-88.37,36.71],[-88.4,36.73],[-88.52,36.79],[-88.72,36.9],[-88.75,36.92],[-88.85,36.97],[-89.33,37.22],[-89.56,37.33],[-89.62,37.36],[-90.23,37.67],[-90.75,37.87],[-90.9,37.93],[-91.82,38.27],[-94.24,39.12],[-94.74,39.29],[-95.29,39.33],[-96.25,39.35],[-97.26,39.33],[-99,39.37],[-99.45,39.29],[-100.29,39.27],[-101.22,39.37],[-101.47,39.4],[-102.26,39.48],[-103.22,39.57],[-103.29,39.58],[-104.62,39.69],[-105.15,39.67],[-105.93,39.63],[-106.33,39.61],[-107.22,39.56],[-107.72,39.53],[-108.83,39.5],[-109.08,39.47],[-109.52,39.42],[-109.97,39.37],[-110.1,39.35],[-110.44,39.3],[-110.93,39.23],[-111.13,39.21],[-111.72,39.12],[-112.38,39.02],[-113.47,38.84],[-114.63,38.65],[-115.09,38.56],[-117.27,38.18],[-118.76,37.9],[-119.03,37.86],[-119.1,37.86],[-119.38,37.82],[-119.94,37.76],[-120.04,37.75],[-120.22,37.72],[-120.4,37.7],[-120.41,37.7],[-120.48,37.69],[-120.69,37.67],[-120.75,37.66],[-120.77,37.66],[-120.83,37.65],[-120.96,37.63],[-121,37.63],[-121.08,37.62],[-121.17,37.6],[-121.26,37.59],[-121.39,37.58],[-121.41,37.58],[-121.6,37.55],[-121.61,37.55],[-121.62,37.55],[-121.7,37.53],[-121.8,37.51],[-121.83,37.5],[-121.88,37.49],[-122.08,37.54],[-122.14,37.56],[-122.18,37.57],[-122.28,37.59],[-122.33,37.61],[-122.36,37.61],[-122.38,37.62]],"type":"LineString"}
}
