{
  "id": 2031149967,
  "type": "Feature",
  "properties": {
    "geom:area": 0,
    "geom:bbox": "-122.360260,36.738390,-121.889010,37.613120",
    "geom:latitude": 37.231240203169136,
    "geom:longitude": -122.10645878667215,
    "src:alt_label": "swim-approach",
    "src:geom": "swim",
    "swim:elevations": [
      5538,
      5454,
      5201,
      5051,
      4662,
      4594,
      4440,
      4339,
      4107,
      3833,
      3616,
      3596,
      3443,
      3290,
      3149,
      3052,
      2934,
      2863,
      2607,
      2466,
      2350,
      2159,
      1955,
      1836,
      1829,
      1710,
      1675,
      1444,
      1385,
      1242,
      1218,
      1205,
      1099,
      888,
      733,
      690,
      639,
      604,
      488,
      379,
      368,
      211,
      69,
      97
    ],
    "swim:geom": "approach",
    "swim:timestamps": [
      1777587654,
      1777587664,
      1777587688,
      1777587703,
      1777587745,
      1777587767,
      1777587798,
      1777587813,
      1777587837,
      1777587864,
      1777587895,
      1777587900,
      1777587933,
      1777587967,
      1777587991,
      1777588006,
      1777588021,
      1777588033,
      1777588074,
      1777588107,
      1777588129,
      1777588164,
      1777588198,
      1777588222,
      1777588258,
      1777588283,
      1777588295,
      1777588348,
      1777588357,
      1777588394,
      1777588401,
      1777588430,
      1777588454,
      1777588487,
      1777588521,
      1777588551,
      1777588564,
      1777588582,
      1777588618,
      1777588643,
      1777588652,
      1777588688,
      1777588725,
      1777588744
    ],
    "wof:geomhash": "b601f175c302e92b36cc21c2a42f165e",
    "wof:id": 2031149967,
    "wof:repo": "sfomuseum-data-flights-2026-04"
  },
  "bbox": [
    -122.36026,
    36.73839,
    -121.88901,
    37.61312
  ],
  "geometry": {"coordinates":[[-121.88901,36.73839],[-121.89562,36.75174],[-121.9074,36.78893],[-121.91403,36.81209],[-121.93208,36.87707],[-121.94097,36.90897],[-121.953,36.95107],[-121.9604,36.97047],[-121.97226,37.0012],[-121.98518,37.03454],[-122.00025,37.07303],[-122.00243,37.07857],[-122.02453,37.11232],[-122.06639,37.13273],[-122.09169,37.14998],[-122.10402,37.1624],[-122.11758,37.17596],[-122.12821,37.18647],[-122.16428,37.22357],[-122.1912,37.25285],[-122.20924,37.27255],[-122.23786,37.30381],[-122.24989,37.33658],[-122.22855,37.35417],[-122.18439,37.36404],[-122.15597,37.37008],[-122.14246,37.37288],[-122.11036,37.40414],[-122.11328,37.41226],[-122.12428,37.44254],[-122.12664,37.4488],[-122.13522,37.47186],[-122.14238,37.49134],[-122.15218,37.51792],[-122.17878,37.53572],[-122.20501,37.54809],[-122.21745,37.55295],[-122.234,37.55937],[-122.26686,37.57314],[-122.28821,37.58228],[-122.2955,37.58535],[-122.32208,37.59644],[-122.34816,37.60751],[-122.36026,37.61312]],"type":"LineString"}
}
