{
  "id": 2015201949,
  "type": "Feature",
  "properties": {
    "geom:area": 0,
    "geom:bbox": "-122.362080,36.719480,-121.875980,37.612780",
    "geom:latitude": 37.21019625959014,
    "geom:longitude": -122.07016268069454,
    "src:alt_label": "swim-approach",
    "src:geom": "swim",
    "swim:elevations": [
      5587,
      5485,
      5400,
      5083,
      4646,
      4421,
      4363,
      4318,
      4241,
      3973,
      3790,
      3402,
      3216,
      3049,
      2870,
      2785,
      2640,
      2475,
      2269,
      2037,
      1926,
      1706,
      1620,
      1465,
      1381,
      1157,
      1103,
      817,
      636,
      584,
      542,
      486,
      349,
      244,
      154,
      59,
      30
    ],
    "swim:geom": "approach",
    "swim:timestamps": [
      1775340250,
      1775340265,
      1775340278,
      1775340310,
      1775340352,
      1775340381,
      1775340390,
      1775340416,
      1775340439,
      1775340471,
      1775340493,
      1775340532,
      1775340555,
      1775340582,
      1775340616,
      1775340631,
      1775340654,
      1775340682,
      1775340711,
      1775340745,
      1775340763,
      1775340796,
      1775340813,
      1775340835,
      1775340851,
      1775340892,
      1775340901,
      1775340948,
      1775340979,
      1775340988,
      1775340999,
      1775341016,
      1775341047,
      1775341074,
      1775341103,
      1775341131,
      1775341145
    ],
    "wof:geomhash": "c95ceef000753668d5c51c51818555a2",
    "wof:id": 2015201949,
    "wof:repo": "sfomuseum-data-flights-2026-04"
  },
  "bbox": [
    -122.36208,
    36.71948,
    -121.87598,
    37.61278
  ],
  "geometry": {"coordinates":[[-121.87598,36.71948],[-121.88948,36.74119],[-121.89805,36.75964],[-121.91309,36.80925],[-121.93042,36.87289],[-121.9425,36.9157],[-121.9463,36.92895],[-121.95795,36.96403],[-121.96939,36.99262],[-121.98369,37.03061],[-121.99325,37.05604],[-122.01073,37.10057],[-122.02144,37.12679],[-122.03383,37.15767],[-122.04872,37.19588],[-122.05541,37.21315],[-122.06522,37.23851],[-122.07736,37.27014],[-122.08994,37.30227],[-122.10484,37.33989],[-122.1128,37.36003],[-122.12668,37.39714],[-122.13266,37.41517],[-122.14028,37.43789],[-122.14624,37.45528],[-122.16057,37.49624],[-122.16382,37.50559],[-122.19618,37.54403],[-122.23185,37.55851],[-122.24109,37.56241],[-122.25151,37.56684],[-122.2678,37.57359],[-122.29216,37.58382],[-122.31168,37.59204],[-122.33128,37.60038],[-122.35173,37.6089],[-122.36208,37.61278]],"type":"LineString"}
}
