{
  "id": 2031153647,
  "type": "Feature",
  "properties": {
    "geom:area": 0,
    "geom:bbox": "-122.383333,37.616667,-104.660556,39.844167",
    "geom:latitude": 38.64256088535915,
    "geom:longitude": -113.37422755864554,
    "src:alt_label": "swim-path",
    "src:geom": "swim",
    "swim:altitudes": [
      "005",
      "032",
      "032",
      "055",
      "055",
      "055",
      "057",
      "115",
      "115",
      "139",
      "139",
      "194",
      "194",
      "194",
      "220",
      "220",
      "261",
      "279",
      "279",
      "279",
      "306",
      "306",
      "306",
      "337",
      "337",
      "351",
      "351",
      "363",
      "363",
      "390C",
      "390C",
      "390C",
      "390C",
      "390C",
      "390C",
      "390C",
      "390C",
      "390C",
      "390C",
      "390C",
      "390C",
      "390C",
      "390C",
      "390C",
      "390C",
      "390C",
      "390C",
      "390C",
      "390C",
      "390C",
      "390C",
      "390C",
      "390C",
      "390C",
      "390C",
      "390C",
      "390C",
      "390C",
      "390C",
      "390C",
      "390C",
      "390C",
      "390C",
      "390C",
      "390C",
      "390C",
      "390C",
      "390C",
      "390C",
      "390C",
      "390C",
      "390C",
      "390C",
      "390C",
      "390C",
      "390C",
      "390C",
      "390C",
      "390C",
      "390C",
      "390C",
      "390C",
      "390C",
      "390C",
      "390C",
      "390C",
      "390C",
      "390C",
      "390C",
      "390C",
      "390C",
      "390C",
      "390C",
      "390C",
      "390C",
      "390C",
      "390C",
      "376",
      "366",
      "366",
      "366",
      "348",
      "348",
      "327",
      "311",
      "311",
      "295",
      "262",
      "262",
      "241",
      "241",
      "241",
      "233",
      "166",
      "162",
      "151",
      "137",
      "130",
      "130",
      "120",
      "105",
      "105",
      "091",
      "087",
      "077",
      "077",
      "075",
      "058",
      "053",
      "053",
      "053"
    ],
    "swim:geom": "path",
    "swim:speeds": [
      152,
      221,
      221,
      222,
      222,
      222,
      224,
      298,
      298,
      346,
      346,
      385,
      385,
      385,
      398,
      398,
      415,
      445,
      445,
      445,
      470,
      470,
      470,
      477,
      477,
      483,
      483,
      484,
      484,
      486,
      487,
      487,
      487,
      487,
      488,
      488,
      488,
      488,
      489,
      490,
      490,
      490,
      491,
      491,
      491,
      491,
      492,
      492,
      492,
      492,
      490,
      490,
      490,
      491,
      491,
      491,
      494,
      494,
      493,
      493,
      492,
      492,
      490,
      490,
      490,
      491,
      496,
      496,
      497,
      497,
      499,
      499,
      499,
      503,
      503,
      508,
      508,
      513,
      513,
      513,
      513,
      513,
      514,
      514,
      512,
      512,
      506,
      507,
      510,
      510,
      511,
      511,
      511,
      509,
      508,
      507,
      507,
      509,
      513,
      513,
      513,
      518,
      518,
      520,
      503,
      503,
      475,
      451,
      451,
      430,
      430,
      430,
      416,
      339,
      334,
      333,
      318,
      275,
      275,
      267,
      265,
      265,
      258,
      215,
      176,
      176,
      171,
      170,
      134,
      134,
      134
    ],
    "swim:timestamps": [
      1777604624,
      1777604707,
      1777604707,
      1777604751,
      1777604751,
      1777604751,
      1777604767,
      1777604887,
      1777604887,
      1777604947,
      1777604947,
      1777605067,
      1777605067,
      1777605067,
      1777605128,
      1777605128,
      1777605248,
      1777605308,
      1777605308,
      1777605308,
      1777605428,
      1777605428,
      1777605428,
      1777605549,
      1777605549,
      1777605609,
      1777605609,
      1777605668,
      1777605668,
      1777605848,
      1777605910,
      1777605910,
      1777605970,
      1777605970,
      1777606029,
      1777606330,
      1777606330,
      1777606330,
      1777606511,
      1777606571,
      1777606571,
      1777606571,
      1777606631,
      1777606631,
      1777606691,
      1777606691,
      1777606751,
      1777606811,
      1777606811,
      1777606811,
      1777606991,
      1777606991,
      1777606991,
      1777607171,
      1777607171,
      1777607171,
      1777607352,
      1777607352,
      1777607472,
      1777607472,
      1777607532,
      1777607532,
      1777607712,
      1777607712,
      1777607712,
      1777607772,
      1777607892,
      1777607892,
      1777607952,
      1777607952,
      1777608073,
      1777608073,
      1777608073,
      1777608193,
      1777608193,
      1777608313,
      1777608313,
      1777608493,
      1777608553,
      1777608553,
      1777608613,
      1777608613,
      1777608734,
      1777608734,
      1777608854,
      1777608854,
      1777609395,
      1777609455,
      1777609515,
      1777609515,
      1777609575,
      1777609575,
      1777609575,
      1777609635,
      1777609695,
      1777609755,
      1777609815,
      1777610115,
      1777610176,
      1777610176,
      1777610176,
      1777610296,
      1777610296,
      1777610416,
      1777610476,
      1777610476,
      1777610536,
      1777610656,
      1777610656,
      1777610716,
      1777610716,
      1777610716,
      1777610742,
      1777611016,
      1777611030,
      1777611076,
      1777611136,
      1777611210,
      1777611210,
      1777611276,
      1777611377,
      1777611377,
      1777611437,
      1777611497,
      1777611557,
      1777611557,
      1777611570,
      1777611677,
      1777611737,
      1777611737,
      1777611737
    ],
    "wof:geomhash": "381b254d454cb4d314c3a0823448bb9a",
    "wof:id": 2031153647,
    "wof:repo": "sfomuseum-data-flights-2026-04"
  },
  "bbox": [
    -122.38333333333334,
    37.61666666666667,
    -104.66055555555556,
    39.844166666666666
  ],
  "geometry": {"coordinates":[[-122.38333333333334,37.61666666666667],[-122.35249999999999,37.66555555555556],[-122.35249999999999,37.66555555555556],[-122.3,37.68333333333333],[-122.3,37.68333333333333],[-122.3,37.68333333333333],[-122.28166666666667,37.69166666666666],[-122.115,37.769444444444446],[-122.115,37.769444444444446],[-122.01694444444445,37.819722222222225],[-122.01694444444445,37.819722222222225],[-121.78388888888888,37.91305555555555],[-121.78388888888888,37.91305555555555],[-121.78388888888888,37.91305555555555],[-121.65833333333335,37.963055555555556],[-121.65833333333335,37.963055555555556],[-121.43166666666667,38.09916666666667],[-121.3,38.1575],[-121.3,38.1575],[-121.3,38.1575],[-120.98694444444445,38.212500000000006],[-120.98694444444445,38.212500000000006],[-120.98694444444445,38.212500000000006],[-120.64111111111112,38.26833333333333],[-120.64111111111112,38.26833333333333],[-120.47166666666666,38.29555555555555],[-120.47166666666666,38.29555555555555],[-120.32138888888889,38.32194444444445],[-120.32138888888889,38.32194444444445],[-119.81611111111111,38.401944444444446],[-119.63277777777778,38.42916666666667],[-119.63277777777778,38.42916666666667],[-119.46388888888889,38.45305555555556],[-119.46388888888889,38.45305555555556],[-119.29416666666667,38.47416666666667],[-118.44277777777778,38.57805555555556],[-118.44277777777778,38.57805555555556],[-118.44277777777778,38.57805555555556],[-117.92555555555556,38.63666666666666],[-117.75083333333333,38.65611111111111],[-117.75083333333333,38.65611111111111],[-117.75083333333333,38.65611111111111],[-117.57583333333334,38.675555555555555],[-117.57583333333334,38.675555555555555],[-117.40305555555557,38.69444444444444],[-117.40305555555557,38.69444444444444],[-117.22694444444444,38.713055555555556],[-117.05138888888888,38.73166666666667],[-117.05138888888888,38.73166666666667],[-117.05138888888888,38.73166666666667],[-116.53055555555555,38.78527777777778],[-116.53055555555555,38.78527777777778],[-116.53055555555555,38.78527777777778],[-116.01,38.83583333333333],[-116.01,38.83583333333333],[-116.01,38.83583333333333],[-115.48333333333333,38.885555555555555],[-115.48333333333333,38.885555555555555],[-115.14888888888889,38.91555555555556],[-115.14888888888889,38.91555555555556],[-114.97777777777777,38.930277777777775],[-114.97777777777777,38.930277777777775],[-114.45444444444445,38.974722222222226],[-114.45444444444445,38.974722222222226],[-114.45444444444445,38.974722222222226],[-114.28138888888888,38.98861111111111],[-113.92861111111111,38.962500000000006],[-113.92861111111111,38.962500000000006],[-113.75444444444445,38.936388888888885],[-113.75444444444445,38.936388888888885],[-113.40583333333333,38.882777777777775],[-113.40583333333333,38.882777777777775],[-113.40583333333333,38.882777777777775],[-113.0525,38.82777777777778],[-113.0525,38.82777777777778],[-112.69444444444444,38.77055555555555],[-112.69444444444444,38.77055555555555],[-112.15944444444445,38.683611111111105],[-111.97833333333334,38.65333333333333],[-111.97833333333334,38.65333333333333],[-111.80055555555555,38.62361111111111],[-111.80055555555555,38.62361111111111],[-111.43805555555556,38.56111111111111],[-111.43805555555556,38.56111111111111],[-111.08527777777778,38.5],[-111.08527777777778,38.5],[-109.53111111111112,38.21472222222223],[-109.35888888888888,38.181666666666665],[-109.14750000000001,38.14111111111111],[-109.14750000000001,38.14111111111111],[-108.97361111111111,38.11083333333333],[-108.97361111111111,38.11083333333333],[-108.97361111111111,38.11083333333333],[-108.80527777777777,38.153055555555554],[-108.6438888888889,38.21555555555556],[-108.48444444444445,38.27777777777778],[-108.32444444444444,38.34027777777778],[-107.52055555555556,38.644999999999996],[-107.35583333333332,38.70722222222223],[-107.35583333333332,38.70722222222223],[-107.35583333333332,38.70722222222223],[-107.04777777777778,38.82333333333334],[-107.04777777777778,38.82333333333334],[-106.69027777777778,38.95638888888889],[-106.52777777777777,39.01611111111111],[-106.52777777777777,39.01611111111111],[-106.37305555555555,39.072500000000005],[-106.06638888888888,39.183611111111105],[-106.06638888888888,39.183611111111105],[-105.92805555555556,39.23361111111111],[-105.92805555555556,39.23361111111111],[-105.92805555555556,39.23361111111111],[-105.86666666666666,39.25],[-105.31416666666667,39.4175],[-105.28333333333333,39.416666666666664],[-105.1975,39.418055555555554],[-105.08277777777778,39.41833333333333],[-104.95,39.43333333333333],[-104.95,39.43333333333333],[-104.86666666666666,39.483333333333334],[-104.72361111111111,39.54111111111111],[-104.72361111111111,39.54111111111111],[-104.67055555555557,39.59777777777778],[-104.66277777777778,39.66166666666666],[-104.66194444444444,39.71277777777778],[-104.66194444444444,39.71277777777778],[-104.66666666666667,39.71666666666667],[-104.66083333333334,39.80694444444444],[-104.66055555555556,39.844166666666666],[-104.66055555555556,39.844166666666666],[-104.66055555555556,39.844166666666666]],"type":"LineString"}
}
