{
  "id": 2015246209,
  "type": "Feature",
  "properties": {
    "geom:area": 0,
    "geom:bbox": "-122.401890,37.623810,-121.277510,38.405210",
    "geom:latitude": 38.00816229752197,
    "geom:longitude": -121.8470034704012,
    "src:alt_label": "swim-takeoff",
    "src:geom": "swim",
    "swim:elevations": [
      152,
      374,
      519,
      792,
      957,
      1532,
      1937,
      2310,
      2601,
      2810,
      3593,
      3952,
      4247,
      4509,
      4956,
      5297,
      5602,
      5780,
      6165,
      6326,
      6490,
      6820,
      6983,
      7453
    ],
    "swim:geom": "takeoff",
    "swim:timestamps": [
      1775743613,
      1775743635,
      1775743665,
      1775743702,
      1775743719,
      1775743761,
      1775743791,
      1775743824,
      1775743848,
      1775743866,
      1775743956,
      1775743991,
      1775744019,
      1775744049,
      1775744090,
      1775744118,
      1775744152,
      1775744175,
      1775744213,
      1775744232,
      1775744256,
      1775744292,
      1775744310,
      1775744362
    ],
    "wof:geomhash": "80d175c79467990d51eaf9dddba034a9",
    "wof:id": 2015246209,
    "wof:repo": "sfomuseum-data-flights-2026-04"
  },
  "bbox": [
    -122.40189,
    37.62381,
    -121.27751,
    38.40521
  ],
  "geometry": {"coordinates":[[-122.38706,37.62381],[-122.40189,37.63598],[-122.38655,37.65775],[-122.33904,37.67351],[-122.3162,37.68145],[-122.25549,37.7029],[-122.21388,37.72186],[-122.17966,37.75692],[-122.15425,37.7839],[-122.13259,37.80191],[-122.00894,37.89164],[-121.95528,37.93089],[-121.91127,37.96267],[-121.86039,37.99836],[-121.79152,38.04789],[-121.74237,38.08385],[-121.68424,38.12615],[-121.64117,38.15654],[-121.57193,38.20614],[-121.53649,38.23123],[-121.48929,38.26447],[-121.42154,38.31332],[-121.38492,38.33895],[-121.27751,38.40521]],"type":"LineString"}
}
