{
  "id": 2015355721,
  "type": "Feature",
  "properties": {
    "geom:area": 0,
    "geom:bbox": "-122.744722,37.371944,-70.718333,43.099444",
    "geom:latitude": 41.33794946765275,
    "geom:longitude": -97.49856038161637,
    "src:alt_label": "swim-path",
    "src:geom": "swim",
    "swim:altitudes": [
      "010",
      "010",
      "099",
      "099",
      "118",
      "118",
      "173",
      "173",
      "229",
      "229",
      "252",
      "273",
      "273",
      "308",
      "308",
      "308",
      "320C",
      "320C",
      "320C",
      "320C",
      "320C",
      "320C",
      "320C",
      "320C",
      "320C",
      "320C",
      "320C",
      "320C",
      "320C",
      "320C",
      "320C",
      "320C",
      "320C",
      "320C",
      "320C",
      "320C",
      "320C",
      "320C",
      "320C",
      "320C",
      "320C",
      "320C",
      "320C",
      "320C",
      "320C",
      "320C",
      "320C",
      "320C",
      "320C",
      "320C",
      "320C",
      "320C",
      "320C",
      "320C",
      "320C",
      "320",
      "320",
      "320",
      "320",
      "320",
      "320",
      "320",
      "320",
      "320",
      "320",
      "320",
      "321",
      "321",
      "321",
      "340C",
      "340C",
      "340C",
      "340C",
      "340C",
      "340C",
      "340C",
      "340C",
      "340C",
      "340C",
      "340C",
      "340C",
      "340C",
      "340C",
      "340C",
      "340C",
      "340C",
      "340C",
      "340C",
      "340C",
      "340C",
      "340C",
      "340C",
      "340C",
      "340C",
      "340C",
      "340C",
      "340C",
      "340C",
      "340C",
      "340C",
      "340C",
      "340C",
      "340C",
      "340C",
      "340C",
      "340C",
      "340C",
      "340C",
      "340C",
      "340C",
      "340C",
      "340C",
      "340C",
      "340C",
      "340C",
      "340C",
      "340C",
      "340C",
      "340C",
      "340C",
      "340C",
      "340C",
      "340C",
      "340C",
      "340C",
      "340C",
      "340C",
      "340C",
      "340C",
      "340C",
      "340C",
      "340C",
      "340C",
      "340C",
      "340C",
      "340C",
      "340C",
      "340C",
      "340C",
      "340C",
      "340C",
      "340C",
      "340C",
      "340C",
      "340C",
      "340C",
      "340C",
      "340C",
      "340C",
      "340C",
      "340C",
      "340C",
      "340C",
      "340C",
      "340C",
      "340C",
      "340C",
      "340C",
      "340C",
      "340C",
      "340C",
      "340C",
      "340C",
      "340C",
      "340C",
      "340C",
      "340C",
      "340C",
      "340",
      "340",
      "340",
      "340",
      "340",
      "340",
      "340",
      "340",
      "340",
      "340C",
      "340C",
      "340C",
      "340C",
      "340C",
      "340C",
      "340C",
      "340C",
      "340C",
      "340C",
      "340C",
      "340C",
      "340C",
      "340C",
      "340C",
      "340C",
      "340C",
      "340C",
      "340C",
      "340C",
      "340C",
      "340C",
      "340C",
      "340C",
      "340C",
      "340C",
      "340C",
      "340C",
      "340C",
      "340C",
      "340C",
      "340C",
      "340C",
      "340C",
      "340C",
      "340C",
      "340C",
      "340C",
      "340C",
      "340C",
      "340C",
      "340C",
      "340C",
      "340C",
      "340C",
      "340C",
      "340C",
      "340C",
      "340C",
      "340C",
      "340C",
      "340C",
      "340C",
      "340C",
      "340C",
      "340C",
      "340C",
      "340C",
      "340C",
      "340C",
      "340C",
      "340C",
      "340C",
      "340C",
      "340C",
      "340C",
      "340C",
      "340C",
      "340C",
      "340C",
      "340C",
      "340C",
      "340C",
      "340C",
      "340C",
      "340C",
      "340C",
      "340C",
      "340C",
      "340C",
      "340C",
      "340C",
      "340C",
      "340C",
      "340C",
      "340C",
      "340C",
      "340C",
      "340C",
      "340C",
      "340C",
      "340C",
      "340C",
      "340C",
      "340C",
      "340C",
      "340C",
      "340C",
      "340C",
      "340C",
      "340C",
      "340C",
      "340C",
      "340C",
      "340C",
      "340C",
      "340C",
      "340C",
      "340C",
      "340C",
      "340C",
      "340C",
      "340C",
      "340C",
      "340C",
      "340C",
      "340C",
      "340C",
      "340C",
      "340C",
      "340C",
      "340C",
      "340C",
      "340C",
      "360C",
      "360C",
      "360C",
      "360C",
      "360C",
      "360C",
      "360C",
      "360C",
      "360C",
      "360C",
      "360C",
      "360C",
      "360C",
      "360C",
      "360C",
      "360C",
      "360C",
      "360C",
      "360C",
      "360C",
      "360C",
      "360C",
      "360C",
      "360C",
      "360C",
      "360C",
      "360C",
      "360C",
      "360C",
      "360C",
      "360C",
      "360C",
      "360",
      "360",
      "360",
      "350",
      "340C",
      "340C",
      "340C",
      "340C",
      "340C",
      "340C",
      "340C",
      "340C",
      "340C",
      "340C",
      "340C",
      "340C",
      "340C",
      "340C",
      "340C",
      "340C",
      "340C",
      "340C",
      "340C",
      "340C",
      "340C",
      "340C",
      "340C",
      "340C",
      "340C",
      "340C",
      "340C",
      "340C",
      "340C",
      "340C",
      "340C",
      "340C",
      "340C",
      "340C",
      "340C",
      "340C",
      "340C",
      "340C",
      "340C",
      "340C",
      "340C",
      "340C",
      "340C",
      "340C",
      "340C",
      "340C",
      "340C",
      "340C",
      "340C",
      "340C",
      "340C",
      "340C",
      "340C",
      "340C",
      "340C",
      "340C",
      "340C",
      "340C",
      "340C",
      "340C",
      "340C",
      "340C",
      "340C",
      "340C",
      "340C",
      "340C",
      "340C",
      "340C",
      "340C",
      "340C",
      "340C",
      "340C",
      "340C",
      "340C",
      "340C",
      "340C",
      "340C",
      "340C",
      "340C",
      "340C",
      "340C",
      "340C",
      "340C",
      "340C",
      "340C",
      "340C",
      "340C",
      "340C",
      "340C",
      "340C",
      "340C",
      "340C",
      "340C",
      "340C",
      "340C",
      "340C",
      "340C",
      "340C",
      "340C",
      "340C",
      "340C",
      "340C",
      "340C",
      "340C",
      "340C",
      "340C",
      "340C",
      "340C",
      "340C",
      "340C",
      "340C",
      "340C",
      "340C",
      "340C",
      "340C",
      "340C",
      "340C",
      "340C",
      "340C",
      "340C",
      "340C",
      "340C",
      "340C",
      "340C",
      "340C",
      "340C",
      "340C",
      "340C",
      "340C",
      "340C",
      "340C",
      "340C",
      "340C",
      "340C",
      "340C",
      "340C",
      "340C",
      "340C",
      "340C",
      "340C",
      "340C",
      "340C",
      "340C",
      "340C",
      "340C",
      "340C",
      "340C",
      "340C",
      "340C",
      "340C",
      "340C",
      "340C",
      "340C",
      "340C",
      "340C",
      "340C",
      "340C",
      "340C",
      "340C",
      "340C",
      "340C",
      "340C",
      "340C",
      "340C",
      "340C",
      "340C",
      "340C",
      "340C",
      "340C",
      "340C",
      "340C",
      "340C",
      "340C",
      "340C",
      "340C",
      "340C",
      "340C",
      "340C",
      "340C",
      "340C",
      "340C",
      "320C",
      "320C",
      "320C",
      "320C",
      "320C",
      "320C",
      "320C",
      "320C",
      "320C",
      "320C",
      "320C",
      "320C",
      "320C",
      "320C",
      "320C",
      "320C",
      "320C",
      "320C",
      "320C",
      "320C",
      "320",
      "320",
      "320",
      "320",
      "320",
      "320",
      "320",
      "320",
      "320",
      "320",
      "320",
      "309",
      "287",
      "287",
      "271",
      "271",
      "271",
      "250",
      "250",
      "250",
      "209",
      "183",
      "183",
      "183",
      "183",
      "183",
      "116",
      "116",
      "116",
      "116",
      "116",
      "110C",
      "104",
      "104",
      "099",
      "088",
      "075",
      "075",
      "075",
      "069",
      "069",
      "060",
      "060",
      "060",
      "060",
      "055",
      "055",
      "055",
      "044",
      "033",
      "033",
      "030",
      "030",
      "030",
      "029",
      "029",
      "017",
      "017",
      "017",
      "017",
      "006",
      "006",
      "006",
      "006"
    ],
    "swim:geom": "path",
    "swim:speeds": [
      166,
      166,
      282,
      282,
      288,
      288,
      332,
      332,
      369,
      369,
      378,
      386,
      386,
      401,
      401,
      401,
      401,
      401,
      400,
      400,
      399,
      399,
      399,
      397,
      397,
      394,
      394,
      392,
      396,
      398,
      400,
      400,
      403,
      403,
      404,
      404,
      405,
      405,
      402,
      402,
      402,
      401,
      401,
      401,
      401,
      401,
      401,
      401,
      405,
      405,
      405,
      410,
      410,
      410,
      410,
      420,
      420,
      420,
      419,
      419,
      418,
      418,
      418,
      415,
      415,
      415,
      417,
      417,
      417,
      419,
      419,
      417,
      417,
      416,
      416,
      421,
      424,
      424,
      424,
      424,
      424,
      425,
      424,
      424,
      424,
      426,
      429,
      429,
      430,
      430,
      430,
      430,
      429,
      429,
      429,
      430,
      430,
      430,
      430,
      430,
      430,
      430,
      430,
      431,
      431,
      432,
      432,
      433,
      433,
      435,
      436,
      436,
      437,
      437,
      442,
      442,
      442,
      442,
      442,
      444,
      444,
      444,
      444,
      444,
      445,
      445,
      445,
      445,
      445,
      445,
      445,
      443,
      443,
      443,
      442,
      442,
      442,
      441,
      441,
      442,
      440,
      440,
      440,
      442,
      442,
      442,
      439,
      439,
      438,
      435,
      438,
      436,
      438,
      439,
      439,
      439,
      439,
      438,
      438,
      438,
      437,
      438,
      436,
      436,
      436,
      437,
      437,
      437,
      428,
      428,
      428,
      428,
      426,
      426,
      425,
      425,
      425,
      425,
      425,
      425,
      425,
      425,
      425,
      425,
      428,
      428,
      431,
      434,
      434,
      434,
      434,
      434,
      434,
      434,
      434,
      432,
      432,
      432,
      429,
      429,
      429,
      426,
      426,
      426,
      424,
      424,
      424,
      427,
      427,
      427,
      430,
      430,
      430,
      430,
      430,
      438,
      430,
      430,
      430,
      430,
      430,
      430,
      430,
      429,
      429,
      430,
      430,
      428,
      428,
      428,
      428,
      428,
      428,
      427,
      427,
      427,
      427,
      427,
      426,
      426,
      426,
      426,
      426,
      426,
      426,
      426,
      429,
      429,
      429,
      429,
      429,
      429,
      430,
      431,
      431,
      431,
      431,
      431,
      436,
      436,
      432,
      432,
      432,
      432,
      432,
      432,
      432,
      431,
      431,
      431,
      431,
      434,
      434,
      434,
      429,
      429,
      432,
      432,
      432,
      429,
      429,
      428,
      428,
      428,
      428,
      428,
      432,
      432,
      432,
      427,
      432,
      432,
      432,
      431,
      431,
      431,
      431,
      431,
      431,
      431,
      431,
      431,
      431,
      431,
      431,
      428,
      428,
      428,
      428,
      426,
      426,
      426,
      426,
      426,
      426,
      425,
      425,
      419,
      419,
      419,
      419,
      419,
      424,
      429,
      432,
      432,
      432,
      432,
      432,
      432,
      432,
      432,
      432,
      435,
      435,
      435,
      434,
      434,
      434,
      434,
      435,
      430,
      430,
      430,
      428,
      428,
      428,
      427,
      427,
      425,
      425,
      425,
      425,
      425,
      425,
      425,
      424,
      435,
      435,
      435,
      435,
      435,
      435,
      436,
      436,
      437,
      437,
      437,
      437,
      437,
      441,
      441,
      441,
      441,
      442,
      442,
      442,
      415,
      415,
      415,
      415,
      415,
      415,
      412,
      413,
      413,
      413,
      413,
      415,
      415,
      411,
      411,
      411,
      408,
      408,
      408,
      407,
      407,
      407,
      405,
      405,
      405,
      399,
      399,
      396,
      396,
      396,
      396,
      393,
      393,
      393,
      393,
      394,
      394,
      394,
      393,
      393,
      403,
      403,
      403,
      403,
      412,
      412,
      412,
      412,
      415,
      415,
      414,
      414,
      414,
      414,
      414,
      414,
      414,
      414,
      414,
      414,
      417,
      417,
      417,
      417,
      418,
      418,
      418,
      418,
      418,
      418,
      418,
      418,
      415,
      417,
      417,
      414,
      414,
      414,
      414,
      414,
      414,
      417,
      413,
      413,
      413,
      413,
      413,
      412,
      412,
      411,
      411,
      411,
      411,
      411,
      410,
      410,
      410,
      410,
      410,
      410,
      410,
      410,
      410,
      410,
      411,
      411,
      411,
      411,
      412,
      412,
      412,
      412,
      413,
      413,
      414,
      414,
      414,
      414,
      414,
      414,
      416,
      416,
      420,
      419,
      419,
      419,
      418,
      417,
      417,
      417,
      415,
      413,
      409,
      406,
      402,
      402,
      402,
      400,
      400,
      400,
      400,
      384,
      384,
      384,
      384,
      384,
      384,
      384,
      384,
      384,
      383,
      382,
      382,
      382,
      381,
      381,
      381,
      373,
      373,
      374,
      374,
      372,
      372,
      366,
      366,
      362,
      362,
      359,
      359,
      359,
      356,
      352,
      353,
      353,
      353,
      355,
      355,
      355,
      358,
      358,
      358,
      353,
      402,
      402,
      402,
      402,
      402,
      351,
      351,
      351,
      351,
      351,
      264,
      255,
      255,
      257,
      247,
      222,
      222,
      222,
      213,
      213,
      246,
      246,
      246,
      246,
      219,
      219,
      219,
      212,
      186,
      186,
      186,
      162,
      162,
      157,
      157,
      143,
      143,
      143,
      143,
      150,
      150,
      150,
      150
    ],
    "swim:timestamps": [
      1776851371,
      1776851371,
      1776851636,
      1776851636,
      1776851697,
      1776851697,
      1776851877,
      1776851877,
      1776852118,
      1776852118,
      1776852236,
      1776852357,
      1776852357,
      1776852597,
      1776852597,
      1776852597,
      1776852778,
      1776852778,
      1776852838,
      1776852838,
      1776852898,
      1776852898,
      1776852898,
      1776852958,
      1776852958,
      1776853079,
      1776853079,
      1776853253,
      1776853259,
      1776853319,
      1776853379,
      1776853379,
      1776853499,
      1776853499,
      1776853553,
      1776853553,
      1776853673,
      1776853673,
      1776853854,
      1776853854,
      1776853854,
      1776853914,
      1776853914,
      1776853914,
      1776854094,
      1776854094,
      1776854094,
      1776854094,
      1776854274,
      1776854274,
      1776854274,
      1776854515,
      1776854515,
      1776854515,
      1776854515,
      1776855356,
      1776855356,
      1776855356,
      1776855416,
      1776855416,
      1776855476,
      1776855476,
      1776855476,
      1776855897,
      1776855897,
      1776855897,
      1776856017,
      1776856017,
      1776856017,
      1776856197,
      1776856197,
      1776856257,
      1776856257,
      1776856318,
      1776856318,
      1776856438,
      1776856558,
      1776856558,
      1776856738,
      1776856738,
      1776856798,
      1776856951,
      1776856979,
      1776856979,
      1776856979,
      1776857099,
      1776857252,
      1776857252,
      1776857372,
      1776857372,
      1776857372,
      1776857459,
      1776857519,
      1776857552,
      1776857552,
      1776857612,
      1776857612,
      1776857760,
      1776857760,
      1776857760,
      1776857792,
      1776857792,
      1776857820,
      1776857853,
      1776857853,
      1776857973,
      1776857973,
      1776858033,
      1776858033,
      1776858093,
      1776858153,
      1776858153,
      1776858273,
      1776858273,
      1776858514,
      1776858574,
      1776858574,
      1776858574,
      1776858574,
      1776858694,
      1776858694,
      1776858814,
      1776858814,
      1776858814,
      1776858874,
      1776858874,
      1776858934,
      1776858934,
      1776858934,
      1776858994,
      1776858994,
      1776859028,
      1776859088,
      1776859088,
      1776859175,
      1776859175,
      1776859175,
      1776859295,
      1776859295,
      1776859329,
      1776859355,
      1776859355,
      1776859355,
      1776859389,
      1776859389,
      1776859389,
      1776859415,
      1776859415,
      1776859595,
      1776859629,
      1776859716,
      1776859749,
      1776859776,
      1776859836,
      1776859836,
      1776859836,
      1776859836,
      1776859956,
      1776859956,
      1776860016,
      1776860049,
      1776860076,
      1776860110,
      1776860110,
      1776860110,
      1776860196,
      1776860196,
      1776860230,
      1776860470,
      1776860470,
      1776860470,
      1776860470,
      1776860557,
      1776860557,
      1776860590,
      1776860590,
      1776860590,
      1776860650,
      1776860677,
      1776860677,
      1776860677,
      1776860737,
      1776860771,
      1776860771,
      1776860831,
      1776860831,
      1776860891,
      1776860951,
      1776860951,
      1776860951,
      1776860951,
      1776860951,
      1776860951,
      1776861071,
      1776861071,
      1776861251,
      1776861251,
      1776861251,
      1776861371,
      1776861371,
      1776861371,
      1776861492,
      1776861492,
      1776861492,
      1776861552,
      1776861552,
      1776861552,
      1776861852,
      1776861852,
      1776861852,
      1776862019,
      1776862032,
      1776862032,
      1776862032,
      1776862032,
      1776862079,
      1776862104,
      1776862104,
      1776862104,
      1776862165,
      1776862165,
      1776862165,
      1776862165,
      1776862225,
      1776862225,
      1776862259,
      1776862259,
      1776862285,
      1776862285,
      1776862285,
      1776862285,
      1776862285,
      1776862379,
      1776862405,
      1776862405,
      1776862405,
      1776862439,
      1776862439,
      1776862465,
      1776862465,
      1776862525,
      1776862525,
      1776862560,
      1776862560,
      1776862560,
      1776862560,
      1776862800,
      1776862800,
      1776862800,
      1776862800,
      1776862800,
      1776862800,
      1776862920,
      1776863040,
      1776863066,
      1776863066,
      1776863066,
      1776863066,
      1776863246,
      1776863246,
      1776863400,
      1776863400,
      1776863400,
      1776863420,
      1776863420,
      1776863420,
      1776863420,
      1776863641,
      1776863641,
      1776863641,
      1776863641,
      1776863660,
      1776863660,
      1776863660,
      1776863821,
      1776863821,
      1776863840,
      1776863840,
      1776863840,
      1776863881,
      1776863881,
      1776863941,
      1776863941,
      1776863941,
      1776864001,
      1776864001,
      1776864020,
      1776864020,
      1776864020,
      1776864061,
      1776864080,
      1776864080,
      1776864080,
      1776864140,
      1776864200,
      1776864200,
      1776864200,
      1776864314,
      1776864314,
      1776864314,
      1776864314,
      1776864681,
      1776864681,
      1776864681,
      1776864681,
      1776864741,
      1776864741,
      1776864741,
      1776864741,
      1776864794,
      1776864794,
      1776864794,
      1776864873,
      1776864873,
      1776864873,
      1776865035,
      1776865035,
      1776865113,
      1776865113,
      1776865113,
      1776865113,
      1776865113,
      1776865227,
      1776865347,
      1776865414,
      1776865414,
      1776865414,
      1776865414,
      1776865474,
      1776865474,
      1776865474,
      1776865654,
      1776865654,
      1776865707,
      1776865707,
      1776865707,
      1776865774,
      1776865834,
      1776865834,
      1776865834,
      1776865888,
      1776866008,
      1776866008,
      1776866008,
      1776866074,
      1776866074,
      1776866074,
      1776866128,
      1776866128,
      1776866188,
      1776866195,
      1776866195,
      1776866195,
      1776866195,
      1776866248,
      1776866255,
      1776866308,
      1776866368,
      1776866368,
      1776866368,
      1776866375,
      1776866375,
      1776866375,
      1776866435,
      1776866435,
      1776866489,
      1776866489,
      1776866489,
      1776866489,
      1776866489,
      1776866609,
      1776866609,
      1776866615,
      1776866615,
      1776866669,
      1776866669,
      1776866669,
      1776866789,
      1776866789,
      1776866795,
      1776866795,
      1776866855,
      1776866855,
      1776866916,
      1776866976,
      1776866976,
      1776866976,
      1776866976,
      1776867036,
      1776867036,
      1776867096,
      1776867096,
      1776867096,
      1776867216,
      1776867216,
      1776867216,
      1776867276,
      1776867276,
      1776867276,
      1776867336,
      1776867336,
      1776867336,
      1776867456,
      1776867456,
      1776867516,
      1776867516,
      1776867516,
      1776867516,
      1776867637,
      1776867637,
      1776867637,
      1776867637,
      1776867697,
      1776867697,
      1776867697,
      1776867817,
      1776867817,
      1776867937,
      1776867937,
      1776867937,
      1776867937,
      1776868057,
      1776868057,
      1776868057,
      1776868057,
      1776868177,
      1776868177,
      1776868237,
      1776868237,
      1776868237,
      1776868237,
      1776868237,
      1776868418,
      1776868418,
      1776868418,
      1776868418,
      1776868418,
      1776868598,
      1776868598,
      1776868598,
      1776868598,
      1776868718,
      1776868718,
      1776868718,
      1776868718,
      1776868778,
      1776868838,
      1776868838,
      1776868838,
      1776868958,
      1776869007,
      1776869007,
      1776869018,
      1776869018,
      1776869078,
      1776869078,
      1776869078,
      1776869078,
      1776869127,
      1776869259,
      1776869259,
      1776869259,
      1776869259,
      1776869259,
      1776869319,
      1776869319,
      1776869379,
      1776869379,
      1776869379,
      1776869379,
      1776869379,
      1776869487,
      1776869499,
      1776869499,
      1776869499,
      1776869499,
      1776869499,
      1776869499,
      1776869499,
      1776869559,
      1776869559,
      1776869668,
      1776869668,
      1776869668,
      1776869668,
      1776869920,
      1776869920,
      1776869920,
      1776869920,
      1776869980,
      1776869980,
      1776870100,
      1776870100,
      1776870100,
      1776870100,
      1776870160,
      1776870160,
      1776870220,
      1776870220,
      1776870328,
      1776870400,
      1776870400,
      1776870400,
      1776870449,
      1776870460,
      1776870460,
      1776870460,
      1776870509,
      1776870520,
      1776870629,
      1776870701,
      1776870749,
      1776870749,
      1776870749,
      1776870809,
      1776870809,
      1776870809,
      1776870809,
      1776871169,
      1776871169,
      1776871169,
      1776871169,
      1776871169,
      1776871169,
      1776871290,
      1776871290,
      1776871290,
      1776871350,
      1776871410,
      1776871410,
      1776871410,
      1776871470,
      1776871470,
      1776871470,
      1776871530,
      1776871530,
      1776871650,
      1776871650,
      1776871770,
      1776871770,
      1776871890,
      1776871890,
      1776871950,
      1776871950,
      1776872010,
      1776872010,
      1776872010,
      1776872071,
      1776872191,
      1776872251,
      1776872311,
      1776872311,
      1776872371,
      1776872371,
      1776872371,
      1776872431,
      1776872431,
      1776872431,
      1776872551,
      1776872611,
      1776872611,
      1776872611,
      1776872611,
      1776872611,
      1776872830,
      1776872830,
      1776872830,
      1776872830,
      1776872830,
      1776873032,
      1776873065,
      1776873065,
      1776873092,
      1776873152,
      1776873212,
      1776873212,
      1776873212,
      1776873272,
      1776873272,
      1776873365,
      1776873365,
      1776873365,
      1776873365,
      1776873452,
      1776873452,
      1776873452,
      1776873512,
      1776873605,
      1776873605,
      1776873632,
      1776873665,
      1776873665,
      1776873693,
      1776873693,
      1776873785,
      1776873785,
      1776873785,
      1776873785,
      1776873873,
      1776873873,
      1776873873,
      1776873873
    ],
    "wof:geomhash": "3071588bd83b68f8b2efed622405ccce",
    "wof:id": 2015355721,
    "wof:repo": "sfomuseum-data-flights-2026-04"
  },
  "bbox": [
    -122.74472222222222,
    37.371944444444445,
    -70.71833333333333,
    43.099444444444444
  ],
  "geometry": {"coordinates":[[-71.01666666666667,42.35],[-71.01666666666667,42.35],[-70.71833333333333,42.42833333333333],[-70.71833333333333,42.42833333333333],[-70.74888888888889,42.500277777777775],[-70.74888888888889,42.500277777777775],[-71.0461111111111,42.67027777777778],[-71.0461111111111,42.67027777777778],[-71.55472222222222,42.77611111111111],[-71.55472222222222,42.77611111111111],[-71.82305555555556,42.80027777777777],[-72.11222222222221,42.825833333333335],[-72.11222222222221,42.825833333333335],[-72.72944444444444,42.87777777777778],[-72.72944444444444,42.87777777777778],[-72.72944444444444,42.87777777777778],[-73.15833333333335,42.911944444444444],[-73.15833333333335,42.911944444444444],[-73.30749999999999,42.92333333333333],[-73.30749999999999,42.92333333333333],[-73.47944444444444,42.936388888888885],[-73.47944444444444,42.936388888888885],[-73.47944444444444,42.936388888888885],[-73.62722222222222,42.947222222222216],[-73.62722222222222,42.947222222222216],[-73.92361111111111,42.968611111111116],[-73.92361111111111,42.968611111111116],[-74.34083333333332,43.001666666666665],[-74.37222222222222,42.999722222222225],[-74.5225,43.00944444444445],[-74.67611111111111,43.019444444444446],[-74.67611111111111,43.019444444444446],[-74.98166666666667,43.03861111111111],[-74.98166666666667,43.03861111111111],[-75.10638888888889,43.04611111111111],[-75.10638888888889,43.04611111111111],[-75.41833333333334,43.06083333333333],[-75.41833333333334,43.06083333333333],[-75.87722222222222,43.07277777777778],[-75.87722222222222,43.07277777777778],[-75.87722222222222,43.07277777777778],[-76.03027777777778,43.07638888888889],[-76.03027777777778,43.07638888888889],[-76.03027777777778,43.07638888888889],[-76.485,43.08583333333333],[-76.485,43.08583333333333],[-76.485,43.08583333333333],[-76.485,43.08583333333333],[-76.93416666666667,43.09277777777778],[-76.93416666666667,43.09277777777778],[-76.93416666666667,43.09277777777778],[-77.55583333333333,43.099444444444444],[-77.55583333333333,43.099444444444444],[-77.55583333333333,43.099444444444444],[-77.55583333333333,43.099444444444444],[-79.78583333333333,43.09277777777778],[-79.78583333333333,43.09277777777778],[-79.78583333333333,43.09277777777778],[-79.94277777777778,43.09027777777778],[-79.94277777777778,43.09027777777778],[-80.10305555555556,43.08777777777778],[-80.10305555555556,43.08777777777778],[-80.10305555555556,43.08777777777778],[-81.20166666666667,43.06361111111111],[-81.20166666666667,43.06361111111111],[-81.20166666666667,43.06361111111111],[-81.52888888888889,43.05444444444444],[-81.52888888888889,43.05444444444444],[-81.52888888888889,43.05444444444444],[-82.005,43.03916666666667],[-82.005,43.03916666666667],[-82.16222222222223,43.03361111111111],[-82.16222222222223,43.03361111111111],[-82.31944444444444,43.028055555555554],[-82.31944444444444,43.028055555555554],[-82.63472222222222,42.995],[-82.95166666666667,42.95638888888889],[-82.95166666666667,42.95638888888889],[-83.42805555555556,42.896388888888886],[-83.42805555555556,42.896388888888886],[-83.57972222222222,42.876666666666665],[-83.97555555555556,42.825],[-84.04805555555555,42.81527777777777],[-84.04805555555555,42.81527777777777],[-84.04805555555555,42.81527777777777],[-84.35444444444444,42.77388888888889],[-84.77,42.71611111111111],[-84.77,42.71611111111111],[-85.08916666666666,42.670833333333334],[-85.08916666666666,42.670833333333334],[-85.08916666666666,42.670833333333334],[-85.3111111111111,42.638888888888886],[-85.47,42.61555555555556],[-85.56888888888888,42.600833333333334],[-85.56888888888888,42.600833333333334],[-85.72722222222222,42.5775],[-85.72722222222222,42.5775],[-86.10833333333333,42.51972222222222],[-86.10833333333333,42.51972222222222],[-86.10833333333333,42.51972222222222],[-86.20666666666666,42.50472222222222],[-86.20666666666666,42.50472222222222],[-86.26833333333333,42.49527777777778],[-86.36638888888888,42.480000000000004],[-86.36638888888888,42.480000000000004],[-86.68361111111112,42.430277777777775],[-86.68361111111112,42.430277777777775],[-86.83361111111111,42.406388888888884],[-86.83361111111111,42.406388888888884],[-86.99388888888889,42.38027777777778],[-87.15305555555557,42.35444444444445],[-87.15305555555557,42.35444444444445],[-87.47305555555556,42.301944444444445],[-87.47305555555556,42.301944444444445],[-88.11333333333333,42.19305555555555],[-88.27305555555556,42.165],[-88.27305555555556,42.165],[-88.27305555555556,42.165],[-88.27305555555556,42.165],[-88.62694444444443,42.10166666666667],[-88.62694444444443,42.10166666666667],[-88.94722222222222,42.04333333333333],[-88.94722222222222,42.04333333333333],[-88.94722222222222,42.04333333333333],[-89.10888888888888,42.01361111111111],[-89.10888888888888,42.01361111111111],[-89.26888888888888,41.98388888888889],[-89.26888888888888,41.98388888888889],[-89.26888888888888,41.98388888888889],[-89.42861111111111,41.95388888888889],[-89.42861111111111,41.95388888888889],[-89.51527777777778,41.93583333333333],[-89.67055555555557,41.906666666666666],[-89.67055555555557,41.906666666666666],[-89.9063888888889,41.86277777777778],[-89.9063888888889,41.86277777777778],[-89.9063888888889,41.86277777777778],[-90.20916666666668,41.803888888888885],[-90.20916666666668,41.803888888888885],[-90.30749999999999,41.78388888888889],[-90.37638888888888,41.77111111111111],[-90.37638888888888,41.77111111111111],[-90.37638888888888,41.77111111111111],[-90.46527777777779,41.75111111111111],[-90.46527777777779,41.75111111111111],[-90.46527777777779,41.75111111111111],[-90.53333333333333,41.73972222222222],[-90.53333333333333,41.73972222222222],[-90.9961111111111,41.64666666666667],[-91.09194444444444,41.62722222222222],[-91.31194444444444,41.58166666666667],[-91.4063888888889,41.56222222222222],[-91.46805555555555,41.549166666666665],[-91.62472222222222,41.518055555555556],[-91.62472222222222,41.518055555555556],[-91.62472222222222,41.518055555555556],[-91.62472222222222,41.518055555555556],[-91.94638888888889,41.487500000000004],[-91.94638888888889,41.487500000000004],[-92.10888888888888,41.471944444444446],[-92.18777777777778,41.46416666666667],[-92.26916666666666,41.45611111111111],[-92.34833333333333,41.44833333333333],[-92.34833333333333,41.44833333333333],[-92.34833333333333,41.44833333333333],[-92.60249999999999,41.422777777777775],[-92.60249999999999,41.422777777777775],[-92.69833333333334,41.41277777777778],[-93.32638888888889,41.34666666666667],[-93.32638888888889,41.34666666666667],[-93.32638888888889,41.34666666666667],[-93.32638888888889,41.34666666666667],[-93.5425,41.323055555555555],[-93.5425,41.323055555555555],[-93.63361111111112,41.31305555555555],[-93.63361111111112,41.31305555555555],[-93.63361111111112,41.31305555555555],[-93.7875,41.295833333333334],[-93.85083333333333,41.28861111111111],[-93.85083333333333,41.28861111111111],[-93.85083333333333,41.28861111111111],[-94.00555555555556,41.27111111111111],[-94.0975,41.260555555555555],[-94.0975,41.260555555555555],[-94.24916666666667,41.24277777777778],[-94.24916666666667,41.24277777777778],[-94.40722222222223,41.224444444444444],[-94.56638888888888,41.205555555555556],[-94.56638888888888,41.205555555555556],[-94.56638888888888,41.205555555555556],[-94.56638888888888,41.205555555555556],[-94.56638888888888,41.205555555555556],[-94.56638888888888,41.205555555555556],[-94.88138888888888,41.16722222222222],[-94.88138888888888,41.16722222222222],[-95.35472222222222,41.108333333333334],[-95.35472222222222,41.108333333333334],[-95.35472222222222,41.108333333333334],[-95.66777777777779,41.08583333333333],[-95.66777777777779,41.08583333333333],[-95.66777777777779,41.08583333333333],[-95.98333333333333,41.07277777777778],[-95.98333333333333,41.07277777777778],[-95.98333333333333,41.07277777777778],[-96.14,41.066111111111105],[-96.14,41.066111111111105],[-96.14,41.066111111111105],[-96.92472222222223,41.02916666666667],[-96.92472222222223,41.02916666666667],[-96.92472222222223,41.02916666666667],[-97.35805555555555,41.007222222222225],[-97.3963888888889,41.00416666666667],[-97.3963888888889,41.00416666666667],[-97.3963888888889,41.00416666666667],[-97.3963888888889,41.00416666666667],[-97.495,40.99777777777778],[-97.53138888888888,40.99666666666667],[-97.53138888888888,40.99666666666667],[-97.53138888888888,40.99666666666667],[-97.72083333333333,40.986111111111114],[-97.72083333333333,40.986111111111114],[-97.72083333333333,40.986111111111114],[-97.72083333333333,40.986111111111114],[-97.87666666666667,40.97694444444445],[-97.87666666666667,40.97694444444445],[-97.9713888888889,40.97138888888889],[-97.9713888888889,40.97138888888889],[-98.03305555555555,40.967777777777776],[-98.03305555555555,40.967777777777776],[-98.03305555555555,40.967777777777776],[-98.03305555555555,40.967777777777776],[-98.03305555555555,40.967777777777776],[-98.2825,40.952222222222225],[-98.34694444444445,40.94833333333333],[-98.34694444444445,40.94833333333333],[-98.34694444444445,40.94833333333333],[-98.43805555555556,40.942499999999995],[-98.43805555555556,40.942499999999995],[-98.52194444444444,40.93722222222222],[-98.52194444444444,40.93722222222222],[-98.67972222222222,40.92666666666666],[-98.67972222222222,40.92666666666666],[-98.75472222222223,40.92166666666667],[-98.75472222222223,40.92166666666667],[-98.75472222222223,40.92166666666667],[-98.75472222222223,40.92166666666667],[-99.3863888888889,40.878055555555555],[-99.3863888888889,40.878055555555555],[-99.3863888888889,40.878055555555555],[-99.3863888888889,40.878055555555555],[-99.3863888888889,40.878055555555555],[-99.3863888888889,40.878055555555555],[-99.70111111111112,40.85472222222222],[-100.01777777777778,40.830555555555556],[-100.08166666666666,40.825833333333335],[-100.08166666666666,40.825833333333335],[-100.08166666666666,40.825833333333335],[-100.08166666666666,40.825833333333335],[-100.55444444444444,40.78944444444444],[-100.55444444444444,40.78944444444444],[-100.94722222222222,40.754444444444445],[-100.94722222222222,40.754444444444445],[-100.94722222222222,40.754444444444445],[-101.00583333333333,40.74888888888889],[-101.00583333333333,40.74888888888889],[-101.00583333333333,40.74888888888889],[-101.00583333333333,40.74888888888889],[-101.57416666666666,40.69888888888889],[-101.57416666666666,40.69888888888889],[-101.57416666666666,40.69888888888889],[-101.57416666666666,40.69888888888889],[-101.63361111111112,40.69166666666666],[-101.63361111111112,40.69166666666666],[-101.63361111111112,40.69166666666666],[-102.04083333333332,40.655],[-102.04083333333332,40.655],[-102.09888888888888,40.64888888888889],[-102.09888888888888,40.64888888888889],[-102.09888888888888,40.64888888888889],[-102.19444444444444,40.640277777777776],[-102.19444444444444,40.640277777777776],[-102.34944444444444,40.625],[-102.34944444444444,40.625],[-102.34944444444444,40.625],[-102.50472222222223,40.609722222222224],[-102.50472222222223,40.609722222222224],[-102.56666666666666,40.60138888888889],[-102.56666666666666,40.60138888888889],[-102.56666666666666,40.60138888888889],[-102.65972222222223,40.594166666666666],[-102.72055555555556,40.586666666666666],[-102.72055555555556,40.586666666666666],[-102.72055555555556,40.586666666666666],[-102.87527777777777,40.57083333333334],[-103.03166666666667,40.55416666666667],[-103.03166666666667,40.55416666666667],[-103.03166666666667,40.55416666666667],[-103.31333333333333,40.52611111111111],[-103.31333333333333,40.52611111111111],[-103.31333333333333,40.52611111111111],[-103.31333333333333,40.52611111111111],[-104.26916666666666,40.41916666666666],[-104.26916666666666,40.41916666666666],[-104.26916666666666,40.41916666666666],[-104.26916666666666,40.41916666666666],[-104.42083333333333,40.405833333333334],[-104.42083333333333,40.405833333333334],[-104.42083333333333,40.405833333333334],[-104.42083333333333,40.405833333333334],[-104.57,40.421388888888885],[-104.57,40.421388888888885],[-104.57,40.421388888888885],[-104.76222222222222,40.43805555555555],[-104.76222222222222,40.43805555555555],[-104.76222222222222,40.43805555555555],[-105.18416666666667,40.47527777777778],[-105.18416666666667,40.47527777777778],[-105.36916666666666,40.48972222222222],[-105.36916666666666,40.48972222222222],[-105.36916666666666,40.48972222222222],[-105.36916666666666,40.48972222222222],[-105.36916666666666,40.48972222222222],[-105.66944444444445,40.515277777777776],[-105.98166666666667,40.540277777777774],[-106.14472222222223,40.55305555555555],[-106.14472222222223,40.55305555555555],[-106.14472222222223,40.55305555555555],[-106.14472222222223,40.55305555555555],[-106.30055555555555,40.56361111111111],[-106.30055555555555,40.56361111111111],[-106.30055555555555,40.56361111111111],[-106.77083333333333,40.59777777777778],[-106.77083333333333,40.59777777777778],[-106.90416666666667,40.608333333333334],[-106.90416666666667,40.608333333333334],[-106.90416666666667,40.608333333333334],[-107.08694444444444,40.62138888888889],[-107.24666666666667,40.63055555555555],[-107.24666666666667,40.63055555555555],[-107.24666666666667,40.63055555555555],[-107.37833333333333,40.640277777777776],[-107.69361111111111,40.66083333333333],[-107.69361111111111,40.66083333333333],[-107.69361111111111,40.66083333333333],[-107.87166666666666,40.67194444444444],[-107.87166666666666,40.67194444444444],[-107.87166666666666,40.67194444444444],[-108.0111111111111,40.68055555555555],[-108.0111111111111,40.68055555555555],[-108.16444444444446,40.68944444444444],[-108.17944444444444,40.69027777777777],[-108.17944444444444,40.69027777777777],[-108.17944444444444,40.69027777777777],[-108.17944444444444,40.69027777777777],[-108.33055555555555,40.69916666666666],[-108.33583333333333,40.69944444444444],[-108.48583333333333,40.70805555555556],[-108.63916666666667,40.74388888888889],[-108.63916666666667,40.74388888888889],[-108.63916666666667,40.74388888888889],[-108.63916666666667,40.744166666666665],[-108.63916666666667,40.744166666666665],[-108.63916666666667,40.744166666666665],[-108.79166666666667,40.78722222222222],[-108.79166666666667,40.78722222222222],[-108.9413888888889,40.82805555555556],[-108.9413888888889,40.82805555555556],[-108.9413888888889,40.82805555555556],[-108.9413888888889,40.82805555555556],[-108.9413888888889,40.82805555555556],[-109.24972222222222,40.909166666666664],[-109.24972222222222,40.909166666666664],[-109.2525,40.91],[-109.2525,40.91],[-109.40472222222223,40.95166666666667],[-109.40472222222223,40.95166666666667],[-109.40472222222223,40.95166666666667],[-109.7125,40.95722222222223],[-109.7125,40.95722222222223],[-109.71277777777777,40.95722222222223],[-109.71277777777777,40.95722222222223],[-109.86527777777778,40.95138888888889],[-109.86527777777778,40.95138888888889],[-110.01388888888889,40.945277777777775],[-110.16694444444445,40.93888888888888],[-110.16694444444445,40.93888888888888],[-110.16694444444445,40.93888888888888],[-110.16694444444445,40.93888888888888],[-110.31888888888888,40.93277777777777],[-110.31888888888888,40.93277777777777],[-110.46944444444445,40.92611111111111],[-110.46944444444445,40.92611111111111],[-110.46944444444445,40.92611111111111],[-110.76277777777777,40.91305555555555],[-110.76277777777777,40.91305555555555],[-110.76277777777777,40.91305555555555],[-110.91305555555556,40.90611111111111],[-110.91305555555556,40.90611111111111],[-110.91305555555556,40.90611111111111],[-111.06,40.89888888888889],[-111.06,40.89888888888889],[-111.06,40.89888888888889],[-111.35027777777778,40.88444444444444],[-111.35027777777778,40.88444444444444],[-111.495,40.87722222222222],[-111.495,40.87722222222222],[-111.495,40.87722222222222],[-111.495,40.87722222222222],[-111.78361111111111,40.86138888888889],[-111.78361111111111,40.86138888888889],[-111.78361111111111,40.86138888888889],[-111.78361111111111,40.86138888888889],[-111.93138888888889,40.85333333333333],[-111.93138888888889,40.85333333333333],[-111.93138888888889,40.85333333333333],[-112.2225,40.85138888888889],[-112.2225,40.85138888888889],[-112.51888888888888,40.852222222222224],[-112.51888888888888,40.852222222222224],[-112.51888888888888,40.852222222222224],[-112.51888888888888,40.852222222222224],[-112.81777777777778,40.85194444444445],[-112.81777777777778,40.85194444444445],[-112.81777777777778,40.85194444444445],[-112.81777777777778,40.85194444444445],[-113.12333333333332,40.85111111111111],[-113.12333333333332,40.85111111111111],[-113.27361111111111,40.85027777777778],[-113.27361111111111,40.85027777777778],[-113.27361111111111,40.85027777777778],[-113.27361111111111,40.85027777777778],[-113.27361111111111,40.85027777777778],[-113.72638888888889,40.847500000000004],[-113.72638888888889,40.847500000000004],[-113.72638888888889,40.847500000000004],[-113.72638888888889,40.847500000000004],[-113.72638888888889,40.847500000000004],[-114.1863888888889,40.842222222222226],[-114.1863888888889,40.842222222222226],[-114.1863888888889,40.842222222222226],[-114.1863888888889,40.842222222222226],[-114.48444444444445,40.83777777777778],[-114.48444444444445,40.83777777777778],[-114.48444444444445,40.83777777777778],[-114.48444444444445,40.83777777777778],[-114.63777777777779,40.835],[-114.79027777777777,40.82638888888889],[-114.79027777777777,40.82638888888889],[-114.79027777777777,40.82638888888889],[-115.08611111111111,40.776944444444446],[-115.20527777777778,40.75666666666667],[-115.20527777777778,40.75666666666667],[-115.23333333333333,40.75194444444445],[-115.23333333333333,40.75194444444445],[-115.38083333333333,40.72638888888889],[-115.38083333333333,40.72638888888889],[-115.38083333333333,40.72638888888889],[-115.38083333333333,40.72638888888889],[-115.5025,40.705555555555556],[-115.82277777777777,40.649166666666666],[-115.82277777777777,40.649166666666666],[-115.82277777777777,40.649166666666666],[-115.82277777777777,40.649166666666666],[-115.82277777777777,40.649166666666666],[-115.96833333333333,40.623333333333335],[-115.96833333333333,40.623333333333335],[-116.11555555555555,40.596944444444446],[-116.11555555555555,40.596944444444446],[-116.11555555555555,40.596944444444446],[-116.11555555555555,40.596944444444446],[-116.11555555555555,40.596944444444446],[-116.37722222222222,40.54944444444444],[-116.40361111111112,40.54472222222222],[-116.40361111111112,40.54472222222222],[-116.40361111111112,40.54472222222222],[-116.40361111111112,40.54472222222222],[-116.40361111111112,40.54472222222222],[-116.40361111111112,40.54472222222222],[-116.40361111111112,40.54472222222222],[-116.55,40.518055555555556],[-116.55,40.518055555555556],[-116.81194444444444,40.46944444444445],[-116.81194444444444,40.46944444444445],[-116.81194444444444,40.46944444444445],[-116.81194444444444,40.46944444444445],[-117.43861111111111,40.350833333333334],[-117.43861111111111,40.350833333333334],[-117.43861111111111,40.350833333333334],[-117.43861111111111,40.350833333333334],[-117.58444444444444,40.322500000000005],[-117.58444444444444,40.322500000000005],[-117.87722222222222,40.26555555555556],[-117.87722222222222,40.26555555555556],[-117.87722222222222,40.26555555555556],[-117.87722222222222,40.26555555555556],[-118.02305555555556,40.23638888888889],[-118.02305555555556,40.23638888888889],[-118.16888888888889,40.2075],[-118.16888888888889,40.2075],[-118.43916666666667,40.15333333333333],[-118.60888888888888,40.115833333333335],[-118.60888888888888,40.115833333333335],[-118.60888888888888,40.115833333333335],[-118.72361111111111,40.08166666666667],[-118.75,40.07361111111111],[-118.75,40.07361111111111],[-118.75,40.07361111111111],[-118.8611111111111,40.04],[-118.88666666666667,40.032222222222224],[-119.13444444444445,39.95722222222223],[-119.29472222222222,39.908055555555556],[-119.40194444444445,39.874722222222225],[-119.40194444444445,39.874722222222225],[-119.40194444444445,39.874722222222225],[-119.53555555555555,39.83361111111111],[-119.53555555555555,39.83361111111111],[-119.53555555555555,39.83361111111111],[-119.53555555555555,39.83361111111111],[-120.31388888888888,39.58916666666667],[-120.31388888888888,39.58916666666667],[-120.31388888888888,39.58916666666667],[-120.31388888888888,39.58916666666667],[-120.31388888888888,39.58916666666667],[-120.31388888888888,39.58916666666667],[-120.56638888888888,39.50861111111111],[-120.56638888888888,39.50861111111111],[-120.56638888888888,39.50861111111111],[-120.69333333333334,39.4675],[-120.82,39.42638888888889],[-120.82,39.42638888888889],[-120.82,39.42638888888889],[-120.94416666666667,39.38611111111111],[-120.94416666666667,39.38611111111111],[-120.94416666666667,39.38611111111111],[-121.06861111111111,39.34527777777778],[-121.06861111111111,39.34527777777778],[-121.28583333333333,39.22638888888889],[-121.28583333333333,39.22638888888889],[-121.49944444444445,39.10194444444445],[-121.49944444444445,39.10194444444445],[-121.70444444444445,38.98083333333334],[-121.70444444444445,38.98083333333334],[-121.80611111111111,38.92111111111111],[-121.80611111111111,38.92111111111111],[-121.90722222222223,38.861111111111114],[-121.90722222222223,38.861111111111114],[-121.90722222222223,38.861111111111114],[-122.00694444444444,38.801944444444445],[-122.20416666666667,38.68416666666666],[-122.30527777777777,38.62361111111111],[-122.40333333333334,38.56472222222222],[-122.40333333333334,38.56472222222222],[-122.49166666666667,38.49277777777778],[-122.49166666666667,38.49277777777778],[-122.49166666666667,38.49277777777778],[-122.57194444444444,38.415],[-122.57194444444444,38.415],[-122.57194444444444,38.415],[-122.72416666666666,38.26694444444444],[-122.74472222222222,38.146388888888886],[-122.74472222222222,38.146388888888886],[-122.74472222222222,38.146388888888886],[-122.74472222222222,38.146388888888886],[-122.74472222222222,38.146388888888886],[-122.56666666666666,37.8],[-122.56666666666666,37.8],[-122.56666666666666,37.8],[-122.56666666666666,37.8],[-122.56666666666666,37.8],[-122.35833333333333,37.60055555555556],[-122.33333333333333,37.56666666666667],[-122.33333333333333,37.56666666666667],[-122.32388888888889,37.53583333333333],[-122.28611111111111,37.473333333333336],[-122.29888888888888,37.414722222222224],[-122.29888888888888,37.414722222222224],[-122.29888888888888,37.414722222222224],[-122.34555555555555,37.371944444444445],[-122.34555555555555,37.371944444444445],[-122.31666666666666,37.43333333333333],[-122.31666666666666,37.43333333333333],[-122.31666666666666,37.43333333333333],[-122.31666666666666,37.43333333333333],[-122.21388888888889,37.42861111111111],[-122.21388888888889,37.42861111111111],[-122.21388888888889,37.42861111111111],[-122.14083333333333,37.42861111111111],[-122.11666666666666,37.5],[-122.11666666666666,37.5],[-122.13722222222223,37.5175],[-122.16666666666667,37.53333333333333],[-122.16666666666667,37.53333333333333],[-122.18666666666667,37.53944444444444],[-122.18666666666667,37.53944444444444],[-122.26666666666667,37.56666666666667],[-122.26666666666667,37.56666666666667],[-122.26666666666667,37.56666666666667],[-122.26666666666667,37.56666666666667],[-122.3236111111111,37.596944444444446],[-122.3236111111111,37.596944444444446],[-122.3236111111111,37.596944444444446],[-122.3236111111111,37.596944444444446]],"type":"LineString"}
}
