{
  "id": 2031113045,
  "type": "Feature",
  "properties": {
    "geom:area": 0,
    "geom:bbox": "-156.050000,19.740000,-122.380000,37.620000",
    "geom:latitude": 30.45604000411919,
    "geom:longitude": -140.86831591780583,
    "src:alt_label": "swim-route",
    "src:geom": "swim",
    "swim:geom": "route",
    "wof:geomhash": "494271c409339c5c856f08d0e154fff4",
    "wof:id": 2031113045,
    "wof:repo": "sfomuseum-data-flights-2026-04"
  },
  "bbox": [
    -156.05,
    19.74,
    -122.38,
    37.62
  ],
  "geometry": {"coordinates":[[-122.38,37.62],[-124.76,37.01],[-126.89,36.43],[-126.89,36.43],[-132.29,34.72],[-146.18,28.81],[-154.22,24.32],[-154.25,24.3],[-155.48,23.53],[-155.75,22.2],[-155.8,21.92],[-155.81,21.86],[-155.83,21.79],[-155.84,21.74],[-155.88,21.53],[-155.94,21.21],[-155.99,20.97],[-155.99,20.96],[-156.01,20.88],[-156.01,20.86],[-156.01,20.8],[-156.02,20.57],[-156.02,20.55],[-156.02,20.54],[-156.03,20.37],[-156.03,20.22],[-156.03,20.15],[-156.03,20.09],[-156.03,19.99],[-156.03,19.95],[-156.03,19.93],[-156.03,19.9],[-156.04,19.82],[-156.05,19.74]],"type":"LineString"}
}
