{
  "id": 2015237117,
  "type": "Feature",
  "properties": {
    "geom:area": 0,
    "geom:bbox": "-122.380000,29.820000,-95.340000,37.700000",
    "geom:latitude": 34.388429169940395,
    "geom:longitude": -108.71542044147421,
    "src:alt_label": "swim-route",
    "src:geom": "swim",
    "swim:geom": "route",
    "wof:geomhash": "d75370ab5ab5e424a3b16de11f14e708",
    "wof:id": 2015237117,
    "wof:repo": "sfomuseum-data-flights-2026-04"
  },
  "bbox": [
    -122.38,
    29.82,
    -95.34,
    37.7
  ],
  "geometry": {"coordinates":[[-95.34,29.98],[-95.42,29.91],[-95.48,29.86],[-95.49,29.85],[-95.54,29.83],[-95.56,29.82],[-95.56,29.82],[-95.72,29.9],[-95.89,29.99],[-96.06,30.07],[-96.06,30.07],[-96.24,30.1],[-96.27,30.1],[-96.41,30.12],[-96.48,30.13],[-96.5,30.14],[-96.68,30.16],[-96.76,30.18],[-96.77,30.18],[-96.82,30.18],[-96.9,30.2],[-96.9,30.2],[-96.91,30.2],[-97.04,30.22],[-97.07,30.23],[-97.35,30.33],[-97.5,30.39],[-97.69,30.45],[-97.9,30.53],[-97.99,30.56],[-99.66,31.12],[-99.94,31.21],[-100.45,31.37],[-101.68,32.11],[-103.24,33.02],[-103.52,33.18],[-103.8,33.34],[-105.2,34.11],[-105.68,34.37],[-106.64,34.55],[-107.32,34.67],[-108.45,34.87],[-108.68,34.91],[-110.06,35.14],[-111.99,35.42],[-113.54,35.62],[-113.72,35.67],[-114.25,35.82],[-114.86,36],[-115.03,36.07],[-115.52,36.28],[-116.75,36.8],[-117.24,37.25],[-117.52,37.49],[-119.05,37.61],[-119.62,37.65],[-119.98,37.67],[-120.04,37.68],[-120.26,37.69],[-120.28,37.69],[-120.38,37.7],[-120.4,37.7],[-120.75,37.66],[-120.78,37.66],[-120.83,37.65],[-120.96,37.63],[-121,37.63],[-121.08,37.62],[-121.18,37.6],[-121.26,37.59],[-121.39,37.58],[-121.41,37.58],[-121.6,37.55],[-121.61,37.55],[-121.62,37.55],[-121.7,37.53],[-121.8,37.51],[-121.83,37.5],[-121.88,37.49],[-122.08,37.54],[-122.14,37.56],[-122.18,37.57],[-122.28,37.59],[-122.33,37.61],[-122.36,37.61],[-122.38,37.62]],"type":"LineString"}
}
