{
  "id": 2015334059,
  "type": "Feature",
  "properties": {
    "geom:area": 0,
    "geom:bbox": "-122.541960,36.749260,-121.573830,37.667010",
    "geom:latitude": 37.232786168171806,
    "geom:longitude": -122.11425992166015,
    "src:alt_label": "swim-takeoff",
    "src:geom": "swim",
    "swim:elevations": [
      392,
      705,
      1164,
      1377,
      1593,
      2069,
      2706,
      3041,
      3525,
      3700,
      4253,
      4751,
      5141,
      5237,
      5792,
      5897,
      6166,
      6470,
      6880,
      7255,
      7404,
      7753,
      7960,
      8291,
      8438,
      8645,
      8839,
      8839,
      8839
    ],
    "swim:geom": "takeoff",
    "swim:timestamps": [
      1776594266,
      1776594292,
      1776594320,
      1776594344,
      1776594370,
      1776594404,
      1776594442,
      1776594461,
      1776594509,
      1776594521,
      1776594560,
      1776594594,
      1776594625,
      1776594633,
      1776594688,
      1776594702,
      1776594725,
      1776594751,
      1776594793,
      1776594832,
      1776594849,
      1776594882,
      1776594907,
      1776594942,
      1776594965,
      1776594994,
      1776595049,
      1776595057,
      1776595092
    ],
    "wof:geomhash": "ece84c4e1d76a1fbf1e26b3ed5925f58",
    "wof:id": 2015334059,
    "wof:repo": "sfomuseum-data-flights-2026-04"
  },
  "bbox": [
    -122.54196,
    36.74926,
    -121.57383,
    37.66701
  ],
  "geometry": {"coordinates":[[-122.40379,37.63274],[-122.42836,37.64221],[-122.45404,37.65276],[-122.47907,37.66236],[-122.51219,37.66701],[-122.54196,37.63768],[-122.52502,37.5946],[-122.51377,37.57246],[-122.46577,37.52145],[-122.4491,37.50806],[-122.39812,37.46521],[-122.35391,37.42492],[-122.31305,37.38953],[-122.30155,37.37972],[-122.22363,37.3135],[-122.20176,37.29474],[-122.16911,37.26671],[-122.13001,37.23292],[-122.06667,37.17794],[-122.00513,37.1246],[-121.97944,37.1024],[-121.92646,37.05617],[-121.88523,37.02028],[-121.82813,36.97065],[-121.79067,36.93881],[-121.74305,36.89709],[-121.64998,36.81591],[-121.63507,36.80319],[-121.57383,36.74926]],"type":"LineString"}
}
