{
  "id": 2031116291,
  "type": "Feature",
  "properties": {
    "geom:area": 0,
    "geom:bbox": "-122.271944,33.433333,-117.883333,37.575556",
    "geom:latitude": 35.25941244055942,
    "geom:longitude": -120.30117156413702,
    "src:alt_label": "swim-path",
    "src:geom": "swim",
    "swim:altitudes": [
      "008",
      "008",
      "008",
      "042",
      "042",
      "108",
      "108",
      "108",
      "129",
      "129",
      "129",
      "188",
      "188",
      "188",
      "234",
      "234",
      "234",
      "254",
      "280",
      "280",
      "309",
      "309",
      "309",
      "309",
      "309",
      "320C",
      "320C",
      "320C",
      "320C",
      "320C",
      "320C",
      "320C",
      "320C",
      "320C",
      "321C",
      "321C",
      "321C",
      "321C",
      "321C",
      "320C",
      "320C",
      "320C",
      "320C",
      "320C",
      "320C",
      "320C",
      "320C",
      "320C",
      "320C",
      "319C",
      "319C",
      "319C",
      "320C",
      "320C",
      "320C",
      "320C",
      "320C",
      "320C",
      "320C",
      "320C",
      "320C",
      "320C",
      "320C",
      "320",
      "320",
      "313",
      "313",
      "291",
      "291",
      "266",
      "266",
      "240",
      "240",
      "240",
      "215",
      "215",
      "183",
      "181",
      "181",
      "181",
      "153",
      "153",
      "134",
      "134",
      "119",
      "119",
      "119",
      "119",
      "100",
      "078",
      "075",
      "075",
      "061",
      "061",
      "061",
      "061",
      "060",
      "060",
      "050",
      "040",
      "033",
      "030",
      "030",
      "028",
      "028",
      "023",
      "020",
      "015",
      "015",
      "015"
    ],
    "swim:geom": "path",
    "swim:speeds": [
      144,
      144,
      144,
      231,
      231,
      277,
      277,
      277,
      335,
      335,
      335,
      358,
      358,
      358,
      386,
      386,
      386,
      395,
      399,
      399,
      394,
      394,
      394,
      394,
      394,
      411,
      411,
      411,
      411,
      419,
      419,
      419,
      422,
      422,
      426,
      426,
      426,
      426,
      426,
      429,
      429,
      429,
      429,
      429,
      434,
      435,
      435,
      434,
      434,
      434,
      434,
      434,
      435,
      435,
      435,
      435,
      435,
      435,
      435,
      435,
      435,
      435,
      435,
      436,
      436,
      437,
      437,
      435,
      435,
      415,
      415,
      406,
      406,
      406,
      395,
      395,
      323,
      308,
      308,
      308,
      309,
      309,
      292,
      292,
      246,
      246,
      246,
      246,
      227,
      230,
      226,
      226,
      231,
      231,
      231,
      231,
      206,
      206,
      204,
      175,
      169,
      163,
      167,
      163,
      163,
      165,
      162,
      143,
      143,
      143
    ],
    "swim:timestamps": [
      1777257981,
      1777257981,
      1777257981,
      1777258074,
      1777258074,
      1777258195,
      1777258195,
      1777258195,
      1777258255,
      1777258255,
      1777258255,
      1777258375,
      1777258375,
      1777258375,
      1777258495,
      1777258495,
      1777258495,
      1777258555,
      1777258615,
      1777258615,
      1777258736,
      1777258736,
      1777258736,
      1777258736,
      1777258736,
      1777258916,
      1777258916,
      1777258916,
      1777258916,
      1777259156,
      1777259156,
      1777259156,
      1777259207,
      1777259207,
      1777259267,
      1777259267,
      1777259276,
      1777259276,
      1777259276,
      1777259387,
      1777259387,
      1777259397,
      1777259397,
      1777259397,
      1777259517,
      1777259577,
      1777259577,
      1777259637,
      1777259637,
      1777259697,
      1777259697,
      1777259697,
      1777259757,
      1777259757,
      1777259877,
      1777259877,
      1777259877,
      1777259877,
      1777259877,
      1777260048,
      1777260048,
      1777260058,
      1777260058,
      1777260108,
      1777260108,
      1777260288,
      1777260288,
      1777260348,
      1777260348,
      1777260409,
      1777260409,
      1777260469,
      1777260469,
      1777260469,
      1777260529,
      1777260529,
      1777260649,
      1777260660,
      1777260660,
      1777260660,
      1777260769,
      1777260769,
      1777260840,
      1777260840,
      1777260900,
      1777260900,
      1777260900,
      1777260900,
      1777261009,
      1777261129,
      1777261140,
      1777261140,
      1777261195,
      1777261195,
      1777261195,
      1777261195,
      1777261309,
      1777261309,
      1777261380,
      1777261446,
      1777261490,
      1777261507,
      1777261550,
      1777261567,
      1777261567,
      1777261610,
      1777261627,
      1777261670,
      1777261670,
      1777261670
    ],
    "wof:geomhash": "eeb3cacf168a0d4e2f65acc41845f57b",
    "wof:id": 2031116291,
    "wof:repo": "sfomuseum-data-flights-2026-04"
  },
  "bbox": [
    -122.27194444444444,
    33.43333333333333,
    -117.88333333333334,
    37.57555555555556
  ],
  "geometry": {"coordinates":[[-117.88333333333334,33.666666666666664],[-117.88333333333334,33.666666666666664],[-117.88333333333334,33.666666666666664],[-117.89722222222223,33.59166666666667],[-117.89722222222223,33.59166666666667],[-118.00527777777778,33.47888888888889],[-118.00527777777778,33.47888888888889],[-118.00527777777778,33.47888888888889],[-118.09805555555555,33.43333333333333],[-118.09805555555555,33.43333333333333],[-118.09805555555555,33.43333333333333],[-118.32083333333333,33.448611111111106],[-118.32083333333333,33.448611111111106],[-118.32083333333333,33.448611111111106],[-118.53833333333333,33.55416666666667],[-118.53833333333333,33.55416666666667],[-118.53833333333333,33.55416666666667],[-118.64500000000001,33.62277777777778],[-118.74555555555555,33.69694444444444],[-118.74555555555555,33.69694444444444],[-118.91861111111112,33.85916666666667],[-118.91861111111112,33.85916666666667],[-118.91861111111112,33.85916666666667],[-118.91861111111112,33.85916666666667],[-118.91861111111112,33.85916666666667],[-119.19472222222223,34.1175],[-119.19472222222223,34.1175],[-119.19472222222223,34.1175],[-119.19472222222223,34.1175],[-119.56805555555555,34.462500000000006],[-119.56805555555555,34.462500000000006],[-119.56805555555555,34.462500000000006],[-119.63361111111112,34.522777777777776],[-119.63361111111112,34.522777777777776],[-119.73027777777779,34.611666666666665],[-119.73027777777779,34.611666666666665],[-119.74194444444444,34.62222222222222],[-119.74194444444444,34.62222222222222],[-119.74194444444444,34.62222222222222],[-119.92500000000001,34.78861111111111],[-119.92500000000001,34.78861111111111],[-119.94250000000001,34.80444444444444],[-119.94250000000001,34.80444444444444],[-119.94250000000001,34.80444444444444],[-120.14083333333333,34.98444444444444],[-120.2388888888889,35.07277777777778],[-120.2388888888889,35.07277777777778],[-120.33888888888889,35.1625],[-120.33888888888889,35.1625],[-120.43805555555556,35.251666666666665],[-120.43805555555556,35.251666666666665],[-120.43805555555556,35.251666666666665],[-120.53083333333333,35.34666666666667],[-120.53083333333333,35.34666666666667],[-120.73194444444445,35.54805555555556],[-120.73194444444445,35.54805555555556],[-120.73194444444445,35.54805555555556],[-120.73194444444445,35.54805555555556],[-120.73194444444445,35.54805555555556],[-120.99305555555556,35.806666666666665],[-120.99305555555556,35.806666666666665],[-121.00944444444444,35.823055555555555],[-121.00944444444444,35.823055555555555],[-121.08694444444444,35.89944444444444],[-121.08694444444444,35.89944444444444],[-121.38527777777779,36.19138888888889],[-121.38527777777779,36.19138888888889],[-121.46972222222223,36.27361111111111],[-121.46972222222223,36.27361111111111],[-121.5625,36.36361111111111],[-121.5625,36.36361111111111],[-121.65194444444445,36.45],[-121.65194444444445,36.45],[-121.65194444444445,36.45],[-121.73194444444445,36.536944444444444],[-121.73194444444445,36.536944444444444],[-121.86777777777777,36.708333333333336],[-121.88333333333334,36.733333333333334],[-121.88333333333334,36.733333333333334],[-121.88333333333334,36.733333333333334],[-121.93027777777779,36.87083333333334],[-121.93027777777779,36.87083333333334],[-121.96666666666667,36.96666666666667],[-121.96666666666667,36.96666666666667],[-122,37.03333333333333],[-122,37.03333333333333],[-122,37.03333333333333],[-122,37.03333333333333],[-122.11916666666666,37.099722222222226],[-122.16944444444445,37.21888888888889],[-122.16666666666667,37.233333333333334],[-122.16666666666667,37.233333333333334],[-122.2,37.28333333333333],[-122.2,37.28333333333333],[-122.2,37.28333333333333],[-122.2,37.28333333333333],[-122.15777777777778,37.37861111111111],[-122.15777777777778,37.37861111111111],[-122.1,37.43333333333333],[-122.1,37.483333333333334],[-122.12305555555555,37.511944444444445],[-122.15,37.516666666666666],[-122.17361111111111,37.53388888888889],[-122.2,37.55],[-122.2,37.55],[-122.22361111111111,37.555],[-122.25,37.56666666666667],[-122.27194444444444,37.57555555555556],[-122.27194444444444,37.57555555555556],[-122.27194444444444,37.57555555555556]],"type":"LineString"}
}
