{
  "id": 2015291363,
  "type": "Feature",
  "properties": {
    "geom:area": 0,
    "geom:bbox": "-122.547750,36.722940,-121.307330,37.668960",
    "geom:latitude": 37.1637305562109,
    "geom:longitude": -122.03758479835099,
    "src:alt_label": "swim-takeoff",
    "src:geom": "swim",
    "swim:elevations": [
      213,
      559,
      831,
      1404,
      1777,
      2157,
      2510,
      3091,
      3549,
      3943,
      4060,
      4555,
      4725,
      5069,
      5315,
      5465,
      5618,
      5896,
      6245,
      6617,
      6889,
      7201,
      7317,
      7483,
      7552,
      7783,
      8338,
      8383,
      8793,
      8979,
      9210,
      9536,
      9725,
      9940
    ],
    "swim:geom": "takeoff",
    "swim:timestamps": [
      1776158873,
      1776158899,
      1776158917,
      1776158964,
      1776158988,
      1776159013,
      1776159034,
      1776159070,
      1776159108,
      1776159144,
      1776159163,
      1776159201,
      1776159214,
      1776159240,
      1776159259,
      1776159271,
      1776159292,
      1776159313,
      1776159348,
      1776159383,
      1776159410,
      1776159443,
      1776159457,
      1776159478,
      1776159485,
      1776159514,
      1776159566,
      1776159572,
      1776159607,
      1776159628,
      1776159652,
      1776159686,
      1776159707,
      1776159730
    ],
    "wof:geomhash": "16f75567e9c336e22d6cd6b89c2e4506",
    "wof:id": 2015291363,
    "wof:repo": "sfomuseum-data-flights-2026-04"
  },
  "bbox": [
    -122.54775,
    36.72294,
    -121.30733,
    37.66896
  ],
  "geometry": {"coordinates":[[-122.38731,37.62394],[-122.40853,37.63337],[-122.42358,37.63951],[-122.47144,37.65996],[-122.50312,37.66896],[-122.53598,37.65635],[-122.54775,37.63206],[-122.52722,37.58665],[-122.4984,37.53553],[-122.46481,37.48269],[-122.44627,37.45336],[-122.40616,37.39076],[-122.39129,37.36781],[-122.35523,37.32838],[-122.32124,37.30278],[-122.30015,37.28851],[-122.25925,37.26129],[-122.2204,37.23542],[-122.15327,37.18951],[-122.08352,37.14135],[-122.03161,37.1057],[-121.9632,37.05875],[-121.93613,37.04023],[-121.89173,37.00971],[-121.87808,37.00029],[-121.81607,36.95773],[-121.70371,36.88088],[-121.69105,36.87205],[-121.61136,36.8313],[-121.55636,36.81623],[-121.49902,36.79578],[-121.4143,36.76309],[-121.36393,36.74452],[-121.30733,36.72294]],"type":"LineString"}
}
