{
  "id": 2015273865,
  "type": "Feature",
  "properties": {
    "geom:area": 0,
    "geom:bbox": "-122.528190,37.626690,-121.243170,37.975550",
    "geom:latitude": 37.86762499625462,
    "geom:longitude": -121.98387528970548,
    "src:alt_label": "swim-takeoff",
    "src:geom": "swim",
    "swim:elevations": [
      213,
      621,
      742,
      859,
      1021,
      1557,
      1729,
      1865,
      2347,
      2398,
      2631,
      2950,
      3220,
      3466,
      3484,
      3746,
      3855,
      4274,
      4659,
      4832,
      4993,
      5122,
      5169,
      5368,
      5586,
      5739,
      6034,
      6094,
      6312,
      6476,
      6554,
      6681
    ],
    "swim:geom": "takeoff",
    "swim:timestamps": [
      1775995101,
      1775995136,
      1775995153,
      1775995185,
      1775995205,
      1775995242,
      1775995254,
      1775995265,
      1775995305,
      1775995308,
      1775995331,
      1775995360,
      1775995393,
      1775995434,
      1775995441,
      1775995490,
      1775995500,
      1775995547,
      1775995588,
      1775995612,
      1775995631,
      1775995645,
      1775995652,
      1775995675,
      1775995702,
      1775995729,
      1775995767,
      1775995773,
      1775995807,
      1775995830,
      1775995846,
      1775995864
    ],
    "wof:geomhash": "e9980534f28de68be020d6483dddb10f",
    "wof:id": 2015273865,
    "wof:repo": "sfomuseum-data-flights-2026-04"
  },
  "bbox": [
    -122.52819,
    37.62669,
    -121.24317,
    37.97555
  ],
  "geometry": {"coordinates":[[-122.39336,37.62669],[-122.42248,37.64066],[-122.43954,37.64771],[-122.47467,37.66181],[-122.49992,37.67242],[-122.52664,37.70977],[-122.52751,37.72507],[-122.52819,37.73973],[-122.52383,37.79251],[-122.52164,37.79621],[-122.49465,37.8179],[-122.44615,37.83393],[-122.38607,37.84369],[-122.30346,37.85335],[-122.28899,37.85503],[-122.17993,37.8682],[-122.15617,37.87107],[-122.04582,37.88394],[-121.94936,37.89518],[-121.88879,37.90211],[-121.84403,37.90749],[-121.80779,37.91193],[-121.79033,37.91396],[-121.73153,37.9207],[-121.66453,37.92828],[-121.59592,37.93612],[-121.49569,37.94737],[-121.48016,37.94914],[-121.39197,37.95903],[-121.33162,37.96573],[-121.28957,37.97038],[-121.24317,37.97555]],"type":"LineString"}
}
