{
  "id": 2031141817,
  "type": "Feature",
  "properties": {
    "geom:area": 0,
    "geom:bbox": "-122.358800,37.492610,-121.275940,37.614150",
    "geom:latitude": 37.54185279112506,
    "geom:longitude": -121.82433265022878,
    "src:alt_label": "swim-approach",
    "src:geom": "swim",
    "swim:elevations": [
      4435,
      4010,
      3827,
      3702,
      3547,
      3475,
      3303,
      3178,
      3072,
      3008,
      2803,
      2569,
      2493,
      2471,
      2360,
      2258,
      2001,
      1882,
      1830,
      1783,
      1629,
      1583,
      1414,
      1266,
      1133,
      854,
      728,
      657,
      468,
      308,
      236,
      67,
      0
    ],
    "swim:geom": "approach",
    "swim:timestamps": [
      1777530491,
      1777530536,
      1777530558,
      1777530573,
      1777530592,
      1777530600,
      1777530617,
      1777530635,
      1777530685,
      1777530697,
      1777530726,
      1777530763,
      1777530776,
      1777530782,
      1777530806,
      1777530823,
      1777530868,
      1777530893,
      1777530908,
      1777530933,
      1777530979,
      1777530988,
      1777531014,
      1777531039,
      1777531058,
      1777531102,
      1777531115,
      1777531137,
      1777531161,
      1777531191,
      1777531211,
      1777531255,
      1777531267
    ],
    "wof:geomhash": "9d1e7509cfd068aebbb2c30997cf606d",
    "wof:id": 2031141817,
    "wof:repo": "sfomuseum-data-flights-2026-04"
  },
  "bbox": [
    -122.3588,
    37.49261,
    -121.27594,
    37.61415
  ],
  "geometry": {"coordinates":[[-121.27594,37.59105],[-121.3651,37.58089],[-121.40807,37.57609],[-121.43695,37.57281],[-121.47215,37.56875],[-121.48777,37.56695],[-121.52045,37.56315],[-121.55322,37.55922],[-121.63654,37.5476],[-121.65449,37.54372],[-121.69818,37.53337],[-121.75564,37.51956],[-121.77591,37.51466],[-121.78505,37.51248],[-121.81992,37.5041],[-121.84573,37.49788],[-121.91155,37.49261],[-121.94774,37.49471],[-121.97076,37.49619],[-122.00859,37.49849],[-122.07303,37.50228],[-122.085,37.50306],[-122.11731,37.51209],[-122.14576,37.5244],[-122.16759,37.53367],[-122.21704,37.5546],[-122.23135,37.56063],[-122.2528,37.56964],[-122.27602,37.5796],[-122.30261,37.59066],[-122.3181,37.59719],[-122.35012,37.61067],[-122.3588,37.61415]],"type":"LineString"}
}
