{
  "id": 2015355701,
  "type": "Feature",
  "properties": {
    "geom:area": 0,
    "geom:bbox": "-122.361320,37.468410,-121.248370,37.615420",
    "geom:latitude": 37.54103546676445,
    "geom:longitude": -121.81197110401277,
    "src:alt_label": "swim-approach",
    "src:geom": "swim",
    "swim:elevations": [
      5367,
      5203,
      5107,
      4977,
      4797,
      4542,
      4166,
      3902,
      3836,
      3626,
      3381,
      3159,
      3066,
      2818,
      2743,
      2743,
      2743,
      2581,
      2514,
      2340,
      2259,
      2003,
      1828,
      1829,
      1796,
      1521,
      1524,
      1524,
      1321,
      1259,
      1072,
      945,
      838,
      612,
      588,
      472,
      324,
      182,
      32,
      36,
      223
    ],
    "swim:geom": "approach",
    "swim:timestamps": [
      1776849095,
      1776849114,
      1776849125,
      1776849138,
      1776849159,
      1776849190,
      1776849234,
      1776849268,
      1776849284,
      1776849322,
      1776849357,
      1776849388,
      1776849401,
      1776849432,
      1776849469,
      1776849480,
      1776849531,
      1776849567,
      1776849577,
      1776849602,
      1776849616,
      1776849653,
      1776849685,
      1776849691,
      1776849720,
      1776849772,
      1776849792,
      1776849805,
      1776849838,
      1776849850,
      1776849890,
      1776849915,
      1776849937,
      1776849979,
      1776849987,
      1776850007,
      1776850041,
      1776850075,
      1776850105,
      1776850110,
      1776850116
    ],
    "wof:geomhash": "018ed949f3153967eb2546ede08c8f39",
    "wof:id": 2015355701,
    "wof:repo": "sfomuseum-data-flights-2026-04"
  },
  "bbox": [
    -122.36132,
    37.46841,
    -121.24837,
    37.61542
  ],
  "geometry": {"coordinates":[[-121.24837,37.59468],[-121.27604,37.59091],[-121.29196,37.58897],[-121.31236,37.58686],[-121.34258,37.58393],[-121.39063,37.57826],[-121.4604,37.57005],[-121.5147,37.5637],[-121.53899,37.56075],[-121.59236,37.55441],[-121.63741,37.55278],[-121.67536,37.56129],[-121.69079,37.56505],[-121.72871,37.57412],[-121.76863,37.56105],[-121.77309,37.5497],[-121.78436,37.49799],[-121.82053,37.47988],[-121.83189,37.47916],[-121.86277,37.47714],[-121.8802,37.47607],[-121.92456,37.4731],[-121.96395,37.47024],[-121.97114,37.46969],[-122.00192,37.46841],[-122.05262,37.48444],[-122.07085,37.49283],[-122.08284,37.49802],[-122.11385,37.51106],[-122.12609,37.51617],[-122.16295,37.53178],[-122.18555,37.54137],[-122.20566,37.54979],[-122.24502,37.56634],[-122.2523,37.56943],[-122.2712,37.5774],[-122.29903,37.58904],[-122.32639,37.60064],[-122.35169,37.61123],[-122.35556,37.61284],[-122.36132,37.61542]],"type":"LineString"}
}
