{
  "id": 2015257993,
  "type": "Feature",
  "properties": {
    "geom:area": 0,
    "geom:bbox": "-122.291750,37.959750,-121.251470,38.164270",
    "geom:latitude": 38.062604278942786,
    "geom:longitude": -121.77172701176808,
    "src:alt_label": "swim-takeoff",
    "src:geom": "swim",
    "swim:elevations": [
      3429,
      3871,
      4160,
      4306,
      4601,
      4691,
      4964,
      5052,
      5357,
      5568,
      5626,
      5656,
      5778,
      5830,
      6101,
      6400,
      6598,
      6699
    ],
    "swim:geom": "takeoff",
    "swim:timestamps": [
      1775804407,
      1775804452,
      1775804477,
      1775804492,
      1775804539,
      1775804557,
      1775804604,
      1775804616,
      1775804663,
      1775804688,
      1775804697,
      1775804700,
      1775804718,
      1775804730,
      1775804774,
      1775804813,
      1775804849,
      1775804868
    ],
    "wof:geomhash": "e98ea021f204ca64da3b3721f2ddf63d",
    "wof:id": 2015257993,
    "wof:repo": "sfomuseum-data-flights-2026-04"
  },
  "bbox": [
    -122.29175,
    37.95975,
    -121.25147,
    38.16427
  ],
  "geometry": {"coordinates":[[-122.29175,37.95975],[-122.20606,37.97659],[-122.15737,37.98663],[-122.12845,37.9926],[-122.03486,38.01076],[-121.99688,38.01828],[-121.89286,38.03901],[-121.86648,38.04417],[-121.75578,38.06583],[-121.6969,38.0774],[-121.67541,38.08181],[-121.66824,38.08328],[-121.62505,38.09213],[-121.5959,38.09802],[-121.48878,38.11847],[-121.39136,38.13707],[-121.30033,38.15478],[-121.25147,38.16427]],"type":"LineString"}
}
