{
  "id": 2031097007,
  "type": "Feature",
  "properties": {
    "geom:area": 0,
    "geom:bbox": "-122.503611,33.716667,-116.235000,37.544722",
    "geom:latitude": 35.479725857623706,
    "geom:longitude": -119.28066921264104,
    "src:alt_label": "swim-path",
    "src:geom": "swim",
    "swim:altitudes": [
      "105",
      "105",
      "105",
      "158",
      "195",
      "195",
      "236",
      "236",
      "238",
      "255",
      "282",
      "282",
      "282",
      "282",
      "329",
      "329",
      "342",
      "342",
      "342",
      "367",
      "367",
      "367",
      "370C",
      "370C",
      "370C",
      "370C",
      "370C",
      "370C",
      "370C",
      "370C",
      "370C",
      "370C",
      "370C",
      "370C",
      "370C",
      "370C",
      "370C",
      "370C",
      "370",
      "362",
      "362",
      "362",
      "312",
      "312",
      "312",
      "300",
      "300",
      "300",
      "300",
      "273",
      "245",
      "245",
      "239",
      "239",
      "239",
      "239",
      "191",
      "191",
      "191",
      "191",
      "159",
      "160",
      "160",
      "160",
      "160",
      "158",
      "156",
      "156",
      "150",
      "150",
      "134",
      "119",
      "119",
      "119",
      "119",
      "114",
      "098",
      "098",
      "098",
      "081",
      "081",
      "081",
      "068",
      "068",
      "043",
      "032",
      "030",
      "030",
      "030",
      "009",
      "007",
      "004"
    ],
    "swim:geom": "path",
    "swim:speeds": [
      300,
      300,
      300,
      358,
      378,
      378,
      417,
      417,
      434,
      433,
      469,
      469,
      469,
      469,
      493,
      493,
      497,
      497,
      497,
      500,
      500,
      500,
      494,
      492,
      492,
      492,
      492,
      492,
      491,
      491,
      493,
      498,
      498,
      498,
      498,
      495,
      495,
      495,
      486,
      485,
      485,
      485,
      487,
      487,
      487,
      476,
      476,
      476,
      476,
      461,
      447,
      447,
      438,
      438,
      438,
      438,
      420,
      420,
      420,
      420,
      401,
      401,
      401,
      401,
      401,
      401,
      402,
      402,
      399,
      399,
      386,
      347,
      347,
      347,
      347,
      317,
      269,
      269,
      269,
      230,
      230,
      230,
      200,
      200,
      189,
      178,
      169,
      169,
      169,
      147,
      148,
      129
    ],
    "swim:timestamps": [
      1776958973,
      1776958973,
      1776958973,
      1776959093,
      1776959208,
      1776959208,
      1776959328,
      1776959328,
      1776959334,
      1776959388,
      1776959508,
      1776959508,
      1776959508,
      1776959508,
      1776959688,
      1776959688,
      1776959754,
      1776959754,
      1776959754,
      1776959869,
      1776959869,
      1776959869,
      1776959989,
      1776960049,
      1776960049,
      1776960055,
      1776960055,
      1776960055,
      1776960115,
      1776960115,
      1776960229,
      1776960289,
      1776960289,
      1776960295,
      1776960295,
      1776960415,
      1776960415,
      1776960415,
      1776960470,
      1776960530,
      1776960530,
      1776960530,
      1776960836,
      1776960836,
      1776960836,
      1776960890,
      1776960890,
      1776960890,
      1776960890,
      1776960950,
      1776961010,
      1776961010,
      1776961070,
      1776961070,
      1776961070,
      1776961070,
      1776961298,
      1776961298,
      1776961298,
      1776961298,
      1776961551,
      1776961611,
      1776961617,
      1776961617,
      1776961617,
      1776961671,
      1776961677,
      1776961677,
      1776961731,
      1776961731,
      1776961792,
      1776961862,
      1776961862,
      1776961862,
      1776961862,
      1776961912,
      1776962032,
      1776962032,
      1776962032,
      1776962152,
      1776962152,
      1776962152,
      1776962212,
      1776962212,
      1776962283,
      1776962332,
      1776962343,
      1776962343,
      1776962343,
      1776962513,
      1776962524,
      1776962573
    ],
    "wof:geomhash": "3993e389c6f31d0ed5059e333db741f1",
    "wof:id": 2031097007,
    "wof:repo": "sfomuseum-data-flights-2026-04"
  },
  "bbox": [
    -122.50361111111111,
    33.71666666666667,
    -116.235,
    37.54472222222222
  ],
  "geometry": {"coordinates":[[-122.50361111111111,37.54472222222222],[-122.50361111111111,37.54472222222222],[-122.50361111111111,37.54472222222222],[-122.34138888888889,37.40416666666667],[-122.13916666666667,37.278888888888886],[-122.13916666666667,37.278888888888886],[-121.91222222222223,37.12916666666667],[-121.91222222222223,37.12916666666667],[-121.90277777777779,37.11972222222222],[-121.7925,37.05166666666666],[-121.5425,36.880833333333335],[-121.5425,36.880833333333335],[-121.5425,36.880833333333335],[-121.5425,36.880833333333335],[-121.14194444444445,36.62027777777778],[-121.14194444444445,36.62027777777778],[-121.005,36.52638888888889],[-121.005,36.52638888888889],[-121.005,36.52638888888889],[-120.74388888888889,36.35055555555556],[-120.74388888888889,36.35055555555556],[-120.74388888888889,36.35055555555556],[-120.48361111111112,36.175555555555555],[-120.35388888888889,36.088055555555556],[-120.35388888888889,36.088055555555556],[-120.34972222222221,36.08527777777778],[-120.34972222222221,36.08527777777778],[-120.34972222222221,36.08527777777778],[-120.22111111111111,35.99805555555556],[-120.22111111111111,35.99805555555556],[-119.95722222222223,35.831944444444446],[-119.80055555555555,35.7725],[-119.80055555555555,35.7725],[-119.79555555555555,35.77055555555555],[-119.79555555555555,35.77055555555555],[-119.49083333333333,35.647777777777776],[-119.49083333333333,35.647777777777776],[-119.49083333333333,35.647777777777776],[-119.39472222222223,35.580000000000005],[-119.2725,35.489444444444445],[-119.2725,35.489444444444445],[-119.2725,35.489444444444445],[-118.63416666666667,35.00861111111111],[-118.63416666666667,35.00861111111111],[-118.63416666666667,35.00861111111111],[-118.54444444444444,34.94],[-118.54444444444444,34.94],[-118.54444444444444,34.94],[-118.54444444444444,34.94],[-118.41722222222222,34.8425],[-118.30499999999999,34.760555555555555],[-118.30499999999999,34.760555555555555],[-118.1888888888889,34.68555555555555],[-118.1888888888889,34.68555555555555],[-118.1888888888889,34.68555555555555],[-118.1888888888889,34.68555555555555],[-117.7,34.45],[-117.7,34.45],[-117.7,34.45],[-117.7,34.45],[-117.19388888888889,34.23083333333334],[-117.07555555555555,34.17583333333333],[-117.06666666666666,34.166666666666664],[-117.06666666666666,34.166666666666664],[-117.06666666666666,34.166666666666664],[-116.96083333333334,34.12111111111111],[-116.95,34.11666666666667],[-116.95,34.11666666666667],[-116.84888888888888,34.068333333333335],[-116.84888888888888,34.068333333333335],[-116.72277777777778,34.01972222222222],[-116.58333333333333,33.983333333333334],[-116.58333333333333,33.983333333333334],[-116.58333333333333,33.983333333333334],[-116.58333333333333,33.983333333333334],[-116.51555555555555,33.94499999999999],[-116.3711111111111,33.84777777777778],[-116.3711111111111,33.84777777777778],[-116.3711111111111,33.84777777777778],[-116.235,33.77833333333333],[-116.235,33.77833333333333],[-116.235,33.77833333333333],[-116.25361111111111,33.7275],[-116.25361111111111,33.7275],[-116.33333333333333,33.71666666666667],[-116.37416666666665,33.722500000000004],[-116.38333333333334,33.733333333333334],[-116.38333333333334,33.733333333333334],[-116.38333333333334,33.733333333333334],[-116.48444444444445,33.80333333333333],[-116.48333333333333,33.81666666666667],[-116.51055555555556,33.83305555555556]],"type":"LineString"}
}
