{
  "id": 2015357129,
  "type": "Feature",
  "properties": {
    "geom:area": 0,
    "geom:bbox": "-122.464444,32.600833,-115.190000,37.484722",
    "geom:latitude": 34.977426995408585,
    "geom:longitude": -118.86824703840504,
    "src:alt_label": "swim-path",
    "src:geom": "swim",
    "swim:altitudes": [
      "106",
      "289",
      "350C",
      "350C",
      "350C",
      "350C",
      "350C",
      "350C",
      "350C",
      "350C",
      "350",
      "353",
      "370C",
      "370C",
      "370C",
      "370C",
      "370C",
      "370C",
      "370C",
      "370C",
      "370C"
    ],
    "swim:geom": "path",
    "swim:speeds": [
      316,
      477,
      508,
      498,
      497,
      492,
      491,
      493,
      500,
      504,
      512,
      517,
      539,
      537,
      537,
      537,
      539,
      539,
      540,
      541,
      541
    ],
    "swim:timestamps": [
      1776930636,
      1776931295,
      1776931895,
      1776932255,
      1776932315,
      1776932435,
      1776932555,
      1776932615,
      1776932735,
      1776932795,
      1776932915,
      1776932975,
      1776933336,
      1776933396,
      1776933396,
      1776933516,
      1776933816,
      1776933816,
      1776933876,
      1776933936,
      1776933996
    ],
    "wof:geomhash": "1e356fdb455363155fba6f780d9a26d3",
    "wof:id": 2015357129,
    "wof:repo": "sfomuseum-data-flights-2026-04"
  },
  "bbox": [
    -122.46444444444445,
    32.600833333333334,
    -115.19,
    37.484722222222224
  ],
  "geometry": {"coordinates":[[-122.46444444444445,37.484722222222224],[-121.22833333333334,36.64416666666666],[-119.94361111111111,35.72972222222222],[-119.17888888888889,35.16972222222222],[-119.05388888888889,35.07694444444445],[-118.7911111111111,34.880833333333335],[-118.54472222222222,34.69555555555555],[-118.4213888888889,34.602222222222224],[-118.19916666666667,34.43333333333333],[-118.07333333333332,34.33722222222222],[-117.81833333333333,34.14138888888889],[-117.69055555555556,34.04277777777778],[-116.7925,33.51305555555555],[-116.64500000000001,33.43083333333333],[-116.64500000000001,33.43083333333333],[-116.34638888888888,33.26361111111111],[-115.63,32.856944444444444],[-115.63,32.856944444444444],[-115.48222222222222,32.77194444444444],[-115.335,32.6875],[-115.19,32.600833333333334]],"type":"LineString"}
}
