{
  "id": 2015209389,
  "type": "Feature",
  "properties": {
    "geom:area": 0,
    "geom:bbox": "-123.449060,36.862640,-122.146790,37.613880",
    "geom:latitude": 37.26276328013948,
    "geom:longitude": -122.72058234499197,
    "src:alt_label": "swim-approach",
    "src:geom": "swim",
    "swim:elevations": [
      5913,
      5791,
      5425,
      4999,
      4695,
      4355,
      4200,
      3914,
      3507,
      3417,
      3194,
      3105,
      3074,
      3019,
      2956,
      2802,
      2744,
      2682,
      2654,
      2588,
      2521,
      2066,
      1939,
      1800,
      1581,
      1518,
      1397,
      1282,
      1066,
      794,
      679,
      549,
      357,
      221,
      122,
      127
    ],
    "swim:geom": "approach",
    "swim:timestamps": [
      1775390183,
      1775390195,
      1775390231,
      1775390274,
      1775390302,
      1775390336,
      1775390352,
      1775390380,
      1775390422,
      1775390430,
      1775390460,
      1775390492,
      1775390507,
      1775390531,
      1775390567,
      1775390628,
      1775390674,
      1775390715,
      1775390736,
      1775390771,
      1775390797,
      1775390877,
      1775390895,
      1775390924,
      1775390968,
      1775390977,
      1775390991,
      1775391006,
      1775391043,
      1775391088,
      1775391107,
      1775391127,
      1775391167,
      1775391197,
      1775391221,
      1775391247
    ],
    "wof:geomhash": "5337c80358e70ceb404d1db9fb42aac3",
    "wof:id": 2015209389,
    "wof:repo": "sfomuseum-data-flights-2026-04"
  },
  "bbox": [
    -123.44906,
    36.86264,
    -122.14679,
    37.61388
  ],
  "geometry": {"coordinates":[[-123.44906,36.86264],[-123.42578,36.87869],[-123.35642,36.92675],[-123.27519,36.98075],[-123.22347,37.01562],[-123.16123,37.05787],[-123.13337,37.07673],[-123.08294,37.11076],[-123.01116,37.15932],[-122.99729,37.16861],[-122.94677,37.20197],[-122.89672,37.23516],[-122.87447,37.24957],[-122.83772,37.26362],[-122.78059,37.277],[-122.68087,37.30025],[-122.60674,37.31741],[-122.54247,37.33234],[-122.50892,37.34009],[-122.45269,37.35311],[-122.41146,37.36259],[-122.28567,37.39144],[-122.25667,37.39805],[-122.21289,37.40806],[-122.15476,37.42907],[-122.14894,37.4381],[-122.14679,37.45471],[-122.14945,37.47233],[-122.16244,37.51491],[-122.2081,37.55095],[-122.23127,37.56057],[-122.25376,37.57007],[-122.29315,37.58666],[-122.31744,37.59682],[-122.33713,37.60513],[-122.35703,37.61388]],"type":"LineString"}
}
