{
  "id": 2015355545,
  "type": "Feature",
  "properties": {
    "geom:area": 0,
    "geom:bbox": "-122.380000,30.070000,-97.670000,37.620000",
    "geom:latitude": 33.000387335973706,
    "geom:longitude": -110.49178947255824,
    "src:alt_label": "swim-route",
    "src:geom": "swim",
    "swim:geom": "route",
    "wof:geomhash": "abb3a45a7d320eb68c32f21ff5eaebb4",
    "wof:id": 2015355545,
    "wof:repo": "sfomuseum-data-flights-2026-04"
  },
  "bbox": [
    -122.38,
    30.07,
    -97.67,
    37.62
  ],
  "geometry": {"coordinates":[[-97.67,30.19],[-97.77,30.1],[-97.79,30.08],[-97.8,30.07],[-97.82,30.07],[-97.85,30.08],[-97.89,30.09],[-97.92,30.1],[-98.09,30.14],[-98.24,30.17],[-98.27,30.18],[-98.31,30.19],[-98.35,30.2],[-98.57,30.25],[-98.75,30.29],[-98.91,30.33],[-98.99,30.35],[-99.1,30.37],[-99.27,30.41],[-99.34,30.43],[-99.36,30.44],[-99.55,30.48],[-99.88,30.55],[-99.88,30.55],[-102.21,31.05],[-102.42,31.1],[-102.48,31.11],[-106.23,31.81],[-106.28,31.82],[-108.2,32.17],[-109.77,32.44],[-110.59,32.72],[-112.82,33.45],[-113.51,33.58],[-113.87,33.65],[-114,33.67],[-114.54,33.77],[-115.03,33.8],[-115.46,33.82],[-116.12,34.04],[-116.67,34.21],[-117.21,34.38],[-117.96,34.6],[-118.06,34.63],[-119.36,35.32],[-119.98,35.65],[-120.34,35.68],[-120.34,35.68],[-120.55,35.76],[-120.66,35.8],[-121.14,35.98],[-121.18,36],[-121.22,36.01],[-121.3,36.05],[-121.36,36.07],[-121.48,36.21],[-121.51,36.26],[-121.67,36.45],[-121.7,36.49],[-121.7,36.5],[-121.76,36.57],[-121.82,36.65],[-121.83,36.67],[-121.89,36.74],[-121.9,36.75],[-121.94,36.91],[-121.95,36.95],[-121.97,36.99],[-122,37.07],[-122.08,37.27],[-122.08,37.28],[-122.1,37.33],[-122.12,37.37],[-122.17,37.43],[-122.19,37.45],[-122.24,37.49],[-122.31,37.56],[-122.36,37.6],[-122.37,37.61],[-122.38,37.62]],"type":"LineString"}
}
