{
  "id": 2015233421,
  "type": "Feature",
  "properties": {
    "geom:area": 0,
    "geom:bbox": "-122.530000,37.620000,2.550000,59.080000",
    "geom:latitude": 53.026439974313796,
    "geom:longitude": -60.411355931395995,
    "src:alt_label": "swim-route",
    "src:geom": "swim",
    "swim:geom": "route",
    "wof:geomhash": "690d221ad9c1d06b9afb878ac87e9c2b",
    "wof:id": 2015233421,
    "wof:repo": "sfomuseum-data-flights-2026-04"
  },
  "bbox": [
    -122.53,
    37.62,
    2.55,
    59.08
  ],
  "geometry": {"coordinates":[[-122.38,37.62],[-122.5,37.67],[-122.51,37.68],[-122.52,37.68],[-122.53,37.75],[-122.53,37.76],[-122.53,37.79],[-122.53,37.8],[-122.47,37.83],[-122.46,37.83],[-122.43,37.84],[-122.36,37.89],[-122.2,38],[-122.19,38.01],[-122.16,38.02],[-122.02,38.11],[-122.02,38.11],[-121.94,38.16],[-121.92,38.17],[-121.85,38.21],[-121.78,38.26],[-121.69,38.31],[-121.69,38.32],[-121.63,38.35],[-121.48,38.45],[-121.45,38.47],[-121.35,38.53],[-121.31,38.55],[-121.23,38.6],[-121.07,38.69],[-121.07,38.7],[-121,38.74],[-120.93,38.78],[-120.86,38.82],[-120.66,38.94],[-120.32,39.14],[-119.66,39.53],[-119.5,39.62],[-118.58,40.13],[-118.04,40.28],[-115.96,40.84],[-114.46,41.21],[-113.84,41.36],[-113.35,41.49],[-112.86,41.62],[-112.38,41.74],[-112.16,41.8],[-111.83,41.88],[-110.93,42.1],[-108.9,42.56],[-108.7,42.6],[-108.18,42.71],[-107.13,42.93],[-106.28,43.09],[-105.53,43.44],[-104.2,44.04],[-103.93,44.15],[-103.65,44.27],[-103.14,44.49],[-102.32,44.83],[-101.72,45.08],[-100.35,46],[-99.75,46.38],[-99.55,46.51],[-99.15,46.77],[-98.42,47.22],[-97.19,47.95],[-95.81,48.65],[-95.72,48.7],[-95.55,48.78],[-95.04,49],[-95.04,49],[-93.18,49.77],[-89.47,51.21],[-89.23,51.3],[-87.03,52.04],[-83.6,53.07],[-80,54],[-79.6,54.12],[-75.5,55.21],[-68.17,56.72],[-67.45,56.84],[-64.33,57.3],[-64.28,57.3],[-64.14,57.32],[-63.99,57.34],[-63.94,57.35],[-60.93,57.7],[-59.73,57.82],[-58,57.97],[-54.58,58.48],[-50,59],[-40,59],[-32.85,59.08],[-30,59],[-27.09,58.79],[-25.65,58.67],[-20,58],[-16.07,57.03],[-12.36,55.94],[-10,55.16],[-8.95,54.79],[-8.1,54.47],[-7.78,54.35],[-7.48,54.23],[-5.5,53.44],[-4.25,52.9],[-2.81,52.25],[-1.22,51.49],[-1.05,51.47],[-0.83,51.26],[-0.62,51.05],[0.04,50.79],[0.12,50.76],[0.23,50.69],[0.28,50.65],[0.63,50.41],[0.69,50.37],[0.7,50.36],[0.7,50.36],[0.97,50.17],[1.2,50.01],[1.42,49.85],[1.74,49.61],[1.91,49.49],[2.13,49.32],[2.17,49.29],[2.3,49.2],[2.38,49.14],[2.46,49.07],[2.55,49.01]],"type":"LineString"}
}
