{
  "id": 2015312471,
  "type": "Feature",
  "properties": {
    "geom:area": 0,
    "geom:bbox": "-122.361790,36.753310,-121.896720,37.613590",
    "geom:latitude": 37.23919412034869,
    "geom:longitude": -122.08189783603807,
    "src:alt_label": "swim-approach",
    "src:geom": "swim",
    "swim:elevations": [
      5194,
      4954,
      4882,
      4761,
      4651,
      4364,
      4094,
      3926,
      3752,
      3446,
      3307,
      3129,
      2963,
      2727,
      2558,
      2375,
      2266,
      1954,
      1716,
      1646,
      1517,
      1496,
      1405,
      1255,
      1216,
      1127,
      1070,
      935,
      885,
      759,
      640,
      535,
      454,
      270,
      181,
      124,
      39,
      0
    ],
    "swim:geom": "approach",
    "swim:timestamps": [
      1776464663,
      1776464696,
      1776464705,
      1776464722,
      1776464737,
      1776464776,
      1776464809,
      1776464833,
      1776464857,
      1776464901,
      1776464922,
      1776464948,
      1776464981,
      1776465027,
      1776465056,
      1776465086,
      1776465104,
      1776465140,
      1776465178,
      1776465190,
      1776465232,
      1776465235,
      1776465247,
      1776465267,
      1776465298,
      1776465316,
      1776465333,
      1776465382,
      1776465408,
      1776465438,
      1776465468,
      1776465494,
      1776465516,
      1776465563,
      1776465588,
      1776465604,
      1776465627,
      1776465639
    ],
    "wof:geomhash": "5e1671cc4b1a65dfb2b1f528deca33a6",
    "wof:id": 2015312471,
    "wof:repo": "sfomuseum-data-flights-2026-04"
  },
  "bbox": [
    -122.36179,
    36.75331,
    -121.89672,
    37.61359
  ],
  "geometry": {"coordinates":[[-121.89672,36.75331],[-121.911,36.80157],[-121.91465,36.81459],[-121.92122,36.83815],[-121.92708,36.85961],[-121.94245,36.91406],[-121.95583,36.95954],[-121.96823,36.99079],[-121.98027,37.02185],[-122.00207,37.0776],[-122.01216,37.10352],[-122.02486,37.13554],[-122.04011,37.17523],[-122.0668,37.22362],[-122.09159,37.24959],[-122.11607,37.27471],[-122.13117,37.29005],[-122.15741,37.32248],[-122.14421,37.36047],[-122.13797,37.37237],[-122.11701,37.41183],[-122.1156,37.41443],[-122.11018,37.4246],[-122.10077,37.44195],[-122.10118,37.46741],[-122.10992,37.48159],[-122.11881,37.49561],[-122.15589,37.52638],[-122.18068,37.53696],[-122.20834,37.54866],[-122.23376,37.5593],[-122.25511,37.56835],[-122.27238,37.57563],[-122.30828,37.59073],[-122.32586,37.59811],[-122.33736,37.6029],[-122.35376,37.60979],[-122.36179,37.61359]],"type":"LineString"}
}
