{
  "id": 2015187463,
  "type": "Feature",
  "properties": {
    "geom:area": 0,
    "geom:bbox": "-122.754040,37.225490,-122.129420,38.490600",
    "geom:latitude": 37.78657124401982,
    "geom:longitude": -122.46844323919555,
    "src:alt_label": "swim-approach",
    "src:geom": "swim",
    "swim:elevations": [
      6282,
      5850,
      5528,
      5262,
      5040,
      4797,
      4764,
      4611,
      4387,
      4108,
      3946,
      3411,
      3366,
      3355,
      3353,
      3353,
      3353,
      3353,
      3353,
      3353,
      3353,
      3322,
      3215,
      2999,
      2833,
      2744,
      2743,
      2743,
      2743,
      2743,
      2468,
      2414,
      2118,
      1967,
      1862,
      1829,
      1829,
      1801,
      1403,
      1329,
      1219,
      1219,
      1219,
      1072,
      930,
      914,
      914,
      831,
      736,
      608,
      564,
      454,
      365,
      240,
      156,
      58,
      26,
      7863,
      7770,
      7366,
      7035,
      6671,
      6268,
      5870,
      5521,
      5432,
      5421,
      4862,
      4507,
      4358,
      3833,
      3657,
      3474,
      3396,
      3320,
      3201,
      2769,
      2482,
      2431,
      2291,
      1982,
      1925,
      1829,
      1829,
      1829,
      1829,
      1727,
      1552,
      1324,
      1241,
      1216,
      1090,
      1052
    ],
    "swim:geom": "approach",
    "swim:timestamps": [
      1775113200,
      1775113244,
      1775113285,
      1775113307,
      1775113326,
      1775113347,
      1775113351,
      1775113368,
      1775113390,
      1775113423,
      1775113441,
      1775113496,
      1775113509,
      1775113521,
      1775113536,
      1775113556,
      1775113585,
      1775113606,
      1775113634,
      1775113678,
      1775113687,
      1775113712,
      1775113729,
      1775113764,
      1775113796,
      1775113822,
      1775113846,
      1775113884,
      1775113906,
      1775113921,
      1775113973,
      1775113987,
      1775114038,
      1775114060,
      1775114085,
      1775114120,
      1775114157,
      1775114170,
      1775114216,
      1775114226,
      1775114264,
      1775114277,
      1775114296,
      1775114328,
      1775114355,
      1775114393,
      1775114420,
      1775114454,
      1775114467,
      1775114507,
      1775114527,
      1775114555,
      1775114585,
      1775114628,
      1775114657,
      1775114692,
      1775114702,
      1775198597,
      1775198614,
      1775198659,
      1775198687,
      1775198717,
      1775198750,
      1775198784,
      1775198815,
      1775198824,
      1775198827,
      1775198875,
      1775198905,
      1775198920,
      1775198969,
      1775198987,
      1775199017,
      1775199034,
      1775199079,
      1775199099,
      1775199146,
      1775199177,
      1775199183,
      1775199199,
      1775199236,
      1775199247,
      1775199290,
      1775199325,
      1775199331,
      1775199365,
      1775199416,
      1775199436,
      1775199478,
      1775199507,
      1775199515,
      1775199563,
      1775199572
    ],
    "wof:geomhash": "c86b7bf393b2ee05912f2b9431dd2cf6",
    "wof:id": 2015187463,
    "wof:repo": "sfomuseum-data-flights-2026-04"
  },
  "bbox": [
    -122.75404,
    37.22549,
    -122.12942,
    38.4906
  ],
  "geometry": {"coordinates":[[-122.75404,38.17984],[-122.7328,38.10698],[-122.71315,38.03995],[-122.70349,38.00613],[-122.69544,37.97776],[-122.68587,37.94458],[-122.68414,37.93865],[-122.67603,37.91174],[-122.65283,37.88097],[-122.60817,37.83895],[-122.58479,37.81684],[-122.51744,37.75319],[-122.5034,37.74008],[-122.48978,37.72716],[-122.47388,37.71215],[-122.45359,37.69308],[-122.42321,37.66427],[-122.40188,37.64413],[-122.37331,37.61696],[-122.34326,37.56704],[-122.33659,37.55652],[-122.31909,37.52818],[-122.30726,37.50876],[-122.28369,37.46779],[-122.29439,37.43338],[-122.31664,37.41064],[-122.3375,37.38938],[-122.37123,37.35467],[-122.38974,37.33547],[-122.40252,37.32222],[-122.42496,37.26904],[-122.41571,37.25392],[-122.35892,37.22549],[-122.33056,37.23354],[-122.30297,37.24822],[-122.27407,37.27718],[-122.24556,37.3083],[-122.23743,37.3207],[-122.21176,37.36151],[-122.20644,37.36986],[-122.18593,37.40172],[-122.17866,37.41274],[-122.1687,37.4293],[-122.15772,37.45783],[-122.14826,37.48268],[-122.16689,37.51229],[-122.1851,37.5309],[-122.20653,37.54725],[-122.21764,37.55223],[-122.24386,37.56365],[-122.25534,37.56848],[-122.2717,37.57532],[-122.28907,37.58263],[-122.31394,37.59296],[-122.33057,37.60003],[-122.3508,37.60852],[-122.35641,37.61091],[-122.68998,38.4906],[-122.68929,38.45603],[-122.68607,38.3662],[-122.68468,38.31206],[-122.68291,38.25334],[-122.68121,38.19121],[-122.67944,38.12706],[-122.67788,38.06959],[-122.6774,38.05341],[-122.67722,38.04804],[-122.67463,37.9632],[-122.67106,37.91185],[-122.65963,37.88858],[-122.59502,37.82646],[-122.57128,37.80402],[-122.53263,37.76726],[-122.51229,37.74794],[-122.46202,37.70041],[-122.44224,37.68181],[-122.39705,37.63931],[-122.36941,37.61186],[-122.36574,37.60549],[-122.35671,37.58788],[-122.33241,37.54993],[-122.32533,37.53835],[-122.2984,37.49435],[-122.27692,37.45939],[-122.27318,37.45334],[-122.25248,37.41955],[-122.19488,37.39046],[-122.17024,37.39158],[-122.14437,37.42473],[-122.13248,37.44743],[-122.12942,37.45338],[-122.14116,37.49005],[-122.14472,37.49672]],"type":"LineString"}
}
