{
  "id": 2015249281,
  "type": "Feature",
  "properties": {
    "geom:area": 0,
    "geom:bbox": "-122.380000,37.620000,-87.510000,44.000000",
    "geom:latitude": 42.16977269241578,
    "geom:longitude": -105.0438160206532,
    "src:alt_label": "swim-route",
    "src:geom": "swim",
    "swim:geom": "route",
    "wof:geomhash": "af4260682019e91de900e534a8f1db4e",
    "wof:id": 2015249281,
    "wof:repo": "sfomuseum-data-flights-2026-04"
  },
  "bbox": [
    -122.38,
    37.62,
    -87.51,
    44
  ],
  "geometry": {"coordinates":[[-122.38,37.62],[-122.27,37.69],[-122.22,37.72],[-122.21,37.72],[-122.15,37.79],[-122.15,37.79],[-122.12,37.82],[-122.08,37.87],[-122.07,37.88],[-122.07,37.88],[-122.03,37.92],[-121.9,38.06],[-121.9,38.06],[-121.82,38.15],[-121.74,38.23],[-121.73,38.25],[-121.71,38.27],[-121.56,38.43],[-121.56,38.44],[-121.55,38.44],[-121.47,38.5],[-121.34,38.57],[-121.19,38.66],[-121.15,38.69],[-121.06,38.74],[-120.72,38.95],[-120.59,39.03],[-120.46,39.1],[-120.35,39.16],[-120.33,39.18],[-120.06,39.34],[-119.1,39.89],[-118.92,39.98],[-118.61,40.11],[-118.12,40.32],[-115.89,40.98],[-114.48,41.37],[-114,41.5],[-113.76,41.56],[-113.53,41.62],[-113.05,41.75],[-112.69,41.84],[-111.71,42.08],[-111.16,42.15],[-110.3,42.25],[-108,42.5],[-107.08,42.58],[-106.76,42.61],[-106.48,42.65],[-105.66,42.77],[-104,43],[-101.95,43.27],[-101.54,43.32],[-100.95,43.37],[-100.5,43.42],[-98.95,43.59],[-98.43,43.65],[-95.93,43.87],[-93.96,44],[-93.72,43.92],[-93.48,43.84],[-91.82,43.24],[-91.66,43.19],[-91.59,43.16],[-91.37,43.09],[-91.27,43.05],[-91.04,42.97],[-90.72,42.86],[-90.28,42.7],[-89.78,42.52],[-89.68,42.51],[-89.62,42.5],[-89.4,42.47],[-89.32,42.46],[-89.12,42.44],[-89.06,42.43],[-88.89,42.41],[-88.82,42.4],[-88.81,42.4],[-88.69,42.38],[-88.67,42.38],[-88.63,42.38],[-88.57,42.37],[-88.52,42.36],[-88.5,42.36],[-88.43,42.35],[-88.39,42.34],[-88.31,42.3],[-88.15,42.2],[-88.07,42.13],[-88.03,42.09],[-87.79,42.09],[-87.54,42.09],[-87.51,42.09],[-87.55,42.08],[-87.69,42.04],[-87.8,42.01],[-87.9,41.98],[-87.91,41.98]],"type":"LineString"}
}
