{
  "id": 2015186245,
  "type": "Feature",
  "properties": {
    "geom:area": 0,
    "geom:bbox": "-122.358320,37.491260,-121.250850,37.613950",
    "geom:latitude": 37.542550118927466,
    "geom:longitude": -121.81167734624607,
    "src:alt_label": "swim-approach",
    "src:geom": "swim",
    "swim:elevations": [
      4957,
      4755,
      4673,
      4301,
      3992,
      3812,
      3444,
      3272,
      3259,
      2890,
      2752,
      2569,
      2318,
      2191,
      2041,
      1828,
      1827,
      1829,
      1620,
      1345,
      1217,
      1037,
      917,
      834,
      638,
      577,
      571,
      506,
      492,
      387,
      303,
      226,
      119,
      0
    ],
    "swim:geom": "approach",
    "swim:timestamps": [
      1775136778,
      1775136801,
      1775136810,
      1775136852,
      1775136886,
      1775136906,
      1775136946,
      1775136987,
      1775136991,
      1775137044,
      1775137060,
      1775137094,
      1775137138,
      1775137159,
      1775137181,
      1775137228,
      1775137231,
      1775137252,
      1775137282,
      1775137312,
      1775137331,
      1775137365,
      1775137398,
      1775137418,
      1775137466,
      1775137497,
      1775137508,
      1775137539,
      1775137543,
      1775137574,
      1775137598,
      1775137623,
      1775137654,
      1775137684
    ],
    "wof:geomhash": "bd7d6c4d6754cb5513e103b02a463bba",
    "wof:id": 2015186245,
    "wof:repo": "sfomuseum-data-flights-2026-04"
  },
  "bbox": [
    -122.35832,
    37.49126,
    -121.25085,
    37.61395
  ],
  "geometry": {"coordinates":[[-121.25085,37.59395],[-121.28981,37.58889],[-121.30427,37.5872],[-121.37524,37.57936],[-121.43353,37.57297],[-121.46694,37.56909],[-121.53275,37.56101],[-121.5988,37.55358],[-121.60572,37.55279],[-121.69162,37.53454],[-121.71612,37.52847],[-121.77023,37.51547],[-121.83637,37.49959],[-121.86436,37.49291],[-121.89362,37.49126],[-121.95702,37.49567],[-121.9611,37.49593],[-121.98931,37.49753],[-122.02824,37.49954],[-122.06897,37.50187],[-122.09421,37.50374],[-122.13298,37.51918],[-122.16783,37.53391],[-122.18425,37.54077],[-122.21805,37.55493],[-122.23877,37.56369],[-122.24584,37.56671],[-122.26616,37.57537],[-122.26857,37.57636],[-122.28863,37.58482],[-122.30408,37.59129],[-122.31923,37.5976],[-122.33939,37.60611],[-122.35832,37.61395]],"type":"LineString"}
}
