{
  "id": 2031152209,
  "type": "Feature",
  "properties": {
    "geom:area": 0,
    "geom:bbox": "-122.546980,36.925840,-122.393910,37.660650",
    "geom:latitude": 37.336724777687564,
    "geom:longitude": -122.49941733440598,
    "src:alt_label": "swim-takeoff",
    "src:geom": "swim",
    "swim:elevations": [
      229,
      504,
      770,
      826,
      1424,
      1664,
      1984,
      2485,
      2977,
      3155,
      3448,
      3687,
      4285,
      4620,
      4819,
      5403,
      5510,
      5983,
      6374,
      6659,
      6944,
      7067
    ],
    "swim:geom": "takeoff",
    "swim:timestamps": [
      1777534183,
      1777534212,
      1777534255,
      1777534260,
      1777534317,
      1777534336,
      1777534360,
      1777534396,
      1777534435,
      1777534452,
      1777534487,
      1777534508,
      1777534558,
      1777534586,
      1777534601,
      1777534645,
      1777534654,
      1777534702,
      1777534735,
      1777534760,
      1777534791,
      1777534803
    ],
    "wof:geomhash": "500158faea80b491806e355ce834b7fd",
    "wof:id": 2031152209,
    "wof:repo": "sfomuseum-data-flights-2026-04"
  },
  "bbox": [
    -122.54698,
    36.92584,
    -122.39391,
    37.66065
  ],
  "geometry": {"coordinates":[[-122.39391,37.62687],[-122.41956,37.63837],[-122.46554,37.65744],[-122.47289,37.66065],[-122.54533,37.64816],[-122.54698,37.62446],[-122.53117,37.5967],[-122.50603,37.55516],[-122.48322,37.50662],[-122.47795,37.48422],[-122.48569,37.43204],[-122.49165,37.39976],[-122.50638,37.32007],[-122.51459,37.27515],[-122.51925,37.24953],[-122.53309,37.17469],[-122.53597,37.15909],[-122.54571,37.07456],[-122.51072,37.02471],[-122.47421,36.98788],[-122.4311,36.94368],[-122.41363,36.92584]],"type":"LineString"}
}
