{
  "id": 2015355515,
  "type": "Feature",
  "properties": {
    "geom:area": 0,
    "geom:bbox": "-122.380000,29.930000,-95.340000,37.700000",
    "geom:latitude": 34.41929529867961,
    "geom:longitude": -108.73579882743157,
    "src:alt_label": "swim-route",
    "src:geom": "swim",
    "swim:geom": "route",
    "wof:geomhash": "9500520c016932ca394bbde2bd7e80ec",
    "wof:id": 2015355515,
    "wof:repo": "sfomuseum-data-flights-2026-04"
  },
  "bbox": [
    -122.38,
    29.93,
    -95.34,
    37.7
  ],
  "geometry": {"coordinates":[[-95.34,29.98],[-95.46,29.97],[-95.54,29.96],[-95.6,29.95],[-95.63,29.95],[-95.79,29.93],[-95.81,29.94],[-96,29.98],[-96.04,29.98],[-96.15,30.01],[-96.19,30.01],[-96.4,30.06],[-96.53,30.09],[-96.6,30.1],[-96.63,30.11],[-96.8,30.14],[-96.88,30.16],[-97.05,30.19],[-97.15,30.21],[-98.03,30.39],[-98.34,30.45],[-98.41,30.49],[-99.69,31.3],[-100,31.5],[-101.77,32.37],[-102.11,32.54],[-102.4,32.69],[-103.03,33.01],[-103.38,33.18],[-103.5,33.25],[-103.77,33.39],[-104.17,33.6],[-105.19,34.12],[-105.68,34.37],[-106.64,34.55],[-107.55,34.72],[-107.57,34.72],[-108.45,34.87],[-108.68,34.91],[-110.06,35.14],[-111.77,35.39],[-111.99,35.42],[-113.54,35.62],[-114.25,35.82],[-114.86,36],[-115.52,36.28],[-115.73,36.37],[-116.75,36.8],[-117.24,37.25],[-117.52,37.49],[-119.05,37.61],[-119.8,37.66],[-119.98,37.67],[-120.04,37.68],[-120.26,37.69],[-120.28,37.69],[-120.38,37.7],[-120.4,37.7],[-120.75,37.66],[-120.78,37.66],[-120.83,37.65],[-120.96,37.63],[-121,37.63],[-121.08,37.62],[-121.18,37.6],[-121.26,37.59],[-121.39,37.58],[-121.41,37.58],[-121.6,37.55],[-121.61,37.55],[-121.62,37.55],[-121.7,37.53],[-121.8,37.51],[-121.83,37.5],[-121.88,37.49],[-122.08,37.54],[-122.14,37.56],[-122.18,37.57],[-122.28,37.59],[-122.33,37.61],[-122.36,37.61],[-122.38,37.62]],"type":"LineString"}
}
