{
  "id": 2015225011,
  "type": "Feature",
  "properties": {
    "geom:area": 0,
    "geom:bbox": "-123.446820,37.427410,-122.393250,37.671850",
    "geom:latitude": 37.562433217512506,
    "geom:longitude": -122.91814842194515,
    "src:alt_label": "swim-takeoff",
    "src:geom": "swim",
    "swim:elevations": [
      183,
      244,
      912,
      1150,
      1461,
      1840,
      2496,
      2768,
      3250,
      3417,
      3571,
      4022,
      4231,
      4743,
      5432,
      5646,
      6127,
      6399,
      6798,
      7206,
      7353,
      7622
    ],
    "swim:geom": "takeoff",
    "swim:timestamps": [
      1775469265,
      1775469271,
      1775469326,
      1775469350,
      1775469374,
      1775469404,
      1775469440,
      1775469457,
      1775469494,
      1775469512,
      1775469532,
      1775469566,
      1775469578,
      1775469612,
      1775469656,
      1775469673,
      1775469709,
      1775469731,
      1775469764,
      1775469800,
      1775469814,
      1775469844
    ],
    "wof:geomhash": "657593c45c6fdb65032fcf76c2c00891",
    "wof:id": 2015225011,
    "wof:repo": "sfomuseum-data-flights-2026-04"
  },
  "bbox": [
    -123.44682,
    37.42741,
    -122.39325,
    37.67185
  ],
  "geometry": {"coordinates":[[-122.39325,37.6265],[-122.3985,37.62878],[-122.44941,37.65085],[-122.47641,37.66277],[-122.50867,37.67185],[-122.55328,37.66333],[-122.60664,37.6484],[-122.6319,37.64192],[-122.69185,37.62616],[-122.72554,37.61744],[-122.76385,37.60758],[-122.83158,37.58994],[-122.85849,37.58292],[-122.92833,37.56447],[-123.02543,37.53902],[-123.06061,37.5297],[-123.14028,37.50843],[-123.19194,37.4949],[-123.26734,37.47511],[-123.35205,37.45273],[-123.38475,37.44399],[-123.44682,37.42741]],"type":"LineString"}
}
