{
  "id": 2015325331,
  "type": "Feature",
  "properties": {
    "geom:area": 0,
    "geom:bbox": "-122.544120,36.729460,-121.471460,37.668360",
    "geom:latitude": 37.23211106415262,
    "geom:longitude": -122.06360929616801,
    "src:alt_label": "swim-takeoff",
    "src:geom": "swim",
    "swim:elevations": [
      152,
      791,
      1156,
      1249,
      1407,
      1816,
      2278,
      2797,
      3005,
      3332,
      3653,
      3909,
      4235,
      4671,
      4828,
      5429,
      5813,
      6339,
      6471,
      6896,
      7503,
      7683,
      8151,
      8300,
      8549,
      8747,
      8814,
      9207,
      9348,
      9423,
      9563,
      9658,
      9726,
      9960
    ],
    "swim:geom": "takeoff",
    "swim:timestamps": [
      1776553321,
      1776553373,
      1776553405,
      1776553417,
      1776553428,
      1776553464,
      1776553494,
      1776553528,
      1776553541,
      1776553563,
      1776553590,
      1776553617,
      1776553644,
      1776553675,
      1776553685,
      1776553727,
      1776553757,
      1776553796,
      1776553805,
      1776553840,
      1776553877,
      1776553891,
      1776553939,
      1776553952,
      1776553977,
      1776554003,
      1776554012,
      1776554056,
      1776554073,
      1776554125,
      1776554152,
      1776554165,
      1776554178,
      1776554205
    ],
    "wof:geomhash": "a03acbf02acfbd39439ca4fa7829af35",
    "wof:id": 2015325331,
    "wof:repo": "sfomuseum-data-flights-2026-04"
  },
  "bbox": [
    -122.54412,
    36.72946,
    -121.47146,
    37.66836
  ],
  "geometry": {"coordinates":[[-122.39375,37.62631],[-122.44227,37.64766],[-122.47488,37.66195],[-122.49003,37.66747],[-122.50528,37.66836],[-122.54412,37.64417],[-122.53791,37.61113],[-122.506,37.57729],[-122.49247,37.56462],[-122.46634,37.54494],[-122.43223,37.51916],[-122.39497,37.49001],[-122.35563,37.45928],[-122.31045,37.42404],[-122.29431,37.41143],[-122.2296,37.36052],[-122.18371,37.3248],[-122.12114,37.27578],[-122.10711,37.26414],[-122.05227,37.21761],[-121.99589,37.17018],[-121.97523,37.15293],[-121.90269,37.09194],[-121.88244,37.07507],[-121.8451,37.04387],[-121.80522,37.01032],[-121.79113,36.99838],[-121.72093,36.94021],[-121.69337,36.91728],[-121.60978,36.84624],[-121.56208,36.80598],[-121.53971,36.78753],[-121.51715,36.76833],[-121.47146,36.72946]],"type":"LineString"}
}
