{
  "id": 2015241301,
  "type": "Feature",
  "properties": {
    "geom:area": 0,
    "geom:bbox": "-122.533333,37.633333,-90.945556,47.179167",
    "geom:latitude": 43.008291862926264,
    "geom:longitude": -107.07606873056514,
    "src:alt_label": "swim-path",
    "src:geom": "swim",
    "swim:altitudes": [
      "007",
      "007",
      "018",
      "018",
      "046",
      "046",
      "076",
      "076",
      "076",
      "076",
      "109",
      "109",
      "109",
      "144",
      "144",
      "144",
      "179",
      "179",
      "179",
      "179",
      "179",
      "209",
      "209",
      "209",
      "279",
      "279",
      "279",
      "288",
      "288",
      "288",
      "323",
      "323",
      "323",
      "330C",
      "330C",
      "330C",
      "330C",
      "330C",
      "330C",
      "330C",
      "330C",
      "330C",
      "330C",
      "330C",
      "330C",
      "330C",
      "330C",
      "330C",
      "330C",
      "330C",
      "330C",
      "330C",
      "330C",
      "330C",
      "330C",
      "330C",
      "330C",
      "330C",
      "330C",
      "330C",
      "330C",
      "330C",
      "330C",
      "330C",
      "330C",
      "330C",
      "330C",
      "330C",
      "330C",
      "330C",
      "330C",
      "330C",
      "330C",
      "330C",
      "330C",
      "330C",
      "330C",
      "330C",
      "330C",
      "330C",
      "330C",
      "330C",
      "330C",
      "330C",
      "330C",
      "330C",
      "330C",
      "330C",
      "330C",
      "330C",
      "330C",
      "330C",
      "330C",
      "330C",
      "330C",
      "330C",
      "330C",
      "330C",
      "330C",
      "330C",
      "330C",
      "330C",
      "330C",
      "330C",
      "330C",
      "330C",
      "330C",
      "330C",
      "330C",
      "330C",
      "330C",
      "330C",
      "330C",
      "330C",
      "330C",
      "330C",
      "330C",
      "330C",
      "330C",
      "330C",
      "330C",
      "330C",
      "330C",
      "330C",
      "330C",
      "330C",
      "330C",
      "330C",
      "330C",
      "330C",
      "330C",
      "330C",
      "330C",
      "330C",
      "330C",
      "330C",
      "330C",
      "330C",
      "330C",
      "330C",
      "330C",
      "330C",
      "330C",
      "330C",
      "330C",
      "330C",
      "330C",
      "330C",
      "330C",
      "330C",
      "330C",
      "330C",
      "330C",
      "330C",
      "330C",
      "330C",
      "330C",
      "330C",
      "330C",
      "330C",
      "330C",
      "330C",
      "330C",
      "330C",
      "330C",
      "330C",
      "330C",
      "330C",
      "330C",
      "330C",
      "330C",
      "330C",
      "330C",
      "330C",
      "330C",
      "330C",
      "330C",
      "330C",
      "330C",
      "330C",
      "330C",
      "330C",
      "330C",
      "330C",
      "330C",
      "330C",
      "330C",
      "330C",
      "330C",
      "330C",
      "330C",
      "330C",
      "330C",
      "330C",
      "330C",
      "330C",
      "330C",
      "330C",
      "330C",
      "330C",
      "330C",
      "330C",
      "330C",
      "330C",
      "330C",
      "330C",
      "330C",
      "330C",
      "330C",
      "330C",
      "330C",
      "330C",
      "330C",
      "330C",
      "330C",
      "330C",
      "330C",
      "330C",
      "330C",
      "330C",
      "330C",
      "330C",
      "330C",
      "330C",
      "330C",
      "330C",
      "330C",
      "330C",
      "330C",
      "330C",
      "330C",
      "330C",
      "330C",
      "330C",
      "330C",
      "330C",
      "330C",
      "330C",
      "330C",
      "330C",
      "330C",
      "330C",
      "330C",
      "330C",
      "330C",
      "330C",
      "330C",
      "330C",
      "330C",
      "330C",
      "330C",
      "330C",
      "330C",
      "330C",
      "330C",
      "330C",
      "330C",
      "330C",
      "330C",
      "330C",
      "330C",
      "330C",
      "330C",
      "330C",
      "330C",
      "330C",
      "330C",
      "330C",
      "330C",
      "330C",
      "330C",
      "330C",
      "330C",
      "330C",
      "330C",
      "330C",
      "339",
      "346",
      "346",
      "346",
      "350C",
      "350C",
      "350C",
      "350C",
      "350C",
      "350C",
      "350C",
      "350C",
      "350C",
      "350C",
      "350C",
      "350C",
      "350C",
      "350C",
      "350C",
      "350C",
      "350C",
      "350C",
      "350C",
      "350C",
      "350C",
      "350C",
      "350C",
      "350C",
      "350C",
      "350C",
      "350C",
      "350C",
      "350C",
      "350C",
      "350C",
      "350C",
      "350C",
      "350C",
      "350C",
      "350C",
      "350C",
      "350C",
      "350C",
      "350C"
    ],
    "swim:geom": "path",
    "swim:speeds": [
      176,
      176,
      177,
      177,
      264,
      264,
      286,
      286,
      286,
      286,
      352,
      352,
      352,
      403,
      403,
      403,
      430,
      430,
      430,
      430,
      430,
      451,
      451,
      451,
      510,
      510,
      510,
      521,
      521,
      521,
      529,
      529,
      529,
      527,
      527,
      519,
      519,
      518,
      518,
      518,
      516,
      516,
      516,
      517,
      517,
      517,
      520,
      520,
      519,
      519,
      519,
      520,
      520,
      519,
      519,
      519,
      519,
      519,
      519,
      519,
      517,
      517,
      517,
      517,
      518,
      518,
      518,
      518,
      520,
      520,
      520,
      520,
      520,
      520,
      520,
      520,
      520,
      520,
      520,
      520,
      520,
      522,
      522,
      522,
      523,
      523,
      523,
      522,
      522,
      522,
      523,
      523,
      523,
      523,
      523,
      533,
      533,
      533,
      534,
      534,
      534,
      534,
      535,
      535,
      535,
      535,
      535,
      535,
      535,
      535,
      535,
      535,
      535,
      534,
      534,
      534,
      534,
      535,
      535,
      535,
      535,
      535,
      533,
      533,
      533,
      533,
      533,
      536,
      536,
      536,
      534,
      534,
      535,
      535,
      536,
      537,
      537,
      537,
      539,
      539,
      540,
      540,
      540,
      540,
      540,
      541,
      541,
      541,
      542,
      542,
      543,
      543,
      543,
      543,
      543,
      543,
      543,
      543,
      543,
      543,
      543,
      543,
      543,
      543,
      543,
      543,
      543,
      543,
      542,
      543,
      543,
      543,
      541,
      541,
      541,
      541,
      543,
      541,
      541,
      541,
      541,
      541,
      541,
      542,
      542,
      542,
      542,
      541,
      541,
      541,
      541,
      535,
      535,
      535,
      535,
      536,
      536,
      536,
      536,
      536,
      536,
      535,
      535,
      535,
      531,
      531,
      531,
      531,
      531,
      530,
      530,
      532,
      532,
      533,
      533,
      533,
      533,
      533,
      533,
      534,
      534,
      534,
      534,
      534,
      536,
      537,
      537,
      537,
      537,
      537,
      537,
      537,
      537,
      536,
      536,
      536,
      536,
      536,
      532,
      532,
      532,
      532,
      532,
      530,
      530,
      530,
      530,
      534,
      534,
      534,
      534,
      534,
      536,
      536,
      536,
      536,
      538,
      538,
      538,
      541,
      541,
      541,
      541,
      542,
      542,
      542,
      542,
      544,
      544,
      544,
      544,
      544,
      545,
      545,
      545,
      545,
      548,
      546,
      546,
      546,
      555,
      555,
      555,
      555,
      555,
      555,
      555,
      545,
      545,
      545,
      542,
      542,
      542,
      542,
      540,
      540,
      540,
      545,
      545,
      545,
      545,
      545,
      545,
      545,
      544,
      544,
      544,
      544,
      543,
      543,
      543,
      543,
      542,
      546,
      546,
      546,
      546,
      552,
      552,
      552
    ],
    "swim:timestamps": [
      1775681725,
      1775681725,
      1775681754,
      1775681754,
      1775681863,
      1775681863,
      1775681935,
      1775681935,
      1775681935,
      1775681935,
      1775682055,
      1775682055,
      1775682055,
      1775682175,
      1775682175,
      1775682175,
      1775682295,
      1775682295,
      1775682295,
      1775682295,
      1775682295,
      1775682415,
      1775682415,
      1775682415,
      1775682776,
      1775682776,
      1775682776,
      1775682836,
      1775682836,
      1775682836,
      1775683016,
      1775683016,
      1775683016,
      1775683059,
      1775683059,
      1775683136,
      1775683136,
      1775683196,
      1775683196,
      1775683196,
      1775683377,
      1775683377,
      1775683377,
      1775683437,
      1775683437,
      1775683437,
      1775683600,
      1775683600,
      1775683617,
      1775683677,
      1775683677,
      1775683780,
      1775683780,
      1775683797,
      1775683797,
      1775683857,
      1775683857,
      1775683857,
      1775683857,
      1775683917,
      1775684037,
      1775684037,
      1775684037,
      1775684037,
      1775684141,
      1775684141,
      1775684141,
      1775684141,
      1775684321,
      1775684321,
      1775684338,
      1775684621,
      1775684621,
      1775684621,
      1775684681,
      1775684681,
      1775684741,
      1775684801,
      1775684801,
      1775684801,
      1775684801,
      1775684982,
      1775684982,
      1775684982,
      1775685102,
      1775685102,
      1775685102,
      1775685282,
      1775685282,
      1775685282,
      1775685342,
      1775685342,
      1775685402,
      1775685402,
      1775685402,
      1775685943,
      1775685943,
      1775685943,
      1775686003,
      1775686003,
      1775686003,
      1775686003,
      1775686123,
      1775686123,
      1775686123,
      1775686123,
      1775686123,
      1775686303,
      1775686303,
      1775686364,
      1775686364,
      1775686364,
      1775686364,
      1775686484,
      1775686484,
      1775686484,
      1775686484,
      1775686604,
      1775686604,
      1775686604,
      1775686604,
      1775686604,
      1775686844,
      1775686844,
      1775686844,
      1775686844,
      1775686844,
      1775687008,
      1775687008,
      1775687008,
      1775687024,
      1775687024,
      1775687145,
      1775687145,
      1775687188,
      1775687205,
      1775687205,
      1775687205,
      1775687248,
      1775687248,
      1775687308,
      1775687308,
      1775687325,
      1775687325,
      1775687325,
      1775687368,
      1775687385,
      1775687385,
      1775687445,
      1775687445,
      1775687488,
      1775687488,
      1775687505,
      1775687505,
      1775687609,
      1775687669,
      1775687669,
      1775687685,
      1775687745,
      1775687745,
      1775687745,
      1775687745,
      1775687789,
      1775687805,
      1775687849,
      1775687849,
      1775687849,
      1775687849,
      1775687909,
      1775687926,
      1775687926,
      1775687986,
      1775688029,
      1775688029,
      1775688029,
      1775688029,
      1775688046,
      1775688089,
      1775688089,
      1775688089,
      1775688089,
      1775688149,
      1775688149,
      1775688166,
      1775688166,
      1775688166,
      1775688166,
      1775688330,
      1775688330,
      1775688330,
      1775688330,
      1775688450,
      1775688450,
      1775688450,
      1775688450,
      1775688570,
      1775688570,
      1775688570,
      1775688630,
      1775688630,
      1775688630,
      1775688672,
      1775688672,
      1775688672,
      1775688852,
      1775688852,
      1775688852,
      1775688852,
      1775688912,
      1775688930,
      1775688930,
      1775688990,
      1775688990,
      1775689051,
      1775689051,
      1775689051,
      1775689051,
      1775689092,
      1775689092,
      1775689152,
      1775689152,
      1775689152,
      1775689171,
      1775689171,
      1775689231,
      1775689291,
      1775689291,
      1775689291,
      1775689291,
      1775689393,
      1775689393,
      1775689393,
      1775689393,
      1775689513,
      1775689513,
      1775689513,
      1775689513,
      1775689513,
      1775689633,
      1775689633,
      1775689633,
      1775689633,
      1775689633,
      1775689873,
      1775689873,
      1775689873,
      1775689873,
      1775690234,
      1775690234,
      1775690234,
      1775690234,
      1775690234,
      1775690474,
      1775690474,
      1775690474,
      1775690474,
      1775690595,
      1775690595,
      1775690595,
      1775690715,
      1775690715,
      1775690715,
      1775690715,
      1775690775,
      1775690775,
      1775690775,
      1775690775,
      1775691075,
      1775691075,
      1775691075,
      1775691075,
      1775691075,
      1775691135,
      1775691135,
      1775691135,
      1775691135,
      1775691195,
      1775691255,
      1775691255,
      1775691255,
      1775691315,
      1775691315,
      1775691315,
      1775691315,
      1775691436,
      1775691436,
      1775691436,
      1775691556,
      1775691556,
      1775691556,
      1775691616,
      1775691616,
      1775691616,
      1775691616,
      1775691676,
      1775691676,
      1775691676,
      1775691796,
      1775691796,
      1775691796,
      1775691796,
      1775691856,
      1775691856,
      1775691856,
      1775691976,
      1775691976,
      1775691976,
      1775691976,
      1775692097,
      1775692097,
      1775692097,
      1775692097,
      1775692157,
      1775692217,
      1775692217,
      1775692217,
      1775692217,
      1775692277,
      1775692277,
      1775692277
    ],
    "wof:geomhash": "0bcd8749e01bda3dd1423c079f7b3665",
    "wof:id": 2015241301,
    "wof:repo": "sfomuseum-data-flights-2026-04"
  },
  "bbox": [
    -122.53333333333333,
    37.63333333333333,
    -90.94555555555556,
    47.17916666666667
  ],
  "geometry": {"coordinates":[[-122.4,37.63333333333333],[-122.4,37.63333333333333],[-122.4213888888889,37.63861111111111],[-122.4213888888889,37.63861111111111],[-122.53333333333333,37.7],[-122.53333333333333,37.7],[-122.52388888888889,37.79194444444444],[-122.52388888888889,37.79194444444444],[-122.52388888888889,37.79194444444444],[-122.52388888888889,37.79194444444444],[-122.35083333333333,37.894999999999996],[-122.35083333333333,37.894999999999996],[-122.35083333333333,37.894999999999996],[-122.14361111111111,38.03916666666667],[-122.14361111111111,38.03916666666667],[-122.14361111111111,38.03916666666667],[-121.91916666666667,38.19277777777778],[-121.91916666666667,38.19277777777778],[-121.91916666666667,38.19277777777778],[-121.91916666666667,38.19277777777778],[-121.91916666666667,38.19277777777778],[-121.68722222222223,38.35138888888889],[-121.68722222222223,38.35138888888889],[-121.68722222222223,38.35138888888889],[-120.8863888888889,38.84722222222222],[-120.8863888888889,38.84722222222222],[-120.8863888888889,38.84722222222222],[-120.73694444444445,38.93694444444444],[-120.73694444444445,38.93694444444444],[-120.73694444444445,38.93694444444444],[-120.28361111111111,39.20583333333334],[-120.28361111111111,39.20583333333334],[-120.28361111111111,39.20583333333334],[-120.16861111111112,39.272777777777776],[-120.16861111111112,39.272777777777776],[-119.99027777777778,39.378055555555555],[-119.99027777777778,39.378055555555555],[-119.84194444444444,39.464444444444446],[-119.84194444444444,39.464444444444446],[-119.84194444444444,39.464444444444446],[-119.39277777777778,39.72361111111111],[-119.39277777777778,39.72361111111111],[-119.39277777777778,39.72361111111111],[-119.24138888888889,39.809999999999995],[-119.24138888888889,39.809999999999995],[-119.24138888888889,39.809999999999995],[-118.80166666666666,40.0325],[-118.80166666666666,40.0325],[-118.76722222222222,40.04722222222222],[-118.60138888888888,40.117777777777775],[-118.60138888888888,40.117777777777775],[-118.30611111111111,40.242222222222225],[-118.30611111111111,40.242222222222225],[-118.27055555555556,40.257222222222225],[-118.27055555555556,40.257222222222225],[-118.09944444444444,40.32222222222222],[-118.09944444444444,40.32222222222222],[-118.09944444444444,40.32222222222222],[-118.09944444444444,40.32222222222222],[-117.92222222222223,40.36222222222222],[-117.55916666666667,40.43833333333333],[-117.55916666666667,40.43833333333333],[-117.55916666666667,40.43833333333333],[-117.55916666666667,40.43833333333333],[-117.23472222222222,40.50555555555555],[-117.23472222222222,40.50555555555555],[-117.23472222222222,40.50555555555555],[-117.23472222222222,40.50555555555555],[-116.68055555555556,40.635],[-116.68055555555556,40.635],[-116.64166666666668,40.64555555555555],[-115.77972222222222,40.875277777777775],[-115.77972222222222,40.875277777777775],[-115.77972222222222,40.875277777777775],[-115.5975,40.922777777777775],[-115.5975,40.922777777777775],[-115.41833333333334,40.969166666666666],[-115.23777777777778,41.01555555555556],[-115.23777777777778,41.01555555555556],[-115.23777777777778,41.01555555555556],[-115.23777777777778,41.01555555555556],[-114.71861111111112,41.14694444444444],[-114.71861111111112,41.14694444444444],[-114.71861111111112,41.14694444444444],[-114.3536111111111,41.23777777777778],[-114.3536111111111,41.23777777777778],[-114.3536111111111,41.23777777777778],[-113.80166666666666,41.375],[-113.80166666666666,41.375],[-113.80166666666666,41.375],[-113.62277777777777,41.42805555555555],[-113.62277777777777,41.42805555555555],[-113.44361111111111,41.48111111111111],[-113.44361111111111,41.48111111111111],[-113.44361111111111,41.48111111111111],[-111.7863888888889,41.95583333333334],[-111.7863888888889,41.95583333333334],[-111.7863888888889,41.95583333333334],[-111.59722222222221,42.00805555555556],[-111.59722222222221,42.00805555555556],[-111.59722222222221,42.00805555555556],[-111.59722222222221,42.00805555555556],[-111.22111111111111,42.11083333333333],[-111.22111111111111,42.11083333333333],[-111.22111111111111,42.11083333333333],[-111.22111111111111,42.11083333333333],[-111.22111111111111,42.11083333333333],[-110.6388888888889,42.266666666666666],[-110.6388888888889,42.266666666666666],[-110.44722222222222,42.316944444444445],[-110.44722222222222,42.316944444444445],[-110.44722222222222,42.316944444444445],[-110.44722222222222,42.316944444444445],[-110.06861111111111,42.41555555555556],[-110.06861111111111,42.41555555555556],[-110.06861111111111,42.41555555555556],[-110.06861111111111,42.41555555555556],[-109.68833333333333,42.51305555555555],[-109.68833333333333,42.51305555555555],[-109.68833333333333,42.51305555555555],[-109.68833333333333,42.51305555555555],[-109.68833333333333,42.51305555555555],[-108.92305555555556,42.70416666666667],[-108.92305555555556,42.70416666666667],[-108.92305555555556,42.70416666666667],[-108.92305555555556,42.70416666666667],[-108.92305555555556,42.70416666666667],[-108.42694444444444,42.825],[-108.42694444444444,42.825],[-108.42694444444444,42.825],[-108.34861111111111,42.84388888888889],[-108.34861111111111,42.84388888888889],[-107.96333333333334,42.93527777777778],[-107.96333333333334,42.93527777777778],[-107.84527777777777,42.963055555555556],[-107.79083333333332,42.975833333333334],[-107.79083333333332,42.975833333333334],[-107.79083333333332,42.975833333333334],[-107.64972222222222,43.00888888888889],[-107.64972222222222,43.00888888888889],[-107.4413888888889,43.05694444444444],[-107.4413888888889,43.05694444444444],[-107.39916666666667,43.06666666666667],[-107.39916666666667,43.06666666666667],[-107.39916666666667,43.06666666666667],[-107.24361111111111,43.102222222222224],[-107.205,43.111111111111114],[-107.205,43.111111111111114],[-107.00833333333334,43.155833333333334],[-107.00833333333334,43.155833333333334],[-106.85222222222221,43.19083333333333],[-106.85222222222221,43.19083333333333],[-106.80083333333333,43.2025],[-106.80083333333333,43.2025],[-106.4475,43.280833333333334],[-106.24777777777778,43.324444444444445],[-106.24777777777778,43.324444444444445],[-106.20833333333334,43.33305555555556],[-106.00944444444444,43.376111111111115],[-106.00944444444444,43.376111111111115],[-106.00944444444444,43.376111111111115],[-106.00944444444444,43.376111111111115],[-105.84972222222221,43.41027777777778],[-105.81,43.41888888888889],[-105.64972222222222,43.45277777777778],[-105.64972222222222,43.45277777777778],[-105.64972222222222,43.45277777777778],[-105.64972222222222,43.45277777777778],[-105.45111111111112,43.49472222222222],[-105.41111111111111,43.503055555555555],[-105.41111111111111,43.503055555555555],[-105.20944444444444,43.54527777777778],[-105.05194444444444,43.5775],[-105.05194444444444,43.5775],[-105.05194444444444,43.5775],[-105.05194444444444,43.5775],[-105.01027777777777,43.586666666666666],[-104.85111111111111,43.618611111111115],[-104.85111111111111,43.618611111111115],[-104.85111111111111,43.618611111111115],[-104.85111111111111,43.618611111111115],[-104.6525,43.65888888888889],[-104.6525,43.65888888888889],[-104.61,43.66777777777777],[-104.61,43.66777777777777],[-104.61,43.66777777777777],[-104.61,43.66777777777777],[-104.09027777777777,43.77055555555555],[-104.09027777777777,43.77055555555555],[-104.09027777777777,43.77055555555555],[-104.09027777777777,43.77055555555555],[-103.69388888888889,43.847500000000004],[-103.69388888888889,43.847500000000004],[-103.69388888888889,43.847500000000004],[-103.69388888888889,43.847500000000004],[-103.29555555555555,43.92333333333333],[-103.29555555555555,43.92333333333333],[-103.29555555555555,43.92333333333333],[-103.09416666666667,43.96083333333333],[-103.09416666666667,43.96083333333333],[-103.09416666666667,43.96083333333333],[-102.94305555555556,43.99944444444444],[-102.94305555555556,43.99944444444444],[-102.94305555555556,43.99944444444444],[-102.38694444444445,44.18555555555555],[-102.38694444444445,44.18555555555555],[-102.38694444444445,44.18555555555555],[-102.38694444444445,44.18555555555555],[-102.2,44.24722222222222],[-102.12805555555555,44.270833333333336],[-102.12805555555555,44.270833333333336],[-101.9388888888889,44.3325],[-101.9388888888889,44.3325],[-101.74972222222222,44.39388888888889],[-101.74972222222222,44.39388888888889],[-101.74972222222222,44.39388888888889],[-101.74972222222222,44.39388888888889],[-101.63944444444445,44.42944444444444],[-101.63944444444445,44.42944444444444],[-101.44833333333334,44.490833333333335],[-101.44833333333334,44.490833333333335],[-101.44833333333334,44.490833333333335],[-101.37027777777777,44.51555555555556],[-101.37027777777777,44.51555555555556],[-101.18138888888889,44.57555555555556],[-100.98805555555556,44.63638888888889],[-100.98805555555556,44.63638888888889],[-100.98805555555556,44.63638888888889],[-100.98805555555556,44.63638888888889],[-100.6825,44.73166666666667],[-100.6825,44.73166666666667],[-100.6825,44.73166666666667],[-100.6825,44.73166666666667],[-100.29888888888888,44.849722222222226],[-100.29888888888888,44.849722222222226],[-100.29888888888888,44.849722222222226],[-100.29888888888888,44.849722222222226],[-100.29888888888888,44.849722222222226],[-99.92583333333334,44.963055555555556],[-99.92583333333334,44.963055555555556],[-99.92583333333334,44.963055555555556],[-99.92583333333334,44.963055555555556],[-99.92583333333334,44.963055555555556],[-99.13083333333333,45.19833333333333],[-99.13083333333333,45.19833333333333],[-99.13083333333333,45.19833333333333],[-99.13083333333333,45.19833333333333],[-97.95583333333333,45.52222222222222],[-97.95583333333333,45.52222222222222],[-97.95583333333333,45.52222222222222],[-97.95583333333333,45.52222222222222],[-97.95583333333333,45.52222222222222],[-97.15444444444445,45.72222222222222],[-97.15444444444445,45.72222222222222],[-97.15444444444445,45.72222222222222],[-97.15444444444445,45.72222222222222],[-96.74666666666667,45.82083333333334],[-96.74666666666667,45.82083333333334],[-96.74666666666667,45.82083333333334],[-96.34194444444444,45.91722222222222],[-96.34194444444444,45.91722222222222],[-96.34194444444444,45.91722222222222],[-96.34194444444444,45.91722222222222],[-96.13388888888889,45.965833333333336],[-96.13388888888889,45.965833333333336],[-96.13388888888889,45.965833333333336],[-96.13388888888889,45.965833333333336],[-95.09722222222221,46.202222222222225],[-95.09722222222221,46.202222222222225],[-95.09722222222221,46.202222222222225],[-95.09722222222221,46.202222222222225],[-95.09722222222221,46.202222222222225],[-94.89250000000001,46.2475],[-94.89250000000001,46.2475],[-94.89250000000001,46.2475],[-94.89250000000001,46.2475],[-94.68083333333334,46.29388888888889],[-94.4738888888889,46.33861111111111],[-94.4738888888889,46.33861111111111],[-94.4738888888889,46.33861111111111],[-94.26166666666667,46.384166666666665],[-94.26166666666667,46.384166666666665],[-94.26166666666667,46.384166666666665],[-94.26166666666667,46.384166666666665],[-93.83305555555555,46.475],[-93.83305555555555,46.475],[-93.83305555555555,46.475],[-93.41166666666668,46.56222222222222],[-93.41166666666668,46.56222222222222],[-93.41166666666668,46.56222222222222],[-93.20527777777778,46.60416666666667],[-93.20527777777778,46.60416666666667],[-93.20527777777778,46.60416666666667],[-93.20527777777778,46.60416666666667],[-92.99666666666667,46.64611111111111],[-92.99666666666667,46.64611111111111],[-92.99666666666667,46.64611111111111],[-92.57666666666667,46.72944444444445],[-92.57666666666667,46.72944444444445],[-92.57666666666667,46.72944444444445],[-92.57666666666667,46.72944444444445],[-92.36805555555554,46.77027777777778],[-92.36805555555554,46.77027777777778],[-92.36805555555554,46.77027777777778],[-91.95722222222223,46.87722222222222],[-91.95722222222223,46.87722222222222],[-91.95722222222223,46.87722222222222],[-91.95722222222223,46.87722222222222],[-91.55777777777777,46.99805555555556],[-91.55777777777777,46.99805555555556],[-91.55777777777777,46.99805555555556],[-91.55777777777777,46.99805555555556],[-91.3561111111111,47.05833333333333],[-91.1538888888889,47.11833333333333],[-91.1538888888889,47.11833333333333],[-91.1538888888889,47.11833333333333],[-91.1538888888889,47.11833333333333],[-90.94555555555556,47.17916666666667],[-90.94555555555556,47.17916666666667],[-90.94555555555556,47.17916666666667]],"type":"LineString"}
}
