{
  "id": 2015342765,
  "type": "Feature",
  "properties": {
    "geom:area": 0,
    "geom:bbox": "-122.380000,37.530000,-77.460000,42.500000",
    "geom:latitude": 41.14408652110262,
    "geom:longitude": -100.01845154616954,
    "src:alt_label": "swim-route",
    "src:geom": "swim",
    "swim:geom": "route",
    "wof:geomhash": "ed7075c827cb175d661045988ceebcbd",
    "wof:id": 2015342765,
    "wof:repo": "sfomuseum-data-flights-2026-04"
  },
  "bbox": [
    -122.38,
    37.53,
    -77.46,
    42.5
  ],
  "geometry": {"coordinates":[[-122.38,37.62],[-122.36,37.61],[-122.34,37.61],[-122.34,37.6],[-122.24,37.57],[-122.18,37.54],[-122.15,37.53],[-122.15,37.53],[-122.12,37.56],[-122.1,37.58],[-122.09,37.59],[-122.03,37.63],[-121.96,37.69],[-121.9,37.75],[-121.83,37.82],[-121.77,37.89],[-121.76,37.91],[-121.72,37.96],[-121.6,38.09],[-121.6,38.09],[-121.5,38.21],[-121.48,38.23],[-121.4,38.32],[-121.39,38.34],[-121.38,38.34],[-121.31,38.39],[-121.06,38.54],[-120.99,38.59],[-120.97,38.59],[-120.89,38.65],[-120.8,38.7],[-120.56,38.85],[-120.45,38.91],[-120.4,38.92],[-120.26,38.95],[-119.97,39],[-119.93,39.02],[-119.8,39.2],[-117.61,40.06],[-117.1,40.26],[-114.46,41.2],[-114.35,41.24],[-113.84,41.36],[-113.3,41.46],[-112.76,41.56],[-110.88,41.87],[-110.49,41.92],[-108.29,42],[-107.4,42.12],[-107.12,42.16],[-104.66,42.43],[-104,42.5],[-103.65,42.49],[-103.51,42.49],[-103.31,42.48],[-102.93,42.49],[-102.29,42.48],[-102.13,42.48],[-99.81,42.44],[-99.37,42.43],[-97.95,42.38],[-96.3,42.29],[-95.4,42.24],[-94.5,42.17],[-93.9,42.13],[-93.61,42.1],[-93.3,42.08],[-92.09,41.97],[-90.88,41.85],[-88.79,41.61],[-88.32,41.55],[-87.79,41.43],[-87,41.26],[-86.58,41.16],[-86.38,41.11],[-85.77,40.97],[-84.69,40.7],[-84.18,40.57],[-83.17,40.31],[-83.17,40.31],[-82.59,40.15],[-81.58,39.94],[-80.85,39.78],[-80.11,39.61],[-79.88,39.56],[-79.86,39.56],[-79.53,39.5],[-79.49,39.49],[-79.41,39.48],[-79.33,39.46],[-79.28,39.45],[-79.18,39.43],[-79.12,39.42],[-79.02,39.4],[-78.93,39.39],[-78.91,39.39],[-78.81,39.37],[-78.6,39.33],[-78.57,39.32],[-78.37,39.29],[-78.3,39.25],[-78.24,39.22],[-78.19,39.19],[-78.14,39.17],[-78.06,39.13],[-78.01,39.1],[-77.94,39.06],[-77.87,39.02],[-77.82,39],[-77.76,38.97],[-77.69,38.96],[-77.62,38.95],[-77.58,39],[-77.57,39.01],[-77.57,39.11],[-77.57,39.15],[-77.57,39.16],[-77.58,39.23],[-77.58,39.24],[-77.54,39.15],[-77.51,39.07],[-77.48,38.99],[-77.46,38.95]],"type":"LineString"}
}
