{
  "id": 2015243825,
  "type": "Feature",
  "properties": {
    "geom:area": 0,
    "geom:bbox": "-121.689722,33.942500,-118.446111,36.483333",
    "geom:latitude": 35.033523931604975,
    "geom:longitude": -120.16011835924245,
    "src:alt_label": "swim-path",
    "src:geom": "swim",
    "swim:altitudes": [
      "013",
      "030",
      "030",
      "188",
      "213",
      "235",
      "235",
      "255",
      "270",
      "320C",
      "320C",
      "273",
      "238",
      "219"
    ],
    "swim:geom": "path",
    "swim:speeds": [
      161,
      215,
      215,
      387,
      404,
      422,
      422,
      434,
      450,
      454,
      435,
      408,
      385,
      374
    ],
    "swim:timestamps": [
      1775778553,
      1775778613,
      1775778613,
      1775778974,
      1775779034,
      1775779094,
      1775779094,
      1775779154,
      1775779214,
      1775779755,
      1775780055,
      1775780420,
      1775780541,
      1775780601
    ],
    "wof:geomhash": "87957c413955e50e5e2b09a35f1a244c",
    "wof:id": 2015243825,
    "wof:repo": "sfomuseum-data-flights-2026-04"
  },
  "bbox": [
    -121.68972222222223,
    33.942499999999995,
    -118.44611111111111,
    36.483333333333334
  ],
  "geometry": {"coordinates":[[-118.44611111111111,33.94583333333333],[-118.51305555555555,33.942499999999995],[-118.51305555555555,33.942499999999995],[-119.09055555555555,34.005833333333335],[-119.18027777777779,34.08861111111111],[-119.27444444444444,34.17722222222222],[-119.27444444444444,34.17722222222222],[-119.3711111111111,34.26722222222222],[-119.47083333333333,34.36],[-120.40222222222222,35.21277777777778],[-120.91000000000001,35.66722222222222],[-121.47722222222222,36.212500000000006],[-121.61999999999999,36.394999999999996],[-121.68972222222223,36.483333333333334]],"type":"LineString"}
}
