{
  "id": 2015254759,
  "type": "Feature",
  "properties": {
    "geom:area": 0,
    "geom:bbox": "-122.407130,37.637310,-121.266500,38.161870",
    "geom:latitude": 37.99059289175729,
    "geom:longitude": -121.94467245488947,
    "src:alt_label": "swim-takeoff",
    "src:geom": "swim",
    "swim:elevations": [
      431,
      683,
      818,
      1026,
      1457,
      1795,
      2349,
      2847,
      3223,
      3443,
      3786,
      4204,
      4674,
      5069,
      5216,
      5522,
      6052,
      6408,
      6723,
      6955,
      7088,
      7252,
      7392,
      7440,
      7529,
      7609
    ],
    "swim:geom": "takeoff",
    "swim:timestamps": [
      1775887074,
      1775887103,
      1775887124,
      1775887143,
      1775887172,
      1775887196,
      1775887226,
      1775887256,
      1775887283,
      1775887312,
      1775887339,
      1775887368,
      1775887405,
      1775887435,
      1775887447,
      1775887474,
      1775887523,
      1775887557,
      1775887583,
      1775887611,
      1775887633,
      1775887666,
      1775887705,
      1775887727,
      1775887758,
      1775887779
    ],
    "wof:geomhash": "d32032518b7b61b2e94ac3a57e471c53",
    "wof:id": 2015254759,
    "wof:repo": "sfomuseum-data-flights-2026-04"
  },
  "bbox": [
    -122.40713,
    37.63731,
    -121.2665,
    38.16187
  ],
  "geometry": {"coordinates":[[-122.40713,37.63731],[-122.401,37.66268],[-122.38229,37.67897],[-122.36311,37.69638],[-122.33928,37.72832],[-122.34467,37.75964],[-122.36348,37.79733],[-122.3816,37.83544],[-122.38554,37.87313],[-122.37754,37.91689],[-122.33853,37.94822],[-122.27689,37.96203],[-122.19834,37.97802],[-122.13361,37.99125],[-122.1067,37.99664],[-122.04587,38.00895],[-121.93166,38.03166],[-121.85162,38.04753],[-121.78949,38.05976],[-121.72073,38.07339],[-121.66698,38.08392],[-121.58225,38.10057],[-121.47734,38.12105],[-121.41706,38.13277],[-121.32808,38.15],[-121.2665,38.16187]],"type":"LineString"}
}
