{
  "id": 2031099533,
  "type": "Feature",
  "properties": {
    "geom:area": 0,
    "geom:bbox": "-122.350410,37.436430,-121.247740,37.610670",
    "geom:latitude": 37.52712247983579,
    "geom:longitude": -121.80683795069729,
    "src:alt_label": "swim-approach",
    "src:geom": "swim",
    "swim:elevations": [
      4689,
      4429,
      4203,
      3966,
      3791,
      3634,
      3417,
      3161,
      3042,
      2843,
      2735,
      2496,
      2437,
      2347,
      2135,
      2134,
      2134,
      2076,
      1914,
      1858,
      1734,
      1515,
      1404,
      1347,
      1156,
      1070,
      851,
      802,
      728,
      586,
      563,
      495,
      351,
      296,
      120,
      48
    ],
    "swim:geom": "approach",
    "swim:timestamps": [
      1777056745,
      1777056769,
      1777056792,
      1777056826,
      1777056863,
      1777056893,
      1777056918,
      1777056955,
      1777056983,
      1777057015,
      1777057034,
      1777057080,
      1777057105,
      1777057126,
      1777057165,
      1777057188,
      1777057212,
      1777057250,
      1777057283,
      1777057299,
      1777057343,
      1777057374,
      1777057396,
      1777057420,
      1777057461,
      1777057480,
      1777057528,
      1777057538,
      1777057556,
      1777057588,
      1777057592,
      1777057610,
      1777057645,
      1777057661,
      1777057704,
      1777057726
    ],
    "wof:geomhash": "77da897baaed29fb37e67df4df0e7cf1",
    "wof:id": 2031099533,
    "wof:repo": "sfomuseum-data-flights-2026-04"
  },
  "bbox": [
    -122.35041,
    37.43643,
    -121.24774,
    37.61067
  ],
  "geometry": {"coordinates":[[-121.24774,37.59481],[-121.29808,37.58825],[-121.34512,37.58321],[-121.41119,37.57596],[-121.47726,37.56833],[-121.52682,37.56225],[-121.56531,37.55747],[-121.61806,37.55138],[-121.6543,37.54369],[-121.69656,37.53375],[-121.72053,37.52784],[-121.75673,37.49466],[-121.7683,37.47153],[-121.77841,37.45286],[-121.82168,37.44217],[-121.8496,37.44048],[-121.8777,37.43894],[-121.92355,37.43643],[-121.96117,37.44661],[-121.97744,37.45265],[-122.02158,37.472],[-122.05337,37.48542],[-122.07498,37.49466],[-122.09812,37.50431],[-122.1378,37.52119],[-122.15569,37.5287],[-122.20068,37.54765],[-122.21,37.55163],[-122.22594,37.55848],[-122.25204,37.56935],[-122.25447,37.57036],[-122.26761,37.57591],[-122.29338,37.58688],[-122.30459,37.59177],[-122.33513,37.60428],[-122.35041,37.61067]],"type":"LineString"}
}
