{
  "id": 2031139781,
  "type": "Feature",
  "properties": {
    "geom:area": 0,
    "geom:bbox": "-122.346000,36.718930,-121.876080,37.606550",
    "geom:latitude": 37.203949098919935,
    "geom:longitude": -122.06546357371954,
    "src:alt_label": "swim-approach",
    "src:geom": "swim",
    "swim:elevations": [
      5893,
      5679,
      5405,
      5210,
      4874,
      4305,
      4111,
      3877,
      3809,
      3261,
      3292,
      3201,
      2744,
      2551,
      2399,
      2172,
      1951,
      1901,
      1829,
      1788,
      1615,
      1343,
      1216,
      1090,
      1003,
      878,
      699,
      598,
      515,
      368,
      203,
      124,
      56
    ],
    "swim:geom": "approach",
    "swim:timestamps": [
      1777455635,
      1777455653,
      1777455680,
      1777455695,
      1777455723,
      1777455775,
      1777455794,
      1777455815,
      1777455822,
      1777455890,
      1777455908,
      1777455934,
      1777455986,
      1777456013,
      1777456035,
      1777456060,
      1777456101,
      1777456113,
      1777456158,
      1777456171,
      1777456203,
      1777456253,
      1777456286,
      1777456314,
      1777456335,
      1777456364,
      1777456404,
      1777456428,
      1777456446,
      1777456485,
      1777456527,
      1777456550,
      1777456562
    ],
    "wof:geomhash": "e33c7fb445d8da77f63ad4d85e67e1d1",
    "wof:id": 2031139781,
    "wof:repo": "sfomuseum-data-flights-2026-04"
  },
  "bbox": [
    -122.346,
    36.71893,
    -121.87608,
    37.60655
  ],
  "geometry": {"coordinates":[[-121.87608,36.71893],[-121.8924,36.74498],[-121.90725,36.78946],[-121.91372,36.81208],[-121.92644,36.85676],[-121.94892,36.93768],[-121.9585,36.96611],[-121.97048,36.99729],[-121.97427,37.007],[-122.01136,37.10138],[-122.02025,37.12399],[-122.03148,37.15263],[-122.05267,37.20791],[-122.06382,37.23556],[-122.07287,37.25773],[-122.08262,37.28281],[-122.09837,37.32312],[-122.10252,37.33359],[-122.11863,37.37444],[-122.12298,37.38642],[-122.13233,37.41476],[-122.14671,37.45613],[-122.15626,37.48356],[-122.1639,37.5064],[-122.16962,37.52215],[-122.18926,37.53909],[-122.22359,37.55515],[-122.24359,37.56354],[-122.25903,37.56984],[-122.29015,37.58309],[-122.32072,37.59593],[-122.33746,37.60294],[-122.346,37.60655]],"type":"LineString"}
}
