{
  "id": 2031122163,
  "type": "Feature",
  "properties": {
    "geom:area": 0,
    "geom:bbox": "-122.530000,37.620000,4.760000,62.080000",
    "geom:latitude": 56.09201532102423,
    "geom:longitude": -60.118514337193496,
    "src:alt_label": "swim-route",
    "src:geom": "swim",
    "swim:geom": "route",
    "wof:geomhash": "cf454bae650e9ec69034884351bdf9ce",
    "wof:id": 2031122163,
    "wof:repo": "sfomuseum-data-flights-2026-04"
  },
  "bbox": [
    -122.53,
    37.62,
    4.76,
    62.08
  ],
  "geometry": {"coordinates":[[-122.38,37.62],[-122.5,37.67],[-122.51,37.68],[-122.52,37.68],[-122.53,37.75],[-122.53,37.76],[-122.53,37.79],[-122.53,37.8],[-122.47,37.83],[-122.46,37.83],[-122.43,37.84],[-122.36,37.89],[-122.2,38],[-122.12,38.06],[-122.04,38.11],[-121.9,38.2],[-121.88,38.22],[-121.68,38.36],[-121.68,38.36],[-121.55,38.44],[-121.55,38.44],[-121.52,38.46],[-121.43,38.51],[-121.28,38.61],[-121.27,38.61],[-121.2,38.65],[-121.13,38.69],[-121.06,38.73],[-120.87,38.85],[-120.36,39.17],[-120.19,39.27],[-119.99,39.39],[-118.64,40.2],[-118.29,40.41],[-116.72,41.3],[-115.41,42],[-114.89,42.27],[-114.49,42.48],[-113.39,43.16],[-113.37,43.17],[-111.5,44.26],[-110.74,44.69],[-110.03,45.07],[-108.62,45.81],[-108.55,45.86],[-107.82,46.31],[-107.61,46.43],[-107.56,46.47],[-107.01,46.8],[-106.02,47.37],[-105.34,47.76],[-104.25,48.36],[-103.42,48.8],[-103.17,48.93],[-103.02,49],[-103.02,49],[-102.73,49.15],[-101,50],[-100.82,50.1],[-98.55,51.31],[-96.17,52.47],[-95,53],[-90.93,54.83],[-85,57],[-83.79,57.4],[-80,58.54],[-74.45,59.92],[-74,60],[-71.46,60.44],[-67.13,61.07],[-63,61.5],[-58.65,61.48],[-58,61.47],[-57.53,61.52],[-54.59,61.75],[-50,62],[-40,62],[-36.74,62.08],[-33.46,62.08],[-30,62],[-25.66,61.25],[-20,60],[-17.03,59.51],[-15.21,59.17],[-13.44,58.8],[-10,58],[-9.5,57.89],[-5.36,56.73],[-4.06,56.31],[-3.36,56.08],[-0.88,55.21],[-0.63,55.11],[0.85,54.54],[0.95,54.5],[2.5,53.86],[2.81,53.73],[2.89,53.7],[3.24,53.54],[3.3,53.52],[3.54,53.41],[3.56,53.4],[3.75,53.24],[4.04,52.98],[4.19,52.84],[4.39,52.66],[4.43,52.62],[4.54,52.52],[4.62,52.45],[4.69,52.38],[4.76,52.31]],"type":"LineString"}
}
