{
  "id": 2015284465,
  "type": "Feature",
  "properties": {
    "geom:area": 0,
    "geom:bbox": "-122.360370,37.492680,-121.271310,37.615140",
    "geom:latitude": 37.54208543269165,
    "geom:longitude": -121.82293080265701,
    "src:alt_label": "swim-approach",
    "src:geom": "swim",
    "swim:elevations": [
      4639,
      4283,
      4025,
      3825,
      3584,
      3429,
      3344,
      3047,
      2742,
      2316,
      2172,
      2005,
      1817,
      1611,
      1548,
      1446,
      1278,
      1175,
      1078,
      859,
      735,
      577,
      432,
      314,
      205,
      139,
      0
    ],
    "swim:geom": "approach",
    "swim:timestamps": [
      1776205482,
      1776205525,
      1776205557,
      1776205583,
      1776205617,
      1776205643,
      1776205652,
      1776205697,
      1776205737,
      1776205813,
      1776205838,
      1776205867,
      1776205903,
      1776205944,
      1776205953,
      1776205974,
      1776206006,
      1776206030,
      1776206048,
      1776206095,
      1776206119,
      1776206151,
      1776206188,
      1776206218,
      1776206245,
      1776206266,
      1776206298
    ],
    "wof:geomhash": "8b9e95731f8bde86faf5041ac9ff8ab6",
    "wof:id": 2015284465,
    "wof:repo": "sfomuseum-data-flights-2026-04"
  },
  "bbox": [
    -122.36037,
    37.49268,
    -121.27131,
    37.61514
  ],
  "geometry": {"coordinates":[[-121.27131,37.59167],[-121.35485,37.58223],[-121.41555,37.57518],[-121.46206,37.56986],[-121.52415,37.56269],[-121.56768,37.55757],[-121.58277,37.55569],[-121.6574,37.54295],[-121.72068,37.52791],[-121.83194,37.50153],[-121.86656,37.4932],[-121.90932,37.49268],[-121.96377,37.49574],[-122.0221,37.49921],[-122.03436,37.49986],[-122.06356,37.50144],[-122.10491,37.50724],[-122.13237,37.51883],[-122.15206,37.52686],[-122.19963,37.54723],[-122.22368,37.55745],[-122.25307,37.5698],[-122.28098,37.58151],[-122.30232,37.59051],[-122.3218,37.59866],[-122.33656,37.60488],[-122.36037,37.61514]],"type":"LineString"}
}
