{
  "id": 2031154183,
  "type": "Feature",
  "properties": {
    "geom:area": 0,
    "geom:bbox": "-122.395850,37.622940,-121.261470,37.955380",
    "geom:latitude": 37.81270965152783,
    "geom:longitude": -121.84649042338002,
    "src:alt_label": "swim-takeoff",
    "src:geom": "swim",
    "swim:elevations": [
      183,
      333,
      729,
      1044,
      1190,
      1271,
      1383,
      1712,
      2214,
      2601,
      3220,
      3552,
      3588,
      3903,
      4173,
      4584,
      4838,
      4967,
      5258,
      5443,
      5678,
      5864,
      6087,
      6762,
      6788
    ],
    "swim:geom": "takeoff",
    "swim:timestamps": [
      1777577056,
      1777577066,
      1777577094,
      1777577124,
      1777577151,
      1777577170,
      1777577185,
      1777577207,
      1777577236,
      1777577263,
      1777577302,
      1777577367,
      1777577370,
      1777577396,
      1777577418,
      1777577455,
      1777577479,
      1777577493,
      1777577523,
      1777577544,
      1777577570,
      1777577592,
      1777577615,
      1777577696,
      1777577700
    ],
    "wof:geomhash": "771865b68c71203f8dc1142f529241b8",
    "wof:id": 2031154183,
    "wof:repo": "sfomuseum-data-flights-2026-04"
  },
  "bbox": [
    -122.39585,
    37.62294,
    -121.26147,
    37.95538
  ],
  "geometry": {"coordinates":[[-122.38481,37.62294],[-122.39209,37.62675],[-122.39585,37.64532],[-122.37146,37.6568],[-122.34298,37.66743],[-122.32125,37.67597],[-122.30151,37.6839],[-122.26926,37.69667],[-122.22879,37.71245],[-122.19,37.73067],[-122.13092,37.75198],[-122.0112,37.78075],[-122.00503,37.78218],[-121.95116,37.79497],[-121.90497,37.80588],[-121.8261,37.82449],[-121.7758,37.83625],[-121.74397,37.84372],[-121.6773,37.85927],[-121.63006,37.87026],[-121.57159,37.88388],[-121.51927,37.896],[-121.46667,37.90824],[-121.27122,37.95314],[-121.26147,37.95538]],"type":"LineString"}
}
