{
  "id": 2015356051,
  "type": "Feature",
  "properties": {
    "date:cessation_lower": "2026-04-22",
    "date:cessation_upper": "2026-04-22",
    "date:inception_lower": "2026-04-22",
    "date:inception_upper": "2026-04-22",
    "edtf:cessation": "2026-04-22T08:37:29-07:00",
    "edtf:inception": "2026-04-22T12:10:00Z",
    "flysfo:actual_timestamp": -1,
    "flysfo:airline": "UA",
    "flysfo:base_airline": "",
    "flysfo:base_flight_number": "5082",
    "flysfo:date": "2026-04-22",
    "flysfo:estimated_timestamp": 1776898200,
    "flysfo:event": "A",
    "flysfo:flight_number": "UA949",
    "flysfo:gate": "F22",
    "flysfo:journey": "LHR-SFO",
    "flysfo:scheduled_timestamp": 1776899400,
    "flysfo:timestamp": 1776899400,
    "geom:area": 0,
    "geom:bbox": "-122.370943,37.617990,-0.450443,51.470087",
    "geom:latitude": 44.5440385,
    "geom:longitude": -61.410693,
    "iata:airline": "UA",
    "iata:base_airline": "",
    "icao:aircraft": "B772",
    "icao:airline": "UAL",
    "icao:base_airline": "ACA",
    "lbl:latitude": 37.621107,
    "lbl:longitude": -122.389874,
    "sfomuseum:aircraft_id": 1159289985,
    "sfomuseum:airline_id": 1159285413,
    "sfomuseum:arrival_id": 102527513,
    "sfomuseum:base_flight_id": "20260422-A-ACA-5082",
    "sfomuseum:departure_id": 102556703,
    "sfomuseum:flight_id": "20260422-A-UAL-949",
    "sfomuseum:flight_number": [
      "UAL949",
      "UA949"
    ],
    "sfomuseum:placetype": "flight",
    "src:geom": "flysfo",
    "src:geom_alt": [
      "swim-route",
      "swim-path",
      "swim-approach"
    ],
    "swim:tail_number": "N799UA",
    "wof:belongsto": [
      1947304067,
      102527513,
      1947304451,
      102191575,
      85633793,
      102087579,
      85922583,
      554784711,
      85688637,
      1947304475,
      1947304447,
      102085387
    ],
    "wof:concordances": {
      "swim:flight_ref": "144781615",
      "swim:gufi": "KU7269141v"
    },
    "wof:country": "US",
    "wof:created": 1776960534,
    "wof:geomhash": "c7bf5337358552a3a60caed0c1e9ea63",
    "wof:hierarchy": [
      {
        "building_id": 1947304067,
        "campus_id": 102527513,
        "concourse_id": 1947304451,
        "continent_id": 102191575,
        "country_id": 85633793,
        "county_id": 102087579,
        "custom_id": 2015356051,
        "flight_id": 2015356051,
        "locality_id": 85922583,
        "postalcode_id": 554784711,
        "region_id": 85688637,
        "venue_id": 1947304475,
        "wing_id": 1947304447
      },
      {
        "building_id": 1947304067,
        "campus_id": 102527513,
        "concourse_id": 1947304451,
        "continent_id": 102191575,
        "country_id": 85633793,
        "county_id": 102085387,
        "custom_id": 2015356051,
        "flight_id": 2015356051,
        "region_id": 85688637,
        "venue_id": 1947304475,
        "wing_id": 1947304447
      }
    ],
    "wof:id": 2015356051,
    "wof:involves": [
      102556703,
      1159285413,
      1947304475,
      1159283597,
      1159289985,
      102527513
    ],
    "wof:lastmodified": 1776961095,
    "wof:name": "UA949 (LHR-SFO)",
    "wof:parent_id": 1947304475,
    "wof:placetype": "custom",
    "wof:placetype_alt": [
      "flight"
    ],
    "wof:repo": "sfomuseum-data-flights-2026-04",
    "wof:superseded_by": [],
    "wof:supersedes": []
  },
  "bbox": [
    -122.370943,
    37.61799,
    -0.450443,
    51.470087
  ],
  "geometry": {"coordinates":[[-0.450443,51.470087],[-122.370943,37.61799]],"type":"MultiPoint"}
}
