{
  "id": 2015177109,
  "type": "Feature",
  "properties": {
    "date:inception_lower": "2026-04-01",
    "date:inception_upper": "2026-04-01",
    "edtf:cessation": "",
    "edtf:inception": "2026-04-01",
    "flysfo:actual_timestamp": -1,
    "flysfo:airline": "DL",
    "flysfo:date": "2026-04-01",
    "flysfo:estimated_timestamp": 1775100840,
    "flysfo:event": "A",
    "flysfo:flight_number": "DL8883",
    "flysfo:gate": "",
    "flysfo:journey": "CPS-SFO",
    "flysfo:scheduled_timestamp": 1775094420,
    "flysfo:timestamp": 1775100840,
    "geom:area": 0,
    "geom:bbox": "-122.370943,37.617990,-90.165217,38.575556",
    "geom:latitude": 38.096773,
    "geom:longitude": -106.26808,
    "iata:airline": "DL",
    "icao:airline": "DAL",
    "lbl:latitude": 37.61799,
    "lbl:longitude": -122.370943,
    "sfomuseum:airline_id": 1159284261,
    "sfomuseum:arrival_id": 102527513,
    "sfomuseum:departure_id": 102533437,
    "sfomuseum:flight_id": "20260401-A-DAL-8883",
    "sfomuseum:flight_number": [
      "DAL8883",
      "DL8883"
    ],
    "sfomuseum:placetype": "flight",
    "src:geom": "flysfo",
    "wof:belongsto": [],
    "wof:country": "US",
    "wof:created": 1775145905,
    "wof:geomhash": "ac8251c482fd840d3852b97751cccb98",
    "wof:hierarchy": [
      {
        "custom_id": 2015177109,
        "flight_id": 2015177109
      }
    ],
    "wof:id": 2015177109,
    "wof:involves": [
      102527513,
      102533437,
      1159284261,
      -1
    ],
    "wof:lastmodified": 1775145905,
    "wof:name": "DL8883 (CPS-SFO)",
    "wof:parent_id": -1,
    "wof:placetype": "custom",
    "wof:placetype_alt": [
      "flight"
    ],
    "wof:repo": "sfomuseum-data-flights-2026-04",
    "wof:superseded_by": [],
    "wof:supersedes": []
  },
  "bbox": [
    -122.370943,
    37.61799,
    -90.165217,
    38.575556
  ],
  "geometry": {"coordinates":[[-90.165217,38.575556],[-122.370943,37.61799]],"type":"MultiPoint"}
}
