{
  "id": 2015359669,
  "type": "Feature",
  "properties": {
    "geom:area": 0,
    "geom:bbox": "-122.673889,33.516667,-117.806111,37.636111",
    "geom:latitude": 35.16672792303108,
    "geom:longitude": -120.48704798841378,
    "src:alt_label": "swim-path",
    "src:geom": "swim",
    "swim:altitudes": [
      "012",
      "012",
      "012",
      "190",
      "190",
      "190",
      "202",
      "202",
      "202",
      "202",
      "242",
      "242",
      "242",
      "242",
      "242",
      "303",
      "303",
      "303",
      "303",
      "303",
      "311",
      "311",
      "311",
      "311",
      "330C",
      "330C",
      "330C",
      "330C",
      "330C",
      "330C",
      "330C",
      "330C",
      "330C",
      "330C",
      "330C",
      "330C",
      "330C",
      "330C",
      "330C",
      "330C",
      "330C",
      "330C",
      "330C",
      "330C",
      "330C",
      "330C",
      "330C",
      "330C",
      "330C",
      "330C",
      "330C",
      "330C",
      "330C",
      "330C",
      "330C",
      "330",
      "330",
      "330",
      "330",
      "330",
      "330",
      "330",
      "330",
      "330",
      "330",
      "330",
      "330",
      "288",
      "288",
      "271",
      "271",
      "233",
      "233",
      "233",
      "233",
      "233",
      "176",
      "176",
      "156",
      "156",
      "121",
      "119",
      "119",
      "099",
      "099",
      "099",
      "086",
      "086",
      "070",
      "070",
      "050",
      "050",
      "050",
      "050",
      "050",
      "050",
      "050",
      "050",
      "050",
      "050",
      "050",
      "032",
      "032",
      "032",
      "030",
      "030",
      "030",
      "022",
      "015",
      "013",
      "013"
    ],
    "swim:geom": "path",
    "swim:speeds": [
      187,
      187,
      187,
      393,
      393,
      393,
      396,
      396,
      396,
      396,
      428,
      428,
      428,
      428,
      428,
      464,
      464,
      464,
      464,
      464,
      487,
      487,
      487,
      487,
      493,
      493,
      493,
      493,
      493,
      494,
      494,
      494,
      494,
      494,
      494,
      494,
      490,
      490,
      489,
      489,
      489,
      489,
      488,
      488,
      490,
      490,
      490,
      491,
      491,
      491,
      491,
      491,
      480,
      480,
      480,
      474,
      474,
      474,
      474,
      473,
      473,
      473,
      473,
      472,
      472,
      472,
      472,
      473,
      473,
      472,
      472,
      454,
      454,
      454,
      454,
      454,
      420,
      420,
      411,
      411,
      382,
      387,
      387,
      320,
      320,
      320,
      308,
      308,
      303,
      303,
      259,
      259,
      259,
      221,
      221,
      221,
      222,
      222,
      220,
      220,
      220,
      212,
      212,
      212,
      200,
      200,
      200,
      178,
      152,
      151,
      151
    ],
    "swim:timestamps": [
      1776888172,
      1776888172,
      1776888172,
      1776888592,
      1776888592,
      1776888592,
      1776888650,
      1776888650,
      1776888650,
      1776888650,
      1776888773,
      1776888773,
      1776888773,
      1776888773,
      1776888773,
      1776889013,
      1776889013,
      1776889013,
      1776889013,
      1776889013,
      1776889073,
      1776889073,
      1776889073,
      1776889073,
      1776889311,
      1776889311,
      1776889311,
      1776889311,
      1776889311,
      1776889373,
      1776889373,
      1776889373,
      1776889373,
      1776889431,
      1776889431,
      1776889431,
      1776889554,
      1776889554,
      1776889611,
      1776889611,
      1776889611,
      1776889611,
      1776889674,
      1776889674,
      1776889734,
      1776889734,
      1776889734,
      1776889791,
      1776889791,
      1776889791,
      1776889791,
      1776889791,
      1776889914,
      1776889914,
      1776889914,
      1776890034,
      1776890034,
      1776890034,
      1776890034,
      1776890094,
      1776890094,
      1776890094,
      1776890094,
      1776890272,
      1776890272,
      1776890272,
      1776890272,
      1776890392,
      1776890392,
      1776890452,
      1776890452,
      1776890572,
      1776890572,
      1776890572,
      1776890572,
      1776890572,
      1776890753,
      1776890753,
      1776890813,
      1776890813,
      1776890915,
      1776890933,
      1776890933,
      1776891053,
      1776891053,
      1776891053,
      1776891095,
      1776891095,
      1776891173,
      1776891173,
      1776891293,
      1776891293,
      1776891293,
      1776891395,
      1776891395,
      1776891395,
      1776891414,
      1776891414,
      1776891515,
      1776891515,
      1776891515,
      1776891635,
      1776891635,
      1776891635,
      1776891690,
      1776891690,
      1776891690,
      1776891774,
      1776891816,
      1776891834,
      1776891834
    ],
    "wof:geomhash": "145f2edc44aecc981f9d848b3f02baa7",
    "wof:id": 2015359669,
    "wof:repo": "sfomuseum-data-flights-2026-04"
  },
  "bbox": [
    -122.6738888888889,
    33.516666666666666,
    -117.80611111111111,
    37.63611111111111
  ],
  "geometry": {"coordinates":[[-122.41166666666668,37.63611111111111],[-122.41166666666668,37.63611111111111],[-122.41166666666668,37.63611111111111],[-122.6738888888889,37.34055555555556],[-122.6738888888889,37.34055555555556],[-122.6738888888889,37.34055555555556],[-122.60777777777777,37.2575],[-122.60777777777777,37.2575],[-122.60777777777777,37.2575],[-122.60777777777777,37.2575],[-122.42944444444444,37.058611111111105],[-122.42944444444444,37.058611111111105],[-122.42944444444444,37.058611111111105],[-122.42944444444444,37.058611111111105],[-122.42944444444444,37.058611111111105],[-122.0611111111111,36.65222222222222],[-122.0611111111111,36.65222222222222],[-122.0611111111111,36.65222222222222],[-122.0611111111111,36.65222222222222],[-122.0611111111111,36.65222222222222],[-121.96361111111112,36.54361111111111],[-121.96361111111112,36.54361111111111],[-121.96361111111112,36.54361111111111],[-121.96361111111112,36.54361111111111],[-121.57638888888889,36.11],[-121.57638888888889,36.11],[-121.57638888888889,36.11],[-121.57638888888889,36.11],[-121.57638888888889,36.11],[-121.47555555555556,35.99583333333334],[-121.47555555555556,35.99583333333334],[-121.47555555555556,35.99583333333334],[-121.47555555555556,35.99583333333334],[-121.38,35.8875],[-121.38,35.8875],[-121.38,35.8875],[-121.18277777777779,35.66222222222222],[-121.18277777777779,35.66222222222222],[-121.09083333333332,35.556666666666665],[-121.09083333333332,35.556666666666665],[-121.09083333333332,35.556666666666665],[-121.09083333333332,35.556666666666665],[-120.99111111111111,35.44444444444444],[-120.99111111111111,35.44444444444444],[-120.88083333333333,35.34305555555556],[-120.88083333333333,35.34305555555556],[-120.88083333333333,35.34305555555556],[-120.77361111111111,35.24277777777778],[-120.77361111111111,35.24277777777778],[-120.77361111111111,35.24277777777778],[-120.77361111111111,35.24277777777778],[-120.77361111111111,35.24277777777778],[-120.53972222222222,35.01722222222222],[-120.53972222222222,35.01722222222222],[-120.53972222222222,35.01722222222222],[-120.36333333333333,34.79972222222222],[-120.36333333333333,34.79972222222222],[-120.36333333333333,34.79972222222222],[-120.36333333333333,34.79972222222222],[-120.27638888888889,34.69138888888889],[-120.27638888888889,34.69138888888889],[-120.27638888888889,34.69138888888889],[-120.27638888888889,34.69138888888889],[-120.02472222222222,34.3775],[-120.02472222222222,34.3775],[-120.02472222222222,34.3775],[-120.02472222222222,34.3775],[-119.84972222222221,34.155833333333334],[-119.84972222222221,34.155833333333334],[-119.7475,34.05694444444444],[-119.7475,34.05694444444444],[-119.48472222222222,33.924166666666665],[-119.48472222222222,33.924166666666665],[-119.48472222222222,33.924166666666665],[-119.48472222222222,33.924166666666665],[-119.48472222222222,33.924166666666665],[-119.115,33.74194444444444],[-119.115,33.74194444444444],[-118.99722222222222,33.68388888888889],[-118.99722222222222,33.68388888888889],[-118.78333333333333,33.583333333333336],[-118.77333333333333,33.57416666666667],[-118.77333333333333,33.57416666666667],[-118.54444444444444,33.534166666666664],[-118.54444444444444,33.534166666666664],[-118.54444444444444,33.534166666666664],[-118.45,33.516666666666666],[-118.45,33.516666666666666],[-118.34416666666667,33.51861111111111],[-118.34416666666667,33.51861111111111],[-118.17722222222223,33.568333333333335],[-118.17722222222223,33.568333333333335],[-118.17722222222223,33.568333333333335],[-118.06666666666666,33.63333333333333],[-118.06666666666666,33.63333333333333],[-118.06666666666666,33.63333333333333],[-118.04222222222222,33.643055555555556],[-118.04222222222222,33.643055555555556],[-117.93333333333334,33.7],[-117.93333333333334,33.7],[-117.93333333333334,33.7],[-117.86666666666666,33.81666666666667],[-117.86666666666666,33.81666666666667],[-117.86666666666666,33.81666666666667],[-117.83333333333333,33.833333333333336],[-117.83333333333333,33.833333333333336],[-117.83333333333333,33.833333333333336],[-117.80611111111111,33.775277777777774],[-117.81666666666666,33.75],[-117.83,33.73722222222222],[-117.83,33.73722222222222]],"type":"LineString"}
}
