{
  "id": 2031144905,
  "type": "Feature",
  "properties": {
    "geom:area": 0,
    "geom:bbox": "-122.224167,37.713889,-70.803889,42.811944",
    "geom:latitude": 39.5565713808476,
    "geom:longitude": -95.70975671220516,
    "src:alt_label": "swim-path",
    "src:geom": "swim",
    "swim:altitudes": [
      "062",
      "062",
      "062",
      "062",
      "062",
      "062",
      "062",
      "086",
      "086",
      "106",
      "106",
      "106",
      "106",
      "106",
      "106",
      "106",
      "106",
      "149",
      "149",
      "149",
      "149",
      "149",
      "149",
      "201",
      "201",
      "201",
      "201",
      "201",
      "201",
      "201",
      "214",
      "214",
      "214",
      "214",
      "232",
      "232",
      "232",
      "242",
      "242",
      "242",
      "249",
      "249",
      "249",
      "249",
      "249",
      "258",
      "258",
      "258",
      "263",
      "263",
      "263",
      "263",
      "274",
      "274",
      "274",
      "274",
      "274",
      "310",
      "310",
      "310",
      "310",
      "310",
      "316",
      "316",
      "316",
      "316",
      "320",
      "320",
      "325",
      "325",
      "325",
      "325",
      "325",
      "350C",
      "350C",
      "350C",
      "350C",
      "350C",
      "350C",
      "350C",
      "350C",
      "350C",
      "350C",
      "350C",
      "350C",
      "350C",
      "350C",
      "350C",
      "350C",
      "350C",
      "350C",
      "350C",
      "350C",
      "350C",
      "350C",
      "350C",
      "350C",
      "350C",
      "350C",
      "350C",
      "350C",
      "350C",
      "350C",
      "350C",
      "350C",
      "350C",
      "350C",
      "350C",
      "350C",
      "350C",
      "350C",
      "350C",
      "350C",
      "351C",
      "351C",
      "351C",
      "351C",
      "351C",
      "351C",
      "350C",
      "350C",
      "350C",
      "350C",
      "350C",
      "350C",
      "350C",
      "350C",
      "350C",
      "350C",
      "350C",
      "350C",
      "350C",
      "350C",
      "350C",
      "350C",
      "350C",
      "350C",
      "350C",
      "350C",
      "350C",
      "350C",
      "350C",
      "350C",
      "350C",
      "350C",
      "350C",
      "350C",
      "350C",
      "350C",
      "350C",
      "350C",
      "350C",
      "350C",
      "350C",
      "350C",
      "350C",
      "350C",
      "350C",
      "350C",
      "350C",
      "350C",
      "350C",
      "350C",
      "350C",
      "350C",
      "350C",
      "350C",
      "350C",
      "350C",
      "350C",
      "350C",
      "350C",
      "350C",
      "350C",
      "350C",
      "350C",
      "350C",
      "350C",
      "350C",
      "350C",
      "350C",
      "350C",
      "350C",
      "350C",
      "350C",
      "350C",
      "350C",
      "350C",
      "350C",
      "350C",
      "350C",
      "350C",
      "350C",
      "350C",
      "350C",
      "350C",
      "350C",
      "350C",
      "350C",
      "350C",
      "350C",
      "350C",
      "350C",
      "350C",
      "350C",
      "350C",
      "350C",
      "350C",
      "350C",
      "350C",
      "350C",
      "350C",
      "350C",
      "350C",
      "350C",
      "350C",
      "350C",
      "350C",
      "350C",
      "350C",
      "350C",
      "350C",
      "350C",
      "350C",
      "350C",
      "350C",
      "350C",
      "350C",
      "350C",
      "350C",
      "350C",
      "350C",
      "350C",
      "350C",
      "350C",
      "350C",
      "350C",
      "350C",
      "350C",
      "350C",
      "350C",
      "350C",
      "350C",
      "350C",
      "350C",
      "350C",
      "350C",
      "350C",
      "350C",
      "350C",
      "350C",
      "350C",
      "350C",
      "350C",
      "350C",
      "350C",
      "350C",
      "350C",
      "350C",
      "350C",
      "350C",
      "350C",
      "350C",
      "350C",
      "350C",
      "350C",
      "350C",
      "350C",
      "350C",
      "350C",
      "350C",
      "350C",
      "350C",
      "350C",
      "350C",
      "350C",
      "350C",
      "350C",
      "350C",
      "350C",
      "350C",
      "350C",
      "351C",
      "351C",
      "351C",
      "351C",
      "351C",
      "351C",
      "350C",
      "350C",
      "350C",
      "350C",
      "350C",
      "350C",
      "350C",
      "350C",
      "350C",
      "350C",
      "350C",
      "350C",
      "350C",
      "350C",
      "350C",
      "350C",
      "350C",
      "350C",
      "350C",
      "350C",
      "350C",
      "350C",
      "350C",
      "350C",
      "350C",
      "350C",
      "350C",
      "350C",
      "350C",
      "350C",
      "350C",
      "350C",
      "350C",
      "350C",
      "350C",
      "350C",
      "350C",
      "350C",
      "350C",
      "350C",
      "350C",
      "350C",
      "350C",
      "350C",
      "350C",
      "350C",
      "350C",
      "350C",
      "350C",
      "350C",
      "350C",
      "350C",
      "350C",
      "350C",
      "350C",
      "350C",
      "350C",
      "350C",
      "350C",
      "350C",
      "350C",
      "350C",
      "350C",
      "350C",
      "350C",
      "350C",
      "350C",
      "350C",
      "350C",
      "350C",
      "350C",
      "350C",
      "350C",
      "350C",
      "350C",
      "350C",
      "350C",
      "350C",
      "350C",
      "350C",
      "350C",
      "350C",
      "350C",
      "350C",
      "350C",
      "350C",
      "350C",
      "350C",
      "350C",
      "350C",
      "350C",
      "350C",
      "350C",
      "350C",
      "350C",
      "350C",
      "350C",
      "350C",
      "350C",
      "350C",
      "350C",
      "350C",
      "350C",
      "350C",
      "350C",
      "350C",
      "350C",
      "350C",
      "350C",
      "350C",
      "350C",
      "350C",
      "350C",
      "350C",
      "350C",
      "350C",
      "350C",
      "350C",
      "350C",
      "350C",
      "350C",
      "350C",
      "350C",
      "350C",
      "350C",
      "350C",
      "350C",
      "350C",
      "350C",
      "350C",
      "350C",
      "350C",
      "350C",
      "350C",
      "350C",
      "350C",
      "350C",
      "350C",
      "350C",
      "350C",
      "350C",
      "350C",
      "350C",
      "350C",
      "350C",
      "350C",
      "350C",
      "350C",
      "350C",
      "350C",
      "350C",
      "350C",
      "350C",
      "350C",
      "350C",
      "350C",
      "350C",
      "350C",
      "350C",
      "350C",
      "350C",
      "350C",
      "350C",
      "350C",
      "350C",
      "350C",
      "350C",
      "350C",
      "350C",
      "350C",
      "350C",
      "350C",
      "350C",
      "350C",
      "350C",
      "350C",
      "350C",
      "350C",
      "350C",
      "350C",
      "350C",
      "350C",
      "350C",
      "350C",
      "350C",
      "350C",
      "350C",
      "350C",
      "350C",
      "350C",
      "350C",
      "350C",
      "350C",
      "350C",
      "350C",
      "350C",
      "350C",
      "350C",
      "351C",
      "351C",
      "351C",
      "351C",
      "351C",
      "350C",
      "350C",
      "350C",
      "350C",
      "350C",
      "350C",
      "350C",
      "350C",
      "350C",
      "350C",
      "350C",
      "350C",
      "350C",
      "350C",
      "350C",
      "350C",
      "350C",
      "350C",
      "350C",
      "350C",
      "350C",
      "350C",
      "350C",
      "350C",
      "350C",
      "350C",
      "350C",
      "350C",
      "351C",
      "351C",
      "351C",
      "350C",
      "350C",
      "350C",
      "350C",
      "350C",
      "350C",
      "350C",
      "350C",
      "350C",
      "350C",
      "350C",
      "350C",
      "350C",
      "350C",
      "350C",
      "350C",
      "350C",
      "350C",
      "350C",
      "350C",
      "350C",
      "350C",
      "350C",
      "350C",
      "350C",
      "350C",
      "350C",
      "350C",
      "350C",
      "350C",
      "350C",
      "350C",
      "350C",
      "350C",
      "350C",
      "350C",
      "350C",
      "350C",
      "350C",
      "350C",
      "350C",
      "350C",
      "350C",
      "350C",
      "350C",
      "350C",
      "350C",
      "350C",
      "350C",
      "350C",
      "350C",
      "350C",
      "350C",
      "350C",
      "350C",
      "350C",
      "350C",
      "350C",
      "350C",
      "350C",
      "350C",
      "350C",
      "350C",
      "350C",
      "350C",
      "350C",
      "350C",
      "350C",
      "350C",
      "350C",
      "350C",
      "350C",
      "350C",
      "350C",
      "350C",
      "350C",
      "350C",
      "350C",
      "350C",
      "350C",
      "350C",
      "350C",
      "350C",
      "350C",
      "350C",
      "350C",
      "350C",
      "350C",
      "350C",
      "350C",
      "350C",
      "350C",
      "350C",
      "350C",
      "350C",
      "350C",
      "350C",
      "350C",
      "350C",
      "350C",
      "350C",
      "350C",
      "350C",
      "350C",
      "350C",
      "350C",
      "350C",
      "350C",
      "350C",
      "350C",
      "350C",
      "350C",
      "350C",
      "350C",
      "350C",
      "350C",
      "350C",
      "350C",
      "350C",
      "350C",
      "350C",
      "350C",
      "350C",
      "350C",
      "350C",
      "350C",
      "350C",
      "350C",
      "350C",
      "350C",
      "350C",
      "350C",
      "350C",
      "350C",
      "350C",
      "350C",
      "350C",
      "350C",
      "350C",
      "350C",
      "350C",
      "350C",
      "350C",
      "350C",
      "350C",
      "350C",
      "350C",
      "350C",
      "350C",
      "350C",
      "350C",
      "350C",
      "350C",
      "350C",
      "350C",
      "350C",
      "350C",
      "350C",
      "350C",
      "350C",
      "350C",
      "350C",
      "350C",
      "350C",
      "350C",
      "350C",
      "350C",
      "350C",
      "305",
      "305",
      "305",
      "305",
      "278",
      "278",
      "278",
      "278",
      "241",
      "226",
      "226",
      "226",
      "214",
      "214",
      "214",
      "178",
      "178",
      "178",
      "163",
      "163",
      "163",
      "163",
      "163",
      "163",
      "159",
      "159",
      "132",
      "132",
      "120",
      "120",
      "120",
      "120",
      "118",
      "110",
      "107",
      "107",
      "100",
      "100",
      "100",
      "100",
      "100",
      "093",
      "093",
      "093",
      "093",
      "093",
      "090",
      "090",
      "090",
      "090",
      "090",
      "090",
      "090",
      "090",
      "090",
      "090",
      "090",
      "090",
      "090",
      "090",
      "090",
      "090",
      "090",
      "090",
      "090",
      "090",
      "090",
      "090",
      "090",
      "090",
      "090",
      "090",
      "090",
      "090",
      "086",
      "076",
      "076",
      "061",
      "060",
      "060",
      "060",
      "060",
      "060",
      "060",
      "060",
      "060",
      "060",
      "060",
      "060",
      "060",
      "060",
      "060",
      "060",
      "060",
      "060",
      "060",
      "060",
      "060",
      "060",
      "060",
      "059",
      "059",
      "059",
      "044",
      "044",
      "044",
      "040",
      "040",
      "040",
      "040",
      "040",
      "040",
      "040",
      "040",
      "040",
      "030",
      "030",
      "030",
      "014",
      "014",
      "011",
      "011",
      "005",
      "005",
      "005",
      "001",
      "001",
      "001",
      "001"
    ],
    "swim:geom": "path",
    "swim:speeds": [
      262,
      262,
      262,
      262,
      262,
      262,
      262,
      280,
      280,
      299,
      299,
      299,
      299,
      299,
      299,
      299,
      299,
      399,
      399,
      399,
      399,
      399,
      399,
      424,
      424,
      424,
      424,
      424,
      424,
      424,
      429,
      429,
      429,
      429,
      454,
      454,
      454,
      462,
      462,
      462,
      468,
      468,
      468,
      468,
      468,
      475,
      475,
      475,
      478,
      478,
      478,
      478,
      479,
      479,
      479,
      479,
      479,
      472,
      472,
      472,
      472,
      472,
      472,
      472,
      472,
      472,
      470,
      470,
      471,
      471,
      471,
      471,
      471,
      458,
      458,
      458,
      458,
      458,
      458,
      457,
      457,
      457,
      457,
      460,
      460,
      460,
      464,
      464,
      464,
      464,
      464,
      474,
      474,
      474,
      474,
      474,
      474,
      474,
      474,
      486,
      490,
      490,
      490,
      490,
      490,
      494,
      494,
      494,
      494,
      498,
      498,
      498,
      498,
      501,
      501,
      501,
      501,
      503,
      503,
      503,
      504,
      504,
      504,
      504,
      504,
      504,
      506,
      506,
      506,
      506,
      506,
      506,
      506,
      506,
      507,
      507,
      507,
      509,
      509,
      509,
      509,
      511,
      511,
      511,
      511,
      511,
      511,
      513,
      513,
      515,
      515,
      518,
      518,
      518,
      518,
      518,
      520,
      520,
      520,
      521,
      521,
      521,
      526,
      526,
      526,
      526,
      531,
      531,
      531,
      531,
      531,
      539,
      539,
      539,
      539,
      539,
      536,
      538,
      539,
      539,
      540,
      540,
      540,
      540,
      539,
      539,
      540,
      540,
      540,
      540,
      540,
      540,
      542,
      542,
      542,
      542,
      542,
      544,
      544,
      547,
      547,
      547,
      548,
      548,
      556,
      556,
      556,
      556,
      556,
      556,
      556,
      556,
      556,
      556,
      556,
      556,
      556,
      556,
      556,
      556,
      559,
      559,
      559,
      559,
      562,
      564,
      564,
      564,
      564,
      564,
      564,
      566,
      566,
      566,
      566,
      566,
      566,
      569,
      569,
      569,
      569,
      570,
      570,
      570,
      570,
      570,
      570,
      570,
      572,
      572,
      572,
      572,
      574,
      574,
      574,
      574,
      574,
      575,
      575,
      575,
      575,
      575,
      575,
      574,
      574,
      574,
      575,
      575,
      574,
      572,
      572,
      566,
      566,
      566,
      566,
      561,
      558,
      558,
      558,
      558,
      558,
      559,
      558,
      558,
      558,
      557,
      557,
      557,
      557,
      557,
      557,
      557,
      557,
      557,
      557,
      555,
      555,
      555,
      555,
      556,
      556,
      555,
      555,
      555,
      554,
      554,
      554,
      554,
      554,
      554,
      554,
      554,
      556,
      556,
      556,
      557,
      557,
      557,
      557,
      557,
      557,
      559,
      559,
      559,
      559,
      559,
      561,
      561,
      561,
      562,
      562,
      562,
      562,
      562,
      563,
      563,
      563,
      563,
      564,
      564,
      564,
      564,
      564,
      564,
      564,
      564,
      564,
      563,
      563,
      563,
      563,
      563,
      565,
      565,
      565,
      565,
      565,
      564,
      564,
      562,
      562,
      562,
      562,
      562,
      561,
      561,
      561,
      561,
      561,
      561,
      561,
      562,
      562,
      562,
      562,
      562,
      562,
      563,
      563,
      563,
      563,
      563,
      563,
      565,
      565,
      565,
      565,
      565,
      565,
      565,
      565,
      565,
      565,
      563,
      563,
      563,
      563,
      563,
      563,
      562,
      562,
      562,
      562,
      562,
      562,
      562,
      562,
      562,
      562,
      562,
      562,
      562,
      562,
      562,
      562,
      562,
      562,
      562,
      562,
      562,
      562,
      562,
      562,
      562,
      561,
      561,
      561,
      561,
      560,
      560,
      559,
      559,
      559,
      556,
      556,
      556,
      556,
      554,
      554,
      554,
      554,
      554,
      554,
      554,
      554,
      554,
      554,
      554,
      552,
      552,
      552,
      551,
      551,
      551,
      551,
      550,
      548,
      548,
      547,
      547,
      547,
      547,
      547,
      548,
      548,
      545,
      545,
      545,
      545,
      545,
      545,
      545,
      545,
      545,
      545,
      545,
      545,
      544,
      544,
      544,
      544,
      544,
      544,
      543,
      543,
      543,
      546,
      546,
      546,
      546,
      546,
      545,
      540,
      540,
      540,
      540,
      540,
      540,
      540,
      531,
      531,
      531,
      531,
      530,
      530,
      530,
      530,
      529,
      529,
      529,
      529,
      530,
      530,
      533,
      533,
      533,
      533,
      529,
      529,
      531,
      531,
      531,
      529,
      529,
      529,
      527,
      527,
      526,
      526,
      526,
      526,
      526,
      526,
      526,
      525,
      524,
      523,
      523,
      523,
      522,
      522,
      521,
      521,
      520,
      520,
      519,
      519,
      519,
      519,
      519,
      519,
      519,
      518,
      518,
      518,
      516,
      516,
      516,
      516,
      515,
      515,
      515,
      515,
      515,
      515,
      515,
      515,
      515,
      515,
      516,
      516,
      516,
      516,
      516,
      516,
      516,
      516,
      516,
      516,
      515,
      515,
      515,
      514,
      514,
      514,
      513,
      512,
      512,
      512,
      511,
      511,
      511,
      511,
      510,
      510,
      510,
      510,
      510,
      509,
      509,
      509,
      505,
      505,
      505,
      504,
      504,
      504,
      504,
      504,
      504,
      503,
      503,
      503,
      503,
      503,
      503,
      502,
      502,
      502,
      498,
      498,
      498,
      498,
      498,
      498,
      484,
      484,
      484,
      484,
      484,
      484,
      484,
      482,
      482,
      482,
      481,
      481,
      481,
      481,
      481,
      480,
      480,
      480,
      480,
      480,
      480,
      480,
      480,
      479,
      479,
      475,
      475,
      475,
      475,
      471,
      471,
      471,
      471,
      473,
      473,
      473,
      473,
      482,
      482,
      482,
      486,
      486,
      486,
      486,
      487,
      487,
      487,
      486,
      486,
      486,
      486,
      487,
      487,
      487,
      487,
      488,
      488,
      488,
      494,
      494,
      494,
      494,
      495,
      495,
      495,
      495,
      495,
      495,
      495,
      493,
      493,
      493,
      493,
      474,
      440,
      440,
      440,
      409,
      409,
      409,
      369,
      369,
      369,
      360,
      360,
      360,
      360,
      360,
      360,
      363,
      363,
      356,
      356,
      351,
      351,
      351,
      351,
      332,
      324,
      312,
      312,
      277,
      277,
      277,
      277,
      277,
      252,
      252,
      252,
      252,
      252,
      255,
      252,
      252,
      252,
      252,
      253,
      253,
      254,
      254,
      254,
      254,
      254,
      256,
      256,
      255,
      255,
      255,
      255,
      260,
      260,
      260,
      257,
      257,
      261,
      261,
      248,
      248,
      248,
      245,
      244,
      244,
      236,
      224,
      216,
      216,
      216,
      217,
      217,
      215,
      214,
      214,
      214,
      215,
      215,
      215,
      214,
      214,
      214,
      215,
      215,
      215,
      215,
      214,
      214,
      215,
      215,
      215,
      218,
      218,
      218,
      201,
      201,
      201,
      200,
      200,
      200,
      200,
      213,
      213,
      195,
      195,
      195,
      129,
      129,
      124,
      124,
      125,
      125,
      125,
      126,
      126,
      126,
      126
    ],
    "swim:timestamps": [
      1777489864,
      1777489864,
      1777489864,
      1777489864,
      1777489864,
      1777489864,
      1777489864,
      1777489924,
      1777489924,
      1777489984,
      1777489984,
      1777489984,
      1777489984,
      1777489984,
      1777489984,
      1777489984,
      1777489984,
      1777490165,
      1777490165,
      1777490165,
      1777490165,
      1777490165,
      1777490165,
      1777490345,
      1777490345,
      1777490345,
      1777490345,
      1777490345,
      1777490345,
      1777490345,
      1777490405,
      1777490405,
      1777490405,
      1777490405,
      1777490525,
      1777490525,
      1777490525,
      1777490585,
      1777490585,
      1777490585,
      1777490645,
      1777490645,
      1777490645,
      1777490645,
      1777490645,
      1777490705,
      1777490705,
      1777490705,
      1777490752,
      1777490752,
      1777490752,
      1777490752,
      1777490812,
      1777490812,
      1777490812,
      1777490812,
      1777490812,
      1777491006,
      1777491006,
      1777491006,
      1777491006,
      1777491006,
      1777491053,
      1777491053,
      1777491053,
      1777491053,
      1777491066,
      1777491066,
      1777491113,
      1777491113,
      1777491113,
      1777491113,
      1777491113,
      1777491306,
      1777491306,
      1777491306,
      1777491306,
      1777491306,
      1777491306,
      1777491533,
      1777491533,
      1777491533,
      1777491533,
      1777491593,
      1777491593,
      1777491593,
      1777491607,
      1777491607,
      1777491607,
      1777491607,
      1777491607,
      1777491714,
      1777491714,
      1777491714,
      1777491714,
      1777491714,
      1777491714,
      1777491714,
      1777491714,
      1777491847,
      1777491894,
      1777491894,
      1777491894,
      1777491894,
      1777491894,
      1777491954,
      1777491954,
      1777491954,
      1777491954,
      1777492014,
      1777492014,
      1777492014,
      1777492027,
      1777492087,
      1777492087,
      1777492087,
      1777492087,
      1777492134,
      1777492134,
      1777492147,
      1777492194,
      1777492194,
      1777492194,
      1777492194,
      1777492194,
      1777492194,
      1777492314,
      1777492314,
      1777492314,
      1777492374,
      1777492374,
      1777492374,
      1777492374,
      1777492374,
      1777492434,
      1777492434,
      1777492434,
      1777492555,
      1777492555,
      1777492555,
      1777492555,
      1777492615,
      1777492615,
      1777492615,
      1777492615,
      1777492615,
      1777492615,
      1777492675,
      1777492675,
      1777492795,
      1777492795,
      1777492855,
      1777492855,
      1777492855,
      1777492855,
      1777492855,
      1777492915,
      1777492915,
      1777492915,
      1777492975,
      1777492975,
      1777492975,
      1777493095,
      1777493095,
      1777493095,
      1777493095,
      1777493216,
      1777493216,
      1777493216,
      1777493216,
      1777493216,
      1777493386,
      1777493386,
      1777493446,
      1777493446,
      1777493446,
      1777493456,
      1777493516,
      1777493576,
      1777493576,
      1777493627,
      1777493627,
      1777493627,
      1777493627,
      1777493636,
      1777493636,
      1777493816,
      1777493816,
      1777493816,
      1777493816,
      1777493867,
      1777493867,
      1777493987,
      1777493997,
      1777493997,
      1777493997,
      1777493997,
      1777494057,
      1777494057,
      1777494117,
      1777494117,
      1777494117,
      1777494167,
      1777494167,
      1777494348,
      1777494348,
      1777494348,
      1777494348,
      1777494348,
      1777494357,
      1777494408,
      1777494408,
      1777494408,
      1777494468,
      1777494468,
      1777494468,
      1777494528,
      1777494528,
      1777494537,
      1777494537,
      1777494588,
      1777494588,
      1777494588,
      1777494588,
      1777494708,
      1777494768,
      1777494768,
      1777494768,
      1777494768,
      1777494768,
      1777494768,
      1777494888,
      1777494888,
      1777494888,
      1777494888,
      1777494888,
      1777494888,
      1777495189,
      1777495189,
      1777495189,
      1777495189,
      1777495309,
      1777495309,
      1777495309,
      1777495309,
      1777495309,
      1777495309,
      1777495309,
      1777495549,
      1777495549,
      1777495549,
      1777495549,
      1777495730,
      1777495730,
      1777495730,
      1777495730,
      1777495730,
      1777495775,
      1777495775,
      1777495775,
      1777495896,
      1777495896,
      1777495896,
      1777495910,
      1777495910,
      1777495910,
      1777495956,
      1777495956,
      1777495970,
      1777496076,
      1777496076,
      1777496136,
      1777496136,
      1777496136,
      1777496136,
      1777496196,
      1777496330,
      1777496330,
      1777496330,
      1777496330,
      1777496330,
      1777496376,
      1777496437,
      1777496437,
      1777496437,
      1777496451,
      1777496451,
      1777496451,
      1777496511,
      1777496511,
      1777496511,
      1777496511,
      1777496557,
      1777496557,
      1777496617,
      1777496631,
      1777496631,
      1777496631,
      1777496631,
      1777496677,
      1777496677,
      1777496691,
      1777496691,
      1777496691,
      1777496857,
      1777496857,
      1777496871,
      1777496871,
      1777496871,
      1777496871,
      1777496871,
      1777496871,
      1777496977,
      1777496977,
      1777496977,
      1777497038,
      1777497038,
      1777497038,
      1777497038,
      1777497038,
      1777497038,
      1777497218,
      1777497218,
      1777497218,
      1777497218,
      1777497218,
      1777497398,
      1777497398,
      1777497398,
      1777497458,
      1777497458,
      1777497458,
      1777497458,
      1777497458,
      1777497518,
      1777497518,
      1777497518,
      1777497518,
      1777497759,
      1777497759,
      1777497759,
      1777497759,
      1777497759,
      1777497819,
      1777497819,
      1777497819,
      1777497819,
      1777497999,
      1777497999,
      1777497999,
      1777497999,
      1777497999,
      1777498179,
      1777498179,
      1777498179,
      1777498179,
      1777498179,
      1777498239,
      1777498239,
      1777498420,
      1777498420,
      1777498420,
      1777498420,
      1777498420,
      1777498540,
      1777498540,
      1777498540,
      1777498540,
      1777498540,
      1777498540,
      1777498540,
      1777498720,
      1777498720,
      1777498720,
      1777498720,
      1777498720,
      1777498720,
      1777498901,
      1777498901,
      1777498901,
      1777498901,
      1777498901,
      1777498901,
      1777499081,
      1777499081,
      1777499081,
      1777499081,
      1777499141,
      1777499141,
      1777499141,
      1777499261,
      1777499261,
      1777499261,
      1777499381,
      1777499381,
      1777499381,
      1777499381,
      1777499381,
      1777499381,
      1777499562,
      1777499562,
      1777499562,
      1777499562,
      1777499562,
      1777499682,
      1777499682,
      1777499682,
      1777499682,
      1777499682,
      1777499682,
      1777499802,
      1777499802,
      1777499802,
      1777499802,
      1777499802,
      1777499862,
      1777499862,
      1777499862,
      1777499862,
      1777499862,
      1777499862,
      1777499982,
      1777499982,
      1777499982,
      1777500042,
      1777500042,
      1777500042,
      1777500042,
      1777500103,
      1777500103,
      1777500163,
      1777500163,
      1777500163,
      1777500255,
      1777500255,
      1777500255,
      1777500255,
      1777500343,
      1777500343,
      1777500343,
      1777500375,
      1777500375,
      1777500375,
      1777500375,
      1777500375,
      1777500375,
      1777500375,
      1777500427,
      1777500487,
      1777500487,
      1777500487,
      1777500523,
      1777500523,
      1777500523,
      1777500523,
      1777500556,
      1777500616,
      1777500616,
      1777500643,
      1777500643,
      1777500643,
      1777500643,
      1777500643,
      1777500667,
      1777500667,
      1777500824,
      1777500824,
      1777500824,
      1777500824,
      1777500856,
      1777500856,
      1777500856,
      1777500919,
      1777500919,
      1777500919,
      1777500919,
      1777500919,
      1777500980,
      1777500980,
      1777500980,
      1777501034,
      1777501034,
      1777501034,
      1777501040,
      1777501040,
      1777501040,
      1777501220,
      1777501220,
      1777501220,
      1777501220,
      1777501220,
      1777501280,
      1777501334,
      1777501334,
      1777501334,
      1777501340,
      1777501340,
      1777501340,
      1777501340,
      1777501520,
      1777501520,
      1777501520,
      1777501520,
      1777501580,
      1777501580,
      1777501580,
      1777501580,
      1777501695,
      1777501695,
      1777501695,
      1777501695,
      1777501701,
      1777501701,
      1777501720,
      1777501720,
      1777501720,
      1777501720,
      1777501755,
      1777501755,
      1777501780,
      1777501780,
      1777501780,
      1777501815,
      1777501840,
      1777501840,
      1777501881,
      1777501881,
      1777501935,
      1777501935,
      1777501935,
      1777501941,
      1777501941,
      1777501941,
      1777501941,
      1777501960,
      1777502055,
      1777502115,
      1777502115,
      1777502115,
      1777502141,
      1777502141,
      1777502175,
      1777502175,
      1777502181,
      1777502181,
      1777502241,
      1777502241,
      1777502241,
      1777502261,
      1777502261,
      1777502261,
      1777502296,
      1777502318,
      1777502318,
      1777502318,
      1777502378,
      1777502378,
      1777502378,
      1777502378,
      1777502482,
      1777502498,
      1777502498,
      1777502498,
      1777502498,
      1777502498,
      1777502498,
      1777502542,
      1777502542,
      1777502542,
      1777502619,
      1777502619,
      1777502619,
      1777502619,
      1777502619,
      1777502662,
      1777502662,
      1777502662,
      1777502782,
      1777502782,
      1777502842,
      1777502842,
      1777502842,
      1777502899,
      1777502899,
      1777502899,
      1777502963,
      1777503023,
      1777503039,
      1777503039,
      1777503099,
      1777503099,
      1777503099,
      1777503099,
      1777503140,
      1777503140,
      1777503140,
      1777503140,
      1777503140,
      1777503220,
      1777503220,
      1777503220,
      1777503460,
      1777503460,
      1777503460,
      1777503520,
      1777503520,
      1777503520,
      1777503520,
      1777503520,
      1777503520,
      1777503761,
      1777503761,
      1777503761,
      1777503761,
      1777503761,
      1777503761,
      1777503821,
      1777503821,
      1777503821,
      1777503941,
      1777503941,
      1777503941,
      1777503941,
      1777503941,
      1777503941,
      1777504181,
      1777504181,
      1777504181,
      1777504181,
      1777504181,
      1777504181,
      1777504181,
      1777504362,
      1777504362,
      1777504362,
      1777504437,
      1777504437,
      1777504437,
      1777504437,
      1777504437,
      1777504557,
      1777504557,
      1777504557,
      1777504557,
      1777504557,
      1777504617,
      1777504617,
      1777504617,
      1777504677,
      1777504677,
      1777504722,
      1777504722,
      1777504722,
      1777504722,
      1777504797,
      1777504797,
      1777504797,
      1777504797,
      1777504857,
      1777504857,
      1777504857,
      1777504857,
      1777504918,
      1777504918,
      1777504918,
      1777505038,
      1777505038,
      1777505038,
      1777505038,
      1777505098,
      1777505098,
      1777505098,
      1777505143,
      1777505143,
      1777505143,
      1777505143,
      1777505203,
      1777505203,
      1777505203,
      1777505203,
      1777505218,
      1777505218,
      1777505218,
      1777505519,
      1777505519,
      1777505519,
      1777505519,
      1777505579,
      1777505579,
      1777505579,
      1777505939,
      1777505939,
      1777505939,
      1777505939,
      1777505999,
      1777505999,
      1777505999,
      1777505999,
      1777506059,
      1777506119,
      1777506119,
      1777506119,
      1777506180,
      1777506180,
      1777506180,
      1777506300,
      1777506300,
      1777506300,
      1777506340,
      1777506340,
      1777506340,
      1777506340,
      1777506340,
      1777506340,
      1777506360,
      1777506360,
      1777506436,
      1777506436,
      1777506480,
      1777506480,
      1777506480,
      1777506480,
      1777506497,
      1777506540,
      1777506557,
      1777506557,
      1777506617,
      1777506617,
      1777506617,
      1777506617,
      1777506617,
      1777506676,
      1777506676,
      1777506676,
      1777506676,
      1777506676,
      1777506720,
      1777506797,
      1777506797,
      1777506797,
      1777506797,
      1777506841,
      1777506841,
      1777506901,
      1777506901,
      1777506901,
      1777506901,
      1777506961,
      1777506977,
      1777506977,
      1777507021,
      1777507021,
      1777507021,
      1777507021,
      1777507037,
      1777507037,
      1777507037,
      1777507081,
      1777507081,
      1777507141,
      1777507141,
      1777507163,
      1777507163,
      1777507163,
      1777507217,
      1777507261,
      1777507261,
      1777507321,
      1777507337,
      1777507397,
      1777507397,
      1777507397,
      1777507502,
      1777507502,
      1777507562,
      1777507577,
      1777507577,
      1777507577,
      1777507622,
      1777507631,
      1777507631,
      1777507697,
      1777507697,
      1777507697,
      1777507757,
      1777507757,
      1777507757,
      1777507757,
      1777507823,
      1777507823,
      1777507862,
      1777507862,
      1777507862,
      1777507922,
      1777507922,
      1777507922,
      1777508043,
      1777508043,
      1777508043,
      1777508103,
      1777508103,
      1777508103,
      1777508103,
      1777508123,
      1777508123,
      1777508283,
      1777508283,
      1777508283,
      1777508403,
      1777508403,
      1777508423,
      1777508423,
      1777508478,
      1777508478,
      1777508478,
      1777508523,
      1777508523,
      1777508523,
      1777508523
    ],
    "wof:geomhash": "40c407f2583569f496f36cc3d895c075",
    "wof:id": 2031144905,
    "wof:repo": "sfomuseum-data-flights-2026-04"
  },
  "bbox": [
    -122.22416666666666,
    37.71388888888889,
    -70.80388888888889,
    42.81194444444444
  ],
  "geometry": {"coordinates":[[-122.22416666666666,37.71388888888889],[-122.22416666666666,37.71388888888889],[-122.22416666666666,37.71388888888889],[-122.22416666666666,37.71388888888889],[-122.22416666666666,37.71388888888889],[-122.22416666666666,37.71388888888889],[-122.22416666666666,37.71388888888889],[-122.14083333333333,37.75611111111111],[-122.14083333333333,37.75611111111111],[-122.05444444444444,37.800555555555555],[-122.05444444444444,37.800555555555555],[-122.05444444444444,37.800555555555555],[-122.05444444444444,37.800555555555555],[-122.05444444444444,37.800555555555555],[-122.05444444444444,37.800555555555555],[-122.05444444444444,37.800555555555555],[-122.05444444444444,37.800555555555555],[-121.67861111111111,37.88611111111111],[-121.67861111111111,37.88611111111111],[-121.67861111111111,37.88611111111111],[-121.67861111111111,37.88611111111111],[-121.67861111111111,37.88611111111111],[-121.67861111111111,37.88611111111111],[-121.23527777777778,37.967222222222226],[-121.23527777777778,37.967222222222226],[-121.23527777777778,37.967222222222226],[-121.23527777777778,37.967222222222226],[-121.23527777777778,37.967222222222226],[-121.23527777777778,37.967222222222226],[-121.23527777777778,37.967222222222226],[-121.08805555555556,37.993611111111115],[-121.08805555555556,37.993611111111115],[-121.08805555555556,37.993611111111115],[-121.08805555555556,37.993611111111115],[-120.7786111111111,38.04111111111111],[-120.7786111111111,38.04111111111111],[-120.7786111111111,38.04111111111111],[-120.61805555555554,38.06583333333333],[-120.61805555555554,38.06583333333333],[-120.61805555555554,38.06583333333333],[-120.45722222222223,38.09],[-120.45722222222223,38.09],[-120.45722222222223,38.09],[-120.45722222222223,38.09],[-120.45722222222223,38.09],[-120.29277777777777,38.114444444444445],[-120.29277777777777,38.114444444444445],[-120.29277777777777,38.114444444444445],[-120.18805555555556,38.12888888888889],[-120.18805555555556,38.12888888888889],[-120.18805555555556,38.12888888888889],[-120.18805555555556,38.12888888888889],[-120.02055555555556,38.153055555555554],[-120.02055555555556,38.153055555555554],[-120.02055555555556,38.153055555555554],[-120.02055555555556,38.153055555555554],[-120.02055555555556,38.153055555555554],[-119.46805555555555,38.23388888888889],[-119.46805555555555,38.23388888888889],[-119.46805555555555,38.23388888888889],[-119.46805555555555,38.23388888888889],[-119.46805555555555,38.23388888888889],[-119.36749999999999,38.24777777777778],[-119.36749999999999,38.24777777777778],[-119.36749999999999,38.24777777777778],[-119.36749999999999,38.24777777777778],[-119.30333333333333,38.25694444444444],[-119.30333333333333,38.25694444444444],[-119.20555555555556,38.26833333333333],[-119.20555555555556,38.26833333333333],[-119.20555555555556,38.26833333333333],[-119.20555555555556,38.26833333333333],[-119.20555555555556,38.26833333333333],[-118.66444444444446,38.34444444444445],[-118.66444444444446,38.34444444444445],[-118.66444444444446,38.34444444444445],[-118.66444444444446,38.34444444444445],[-118.66444444444446,38.34444444444445],[-118.66444444444446,38.34444444444445],[-118.06611111111111,38.42333333333333],[-118.06611111111111,38.42333333333333],[-118.06611111111111,38.42333333333333],[-118.06611111111111,38.42333333333333],[-117.9025,38.443888888888885],[-117.9025,38.443888888888885],[-117.9025,38.443888888888885],[-117.86611111111111,38.448611111111106],[-117.86611111111111,38.448611111111106],[-117.86611111111111,38.448611111111106],[-117.86611111111111,38.448611111111106],[-117.86611111111111,38.448611111111106],[-117.56916666666666,38.48583333333333],[-117.56916666666666,38.48583333333333],[-117.56916666666666,38.48583333333333],[-117.56916666666666,38.48583333333333],[-117.56916666666666,38.48583333333333],[-117.56916666666666,38.48583333333333],[-117.56916666666666,38.48583333333333],[-117.56916666666666,38.48583333333333],[-117.18583333333333,38.5125],[-117.04833333333333,38.500277777777775],[-117.04833333333333,38.500277777777775],[-117.04833333333333,38.500277777777775],[-117.04833333333333,38.500277777777775],[-117.04833333333333,38.500277777777775],[-116.87138888888889,38.48583333333333],[-116.87138888888889,38.48583333333333],[-116.87138888888889,38.48583333333333],[-116.87138888888889,38.48583333333333],[-116.72888888888889,38.473888888888894],[-116.72888888888889,38.473888888888894],[-116.72888888888889,38.473888888888894],[-116.69083333333333,38.470555555555556],[-116.51277777777777,38.45527777777778],[-116.51277777777777,38.45527777777778],[-116.51277777777777,38.45527777777778],[-116.51277777777777,38.45527777777778],[-116.37083333333332,38.442499999999995],[-116.37083333333332,38.442499999999995],[-116.3325,38.439166666666665],[-116.19194444444445,38.42666666666666],[-116.19194444444445,38.42666666666666],[-116.19194444444445,38.42666666666666],[-116.19194444444445,38.42666666666666],[-116.19194444444445,38.42666666666666],[-116.19194444444445,38.42666666666666],[-115.83611111111111,38.39361111111111],[-115.83611111111111,38.39361111111111],[-115.83611111111111,38.39361111111111],[-115.6588888888889,38.37722222222222],[-115.6588888888889,38.37722222222222],[-115.6588888888889,38.37722222222222],[-115.6588888888889,38.37722222222222],[-115.6588888888889,38.37722222222222],[-115.47888888888889,38.36027777777778],[-115.47888888888889,38.36027777777778],[-115.47888888888889,38.36027777777778],[-115.09972222222221,38.323055555555555],[-115.09972222222221,38.323055555555555],[-115.09972222222221,38.323055555555555],[-115.09972222222221,38.323055555555555],[-114.92111111111112,38.30472222222222],[-114.92111111111112,38.30472222222222],[-114.92111111111112,38.30472222222222],[-114.92111111111112,38.30472222222222],[-114.92111111111112,38.30472222222222],[-114.92111111111112,38.30472222222222],[-114.7388888888889,38.28611111111111],[-114.7388888888889,38.28611111111111],[-114.37833333333333,38.24888888888889],[-114.37833333333333,38.24888888888889],[-114.19583333333334,38.23861111111111],[-114.19583333333334,38.23861111111111],[-114.19583333333334,38.23861111111111],[-114.19583333333334,38.23861111111111],[-114.19583333333334,38.23861111111111],[-114.00916666666667,38.227222222222224],[-114.00916666666667,38.227222222222224],[-114.00916666666667,38.227222222222224],[-113.82555555555555,38.21611111111111],[-113.82555555555555,38.21611111111111],[-113.82555555555555,38.21611111111111],[-113.45472222222223,38.19222222222222],[-113.45472222222223,38.19222222222222],[-113.45472222222223,38.19222222222222],[-113.45472222222223,38.19222222222222],[-113.07916666666667,38.16722222222222],[-113.07916666666667,38.16722222222222],[-113.07916666666667,38.16722222222222],[-113.07916666666667,38.16722222222222],[-113.07916666666667,38.16722222222222],[-112.54694444444445,38.12972222222222],[-112.54694444444445,38.12972222222222],[-112.35972222222222,38.11638888888889],[-112.35972222222222,38.11638888888889],[-112.35972222222222,38.11638888888889],[-112.31944444444444,38.113055555555555],[-112.13055555555555,38.09861111111111],[-111.93972222222223,38.08416666666667],[-111.93972222222223,38.08416666666667],[-111.78916666666666,38.07194444444445],[-111.78916666666666,38.07194444444445],[-111.78916666666666,38.07194444444445],[-111.78916666666666,38.07194444444445],[-111.75111111111111,38.06916666666667],[-111.75111111111111,38.06916666666667],[-111.18361111111112,38.02222222222222],[-111.18361111111112,38.02222222222222],[-111.18361111111112,38.02222222222222],[-111.18361111111112,38.02222222222222],[-111.03277777777778,38.009166666666665],[-111.03277777777778,38.009166666666665],[-110.65194444444445,37.97555555555556],[-110.63083333333333,37.97361111111111],[-110.63083333333333,37.97361111111111],[-110.63083333333333,37.97361111111111],[-110.63083333333333,37.97361111111111],[-110.4413888888889,37.95638888888889],[-110.4413888888889,37.95638888888889],[-110.24972222222222,37.93888888888888],[-110.24972222222222,37.93888888888888],[-110.24972222222222,37.93888888888888],[-110.10638888888889,37.92527777777777],[-110.10638888888889,37.92527777777777],[-109.52472222222222,37.869166666666665],[-109.52472222222222,37.869166666666665],[-109.52472222222222,37.869166666666665],[-109.52472222222222,37.869166666666665],[-109.52472222222222,37.869166666666665],[-109.47666666666667,37.86416666666667],[-109.3286111111111,37.849444444444444],[-109.3286111111111,37.849444444444444],[-109.3286111111111,37.849444444444444],[-109.13666666666667,37.830000000000005],[-109.13666666666667,37.830000000000005],[-109.13666666666667,37.830000000000005],[-108.94083333333333,37.814166666666665],[-108.94083333333333,37.814166666666665],[-108.89805555555556,37.814166666666665],[-108.89805555555556,37.814166666666665],[-108.74472222222222,37.82333333333334],[-108.74472222222222,37.82333333333334],[-108.74472222222222,37.82333333333334],[-108.74472222222222,37.82333333333334],[-108.34944444444444,37.8525],[-108.15111111111112,37.86666666666667],[-108.15111111111112,37.86666666666667],[-108.15111111111112,37.86666666666667],[-108.15111111111112,37.86666666666667],[-108.15111111111112,37.86666666666667],[-108.15111111111112,37.86666666666667],[-107.75361111111111,37.89416666666666],[-107.75361111111111,37.89416666666666],[-107.75361111111111,37.89416666666666],[-107.75361111111111,37.89416666666666],[-107.75361111111111,37.89416666666666],[-107.75361111111111,37.89416666666666],[-106.72444444444444,37.95944444444445],[-106.72444444444444,37.95944444444445],[-106.72444444444444,37.95944444444445],[-106.72444444444444,37.95944444444445],[-106.34666666666666,37.98083333333334],[-106.34666666666666,37.98083333333334],[-106.34666666666666,37.98083333333334],[-106.34666666666666,37.98083333333334],[-106.34666666666666,37.98083333333334],[-106.34666666666666,37.98083333333334],[-106.34666666666666,37.98083333333334],[-105.54472222222222,38.004444444444445],[-105.54472222222222,38.004444444444445],[-105.54472222222222,38.004444444444445],[-105.54472222222222,38.004444444444445],[-104.935,38.00833333333333],[-104.935,38.00833333333333],[-104.935,38.00833333333333],[-104.935,38.00833333333333],[-104.935,38.00833333333333],[-104.78055555555555,38.006388888888885],[-104.78055555555555,38.006388888888885],[-104.78055555555555,38.006388888888885],[-104.37777777777777,38.005833333333335],[-104.37777777777777,38.005833333333335],[-104.37777777777777,38.005833333333335],[-104.32722222222222,38.009166666666665],[-104.32722222222222,38.009166666666665],[-104.32722222222222,38.009166666666665],[-104.17611111111111,38.00666666666667],[-104.17611111111111,38.00666666666667],[-104.12305555555555,38.00861111111111],[-103.77944444444444,38.00694444444444],[-103.77944444444444,38.00694444444444],[-103.58166666666666,38.00555555555555],[-103.58166666666666,38.00555555555555],[-103.58166666666666,38.00555555555555],[-103.58166666666666,38.00555555555555],[-103.38194444444444,38.00361111111111],[-102.93194444444445,37.99861111111111],[-102.93194444444445,37.99861111111111],[-102.93194444444445,37.99861111111111],[-102.93194444444445,37.99861111111111],[-102.93194444444445,37.99861111111111],[-102.79638888888888,37.99666666666667],[-102.60333333333332,37.99388888888889],[-102.60333333333332,37.99388888888889],[-102.60333333333332,37.99388888888889],[-102.53944444444444,37.99277777777778],[-102.53944444444444,37.99277777777778],[-102.53944444444444,37.99277777777778],[-102.36388888888888,37.98972222222222],[-102.36388888888888,37.98972222222222],[-102.36388888888888,37.98972222222222],[-102.36388888888888,37.98972222222222],[-102.21277777777777,37.989444444444445],[-102.21277777777777,37.989444444444445],[-102.0175,37.993611111111115],[-101.97444444444444,37.99388888888889],[-101.97444444444444,37.99388888888889],[-101.97444444444444,37.99388888888889],[-101.97444444444444,37.99388888888889],[-101.82138888888889,37.99527777777778],[-101.82138888888889,37.99527777777778],[-101.77777777777777,37.99583333333334],[-101.77777777777777,37.99583333333334],[-101.77777777777777,37.99583333333334],[-101.23722222222223,38],[-101.23722222222223,38],[-101.19472222222223,38],[-101.19472222222223,38],[-101.19472222222223,38],[-101.19472222222223,38],[-101.19472222222223,38],[-101.19472222222223,38],[-100.8411111111111,38.00138888888889],[-100.8411111111111,38.00138888888889],[-100.8411111111111,38.00138888888889],[-100.64333333333335,38.001666666666665],[-100.64333333333335,38.001666666666665],[-100.64333333333335,38.001666666666665],[-100.64333333333335,38.001666666666665],[-100.64333333333335,38.001666666666665],[-100.64333333333335,38.001666666666665],[-100.04777777777778,38.000277777777775],[-100.04777777777778,38.000277777777775],[-100.04777777777778,38.000277777777775],[-100.04777777777778,38.000277777777775],[-100.04777777777778,38.000277777777775],[-99.45944444444444,38.03666666666666],[-99.45944444444444,38.03666666666666],[-99.45944444444444,38.03666666666666],[-99.2786111111111,38.04833333333333],[-99.2786111111111,38.04833333333333],[-99.2786111111111,38.04833333333333],[-99.2786111111111,38.04833333333333],[-99.2786111111111,38.04833333333333],[-99.08138888888888,38.06055555555555],[-99.08138888888888,38.06055555555555],[-99.08138888888888,38.06055555555555],[-99.08138888888888,38.06055555555555],[-98.28666666666666,38.1075],[-98.28666666666666,38.1075],[-98.28666666666666,38.1075],[-98.28666666666666,38.1075],[-98.28666666666666,38.1075],[-98.08638888888889,38.11833333333333],[-98.08638888888889,38.11833333333333],[-98.08638888888889,38.11833333333333],[-98.08638888888889,38.11833333333333],[-97.48583333333333,38.14888888888889],[-97.48583333333333,38.14888888888889],[-97.48583333333333,38.14888888888889],[-97.48583333333333,38.14888888888889],[-97.48583333333333,38.14888888888889],[-96.88277777777778,38.17638888888889],[-96.88277777777778,38.17638888888889],[-96.88277777777778,38.17638888888889],[-96.88277777777778,38.17638888888889],[-96.88277777777778,38.17638888888889],[-96.6875,38.19972222222222],[-96.6875,38.19972222222222],[-96.09861111111111,38.29805555555556],[-96.09861111111111,38.29805555555556],[-96.09861111111111,38.29805555555556],[-96.09861111111111,38.29805555555556],[-96.09861111111111,38.29805555555556],[-95.71805555555555,38.37444444444444],[-95.71805555555555,38.37444444444444],[-95.71805555555555,38.37444444444444],[-95.71805555555555,38.37444444444444],[-95.71805555555555,38.37444444444444],[-95.71805555555555,38.37444444444444],[-95.71805555555555,38.37444444444444],[-95.14277777777778,38.48638888888889],[-95.14277777777778,38.48638888888889],[-95.14277777777778,38.48638888888889],[-95.14277777777778,38.48638888888889],[-95.14277777777778,38.48638888888889],[-95.14277777777778,38.48638888888889],[-94.56277777777777,38.595555555555556],[-94.56277777777777,38.595555555555556],[-94.56277777777777,38.595555555555556],[-94.56277777777777,38.595555555555556],[-94.56277777777777,38.595555555555556],[-94.56277777777777,38.595555555555556],[-93.9786111111111,38.70444444444445],[-93.9786111111111,38.70444444444445],[-93.9786111111111,38.70444444444445],[-93.9786111111111,38.70444444444445],[-93.79027777777777,38.7475],[-93.79027777777777,38.7475],[-93.79027777777777,38.7475],[-93.38277777777778,38.835],[-93.38277777777778,38.835],[-93.38277777777778,38.835],[-92.99444444444444,38.91722222222222],[-92.99444444444444,38.91722222222222],[-92.99444444444444,38.91722222222222],[-92.99444444444444,38.91722222222222],[-92.99444444444444,38.91722222222222],[-92.99444444444444,38.91722222222222],[-92.40972222222223,39.0375],[-92.40972222222223,39.0375],[-92.40972222222223,39.0375],[-92.40972222222223,39.0375],[-92.40972222222223,39.0375],[-92.02055555555556,39.11638888888889],[-92.02055555555556,39.11638888888889],[-92.02055555555556,39.11638888888889],[-92.02055555555556,39.11638888888889],[-92.02055555555556,39.11638888888889],[-92.02055555555556,39.11638888888889],[-91.64666666666668,39.19],[-91.64666666666668,39.19],[-91.64666666666668,39.19],[-91.64666666666668,39.19],[-91.64666666666668,39.19],[-91.45027777777779,39.22805555555556],[-91.45027777777779,39.22805555555556],[-91.45027777777779,39.22805555555556],[-91.45027777777779,39.22805555555556],[-91.45027777777779,39.22805555555556],[-91.45027777777779,39.22805555555556],[-91.06083333333333,39.30333333333333],[-91.06083333333333,39.30333333333333],[-91.06083333333333,39.30333333333333],[-90.86305555555555,39.340833333333336],[-90.86305555555555,39.340833333333336],[-90.86305555555555,39.340833333333336],[-90.86305555555555,39.340833333333336],[-90.6675,39.37777777777778],[-90.6675,39.37777777777778],[-90.4738888888889,39.41361111111111],[-90.4738888888889,39.41361111111111],[-90.4738888888889,39.41361111111111],[-90.16944444444445,39.46666666666667],[-90.16944444444445,39.46666666666667],[-90.16944444444445,39.46666666666667],[-90.16944444444445,39.46666666666667],[-89.8888888888889,39.514722222222225],[-89.8888888888889,39.514722222222225],[-89.8888888888889,39.514722222222225],[-89.78333333333333,39.5325],[-89.78333333333333,39.5325],[-89.78333333333333,39.5325],[-89.78333333333333,39.5325],[-89.78333333333333,39.5325],[-89.78333333333333,39.5325],[-89.78333333333333,39.5325],[-89.61527777777778,39.56055555555555],[-89.42527777777778,39.592222222222226],[-89.42527777777778,39.592222222222226],[-89.42527777777778,39.592222222222226],[-89.30416666666666,39.61194444444445],[-89.30416666666666,39.61194444444445],[-89.30416666666666,39.61194444444445],[-89.30416666666666,39.61194444444445],[-89.20694444444445,39.62777777777778],[-89.0175,39.65861111111111],[-89.0175,39.65861111111111],[-88.93777777777778,39.67111111111111],[-88.93777777777778,39.67111111111111],[-88.93777777777778,39.67111111111111],[-88.93777777777778,39.67111111111111],[-88.93777777777778,39.67111111111111],[-88.84694444444445,39.68583333333333],[-88.84694444444445,39.68583333333333],[-88.36527777777778,39.76166666666666],[-88.36527777777778,39.76166666666666],[-88.36527777777778,39.76166666666666],[-88.36527777777778,39.76166666666666],[-88.25,39.779444444444444],[-88.25,39.779444444444444],[-88.25,39.779444444444444],[-88.02277777777778,39.814166666666665],[-88.02277777777778,39.814166666666665],[-88.02277777777778,39.814166666666665],[-88.02277777777778,39.814166666666665],[-88.02277777777778,39.814166666666665],[-87.82944444444443,39.84305555555556],[-87.82944444444443,39.84305555555556],[-87.82944444444443,39.84305555555556],[-87.67361111111111,39.86666666666667],[-87.67361111111111,39.86666666666667],[-87.67361111111111,39.86666666666667],[-87.64972222222222,39.87027777777778],[-87.64972222222222,39.87027777777778],[-87.64972222222222,39.87027777777778],[-87.05555555555556,39.95666666666667],[-87.05555555555556,39.95666666666667],[-87.05555555555556,39.95666666666667],[-87.05555555555556,39.95666666666667],[-87.05555555555556,39.95666666666667],[-86.86749999999999,39.983333333333334],[-86.7075,40.01111111111111],[-86.7075,40.01111111111111],[-86.7075,40.01111111111111],[-86.67722222222223,40.01861111111111],[-86.67722222222223,40.01861111111111],[-86.67722222222223,40.01861111111111],[-86.67722222222223,40.01861111111111],[-86.14750000000001,40.18],[-86.14750000000001,40.18],[-86.14750000000001,40.18],[-86.14750000000001,40.18],[-85.97,40.23361111111111],[-85.97,40.23361111111111],[-85.97,40.23361111111111],[-85.97,40.23361111111111],[-85.62583333333333,40.33638888888889],[-85.62583333333333,40.33638888888889],[-85.62583333333333,40.33638888888889],[-85.62583333333333,40.33638888888889],[-85.61416666666666,40.34],[-85.61416666666666,40.34],[-85.54916666666666,40.35916666666667],[-85.54916666666666,40.35916666666667],[-85.54916666666666,40.35916666666667],[-85.54916666666666,40.35916666666667],[-85.44722222222222,40.38944444444444],[-85.44722222222222,40.38944444444444],[-85.36361111111111,40.41416666666667],[-85.36361111111111,40.41416666666667],[-85.36361111111111,40.41416666666667],[-85.26638888888888,40.442499999999995],[-85.18083333333334,40.4675],[-85.18083333333334,40.4675],[-85.0886111111111,40.49444444444445],[-85.0886111111111,40.49444444444445],[-84.91055555555556,40.546388888888885],[-84.91055555555556,40.546388888888885],[-84.91055555555556,40.546388888888885],[-84.9088888888889,40.54666666666667],[-84.9088888888889,40.54666666666667],[-84.9088888888889,40.54666666666667],[-84.9088888888889,40.54666666666667],[-84.82472222222222,40.571111111111115],[-84.54555555555555,40.651111111111106],[-84.36972222222222,40.70111111111111],[-84.36972222222222,40.70111111111111],[-84.36972222222222,40.70111111111111],[-84.32388888888889,40.71416666666667],[-84.32388888888889,40.71416666666667],[-84.19194444444445,40.75111111111111],[-84.19194444444445,40.75111111111111],[-84.18027777777779,40.754444444444445],[-84.18027777777779,40.754444444444445],[-84.00277777777778,40.803888888888885],[-84.00277777777778,40.803888888888885],[-84.00277777777778,40.803888888888885],[-83.94361111111111,40.82055555555556],[-83.94361111111111,40.82055555555556],[-83.94361111111111,40.82055555555556],[-83.83972222222222,40.849444444444444],[-83.78777777777778,40.86388888888889],[-83.78777777777778,40.86388888888889],[-83.78777777777778,40.86388888888889],[-83.61194444444443,40.91222222222222],[-83.61194444444443,40.91222222222222],[-83.61194444444443,40.91222222222222],[-83.61194444444443,40.91222222222222],[-83.28944444444444,41.00083333333333],[-83.25611111111111,41.00972222222222],[-83.25611111111111,41.00972222222222],[-83.25611111111111,41.00972222222222],[-83.25611111111111,41.00972222222222],[-83.25611111111111,41.00972222222222],[-83.25611111111111,41.00972222222222],[-83.11083333333333,41.04888888888889],[-83.11083333333333,41.04888888888889],[-83.11083333333333,41.04888888888889],[-82.89777777777779,41.10583333333334],[-82.89777777777779,41.10583333333334],[-82.89777777777779,41.10583333333334],[-82.89777777777779,41.10583333333334],[-82.89777777777779,41.10583333333334],[-82.75277777777778,41.14472222222222],[-82.75277777777778,41.14472222222222],[-82.75277777777778,41.14472222222222],[-82.39666666666668,41.245555555555555],[-82.39666666666668,41.245555555555555],[-82.21805555555555,41.29611111111111],[-82.21805555555555,41.29611111111111],[-82.21805555555555,41.29611111111111],[-82.03888888888889,41.346111111111114],[-82.03888888888889,41.346111111111114],[-82.03888888888889,41.346111111111114],[-81.86388888888888,41.402499999999996],[-81.72,41.448611111111106],[-81.64972222222222,41.47083333333334],[-81.64972222222222,41.47083333333334],[-81.47472222222223,41.526666666666664],[-81.47472222222223,41.526666666666664],[-81.47472222222223,41.526666666666664],[-81.47472222222223,41.526666666666664],[-81.36833333333333,41.55972222222222],[-81.36833333333333,41.55972222222222],[-81.36833333333333,41.55972222222222],[-81.36833333333333,41.55972222222222],[-81.36833333333333,41.55972222222222],[-81.12333333333332,41.63611111111111],[-81.12333333333332,41.63611111111111],[-81.12333333333332,41.63611111111111],[-80.42750000000001,41.84527777777778],[-80.42750000000001,41.84527777777778],[-80.42750000000001,41.84527777777778],[-80.25166666666667,41.89138888888889],[-80.25166666666667,41.89138888888889],[-80.25166666666667,41.89138888888889],[-80.25166666666667,41.89138888888889],[-80.25166666666667,41.89138888888889],[-80.25166666666667,41.89138888888889],[-79.53277777777778,42.081944444444446],[-79.53277777777778,42.081944444444446],[-79.53277777777778,42.081944444444446],[-79.53277777777778,42.081944444444446],[-79.53277777777778,42.081944444444446],[-79.53277777777778,42.081944444444446],[-79.35749999999999,42.1275],[-79.35749999999999,42.1275],[-79.35749999999999,42.1275],[-78.99833333333333,42.20416666666667],[-78.99833333333333,42.20416666666667],[-78.99833333333333,42.20416666666667],[-78.99833333333333,42.20416666666667],[-78.99833333333333,42.20416666666667],[-78.99833333333333,42.20416666666667],[-78.30166666666666,42.291666666666664],[-78.30166666666666,42.291666666666664],[-78.30166666666666,42.291666666666664],[-78.30166666666666,42.291666666666664],[-78.30166666666666,42.291666666666664],[-78.30166666666666,42.291666666666664],[-78.30166666666666,42.291666666666664],[-77.77277777777778,42.35444444444445],[-77.77277777777778,42.35444444444445],[-77.77277777777778,42.35444444444445],[-77.52777777777777,42.382777777777775],[-77.52777777777777,42.382777777777775],[-77.52777777777777,42.382777777777775],[-77.52777777777777,42.382777777777775],[-77.52777777777777,42.382777777777775],[-77.17166666666667,42.42333333333333],[-77.17166666666667,42.42333333333333],[-77.17166666666667,42.42333333333333],[-77.17166666666667,42.42333333333333],[-77.17166666666667,42.42333333333333],[-76.995,42.442499999999995],[-76.995,42.442499999999995],[-76.995,42.442499999999995],[-76.81694444444445,42.46194444444445],[-76.81694444444445,42.46194444444445],[-76.68166666666667,42.47666666666667],[-76.68166666666667,42.47666666666667],[-76.68166666666667,42.47666666666667],[-76.68166666666667,42.47666666666667],[-76.46666666666667,42.499722222222225],[-76.46666666666667,42.499722222222225],[-76.46666666666667,42.499722222222225],[-76.46666666666667,42.499722222222225],[-76.29222222222222,42.51777777777777],[-76.29222222222222,42.51777777777777],[-76.29222222222222,42.51777777777777],[-76.29222222222222,42.51777777777777],[-76.11277777777777,42.53638888888889],[-76.11277777777777,42.53638888888889],[-76.11277777777777,42.53638888888889],[-75.75111111111111,42.57222222222222],[-75.75111111111111,42.57222222222222],[-75.75111111111111,42.57222222222222],[-75.75111111111111,42.57222222222222],[-75.57249999999999,42.58972222222222],[-75.57249999999999,42.58972222222222],[-75.57249999999999,42.58972222222222],[-75.42472222222223,42.60416666666667],[-75.42472222222223,42.60416666666667],[-75.42472222222223,42.60416666666667],[-75.42472222222223,42.60416666666667],[-75.24305555555556,42.62138888888889],[-75.24305555555556,42.62138888888889],[-75.24305555555556,42.62138888888889],[-75.24305555555556,42.62138888888889],[-75.20805555555556,42.624722222222225],[-75.20805555555556,42.624722222222225],[-75.20805555555556,42.624722222222225],[-74.2925,42.706944444444446],[-74.2925,42.706944444444446],[-74.2925,42.706944444444446],[-74.2925,42.706944444444446],[-74.10722222222222,42.722500000000004],[-74.10722222222222,42.722500000000004],[-74.10722222222222,42.722500000000004],[-72.97555555555556,42.724444444444444],[-72.97555555555556,42.724444444444444],[-72.97555555555556,42.724444444444444],[-72.97555555555556,42.724444444444444],[-72.80833333333334,42.70527777777778],[-72.80833333333334,42.70527777777778],[-72.80833333333334,42.70527777777778],[-72.80833333333334,42.70527777777778],[-72.60166666666666,42.68055555555555],[-72.4375,42.66111111111111],[-72.4375,42.66111111111111],[-72.4375,42.66111111111111],[-72.28416666666666,42.64222222222222],[-72.28416666666666,42.64222222222222],[-72.28416666666666,42.64222222222222],[-72.00527777777778,42.609722222222224],[-72.00527777777778,42.609722222222224],[-72.00527777777778,42.609722222222224],[-71.9,42.6],[-71.9,42.6],[-71.9,42.6],[-71.9,42.6],[-71.9,42.6],[-71.9,42.6],[-71.87222222222222,42.59277777777778],[-71.87222222222222,42.59277777777778],[-71.7,42.56666666666667],[-71.7,42.56666666666667],[-71.60083333333333,42.55166666666666],[-71.60083333333333,42.55166666666666],[-71.60083333333333,42.55166666666666],[-71.60083333333333,42.55166666666666],[-71.56666666666666,42.55],[-71.48388888888888,42.527499999999996],[-71.45,42.516666666666666],[-71.45,42.516666666666666],[-71.35,42.5],[-71.35,42.5],[-71.35,42.5],[-71.35,42.5],[-71.35,42.5],[-71.25,42.483333333333334],[-71.25,42.483333333333334],[-71.25,42.483333333333334],[-71.25,42.483333333333334],[-71.25,42.483333333333334],[-71.1875,42.468333333333334],[-71.06666666666666,42.45],[-71.06666666666666,42.45],[-71.06666666666666,42.45],[-71.06666666666666,42.45],[-71.00333333333333,42.433055555555555],[-71.00333333333333,42.433055555555555],[-70.92277777777778,42.45138888888889],[-70.92277777777778,42.45138888888889],[-70.92277777777778,42.45138888888889],[-70.92277777777778,42.45138888888889],[-70.8825,42.515277777777776],[-70.86666666666666,42.53333333333333],[-70.86666666666666,42.53333333333333],[-70.84194444444444,42.58027777777778],[-70.84194444444444,42.58027777777778],[-70.84194444444444,42.58027777777778],[-70.84194444444444,42.58027777777778],[-70.83333333333333,42.6],[-70.83333333333333,42.6],[-70.83333333333333,42.6],[-70.80388888888889,42.64722222222222],[-70.80388888888889,42.64722222222222],[-70.84666666666666,42.71055555555556],[-70.84666666666666,42.71055555555556],[-70.86666666666666,42.733333333333334],[-70.86666666666666,42.733333333333334],[-70.86666666666666,42.733333333333334],[-70.93333333333334,42.78333333333333],[-70.98111111111112,42.80027777777777],[-70.98111111111112,42.80027777777777],[-71.06583333333333,42.81194444444444],[-71.08333333333333,42.8],[-71.1,42.75],[-71.1,42.75],[-71.1,42.75],[-71.06805555555555,42.64833333333333],[-71.06805555555555,42.64833333333333],[-71.04527777777777,42.590833333333336],[-71.03333333333333,42.56666666666667],[-71.03333333333333,42.56666666666667],[-71.03333333333333,42.56666666666667],[-71.02277777777778,42.53388888888889],[-71.01666666666667,42.516666666666666],[-71.01666666666667,42.516666666666666],[-71,42.46666666666667],[-71,42.46666666666667],[-71,42.46666666666667],[-70.96666666666667,42.4],[-70.96666666666667,42.4],[-70.96666666666667,42.4],[-70.96666666666667,42.4],[-70.95,42.333333333333336],[-70.95,42.333333333333336],[-70.93722222222223,42.30472222222222],[-70.93722222222223,42.30472222222222],[-70.93722222222223,42.30472222222222],[-70.96277777777777,42.24638888888889],[-70.96277777777777,42.24638888888889],[-70.96277777777777,42.24638888888889],[-71.00916666666667,42.138888888888886],[-71.00916666666667,42.138888888888886],[-71.00916666666667,42.138888888888886],[-71.03361111111111,42.08694444444445],[-71.03361111111111,42.08694444444445],[-71.03361111111111,42.08694444444445],[-71.03361111111111,42.08694444444445],[-71.06666666666666,42.083333333333336],[-71.06666666666666,42.083333333333336],[-71.08166666666666,42.20638888888889],[-71.08166666666666,42.20638888888889],[-71.08166666666666,42.20638888888889],[-71.03972222222222,42.29361111111111],[-71.03972222222222,42.29361111111111],[-71.03333333333333,42.3],[-71.03333333333333,42.3],[-71.01666666666667,42.333333333333336],[-71.01666666666667,42.333333333333336],[-71.01666666666667,42.333333333333336],[-71.01083333333334,42.35305555555556],[-71.01083333333334,42.35305555555556],[-71.01083333333334,42.35305555555556],[-71.01083333333334,42.35305555555556]],"type":"LineString"}
}
