{
  "id": 2015237401,
  "type": "Feature",
  "properties": {
    "geom:area": 0,
    "geom:bbox": "-128.295278,37.266667,-122.100833,38.644722",
    "geom:latitude": 37.89053219332963,
    "geom:longitude": -125.07957170015149,
    "src:alt_label": "swim-path",
    "src:geom": "swim",
    "swim:altitudes": [
      "350C",
      "350C",
      "350C",
      "350C",
      "350C",
      "350C",
      "350",
      "295",
      "229",
      "170",
      "152",
      "114",
      "108",
      "100",
      "099",
      "094",
      "093",
      "086",
      "080",
      "079",
      "080",
      "075",
      "068",
      "042",
      "030",
      "030",
      "021",
      "011"
    ],
    "swim:geom": "path",
    "swim:speeds": [
      480,
      509,
      509,
      509,
      506,
      506,
      501,
      497,
      446,
      409,
      396,
      376,
      354,
      289,
      289,
      289,
      290,
      289,
      280,
      284,
      284,
      275,
      269,
      256,
      201,
      196,
      193,
      156
    ],
    "swim:timestamps": [
      1775744396,
      1775744636,
      1775744876,
      1775744936,
      1775745176,
      1775745237,
      1775745597,
      1775745777,
      1775745957,
      1775746138,
      1775746198,
      1775746318,
      1775746351,
      1775746465,
      1775746525,
      1775746558,
      1775746585,
      1775746651,
      1775746705,
      1775746738,
      1775746765,
      1775746858,
      1775746892,
      1775746979,
      1775747012,
      1775747039,
      1775747126,
      1775747186
    ],
    "wof:geomhash": "e5bc11ca922934764a4e134ee3e5b0c2",
    "wof:id": 2015237401,
    "wof:repo": "sfomuseum-data-flights-2026-04"
  },
  "bbox": [
    -128.29527777777778,
    37.266666666666666,
    -122.10083333333333,
    38.64472222222222
  ],
  "geometry": {"coordinates":[[-128.29527777777778,38.64472222222222],[-127.59777777777778,38.49111111111111],[-126.90666666666667,38.33416666666667],[-126.73694444444445,38.29222222222222],[-126.06833333333333,38.124722222222225],[-125.90055555555556,38.081944444444446],[-124.89777777777779,37.82055555555556],[-124.39888888888889,37.68666666666666],[-123.90694444444445,37.55166666666666],[-123.49194444444444,37.43611111111111],[-123.36277777777777,37.39972222222222],[-123.11277777777777,37.32916666666667],[-123.05,37.31666666666667],[-122.85,37.266666666666666],[-122.75,37.28333333333333],[-122.70305555555557,37.294999999999995],[-122.65,37.3],[-122.55,37.333333333333336],[-122.46666666666667,37.35],[-122.41666666666667,37.36138888888889],[-122.36666666666666,37.36666666666667],[-122.23166666666667,37.403888888888886],[-122.16666666666667,37.416666666666664],[-122.10083333333333,37.48638888888889],[-122.13333333333334,37.516666666666666],[-122.15083333333334,37.52638888888889],[-122.23333333333333,37.56666666666667],[-122.3,37.583333333333336]],"type":"LineString"}
}
