{
  "id": 2015274791,
  "type": "Feature",
  "properties": {
    "geom:area": 0,
    "geom:bbox": "-122.526460,37.222150,-121.310070,37.660580",
    "geom:latitude": 37.40508791875268,
    "geom:longitude": -122.00496653558609,
    "src:alt_label": "swim-takeoff",
    "src:geom": "swim",
    "swim:elevations": [
      152,
      591,
      715,
      1076,
      1100,
      1637,
      1784,
      2106,
      2645,
      2808,
      2853,
      3016,
      3295,
      3515,
      3594,
      4159,
      4299,
      4344,
      4720,
      5160,
      5374,
      5659,
      5947,
      6260,
      6511,
      6944,
      7070,
      7256,
      7303,
      7498,
      7548,
      7804,
      7977,
      8000,
      8194,
      8595,
      8778,
      8890
    ],
    "swim:geom": "takeoff",
    "swim:timestamps": [
      1775982143,
      1775982173,
      1775982182,
      1775982208,
      1775982211,
      1775982259,
      1775982271,
      1775982289,
      1775982317,
      1775982330,
      1775982333,
      1775982346,
      1775982368,
      1775982388,
      1775982395,
      1775982437,
      1775982447,
      1775982450,
      1775982478,
      1775982508,
      1775982523,
      1775982544,
      1775982568,
      1775982593,
      1775982618,
      1775982655,
      1775982666,
      1775982688,
      1775982692,
      1775982716,
      1775982721,
      1775982745,
      1775982773,
      1775982782,
      1775982812,
      1775982865,
      1775982889,
      1775982902
    ],
    "wof:geomhash": "248b15ae3973f47b4192b8a181b245d4",
    "wof:id": 2015274791,
    "wof:repo": "sfomuseum-data-flights-2026-04"
  },
  "bbox": [
    -122.52646,
    37.22215,
    -121.31007,
    37.66058
  ],
  "geometry": {"coordinates":[[-122.38803,37.62433],[-122.4129,37.63568],[-122.42038,37.63882],[-122.44223,37.64787],[-122.44498,37.64899],[-122.50052,37.66058],[-122.51427,37.65418],[-122.52646,37.63716],[-122.52405,37.60586],[-122.51774,37.59111],[-122.51555,37.58787],[-122.50299,37.57539],[-122.47497,37.55659],[-122.44635,37.53775],[-122.43727,37.53176],[-122.37526,37.49125],[-122.35918,37.4807],[-122.35457,37.4777],[-122.31003,37.44958],[-122.25423,37.42707],[-122.22398,37.41932],[-122.18057,37.40998],[-122.12883,37.39919],[-122.07368,37.38719],[-122.019,37.37535],[-121.93568,37.3573],[-121.9086,37.35154],[-121.8589,37.34076],[-121.84788,37.3384],[-121.79051,37.32559],[-121.78036,37.32321],[-121.72227,37.31072],[-121.65169,37.29671],[-121.62998,37.29236],[-121.55033,37.27628],[-121.41159,37.24505],[-121.34737,37.23052],[-121.31007,37.22215]],"type":"LineString"}
}
