{
  "id": 2031125017,
  "type": "Feature",
  "properties": {
    "geom:area": 0,
    "geom:bbox": "-172.130000,35.550000,167.770000,46.780000",
    "geom:latitude": 45.72304367863378,
    "geom:longitude": -8.726039809745771,
    "src:alt_label": "swim-route",
    "src:geom": "swim",
    "swim:geom": "route",
    "wof:geomhash": "e9fe18f88b8147236c6d69df6d695ce7",
    "wof:id": 2031125017,
    "wof:repo": "sfomuseum-data-flights-2026-04"
  },
  "bbox": [
    -172.13,
    35.55,
    167.77,
    46.78
  ],
  "geometry": {"coordinates":[[[139.78,35.55],[141.74,36.69],[145.69,38.79],[167.77,46.53]],[[-172.13,46.07],[-163.88,46.1],[-153.17,46.78],[-150,46.44],[-148.67,46.27],[-130,42],[-127,40.63],[-127,40.62],[-125.99,40.14],[-124.13,39.2],[-124.1,39.18],[-124,39.13],[-123.91,39.08],[-123.85,39.06],[-123.75,39],[-123.65,38.92],[-123.59,38.88],[-123.37,38.7],[-123.33,38.67],[-123.14,38.52],[-123.13,38.52],[-122.87,38.3],[-122.85,38.29],[-122.77,38.22],[-122.75,38.16],[-122.72,38.06],[-122.69,37.95],[-122.67,37.9],[-122.67,37.9],[-122.65,37.87],[-122.62,37.85],[-122.59,37.82],[-122.58,37.81],[-122.51,37.74],[-122.5,37.73],[-122.44,37.68],[-122.37,37.62],[-122.38,37.62]]],"type":"MultiLineString"}
}
