{
  "id": 2031144299,
  "type": "Feature",
  "properties": {
    "geom:area": 0,
    "geom:bbox": "-177.033333,37.633333,-122.400000,53.100000",
    "geom:latitude": 47.95482291423823,
    "geom:longitude": -149.03513683196186,
    "src:alt_label": "swim-path",
    "src:geom": "swim",
    "swim:altitudes": [
      "005",
      "005",
      "019",
      "019",
      "033",
      "033",
      "033",
      "033",
      "059",
      "059",
      "059",
      "059",
      "059",
      "059",
      "083",
      "083",
      "083",
      "105",
      "105",
      "115",
      "134",
      "134",
      "134",
      "134",
      "172",
      "172",
      "172",
      "172",
      "172",
      "190",
      "190",
      "190",
      "190",
      "209",
      "209",
      "209",
      "238",
      "238",
      "238",
      "238",
      "238",
      "238",
      "251",
      "261",
      "271",
      "271",
      "281",
      "281",
      "281",
      "281",
      "299C",
      "299C",
      "299C",
      "299C",
      "299C",
      "299C",
      "300C",
      "300C",
      "300C",
      "300C",
      "300C",
      "300C",
      "300C",
      "300C",
      "300C",
      "300C",
      "300C",
      "300C",
      "300C",
      "300C",
      "300C",
      "300C",
      "300C",
      "300C",
      "300C",
      "300C",
      "300C",
      "300C",
      "300C",
      "300C",
      "300C",
      "300C",
      "300C",
      "300C",
      "300C",
      "300C",
      "300C",
      "300C",
      "300C",
      "300C",
      "300C",
      "300C",
      "300C",
      "300C",
      "300C",
      "300C",
      "300C",
      "300C",
      "300C",
      "300C",
      "300C",
      "300C",
      "300C",
      "300C",
      "310",
      "310",
      "310",
      "310",
      "310",
      "310",
      "310",
      "310",
      "310",
      "310",
      "310",
      "310",
      "310",
      "310",
      "310",
      "310",
      "310",
      "310",
      "310",
      "310",
      "310",
      "310",
      "310",
      "310",
      "310",
      "310",
      "310",
      "310",
      "310",
      "310",
      "310",
      "310",
      "310",
      "310",
      "310",
      "310",
      "310",
      "310",
      "310",
      "310",
      "310",
      "310",
      "310",
      "310",
      "310",
      "310",
      "310",
      "310",
      "310",
      "310",
      "310",
      "310",
      "310",
      "310",
      "310",
      "310",
      "310",
      "310",
      "310",
      "310",
      "320",
      "320",
      "320",
      "320",
      "320",
      "320",
      "320",
      "320",
      "320",
      "320",
      "320",
      "320",
      "320",
      "320",
      "320",
      "320",
      "320",
      "320",
      "320",
      "320",
      "320",
      "320",
      "320",
      "320",
      "320",
      "320",
      "320",
      "320",
      "320",
      "320",
      "320",
      "320",
      "320",
      "320",
      "320",
      "320",
      "320"
    ],
    "swim:geom": "path",
    "swim:speeds": [
      187,
      187,
      190,
      190,
      213,
      213,
      213,
      213,
      277,
      277,
      277,
      277,
      277,
      277,
      288,
      288,
      288,
      299,
      299,
      348,
      373,
      373,
      373,
      373,
      398,
      398,
      398,
      398,
      398,
      406,
      406,
      406,
      406,
      407,
      407,
      407,
      420,
      420,
      420,
      420,
      420,
      420,
      426,
      434,
      443,
      443,
      451,
      451,
      451,
      451,
      467,
      467,
      467,
      467,
      467,
      467,
      465,
      465,
      465,
      465,
      465,
      465,
      465,
      465,
      465,
      465,
      465,
      465,
      465,
      465,
      467,
      467,
      467,
      467,
      468,
      468,
      468,
      468,
      468,
      468,
      468,
      468,
      468,
      468,
      469,
      469,
      469,
      469,
      469,
      469,
      469,
      470,
      470,
      470,
      470,
      470,
      470,
      471,
      471,
      471,
      471,
      471,
      471,
      471,
      470,
      470,
      470,
      470,
      440,
      440,
      440,
      450,
      450,
      450,
      450,
      450,
      450,
      450,
      450,
      450,
      450,
      450,
      450,
      450,
      450,
      450,
      450,
      450,
      450,
      450,
      450,
      450,
      450,
      460,
      460,
      460,
      460,
      480,
      480,
      480,
      480,
      480,
      490,
      490,
      490,
      490,
      490,
      490,
      490,
      490,
      490,
      490,
      490,
      490,
      490,
      500,
      500,
      500,
      500,
      500,
      500,
      510,
      510,
      510,
      480,
      480,
      480,
      480,
      470,
      470,
      470,
      470,
      470,
      470,
      470,
      470,
      470,
      470,
      470,
      470,
      470,
      470,
      470,
      470,
      470,
      470,
      470,
      470,
      470,
      470,
      470,
      470,
      470,
      470,
      470,
      470,
      470,
      470,
      470,
      470,
      470
    ],
    "swim:timestamps": [
      1777495083,
      1777495083,
      1777495128,
      1777495128,
      1777495149,
      1777495149,
      1777495149,
      1777495149,
      1777495308,
      1777495308,
      1777495308,
      1777495308,
      1777495308,
      1777495308,
      1777495368,
      1777495368,
      1777495368,
      1777495428,
      1777495428,
      1777495488,
      1777495548,
      1777495548,
      1777495548,
      1777495548,
      1777495668,
      1777495668,
      1777495668,
      1777495668,
      1777495668,
      1777495728,
      1777495728,
      1777495728,
      1777495728,
      1777495789,
      1777495789,
      1777495789,
      1777495909,
      1777495909,
      1777495909,
      1777495909,
      1777495909,
      1777495909,
      1777495969,
      1777496029,
      1777496089,
      1777496089,
      1777496149,
      1777496149,
      1777496149,
      1777496149,
      1777496269,
      1777496269,
      1777496269,
      1777496269,
      1777496269,
      1777496269,
      1777496449,
      1777496449,
      1777496449,
      1777496449,
      1777496449,
      1777496570,
      1777496570,
      1777496570,
      1777496570,
      1777496630,
      1777496630,
      1777496630,
      1777496630,
      1777496630,
      1777496810,
      1777496810,
      1777496810,
      1777496810,
      1777496870,
      1777496870,
      1777496870,
      1777496870,
      1777496930,
      1777496930,
      1777496930,
      1777496930,
      1777496930,
      1777496930,
      1777497170,
      1777497170,
      1777497170,
      1777497170,
      1777497170,
      1777497170,
      1777497170,
      1777497291,
      1777497291,
      1777497291,
      1777497291,
      1777497291,
      1777497291,
      1777497351,
      1777497351,
      1777497351,
      1777497411,
      1777497411,
      1777497411,
      1777497411,
      1777509170,
      1777509170,
      1777509170,
      1777509170,
      1777509231,
      1777509231,
      1777509231,
      1777509473,
      1777509473,
      1777509473,
      1777509473,
      1777509473,
      1777509595,
      1777509595,
      1777509595,
      1777509656,
      1777509656,
      1777509716,
      1777509716,
      1777509716,
      1777509776,
      1777509776,
      1777509776,
      1777509776,
      1777509776,
      1777510018,
      1777510018,
      1777510018,
      1777510018,
      1777510085,
      1777510085,
      1777510085,
      1777510085,
      1777510809,
      1777510809,
      1777510809,
      1777510809,
      1777510809,
      1777510990,
      1777510990,
      1777511051,
      1777511051,
      1777511051,
      1777511051,
      1777511210,
      1777511210,
      1777511210,
      1777511269,
      1777511269,
      1777511269,
      1777511269,
      1777511329,
      1777511329,
      1777511329,
      1777511391,
      1777511391,
      1777511391,
      1777511586,
      1777511586,
      1777511586,
      1777513122,
      1777513122,
      1777513122,
      1777513122,
      1777513182,
      1777513182,
      1777513243,
      1777513243,
      1777513243,
      1777513303,
      1777513303,
      1777513303,
      1777513303,
      1777513424,
      1777513424,
      1777513424,
      1777513424,
      1777513424,
      1777513485,
      1777513485,
      1777513485,
      1777513667,
      1777513667,
      1777513667,
      1777513667,
      1777513667,
      1777513787,
      1777513787,
      1777513787,
      1777513787,
      1777513787,
      1777513969,
      1777513969,
      1777513969,
      1777513969,
      1777513969,
      1777513969
    ],
    "wof:geomhash": "c02ecfb297163abdca9280d85fef483c",
    "wof:id": 2031144299,
    "wof:repo": "sfomuseum-data-flights-2026-04"
  },
  "bbox": [
    -177.03333333333333,
    37.63333333333333,
    -122.4,
    53.1
  ],
  "geometry": {"coordinates":[[-122.4,37.63333333333333],[-122.4,37.63333333333333],[-122.42611111111111,37.64222222222222],[-122.42611111111111,37.64222222222222],[-122.46666666666667,37.65],[-122.46666666666667,37.65],[-122.46666666666667,37.65],[-122.46666666666667,37.65],[-122.63777777777779,37.75388888888889],[-122.63777777777779,37.75388888888889],[-122.63777777777779,37.75388888888889],[-122.63777777777779,37.75388888888889],[-122.63777777777779,37.75388888888889],[-122.63777777777779,37.75388888888889],[-122.72111111111111,37.80277777777778],[-122.72111111111111,37.80277777777778],[-122.72111111111111,37.80277777777778],[-122.79166666666667,37.86555555555556],[-122.79166666666667,37.86555555555556],[-122.85749999999999,37.94499999999999],[-122.93,38.032222222222224],[-122.93,38.032222222222224],[-122.93,38.032222222222224],[-122.93,38.032222222222224],[-123.0825,38.214444444444446],[-123.0825,38.214444444444446],[-123.0825,38.214444444444446],[-123.0825,38.214444444444446],[-123.0825,38.214444444444446],[-123.16277777777778,38.309999999999995],[-123.16277777777778,38.309999999999995],[-123.16277777777778,38.309999999999995],[-123.16277777777778,38.309999999999995],[-123.24166666666667,38.403888888888886],[-123.24166666666667,38.403888888888886],[-123.24166666666667,38.403888888888886],[-123.40611111111112,38.59805555555556],[-123.40611111111112,38.59805555555556],[-123.40611111111112,38.59805555555556],[-123.40611111111112,38.59805555555556],[-123.40611111111112,38.59805555555556],[-123.40611111111112,38.59805555555556],[-123.49,38.69638888888888],[-123.57527777777777,38.79666666666667],[-123.66472222222222,38.90083333333333],[-123.66472222222222,38.90083333333333],[-123.75972222222222,39.00083333333333],[-123.75972222222222,39.00083333333333],[-123.75972222222222,39.00083333333333],[-123.75972222222222,39.00083333333333],[-124.0411111111111,39.152499999999996],[-124.0411111111111,39.152499999999996],[-124.0411111111111,39.152499999999996],[-124.0411111111111,39.152499999999996],[-124.0411111111111,39.152499999999996],[-124.0411111111111,39.152499999999996],[-124.44722222222222,39.36277777777778],[-124.44722222222222,39.36277777777778],[-124.44722222222222,39.36277777777778],[-124.44722222222222,39.36277777777778],[-124.44722222222222,39.36277777777778],[-124.73611111111111,39.51083333333333],[-124.73611111111111,39.51083333333333],[-124.73611111111111,39.51083333333333],[-124.73611111111111,39.51083333333333],[-124.875,39.58166666666667],[-124.875,39.58166666666667],[-124.875,39.58166666666667],[-124.875,39.58166666666667],[-124.875,39.58166666666667],[-125.29916666666666,39.79555555555555],[-125.29916666666666,39.79555555555555],[-125.29916666666666,39.79555555555555],[-125.29916666666666,39.79555555555555],[-125.44333333333334,39.867777777777775],[-125.44333333333334,39.867777777777775],[-125.44333333333334,39.867777777777775],[-125.44333333333334,39.867777777777775],[-125.58444444444444,39.93805555555555],[-125.58444444444444,39.93805555555555],[-125.58444444444444,39.93805555555555],[-125.58444444444444,39.93805555555555],[-125.58444444444444,39.93805555555555],[-125.58444444444444,39.93805555555555],[-126.15805555555556,40.22027777777778],[-126.15805555555556,40.22027777777778],[-126.15805555555556,40.22027777777778],[-126.15805555555556,40.22027777777778],[-126.15805555555556,40.22027777777778],[-126.15805555555556,40.22027777777778],[-126.15805555555556,40.22027777777778],[-126.44833333333334,40.361111111111114],[-126.44833333333334,40.361111111111114],[-126.44833333333334,40.361111111111114],[-126.44833333333334,40.361111111111114],[-126.44833333333334,40.361111111111114],[-126.44833333333334,40.361111111111114],[-126.59305555555555,40.43083333333333],[-126.59305555555555,40.43083333333333],[-126.59305555555555,40.43083333333333],[-126.73916666666666,40.50083333333333],[-126.73916666666666,40.50083333333333],[-126.73916666666666,40.50083333333333],[-126.73916666666666,40.50083333333333],[-159.53333333333333,52.96666666666667],[-159.53333333333333,52.96666666666667],[-159.53333333333333,52.96666666666667],[-159.53333333333333,52.96666666666667],[-159.73333333333332,52.983333333333334],[-159.73333333333332,52.983333333333334],[-159.73333333333332,52.983333333333334],[-160.55,53.016666666666666],[-160.55,53.016666666666666],[-160.55,53.016666666666666],[-160.55,53.016666666666666],[-160.55,53.016666666666666],[-160.98333333333332,53.03333333333333],[-160.98333333333332,53.03333333333333],[-160.98333333333332,53.03333333333333],[-161.18333333333334,53.03333333333333],[-161.18333333333334,53.03333333333333],[-161.38333333333333,53.05],[-161.38333333333333,53.05],[-161.38333333333333,53.05],[-161.6,53.05],[-161.6,53.05],[-161.6,53.05],[-161.6,53.05],[-161.6,53.05],[-162.43333333333334,53.06666666666667],[-162.43333333333334,53.06666666666667],[-162.43333333333334,53.06666666666667],[-162.43333333333334,53.06666666666667],[-162.63333333333333,53.06666666666667],[-162.63333333333333,53.06666666666667],[-162.63333333333333,53.06666666666667],[-162.63333333333333,53.06666666666667],[-165.26666666666668,53.1],[-165.26666666666668,53.1],[-165.26666666666668,53.1],[-165.26666666666668,53.1],[-165.26666666666668,53.1],[-165.95,53.1],[-165.95,53.1],[-166.16666666666666,53.083333333333336],[-166.16666666666666,53.083333333333336],[-166.16666666666666,53.083333333333336],[-166.16666666666666,53.083333333333336],[-166.76666666666668,53.083333333333336],[-166.76666666666668,53.083333333333336],[-166.76666666666668,53.083333333333336],[-166.98333333333332,53.083333333333336],[-166.98333333333332,53.083333333333336],[-166.98333333333332,53.083333333333336],[-166.98333333333332,53.083333333333336],[-167.21666666666667,53.083333333333336],[-167.21666666666667,53.083333333333336],[-167.21666666666667,53.083333333333336],[-167.45,53.06666666666667],[-167.45,53.06666666666667],[-167.45,53.06666666666667],[-168.21666666666667,53.05],[-168.21666666666667,53.05],[-168.21666666666667,53.05],[-173.98333333333332,53.016666666666666],[-173.98333333333332,53.016666666666666],[-173.98333333333332,53.016666666666666],[-173.98333333333332,53.016666666666666],[-174.2,53],[-174.2,53],[-174.41666666666666,53],[-174.41666666666666,53],[-174.41666666666666,53],[-174.63333333333333,53],[-174.63333333333333,53],[-174.63333333333333,53],[-174.63333333333333,53],[-175.06666666666666,53],[-175.06666666666666,53],[-175.06666666666666,53],[-175.06666666666666,53],[-175.06666666666666,53],[-175.3,53],[-175.3,53],[-175.3,53],[-175.95,53],[-175.95,53],[-175.95,53],[-175.95,53],[-175.95,53],[-176.38333333333333,53.016666666666666],[-176.38333333333333,53.016666666666666],[-176.38333333333333,53.016666666666666],[-176.38333333333333,53.016666666666666],[-176.38333333333333,53.016666666666666],[-177.03333333333333,53.016666666666666],[-177.03333333333333,53.016666666666666],[-177.03333333333333,53.016666666666666],[-177.03333333333333,53.016666666666666],[-177.03333333333333,53.016666666666666],[-177.03333333333333,53.016666666666666]],"type":"LineString"}
}
