{
  "id": 2031095711,
  "type": "Feature",
  "properties": {
    "geom:area": 0,
    "geom:bbox": "-180.000000,35.550000,170.000000,53.100000",
    "geom:latitude": 50.9369158869813,
    "geom:longitude": -12.70031426086014,
    "src:alt_label": "swim-route",
    "src:geom": "swim",
    "swim:geom": "route",
    "wof:geomhash": "0cb89ae92ce019ff05a806116a1326d5",
    "wof:id": 2031095711,
    "wof:repo": "sfomuseum-data-flights-2026-04"
  },
  "bbox": [
    -180,
    35.55,
    170,
    53.1
  ],
  "geometry": {"coordinates":[[[-122.38,37.62],[-122.5,37.67],[-122.5,37.67],[-122.5,37.68],[-122.59,37.73],[-122.59,37.73],[-122.63,37.75],[-122.69,37.79],[-122.7,37.79],[-122.74,37.81],[-122.76,37.82],[-122.79,37.87],[-122.91,38.01],[-123.15,38.3],[-123.16,38.3],[-123.3,38.48],[-123.42,38.61],[-123.48,38.68],[-123.59,38.82],[-123.64,38.87],[-123.73,38.98],[-123.75,39],[-123.85,39.1],[-123.96,39.21],[-124.3,39.56],[-124.97,40.22],[-126.5,41.66],[-126.79,41.87],[-126.81,41.89],[-126.82,41.89],[-126.83,41.9],[-129.98,44.09],[-132.95,45.4],[-133.98,45.82],[-135.01,46.23],[-137.13,47.03],[-140,48],[-150,51],[-159.38,52.9],[-160,53],[-160.02,52.98],[-161.78,53.06],[-161.86,53.06],[-165.73,53.1],[-166.73,53.08],[-166.8,53.09],[-167.4,53.07],[-170,53],[-172.5,53.08],[-180,53]],[[170,51],[166.25,49.66],[161.33,47.55],[155.1,44.18],[152.68,42.6],[151.91,42.07],[151.14,41.52],[149.65,40.42],[145.67,37.2],[144,36.77],[142.35,36.32],[142.13,36.25],[142.04,36.23],[141.97,36.21],[141.72,36.14],[141.37,36.03],[141.35,36.03],[141.07,35.94],[141.05,35.94],[140.7,35.83],[140.51,35.78],[140.47,35.77],[140.26,35.7],[140.21,35.69],[140.07,35.64],[139.97,35.61],[139.88,35.58],[139.78,35.55]]],"type":"MultiLineString"}
}
