{
  "id": 2015241455,
  "type": "Feature",
  "properties": {
    "geom:area": 0,
    "geom:bbox": "-122.525770,37.646470,-121.671080,38.507380",
    "geom:latitude": 38.05930072887983,
    "geom:longitude": -122.13595280649422,
    "src:alt_label": "swim-takeoff",
    "src:geom": "swim",
    "swim:elevations": [
      743,
      1046,
      1260,
      1373,
      1533,
      2631,
      3063,
      3507,
      3598,
      3944,
      4244,
      4762,
      4789,
      5082,
      5902,
      6046,
      6159,
      6189,
      6317,
      6430,
      6455,
      6735,
      6941,
      7179
    ],
    "swim:geom": "takeoff",
    "swim:timestamps": [
      1775667591,
      1775667617,
      1775667650,
      1775667668,
      1775667683,
      1775667765,
      1775667800,
      1775667848,
      1775667860,
      1775667888,
      1775667912,
      1775667957,
      1775667961,
      1775667992,
      1775668076,
      1775668106,
      1775668136,
      1775668140,
      1775668171,
      1775668196,
      1775668200,
      1775668239,
      1775668269,
      1775668303
    ],
    "wof:geomhash": "5662fc940c9b4d1ba7d115018e0b457f",
    "wof:id": 2015241455,
    "wof:repo": "sfomuseum-data-flights-2026-04"
  },
  "bbox": [
    -122.52577,
    37.64647,
    -121.67108,
    38.50738
  ],
  "geometry": {"coordinates":[[-122.43973,37.64647],[-122.46416,37.65706],[-122.49981,37.67247],[-122.51908,37.68587],[-122.52577,37.70383],[-122.50973,37.80785],[-122.45591,37.83146],[-122.38257,37.8731],[-122.36568,37.88494],[-122.3229,37.91493],[-122.28611,37.94064],[-122.21682,37.98876],[-122.21054,37.99309],[-122.15967,38.02811],[-122.02077,38.1275],[-121.97722,38.17022],[-121.93386,38.21505],[-121.92786,38.22134],[-121.87874,38.27215],[-121.84064,38.31283],[-121.83437,38.31979],[-121.77231,38.38999],[-121.72624,38.44323],[-121.67108,38.50738]],"type":"LineString"}
}
