{
  "id": 2031100885,
  "type": "Feature",
  "properties": {
    "geom:area": 0,
    "geom:bbox": "-122.183333,32.900278,-97.050000,38.281667",
    "geom:latitude": 36.32384200429397,
    "geom:longitude": -109.43430069246064,
    "src:alt_label": "swim-path",
    "src:geom": "swim",
    "swim:altitudes": [
      "010",
      "100",
      "191",
      "244",
      "280C",
      "280C",
      "280C",
      "280C",
      "280C",
      "280C",
      "280C",
      "280C",
      "280C",
      "280C",
      "280C",
      "280C",
      "280C",
      "280C",
      "280C",
      "280C",
      "280C",
      "280C",
      "280",
      "340C",
      "340C",
      "340C",
      "340C",
      "340C",
      "360C",
      "360C",
      "360C",
      "360C",
      "360C",
      "360C",
      "360C",
      "360C",
      "360C",
      "360C",
      "360C",
      "360C",
      "360C",
      "360C",
      "241",
      "180",
      "032"
    ],
    "swim:geom": "path",
    "swim:speeds": [
      192,
      270,
      389,
      416,
      424,
      424,
      425,
      427,
      416,
      416,
      414,
      407,
      406,
      413,
      414,
      413,
      409,
      407,
      408,
      399,
      410,
      403,
      401,
      379,
      377,
      374,
      379,
      384,
      390,
      398,
      399,
      398,
      407,
      407,
      403,
      403,
      404,
      404,
      403,
      409,
      408,
      402,
      385,
      361,
      213
    ],
    "swim:timestamps": [
      1777084619,
      1777084867,
      1777085167,
      1777085347,
      1777085528,
      1777085708,
      1777085828,
      1777086008,
      1777086276,
      1777086309,
      1777086609,
      1777086969,
      1777087150,
      1777087450,
      1777087538,
      1777087810,
      1777088051,
      1777088259,
      1777088556,
      1777089037,
      1777089217,
      1777089637,
      1777089998,
      1777090298,
      1777090598,
      1777090779,
      1777090959,
      1777091141,
      1777091439,
      1777091800,
      1777092282,
      1777092402,
      1777092883,
      1777092943,
      1777093243,
      1777093463,
      1777093844,
      1777094024,
      1777094304,
      1777094564,
      1777094905,
      1777095085,
      1777095685,
      1777095865,
      1777096516
    ],
    "wof:geomhash": "7e6d7e25dffd74013860edbae262c9bb",
    "wof:id": 2031100885,
    "wof:repo": "sfomuseum-data-flights-2026-04"
  },
  "bbox": [
    -122.18333333333334,
    32.900277777777774,
    -97.05,
    38.281666666666666
  ],
  "geometry": {"coordinates":[[-97.05,32.916666666666664],[-97.22666666666667,33.07083333333334],[-97.76333333333334,32.900277777777774],[-98.1275,33.01833333333333],[-98.51472222222222,33.154444444444444],[-98.89583333333334,33.308611111111105],[-99.14944444444446,33.41],[-99.53472222222221,33.56305555555555],[-100.10916666666667,33.78777777777778],[-100.18555555555555,33.8175],[-100.81388888888888,34.05833333333333],[-101.55027777777778,34.334722222222226],[-101.92694444444444,34.47361111111111],[-102.5611111111111,34.70388888888889],[-102.74222222222222,34.76916666666666],[-103.33388888888888,34.978611111111114],[-103.84416666666667,35.15555555555555],[-104.28305555555555,35.30694444444444],[-104.92333333333333,35.520833333333336],[-105.93055555555556,35.8525],[-106.31583333333333,35.97638888888889],[-107.2175,36.2575],[-107.9825,36.49055555555556],[-108.61222222222221,36.67722222222222],[-109.22305555555556,36.85416666666667],[-109.61194444444443,36.965],[-109.98194444444445,37.06888888888889],[-110.35722222222222,37.1725],[-110.99972222222222,37.346944444444446],[-111.78416666666666,37.55444444444444],[-112.83638888888889,37.82222222222222],[-113.09916666666666,37.88722222222222],[-114.1738888888889,38.146388888888886],[-114.31333333333333,38.17916666666667],[-115.03388888888888,38.281666666666666],[-115.54138888888889,38.23583333333333],[-116.4475,38.14944444444444],[-116.8436111111111,38.10944444444445],[-117.50555555555556,38.03944444444444],[-118.13,37.97],[-118.93111111111112,37.87694444444445],[-119.36555555555555,37.82666666666667],[-120.72027777777778,37.66222222222222],[-121.07138888888889,37.618611111111115],[-122.18333333333334,37.53333333333333]],"type":"LineString"}
}
