{
  "id": 2015270909,
  "type": "Feature",
  "properties": {
    "geom:area": 0,
    "geom:bbox": "-122.814490,37.378660,-122.099940,38.503810",
    "geom:latitude": 37.7917347096718,
    "geom:longitude": -122.47834303784201,
    "src:alt_label": "swim-approach",
    "src:geom": "swim",
    "swim:elevations": [
      7251,
      7137,
      6795,
      6576,
      6243,
      6025,
      5886,
      5614,
      5396,
      5014,
      4797,
      4726,
      4453,
      4241,
      3971,
      3690,
      3532,
      3353,
      3353,
      3353,
      3353,
      3353,
      3353,
      3353,
      3342,
      3118,
      3109,
      2860,
      2717,
      2625,
      2543,
      2533,
      2444,
      2405,
      2066,
      1867,
      1762,
      1547,
      1520,
      1527,
      1414,
      1316,
      1092,
      972,
      895,
      827,
      699,
      610,
      419,
      321,
      303,
      209,
      107,
      57,
      0
    ],
    "swim:geom": "approach",
    "swim:timestamps": [
      1776021178,
      1776021190,
      1776021228,
      1776021253,
      1776021293,
      1776021316,
      1776021335,
      1776021366,
      1776021390,
      1776021438,
      1776021466,
      1776021475,
      1776021508,
      1776021532,
      1776021556,
      1776021585,
      1776021603,
      1776021656,
      1776021680,
      1776021715,
      1776021723,
      1776021763,
      1776021778,
      1776021807,
      1776021819,
      1776021864,
      1776021870,
      1776021925,
      1776021950,
      1776021968,
      1776021988,
      1776021991,
      1776022015,
      1776022021,
      1776022077,
      1776022106,
      1776022128,
      1776022167,
      1776022188,
      1776022194,
      1776022217,
      1776022231,
      1776022275,
      1776022306,
      1776022324,
      1776022340,
      1776022364,
      1776022382,
      1776022430,
      1776022454,
      1776022460,
      1776022482,
      1776022508,
      1776022523,
      1776022535
    ],
    "wof:geomhash": "e359037c07cda841b3044677cc515af3",
    "wof:id": 2015270909,
    "wof:repo": "sfomuseum-data-flights-2026-04"
  },
  "bbox": [
    -122.81449,
    37.37866,
    -122.09994,
    38.50381
  ],
  "geometry": {"coordinates":[[-122.81449,38.50381],[-122.81061,38.48137],[-122.79841,38.4096],[-122.79075,38.36395],[-122.77898,38.29354],[-122.772,38.25193],[-122.76552,38.22044],[-122.75063,38.16691],[-122.7391,38.12687],[-122.71631,38.04836],[-122.70325,38.00307],[-122.69892,37.98821],[-122.68341,37.93495],[-122.66602,37.8968],[-122.6353,37.86342],[-122.59777,37.82786],[-122.57412,37.80586],[-122.50797,37.74365],[-122.48131,37.71852],[-122.44538,37.68466],[-122.43802,37.67769],[-122.39998,37.64175],[-122.38562,37.62825],[-122.359,37.60002],[-122.3528,37.58696],[-122.32763,37.53862],[-122.32392,37.5323],[-122.29615,37.47484],[-122.30179,37.44702],[-122.30676,37.42765],[-122.30933,37.40527],[-122.3084,37.40195],[-122.28688,37.38111],[-122.27887,37.37866],[-122.20139,37.39153],[-122.1606,37.40117],[-122.13072,37.40838],[-122.09994,37.44033],[-122.10044,37.46046],[-122.10353,37.46556],[-122.11679,37.48311],[-122.12559,37.49454],[-122.15419,37.52709],[-122.18099,37.53911],[-122.19623,37.54556],[-122.20921,37.55107],[-122.2294,37.5598],[-122.24482,37.56621],[-122.28338,37.58249],[-122.30078,37.58981],[-122.30511,37.59167],[-122.32096,37.59828],[-122.34038,37.60646],[-122.35162,37.61121],[-122.35874,37.61509]],"type":"LineString"}
}
