{
  "id": 2015178451,
  "type": "Feature",
  "properties": {
    "geom:area": 0,
    "geom:bbox": "-122.636870,36.720330,-121.877400,37.614450",
    "geom:latitude": 37.24200999753255,
    "geom:longitude": -122.26700724540693,
    "src:alt_label": "swim-approach",
    "src:geom": "swim",
    "swim:elevations": [
      5837,
      5663,
      5448,
      5238,
      5087,
      4832,
      4525,
      4225,
      3708,
      3536,
      3348,
      3105,
      3088,
      3048,
      3048,
      3076,
      3051,
      3048,
      3049,
      2875,
      2745,
      2743,
      2743,
      2593,
      2459,
      2201,
      2134,
      2134,
      2134,
      2134,
      1955,
      1830,
      1829,
      1829,
      1829,
      1829,
      1829,
      1829,
      1829,
      1829,
      1829,
      1824,
      1491,
      1340,
      1292,
      1219,
      1219,
      1104,
      897,
      853,
      813,
      660,
      609,
      453,
      295,
      214,
      171,
      75,
      143
    ],
    "swim:geom": "approach",
    "swim:timestamps": [
      1775046448,
      1775046466,
      1775046485,
      1775046505,
      1775046520,
      1775046544,
      1775046574,
      1775046602,
      1775046651,
      1775046667,
      1775046687,
      1775046717,
      1775046723,
      1775046776,
      1775046800,
      1775046836,
      1775046852,
      1775046871,
      1775046909,
      1775046949,
      1775046985,
      1775047006,
      1775047031,
      1775047074,
      1775047098,
      1775047134,
      1775047165,
      1775047183,
      1775047202,
      1775047232,
      1775047286,
      1775047317,
      1775047337,
      1775047353,
      1775047405,
      1775047413,
      1775047451,
      1775047471,
      1775047528,
      1775047563,
      1775047601,
      1775047627,
      1775047677,
      1775047708,
      1775047717,
      1775047757,
      1775047792,
      1775047818,
      1775047850,
      1775047864,
      1775047875,
      1775047910,
      1775047924,
      1775047964,
      1775048008,
      1775048025,
      1775048041,
      1775048065,
      1775048087
    ],
    "wof:geomhash": "f1da8a7eb7a92550c43cefd2c75ae545",
    "wof:id": 2015178451,
    "wof:repo": "sfomuseum-data-flights-2026-04"
  },
  "bbox": [
    -122.63687,
    36.72033,
    -121.8774,
    37.61445
  ],
  "geometry": {"coordinates":[[-121.8774,36.72033],[-121.89293,36.7457],[-121.90347,36.77502],[-121.91218,36.80613],[-121.91883,36.82965],[-121.92918,36.86619],[-121.94199,36.91232],[-121.95409,36.95495],[-121.98223,37.02719],[-121.99308,37.05047],[-122.01758,37.07039],[-122.06702,37.08273],[-122.07688,37.08482],[-122.15724,37.10246],[-122.18753,37.10945],[-122.23102,37.1198],[-122.24979,37.12433],[-122.27302,37.12988],[-122.31939,37.14082],[-122.3668,37.15174],[-122.40964,37.16158],[-122.43458,37.16751],[-122.46372,37.17447],[-122.51557,37.1868],[-122.54447,37.19354],[-122.58646,37.20541],[-122.61087,37.23254],[-122.62419,37.24923],[-122.63687,37.26622],[-122.63214,37.29896],[-122.59876,37.35434],[-122.57947,37.38712],[-122.56707,37.40812],[-122.55632,37.4235],[-122.49384,37.43008],[-122.48448,37.42885],[-122.43667,37.42226],[-122.41128,37.41894],[-122.34052,37.4099],[-122.2964,37.40465],[-122.24816,37.39844],[-122.21387,37.39323],[-122.15551,37.40156],[-122.14237,37.43134],[-122.13911,37.44007],[-122.12622,37.47729],[-122.14021,37.50688],[-122.15523,37.52432],[-122.18177,37.53772],[-122.19278,37.54211],[-122.2014,37.54585],[-122.22877,37.55738],[-122.24013,37.56202],[-122.27058,37.57481],[-122.3033,37.58858],[-122.31632,37.59406],[-122.32843,37.59918],[-122.34652,37.60671],[-122.36536,37.61445]],"type":"LineString"}
}
