{
  "id": 2031092261,
  "type": "Feature",
  "properties": {
    "geom:area": 0,
    "geom:bbox": "-122.807540,37.407840,-122.101610,38.510190",
    "geom:latitude": 37.81291612723534,
    "geom:longitude": -122.48619931400259,
    "src:alt_label": "swim-approach",
    "src:geom": "swim",
    "swim:elevations": [
      7750,
      7649,
      7347,
      7051,
      6677,
      6568,
      6281,
      5989,
      5677,
      5407,
      5265,
      4993,
      4774,
      4496,
      4340,
      3867,
      3605,
      3353,
      3353,
      3369,
      3356,
      3353,
      3353,
      3206,
      3066,
      2999,
      2912,
      2808,
      2536,
      2274,
      2099,
      1808,
      1770,
      1529,
      1371,
      1297,
      1219,
      1219,
      1219,
      994,
      914,
      914,
      914,
      914,
      882,
      721,
      576,
      406,
      302,
      212,
      141,
      97,
      0
    ],
    "swim:geom": "approach",
    "swim:timestamps": [
      1776983300,
      1776983309,
      1776983337,
      1776983361,
      1776983394,
      1776983403,
      1776983448,
      1776983478,
      1776983511,
      1776983544,
      1776983556,
      1776983583,
      1776983605,
      1776983631,
      1776983648,
      1776983697,
      1776983725,
      1776983754,
      1776983775,
      1776983817,
      1776983834,
      1776983873,
      1776983902,
      1776983937,
      1776983957,
      1776983966,
      1776983978,
      1776983990,
      1776984022,
      1776984055,
      1776984075,
      1776984111,
      1776984121,
      1776984154,
      1776984173,
      1776984188,
      1776984203,
      1776984230,
      1776984252,
      1776984288,
      1776984327,
      1776984351,
      1776984360,
      1776984384,
      1776984396,
      1776984429,
      1776984460,
      1776984504,
      1776984528,
      1776984552,
      1776984568,
      1776984581,
      1776984606
    ],
    "wof:geomhash": "cb8664c8a6a409842d2395d5b4096524",
    "wof:id": 2031092261,
    "wof:repo": "sfomuseum-data-flights-2026-04"
  },
  "bbox": [
    -122.80754,
    37.40784,
    -122.10161,
    38.51019
  ],
  "geometry": {"coordinates":[[-122.80754,38.51019],[-122.80459,38.49244],[-122.79676,38.43593],[-122.79012,38.38733],[-122.78117,38.32424],[-122.7788,38.30694],[-122.76657,38.22298],[-122.75185,38.17135],[-122.73584,38.1161],[-122.72011,38.0617],[-122.71442,38.0421],[-122.70165,37.99805],[-122.69166,37.96287],[-122.67917,37.92067],[-122.66536,37.8952],[-122.60389,37.83393],[-122.56784,37.79991],[-122.53117,37.76528],[-122.50646,37.74205],[-122.46347,37.70158],[-122.44793,37.6872],[-122.41102,37.65256],[-122.38443,37.62726],[-122.35439,37.59478],[-122.34255,37.57425],[-122.33834,37.56463],[-122.33283,37.55182],[-122.32638,37.53889],[-122.30692,37.50769],[-122.28673,37.47402],[-122.27474,37.45454],[-122.25254,37.41904],[-122.24305,37.4114],[-122.20131,37.40784],[-122.17605,37.41049],[-122.15754,37.41209],[-122.13851,37.41501],[-122.1176,37.4326],[-122.10294,37.44899],[-122.10161,37.4786],[-122.12614,37.50584],[-122.14355,37.52052],[-122.15188,37.52466],[-122.17541,37.53491],[-122.18705,37.53967],[-122.21814,37.55272],[-122.24666,37.5648],[-122.28303,37.58005],[-122.30173,37.58794],[-122.32047,37.59584],[-122.33257,37.60096],[-122.34225,37.60504],[-122.36204,37.61284]],"type":"LineString"}
}
