{
  "id": 2015355957,
  "type": "Feature",
  "properties": {
    "geom:area": 0,
    "geom:bbox": "-122.289722,37.500000,-74.234722,40.743056",
    "geom:latitude": 39.716251795399494,
    "geom:longitude": -98.31383943034332,
    "src:alt_label": "swim-path",
    "src:geom": "swim",
    "swim:altitudes": [
      "031",
      "031",
      "052",
      "059",
      "059",
      "059",
      "059",
      "091",
      "091",
      "181",
      "202",
      "202",
      "202",
      "202",
      "239",
      "239",
      "239",
      "239",
      "270",
      "270",
      "288",
      "288",
      "288",
      "288",
      "288",
      "318",
      "318",
      "334",
      "334",
      "334",
      "334",
      "342",
      "342",
      "342",
      "353",
      "360C",
      "360C",
      "360C",
      "360C",
      "360C",
      "360C",
      "360C",
      "360C",
      "360C",
      "360C",
      "360C",
      "360C",
      "360C",
      "360C",
      "360C",
      "360C",
      "360C",
      "360C",
      "360C",
      "360C",
      "360C",
      "360C",
      "360C",
      "360C",
      "360C",
      "360C",
      "360C",
      "360C",
      "360C",
      "360C",
      "360C",
      "360C",
      "360C",
      "360C",
      "360C",
      "360C",
      "360C",
      "360C",
      "360C",
      "360C",
      "360C",
      "360C",
      "360C",
      "360C",
      "360C",
      "360C",
      "360C",
      "360C",
      "360C",
      "360C",
      "360C",
      "360C",
      "360C",
      "360C",
      "360C",
      "360C",
      "360C",
      "360C",
      "360C",
      "360C",
      "360C",
      "360C",
      "360C",
      "360C",
      "360C",
      "360C",
      "360C",
      "360C",
      "360C",
      "360C",
      "360C",
      "360C",
      "360C",
      "360C",
      "360C",
      "360C",
      "360C",
      "360C",
      "360C",
      "360C",
      "360C",
      "360C",
      "360C",
      "360C",
      "360C",
      "360C",
      "360C",
      "360C",
      "360C",
      "360C",
      "360C",
      "360C",
      "360C",
      "360C",
      "360C",
      "360C",
      "360C",
      "360C",
      "360C",
      "360C",
      "360C",
      "360C",
      "360C",
      "360C",
      "360C",
      "360C",
      "360C",
      "360C",
      "360C",
      "360C",
      "360C",
      "360C",
      "360C",
      "360C",
      "360C",
      "360C",
      "360C",
      "360C",
      "360C",
      "360C",
      "360C",
      "360C",
      "360C",
      "360C",
      "360C",
      "360C",
      "360C",
      "360C",
      "360C",
      "360C",
      "360C",
      "360C",
      "360C",
      "360C",
      "360C",
      "360C",
      "360C",
      "360C",
      "360C",
      "360C",
      "360C",
      "360C",
      "360C",
      "360C",
      "360C",
      "360C",
      "360C",
      "360C",
      "360C",
      "360C",
      "360C",
      "360C",
      "360C",
      "360C",
      "360C",
      "360C",
      "360C",
      "360C",
      "360C",
      "360C",
      "360C",
      "360C",
      "360C",
      "360C",
      "360C",
      "360C",
      "360C",
      "360C",
      "360C",
      "360C",
      "360C",
      "360C",
      "360C",
      "360C",
      "360C",
      "360C",
      "360C",
      "360C",
      "360C",
      "360C",
      "360C",
      "360C",
      "360C",
      "360C",
      "360C",
      "360C",
      "360C",
      "360C",
      "360C",
      "360C",
      "360C",
      "360C",
      "360C",
      "360C",
      "360C",
      "360C",
      "360C",
      "360C",
      "360C",
      "360C",
      "360C",
      "360C",
      "360C",
      "360C",
      "360C",
      "360C",
      "360C",
      "360C",
      "360C",
      "360C",
      "360C",
      "360C",
      "360C",
      "360C",
      "360C",
      "360C",
      "360C",
      "360C",
      "360C",
      "360C",
      "360C",
      "360C",
      "360C",
      "360C",
      "360C",
      "360C",
      "360C",
      "360C",
      "360C",
      "360C",
      "360C",
      "360C",
      "360C",
      "360C",
      "360C",
      "360C",
      "360C",
      "360C",
      "360C",
      "360C",
      "360C",
      "360C",
      "360C",
      "360C",
      "360C",
      "360C",
      "360C",
      "360C",
      "360C",
      "360C",
      "360C",
      "360C",
      "360C",
      "360C",
      "360C",
      "360C",
      "360C",
      "360C",
      "360C",
      "360C",
      "360C",
      "360C",
      "360C",
      "360C",
      "360C",
      "360C",
      "360C",
      "360C",
      "360C",
      "360C",
      "360C",
      "360C",
      "360C",
      "360C",
      "360C",
      "360C",
      "360C",
      "360C",
      "360C",
      "360C",
      "360C",
      "360C",
      "360C",
      "360C",
      "360C",
      "360C",
      "360C",
      "360C",
      "360C",
      "360C",
      "360C",
      "360C",
      "360C",
      "360C",
      "360C",
      "360C",
      "360C",
      "360C",
      "360C",
      "360C",
      "360C",
      "360C",
      "360C",
      "360C",
      "360C",
      "360C",
      "360C",
      "360C",
      "360C",
      "360C",
      "360C",
      "360C",
      "360C",
      "360C",
      "360C",
      "360C",
      "360C",
      "360C",
      "360C",
      "360C",
      "360C",
      "360C",
      "360C",
      "360C",
      "360C",
      "360C",
      "360C",
      "360C",
      "360C",
      "360C",
      "360C",
      "360C",
      "360C",
      "360C",
      "360C",
      "360C",
      "360C",
      "360C",
      "360C",
      "360C",
      "360C",
      "360C",
      "360C",
      "360C",
      "360C",
      "360C",
      "360C",
      "360C",
      "360C",
      "360C",
      "360C",
      "360C",
      "360C",
      "360C",
      "360C",
      "360C",
      "360C",
      "360C",
      "360C",
      "360C",
      "360C",
      "360C",
      "360C",
      "360C",
      "360C",
      "360C",
      "360C",
      "360C",
      "360C",
      "360C",
      "360C",
      "360C",
      "360C",
      "360C",
      "360C",
      "360C",
      "360C",
      "360C",
      "360C",
      "360C",
      "360C",
      "360C",
      "360C",
      "360C",
      "360C",
      "360C",
      "360C",
      "360C",
      "360C",
      "360C",
      "360C",
      "360C",
      "360C",
      "360C",
      "360C",
      "360C",
      "360C",
      "360C",
      "360C",
      "360C",
      "360C",
      "360C",
      "360C",
      "360C",
      "360C",
      "360C",
      "360C",
      "360C",
      "360C",
      "360C",
      "360C",
      "360C",
      "360C",
      "360C",
      "360C",
      "360C",
      "360C",
      "360C",
      "360C",
      "360C",
      "360C",
      "360C",
      "360C",
      "360C",
      "360C",
      "360C",
      "360C",
      "360C",
      "360C",
      "360C",
      "360C",
      "360C",
      "360C",
      "360C",
      "360C",
      "360C",
      "360C",
      "360C",
      "360C",
      "360C",
      "360C",
      "360C",
      "360C",
      "360C",
      "360C",
      "360C",
      "360C",
      "360C",
      "360C",
      "360C",
      "360C",
      "359",
      "359",
      "356",
      "356",
      "356",
      "354",
      "350",
      "348",
      "348",
      "348",
      "340C",
      "340C",
      "340C",
      "340C",
      "340C",
      "340C",
      "340C",
      "340C",
      "340C",
      "340C",
      "340C",
      "340C",
      "340C",
      "340C",
      "340C",
      "340C",
      "340C",
      "340C",
      "340C",
      "340C",
      "340C",
      "340C",
      "340C",
      "340C",
      "340C",
      "340C",
      "340C",
      "340C",
      "340C",
      "340C",
      "340C",
      "340C",
      "340C",
      "340C",
      "340C",
      "340C",
      "340C",
      "340C",
      "340C",
      "340C",
      "340C",
      "340C",
      "340C",
      "340C",
      "340C",
      "340C",
      "340",
      "340",
      "340",
      "344",
      "344",
      "344",
      "358",
      "358",
      "358",
      "358",
      "358",
      "358",
      "358",
      "360",
      "360",
      "360",
      "360",
      "360",
      "360",
      "360",
      "364",
      "372",
      "372",
      "372",
      "372",
      "372",
      "380C",
      "380C",
      "380C",
      "380C",
      "380C",
      "380C",
      "380C",
      "380C",
      "380C",
      "380C",
      "380C",
      "380C",
      "380C",
      "380C",
      "380C",
      "380C",
      "380C",
      "380C",
      "380C",
      "380C",
      "380C",
      "380C",
      "380C",
      "380C",
      "380C",
      "380C",
      "380C",
      "380C",
      "380C",
      "380C",
      "380C",
      "380C",
      "380C",
      "380C",
      "380C",
      "380C",
      "380C",
      "380C",
      "380C",
      "380C",
      "380C",
      "380C",
      "380C",
      "380C",
      "380C",
      "380C",
      "380C",
      "380C",
      "380C",
      "380C",
      "380C",
      "380C",
      "380C",
      "380C",
      "380C",
      "380C",
      "380C",
      "380C",
      "380C",
      "380C",
      "380C",
      "380C",
      "380C",
      "380C",
      "380C",
      "380C",
      "380C",
      "380C",
      "380C",
      "380C",
      "380C",
      "380C",
      "380C",
      "380C",
      "380C",
      "380C",
      "380C",
      "380C",
      "380C",
      "380C",
      "380C",
      "380C",
      "380C",
      "380C",
      "380C",
      "380C",
      "380C",
      "380C",
      "380C",
      "380C",
      "380C",
      "380C",
      "380C",
      "380C",
      "380C",
      "380C",
      "380C",
      "380C",
      "380C",
      "380C",
      "380C",
      "380C",
      "380C",
      "380C",
      "380C",
      "380C",
      "380C",
      "380C",
      "380C",
      "380C",
      "380C",
      "380C",
      "380C",
      "380C",
      "380C",
      "380C",
      "380C",
      "380C",
      "380C",
      "380C",
      "380C",
      "380C",
      "380C",
      "380C",
      "380C",
      "380",
      "380",
      "380",
      "364",
      "364",
      "364",
      "364",
      "364",
      "354",
      "342C",
      "342C",
      "342C",
      "342C",
      "340C",
      "340C",
      "340C",
      "340C",
      "340C",
      "340C",
      "340C",
      "340C",
      "340C",
      "340",
      "340",
      "340",
      "340",
      "320",
      "320",
      "296",
      "296",
      "296",
      "296",
      "296",
      "233",
      "233",
      "233",
      "233",
      "213",
      "213",
      "213",
      "129",
      "129",
      "129",
      "129",
      "109",
      "109",
      "109",
      "109",
      "109",
      "109",
      "081",
      "081",
      "081",
      "081",
      "069",
      "069",
      "060",
      "060",
      "060",
      "060",
      "046",
      "046",
      "046",
      "033",
      "033",
      "033",
      "033",
      "021",
      "021",
      "013",
      "013"
    ],
    "swim:geom": "path",
    "swim:speeds": [
      220,
      220,
      247,
      247,
      247,
      247,
      247,
      246,
      246,
      336,
      349,
      349,
      349,
      349,
      369,
      369,
      369,
      369,
      394,
      394,
      404,
      404,
      404,
      404,
      404,
      415,
      415,
      414,
      414,
      414,
      414,
      412,
      412,
      412,
      412,
      416,
      414,
      415,
      415,
      413,
      413,
      414,
      414,
      412,
      412,
      412,
      412,
      413,
      413,
      413,
      412,
      412,
      412,
      412,
      412,
      412,
      413,
      413,
      413,
      415,
      415,
      415,
      415,
      415,
      419,
      419,
      420,
      420,
      420,
      420,
      418,
      418,
      418,
      418,
      419,
      419,
      419,
      413,
      413,
      413,
      413,
      413,
      413,
      413,
      413,
      413,
      413,
      413,
      413,
      413,
      416,
      416,
      416,
      416,
      419,
      419,
      419,
      421,
      421,
      421,
      426,
      426,
      426,
      427,
      427,
      430,
      430,
      427,
      427,
      427,
      428,
      428,
      428,
      429,
      429,
      429,
      429,
      429,
      429,
      430,
      430,
      430,
      430,
      430,
      430,
      430,
      431,
      429,
      429,
      429,
      429,
      429,
      429,
      430,
      430,
      430,
      433,
      433,
      433,
      435,
      436,
      436,
      435,
      434,
      434,
      434,
      435,
      435,
      436,
      434,
      434,
      434,
      433,
      433,
      433,
      433,
      433,
      433,
      433,
      433,
      433,
      433,
      433,
      432,
      432,
      432,
      432,
      431,
      431,
      431,
      431,
      431,
      431,
      431,
      431,
      432,
      431,
      431,
      431,
      431,
      431,
      431,
      431,
      431,
      431,
      430,
      430,
      430,
      430,
      429,
      429,
      429,
      429,
      429,
      429,
      429,
      430,
      430,
      430,
      431,
      431,
      431,
      431,
      431,
      431,
      431,
      430,
      430,
      430,
      430,
      430,
      429,
      429,
      429,
      429,
      429,
      428,
      428,
      428,
      428,
      428,
      427,
      427,
      427,
      426,
      426,
      425,
      425,
      425,
      424,
      424,
      424,
      424,
      424,
      424,
      423,
      423,
      423,
      423,
      423,
      423,
      423,
      423,
      423,
      423,
      423,
      423,
      423,
      423,
      423,
      423,
      424,
      424,
      424,
      424,
      424,
      424,
      424,
      424,
      425,
      425,
      425,
      425,
      425,
      425,
      425,
      425,
      425,
      425,
      425,
      425,
      425,
      424,
      424,
      424,
      424,
      424,
      424,
      424,
      424,
      424,
      424,
      424,
      424,
      424,
      424,
      424,
      424,
      424,
      424,
      424,
      424,
      424,
      424,
      424,
      424,
      424,
      424,
      424,
      424,
      424,
      424,
      425,
      425,
      425,
      426,
      426,
      426,
      426,
      426,
      426,
      426,
      426,
      426,
      427,
      427,
      427,
      427,
      427,
      427,
      427,
      427,
      428,
      428,
      428,
      428,
      428,
      428,
      428,
      435,
      435,
      435,
      435,
      428,
      428,
      428,
      431,
      431,
      428,
      428,
      428,
      428,
      428,
      428,
      428,
      428,
      427,
      427,
      427,
      427,
      427,
      427,
      427,
      426,
      426,
      426,
      426,
      426,
      426,
      426,
      426,
      425,
      425,
      425,
      425,
      424,
      424,
      423,
      423,
      423,
      423,
      423,
      423,
      422,
      422,
      423,
      422,
      422,
      422,
      422,
      422,
      422,
      422,
      422,
      422,
      422,
      422,
      422,
      424,
      424,
      427,
      427,
      427,
      427,
      427,
      427,
      426,
      426,
      426,
      426,
      426,
      426,
      423,
      423,
      423,
      423,
      423,
      423,
      421,
      421,
      421,
      421,
      423,
      423,
      423,
      421,
      423,
      423,
      421,
      421,
      421,
      422,
      422,
      422,
      422,
      421,
      421,
      421,
      421,
      421,
      421,
      421,
      421,
      422,
      423,
      423,
      423,
      426,
      426,
      426,
      426,
      426,
      427,
      427,
      427,
      426,
      427,
      427,
      427,
      419,
      415,
      416,
      416,
      416,
      416,
      416,
      412,
      412,
      412,
      406,
      406,
      406,
      406,
      409,
      405,
      405,
      405,
      405,
      405,
      406,
      406,
      406,
      411,
      420,
      420,
      421,
      421,
      421,
      421,
      424,
      424,
      422,
      426,
      426,
      426,
      426,
      428,
      428,
      416,
      416,
      416,
      421,
      399,
      407,
      407,
      407,
      397,
      397,
      397,
      397,
      374,
      374,
      384,
      384,
      365,
      365,
      361,
      361,
      361,
      358,
      358,
      358,
      358,
      358,
      358,
      358,
      358,
      359,
      359,
      359,
      359,
      356,
      356,
      356,
      356,
      356,
      356,
      357,
      357,
      357,
      357,
      357,
      357,
      359,
      359,
      359,
      359,
      361,
      361,
      361,
      361,
      361,
      360,
      360,
      360,
      356,
      356,
      356,
      342,
      342,
      342,
      342,
      342,
      342,
      342,
      354,
      354,
      346,
      346,
      346,
      346,
      346,
      358,
      377,
      377,
      377,
      377,
      377,
      382,
      382,
      382,
      382,
      378,
      378,
      378,
      378,
      378,
      378,
      385,
      385,
      385,
      385,
      384,
      384,
      384,
      382,
      382,
      382,
      382,
      373,
      373,
      373,
      373,
      368,
      368,
      368,
      368,
      368,
      371,
      371,
      371,
      377,
      377,
      377,
      377,
      377,
      379,
      379,
      379,
      382,
      382,
      380,
      373,
      373,
      373,
      373,
      373,
      372,
      372,
      372,
      372,
      372,
      372,
      372,
      372,
      372,
      372,
      372,
      373,
      373,
      373,
      373,
      373,
      374,
      374,
      374,
      374,
      374,
      375,
      375,
      375,
      375,
      374,
      374,
      375,
      375,
      376,
      376,
      376,
      377,
      377,
      377,
      377,
      378,
      378,
      378,
      379,
      379,
      379,
      379,
      379,
      379,
      380,
      380,
      380,
      380,
      380,
      380,
      381,
      381,
      381,
      381,
      382,
      382,
      382,
      385,
      385,
      386,
      386,
      386,
      386,
      386,
      386,
      387,
      387,
      387,
      387,
      387,
      387,
      387,
      387,
      387,
      387,
      379,
      379,
      379,
      358,
      358,
      358,
      358,
      358,
      357,
      352,
      352,
      352,
      352,
      352,
      352,
      352,
      352,
      352,
      353,
      353,
      353,
      353,
      360,
      360,
      360,
      360,
      368,
      368,
      370,
      370,
      370,
      370,
      370,
      335,
      335,
      335,
      335,
      327,
      327,
      327,
      307,
      307,
      307,
      307,
      309,
      309,
      309,
      309,
      309,
      309,
      258,
      258,
      258,
      258,
      243,
      243,
      237,
      237,
      237,
      237,
      191,
      191,
      191,
      165,
      165,
      165,
      165,
      160,
      160,
      145,
      145
    ],
    "swim:timestamps": [
      1776866552,
      1776866552,
      1776866597,
      1776866612,
      1776866612,
      1776866612,
      1776866612,
      1776866672,
      1776866672,
      1776866912,
      1776866973,
      1776866973,
      1776866973,
      1776866973,
      1776867093,
      1776867093,
      1776867093,
      1776867093,
      1776867213,
      1776867213,
      1776867273,
      1776867273,
      1776867273,
      1776867273,
      1776867273,
      1776867393,
      1776867393,
      1776867453,
      1776867453,
      1776867453,
      1776867453,
      1776867505,
      1776867505,
      1776867505,
      1776867565,
      1776867625,
      1776867633,
      1776867745,
      1776867745,
      1776867754,
      1776867754,
      1776867805,
      1776867805,
      1776867814,
      1776867814,
      1776867814,
      1776867814,
      1776867865,
      1776867865,
      1776867865,
      1776867934,
      1776867934,
      1776867934,
      1776867934,
      1776867985,
      1776867985,
      1776868106,
      1776868106,
      1776868106,
      1776868226,
      1776868226,
      1776868226,
      1776868234,
      1776868234,
      1776868406,
      1776868406,
      1776868466,
      1776868466,
      1776868466,
      1776868466,
      1776868827,
      1776868827,
      1776868827,
      1776868827,
      1776868892,
      1776868892,
      1776868892,
      1776869488,
      1776869488,
      1776869488,
      1776869488,
      1776869608,
      1776869608,
      1776869608,
      1776869668,
      1776869668,
      1776869728,
      1776869728,
      1776869728,
      1776869728,
      1776869849,
      1776869849,
      1776869849,
      1776869849,
      1776869966,
      1776869966,
      1776869966,
      1776870034,
      1776870034,
      1776870034,
      1776870274,
      1776870274,
      1776870274,
      1776870315,
      1776870315,
      1776870435,
      1776870435,
      1776870454,
      1776870454,
      1776870454,
      1776870514,
      1776870574,
      1776870574,
      1776870615,
      1776870615,
      1776870615,
      1776870695,
      1776870796,
      1776870815,
      1776870875,
      1776870875,
      1776870875,
      1776870995,
      1776870995,
      1776870995,
      1776871055,
      1776871115,
      1776871184,
      1776871184,
      1776871184,
      1776871184,
      1776871184,
      1776871184,
      1776871305,
      1776871305,
      1776871305,
      1776871355,
      1776871355,
      1776871355,
      1776871454,
      1776871514,
      1776871514,
      1776871536,
      1776871545,
      1776871545,
      1776871545,
      1776871596,
      1776871656,
      1776871665,
      1776871725,
      1776871725,
      1776871725,
      1776871845,
      1776871845,
      1776871845,
      1776871845,
      1776871966,
      1776871966,
      1776871966,
      1776871966,
      1776872115,
      1776872115,
      1776872115,
      1776872146,
      1776872146,
      1776872175,
      1776872206,
      1776872326,
      1776872326,
      1776872326,
      1776872326,
      1776872326,
      1776872476,
      1776872476,
      1776872476,
      1776872596,
      1776872656,
      1776872687,
      1776872716,
      1776872716,
      1776872836,
      1776872836,
      1776872836,
      1776872896,
      1776872896,
      1776872987,
      1776872987,
      1776872987,
      1776873047,
      1776873197,
      1776873197,
      1776873197,
      1776873197,
      1776873288,
      1776873288,
      1776873288,
      1776873377,
      1776873408,
      1776873408,
      1776873528,
      1776873558,
      1776873558,
      1776873588,
      1776873588,
      1776873618,
      1776873618,
      1776873678,
      1776873678,
      1776873708,
      1776873708,
      1776873708,
      1776873768,
      1776873798,
      1776873798,
      1776873798,
      1776873798,
      1776873828,
      1776873870,
      1776873870,
      1776873870,
      1776873870,
      1776873889,
      1776873889,
      1776873918,
      1776873949,
      1776873949,
      1776873978,
      1776873978,
      1776873978,
      1776874009,
      1776874009,
      1776874009,
      1776874038,
      1776874038,
      1776874038,
      1776874158,
      1776874158,
      1776874158,
      1776874189,
      1776874189,
      1776874189,
      1776874189,
      1776874279,
      1776874279,
      1776874279,
      1776874279,
      1776874309,
      1776874309,
      1776874309,
      1776874459,
      1776874459,
      1776874550,
      1776874550,
      1776874550,
      1776874610,
      1776874610,
      1776874610,
      1776874610,
      1776874610,
      1776874699,
      1776874699,
      1776874699,
      1776874730,
      1776874730,
      1776874730,
      1776874730,
      1776874730,
      1776874790,
      1776874790,
      1776874790,
      1776874790,
      1776874790,
      1776874910,
      1776874910,
      1776874910,
      1776874940,
      1776874940,
      1776874970,
      1776874970,
      1776874970,
      1776875091,
      1776875091,
      1776875120,
      1776875120,
      1776875151,
      1776875151,
      1776875211,
      1776875211,
      1776875211,
      1776875240,
      1776875240,
      1776875240,
      1776875240,
      1776875300,
      1776875300,
      1776875331,
      1776875331,
      1776875331,
      1776875331,
      1776875360,
      1776875360,
      1776875360,
      1776875420,
      1776875420,
      1776875420,
      1776875511,
      1776875511,
      1776875511,
      1776875541,
      1776875541,
      1776875571,
      1776875571,
      1776875571,
      1776875601,
      1776875631,
      1776875631,
      1776875631,
      1776875631,
      1776875661,
      1776875692,
      1776875692,
      1776875692,
      1776875812,
      1776875812,
      1776875812,
      1776875872,
      1776875872,
      1776875901,
      1776875901,
      1776875921,
      1776875921,
      1776875921,
      1776875921,
      1776875961,
      1776875961,
      1776875961,
      1776875981,
      1776875981,
      1776876141,
      1776876141,
      1776876162,
      1776876162,
      1776876162,
      1776876222,
      1776876222,
      1776876222,
      1776876282,
      1776876282,
      1776876282,
      1776876282,
      1776876282,
      1776876282,
      1776876322,
      1776876382,
      1776876382,
      1776876402,
      1776876402,
      1776876462,
      1776876462,
      1776876462,
      1776876462,
      1776876502,
      1776876502,
      1776876522,
      1776876522,
      1776876582,
      1776876582,
      1776876642,
      1776876642,
      1776876642,
      1776876682,
      1776876682,
      1776876682,
      1776876702,
      1776876702,
      1776876742,
      1776876802,
      1776876802,
      1776876802,
      1776876802,
      1776876823,
      1776876823,
      1776876863,
      1776876883,
      1776876983,
      1776876983,
      1776876983,
      1776876983,
      1776877063,
      1776877063,
      1776877183,
      1776877183,
      1776877183,
      1776877183,
      1776877183,
      1776877183,
      1776877363,
      1776877363,
      1776877363,
      1776877363,
      1776877363,
      1776877363,
      1776877664,
      1776877664,
      1776877664,
      1776877664,
      1776877664,
      1776877724,
      1776877730,
      1776877730,
      1776877730,
      1776877730,
      1776877784,
      1776877784,
      1776877784,
      1776877790,
      1776877844,
      1776877844,
      1776877910,
      1776877910,
      1776877910,
      1776877964,
      1776877964,
      1776877964,
      1776877964,
      1776878030,
      1776878030,
      1776878084,
      1776878090,
      1776878090,
      1776878090,
      1776878150,
      1776878150,
      1776878271,
      1776878325,
      1776878325,
      1776878325,
      1776878385,
      1776878385,
      1776878385,
      1776878385,
      1776878385,
      1776878571,
      1776878571,
      1776878571,
      1776878625,
      1776878631,
      1776878631,
      1776878631,
      1776878685,
      1776878745,
      1776878751,
      1776878751,
      1776878751,
      1776878751,
      1776878751,
      1776878926,
      1776878926,
      1776878926,
      1776878986,
      1776878986,
      1776878986,
      1776878986,
      1776878992,
      1776879046,
      1776879046,
      1776879052,
      1776879052,
      1776879052,
      1776879166,
      1776879166,
      1776879166,
      1776879232,
      1776879286,
      1776879286,
      1776879292,
      1776879292,
      1776879292,
      1776879292,
      1776879346,
      1776879346,
      1776879352,
      1776879406,
      1776879406,
      1776879406,
      1776879406,
      1776879592,
      1776879592,
      1776879646,
      1776879646,
      1776879646,
      1776879652,
      1776879707,
      1776879713,
      1776879713,
      1776879713,
      1776879773,
      1776879773,
      1776879773,
      1776879773,
      1776879827,
      1776879827,
      1776879833,
      1776879833,
      1776879887,
      1776879887,
      1776879947,
      1776879947,
      1776879947,
      1776880007,
      1776880007,
      1776880007,
      1776880187,
      1776880187,
      1776880187,
      1776880187,
      1776880187,
      1776880253,
      1776880253,
      1776880253,
      1776880253,
      1776880488,
      1776880488,
      1776880488,
      1776880488,
      1776880548,
      1776880548,
      1776880608,
      1776880614,
      1776880614,
      1776880614,
      1776880614,
      1776880614,
      1776880728,
      1776880734,
      1776880734,
      1776880734,
      1776880788,
      1776880788,
      1776880788,
      1776880794,
      1776880794,
      1776880854,
      1776880854,
      1776880854,
      1776880908,
      1776880914,
      1776880914,
      1776880968,
      1776880968,
      1776880968,
      1776880974,
      1776880974,
      1776880974,
      1776880974,
      1776881034,
      1776881034,
      1776881149,
      1776881149,
      1776881149,
      1776881149,
      1776881149,
      1776881269,
      1776881329,
      1776881329,
      1776881329,
      1776881329,
      1776881329,
      1776881455,
      1776881455,
      1776881455,
      1776881455,
      1776881695,
      1776881695,
      1776881695,
      1776881695,
      1776881695,
      1776881695,
      1776882116,
      1776882116,
      1776882116,
      1776882116,
      1776882176,
      1776882176,
      1776882176,
      1776882236,
      1776882236,
      1776882236,
      1776882236,
      1776882356,
      1776882356,
      1776882356,
      1776882356,
      1776882536,
      1776882536,
      1776882536,
      1776882536,
      1776882536,
      1776882596,
      1776882596,
      1776882596,
      1776882716,
      1776882716,
      1776882716,
      1776882716,
      1776882716,
      1776882777,
      1776882777,
      1776882777,
      1776882837,
      1776882837,
      1776883149,
      1776883269,
      1776883269,
      1776883269,
      1776883269,
      1776883269,
      1776883365,
      1776883365,
      1776883365,
      1776883365,
      1776883389,
      1776883425,
      1776883425,
      1776883449,
      1776883449,
      1776883449,
      1776883449,
      1776883666,
      1776883666,
      1776883666,
      1776883666,
      1776883666,
      1776883726,
      1776883750,
      1776883750,
      1776883786,
      1776883786,
      1776883810,
      1776883810,
      1776883810,
      1776883810,
      1776883870,
      1776883870,
      1776883930,
      1776883930,
      1776883966,
      1776883966,
      1776883966,
      1776884050,
      1776884050,
      1776884050,
      1776884050,
      1776884146,
      1776884146,
      1776884146,
      1776884230,
      1776884230,
      1776884230,
      1776884230,
      1776884267,
      1776884267,
      1776884327,
      1776884351,
      1776884351,
      1776884351,
      1776884387,
      1776884387,
      1776884411,
      1776884447,
      1776884447,
      1776884447,
      1776884507,
      1776884507,
      1776884507,
      1776884567,
      1776884567,
      1776884603,
      1776884603,
      1776884603,
      1776884663,
      1776884663,
      1776884663,
      1776884723,
      1776884723,
      1776884747,
      1776884747,
      1776884783,
      1776884783,
      1776884783,
      1776884843,
      1776884843,
      1776884843,
      1776885048,
      1776885048,
      1776885048,
      1776885168,
      1776885168,
      1776885168,
      1776885168,
      1776885168,
      1776885228,
      1776885288,
      1776885288,
      1776885288,
      1776885288,
      1776885348,
      1776885348,
      1776885348,
      1776885348,
      1776885348,
      1776885408,
      1776885408,
      1776885408,
      1776885408,
      1776885649,
      1776885649,
      1776885649,
      1776885649,
      1776885769,
      1776885769,
      1776885829,
      1776885829,
      1776885829,
      1776885829,
      1776885829,
      1776886009,
      1776886009,
      1776886009,
      1776886009,
      1776886069,
      1776886069,
      1776886069,
      1776886309,
      1776886309,
      1776886309,
      1776886309,
      1776886369,
      1776886369,
      1776886369,
      1776886369,
      1776886369,
      1776886369,
      1776886550,
      1776886550,
      1776886550,
      1776886550,
      1776886609,
      1776886609,
      1776886669,
      1776886669,
      1776886669,
      1776886669,
      1776886790,
      1776886790,
      1776886790,
      1776886850,
      1776886850,
      1776886850,
      1776886850,
      1776886910,
      1776886910,
      1776886970,
      1776886970
    ],
    "wof:geomhash": "4465304956fff5bf03f1d95870d05d8d",
    "wof:id": 2015355957,
    "wof:repo": "sfomuseum-data-flights-2026-04"
  },
  "bbox": [
    -122.28972222222222,
    37.5,
    -74.23472222222222,
    40.74305555555556
  ],
  "geometry": {"coordinates":[[-74.23472222222222,40.644999999999996],[-74.23472222222222,40.644999999999996],[-74.3,40.65],[-74.32222222222222,40.66138888888889],[-74.32222222222222,40.66138888888889],[-74.32222222222222,40.66138888888889],[-74.32222222222222,40.66138888888889],[-74.40944444444445,40.676944444444445],[-74.40944444444445,40.676944444444445],[-74.85194444444444,40.74305555555556],[-74.97277777777778,40.71555555555556],[-74.97277777777778,40.71555555555556],[-74.97277777777778,40.71555555555556],[-74.97277777777778,40.71555555555556],[-75.20972222222223,40.65888888888889],[-75.20972222222223,40.65888888888889],[-75.20972222222223,40.65888888888889],[-75.20972222222223,40.65888888888889],[-75.47638888888889,40.595],[-75.47638888888889,40.595],[-75.64416666666668,40.55416666666667],[-75.64416666666668,40.55416666666667],[-75.64416666666668,40.55416666666667],[-75.64416666666668,40.55416666666667],[-75.64416666666668,40.55416666666667],[-75.93194444444445,40.48361111111111],[-75.93194444444445,40.48361111111111],[-76.06916666666666,40.44972222222222],[-76.06916666666666,40.44972222222222],[-76.06916666666666,40.44972222222222],[-76.06916666666666,40.44972222222222],[-76.18027777777779,40.42194444444444],[-76.18027777777779,40.42194444444444],[-76.18027777777779,40.42194444444444],[-76.32249999999999,40.38611111111111],[-76.48166666666667,40.358333333333334],[-76.4975,40.356944444444444],[-76.76638888888888,40.33833333333334],[-76.76638888888888,40.33833333333334],[-76.78111111111112,40.33722222222222],[-76.78111111111112,40.33722222222222],[-76.91611111111112,40.327222222222225],[-76.91611111111112,40.327222222222225],[-76.93083333333334,40.32611111111112],[-76.93083333333334,40.32611111111112],[-76.93083333333334,40.32611111111112],[-76.93083333333334,40.32611111111112],[-77.06583333333333,40.316111111111105],[-77.06583333333333,40.316111111111105],[-77.06583333333333,40.316111111111105],[-77.25,40.302499999999995],[-77.25,40.302499999999995],[-77.25,40.302499999999995],[-77.25,40.302499999999995],[-77.35055555555554,40.294999999999995],[-77.35055555555554,40.294999999999995],[-77.65972222222223,40.270833333333336],[-77.65972222222223,40.270833333333336],[-77.65972222222223,40.270833333333336],[-77.95194444444445,40.24777777777778],[-77.95194444444445,40.24777777777778],[-77.95194444444445,40.24777777777778],[-77.97805555555556,40.245555555555555],[-77.97805555555556,40.245555555555555],[-78.40611111111112,40.209722222222226],[-78.40611111111112,40.209722222222226],[-78.55944444444444,40.196666666666665],[-78.55944444444444,40.196666666666665],[-78.55944444444444,40.196666666666665],[-78.55944444444444,40.196666666666665],[-79.46944444444445,40.20944444444445],[-79.46944444444445,40.20944444444445],[-79.46944444444445,40.20944444444445],[-79.46944444444445,40.20944444444445],[-79.6588888888889,40.217777777777776],[-79.6588888888889,40.217777777777776],[-79.6588888888889,40.217777777777776],[-81.1375,40.27305555555555],[-81.1375,40.27305555555555],[-81.1375,40.27305555555555],[-81.1375,40.27305555555555],[-81.43611111111112,40.28194444444444],[-81.43611111111112,40.28194444444444],[-81.43611111111112,40.28194444444444],[-81.58777777777777,40.28611111111111],[-81.58777777777777,40.28611111111111],[-81.73722222222223,40.29],[-81.73722222222223,40.29],[-81.73722222222223,40.29],[-81.73722222222223,40.29],[-82.05,40.297777777777775],[-82.05,40.297777777777775],[-82.05,40.297777777777775],[-82.05,40.297777777777775],[-82.35499999999999,40.30444444444444],[-82.35499999999999,40.30444444444444],[-82.35499999999999,40.30444444444444],[-82.52388888888889,40.30777777777777],[-82.52388888888889,40.30777777777777],[-82.52388888888889,40.30777777777777],[-83.15222222222222,40.31777777777778],[-83.15222222222222,40.31777777777778],[-83.15222222222222,40.31777777777778],[-83.23083333333334,40.31861111111112],[-83.23083333333334,40.31861111111112],[-83.5436111111111,40.322500000000005],[-83.5436111111111,40.322500000000005],[-83.61694444444444,40.32333333333334],[-83.61694444444444,40.32333333333334],[-83.61694444444444,40.32333333333334],[-83.77333333333333,40.32472222222223],[-83.9263888888889,40.325833333333335],[-83.9263888888889,40.325833333333335],[-84.01333333333334,40.32638888888889],[-84.01333333333334,40.32638888888889],[-84.01333333333334,40.32638888888889],[-84.23805555555556,40.3275],[-84.47555555555556,40.32833333333333],[-84.54805555555555,40.32833333333333],[-84.7038888888889,40.328611111111115],[-84.7038888888889,40.328611111111115],[-84.7038888888889,40.328611111111115],[-85.00611111111111,40.32833333333333],[-85.00611111111111,40.32833333333333],[-85.00611111111111,40.32833333333333],[-85.16027777777778,40.32777777777778],[-85.31777777777778,40.32694444444445],[-85.51805555555555,40.327222222222225],[-85.51805555555555,40.327222222222225],[-85.51805555555555,40.327222222222225],[-85.51805555555555,40.327222222222225],[-85.51805555555555,40.327222222222225],[-85.51805555555555,40.327222222222225],[-85.82944444444443,40.32361111111111],[-85.82944444444443,40.32361111111111],[-85.82944444444443,40.32361111111111],[-85.95972222222223,40.32194444444445],[-85.95972222222223,40.32194444444445],[-85.95972222222223,40.32194444444445],[-86.22888888888889,40.31861111111112],[-86.38388888888889,40.31666666666667],[-86.38388888888889,40.31666666666667],[-86.42083333333333,40.316111111111105],[-86.46361111111112,40.315],[-86.46361111111112,40.315],[-86.46361111111112,40.315],[-86.5786111111111,40.31361111111111],[-86.73333333333333,40.31111111111111],[-86.78111111111112,40.31083333333333],[-86.92777777777778,40.3075],[-86.92777777777778,40.3075],[-86.92777777777778,40.3075],[-87.25361111111111,40.30083333333333],[-87.25361111111111,40.30083333333333],[-87.25361111111111,40.30083333333333],[-87.25361111111111,40.30083333333333],[-87.54472222222222,40.29416666666666],[-87.54472222222222,40.29416666666666],[-87.54472222222222,40.29416666666666],[-87.54472222222222,40.29416666666666],[-87.96416666666667,40.28916666666667],[-87.96416666666667,40.28916666666667],[-87.96416666666667,40.28916666666667],[-88.01583333333333,40.28861111111111],[-88.01583333333333,40.28861111111111],[-88.09138888888889,40.2875],[-88.17,40.28611111111111],[-88.48388888888888,40.28111111111111],[-88.48388888888888,40.28111111111111],[-88.48388888888888,40.28111111111111],[-88.48388888888888,40.28111111111111],[-88.48388888888888,40.28111111111111],[-88.89027777777778,40.27305555555555],[-88.89027777777778,40.27305555555555],[-88.89027777777778,40.27305555555555],[-89.20555555555556,40.26611111111111],[-89.36222222222221,40.26222222222222],[-89.42722222222223,40.260555555555555],[-89.51972222222223,40.25805555555556],[-89.51972222222223,40.25805555555556],[-89.835,40.24916666666667],[-89.835,40.24916666666667],[-89.835,40.24916666666667],[-89.99222222222222,40.24444444444445],[-89.99222222222222,40.24444444444445],[-90.21305555555556,40.237500000000004],[-90.21305555555556,40.237500000000004],[-90.21305555555556,40.237500000000004],[-90.36749999999999,40.23222222222223],[-90.77166666666666,40.217777777777776],[-90.77166666666666,40.217777777777776],[-90.77166666666666,40.217777777777776],[-90.77166666666666,40.217777777777776],[-90.99138888888889,40.20944444444445],[-90.99138888888889,40.20944444444445],[-90.99138888888889,40.20944444444445],[-91.23972222222223,40.19916666666666],[-91.30416666666666,40.196666666666665],[-91.30416666666666,40.196666666666665],[-91.61722222222221,40.18277777777777],[-91.71000000000001,40.17861111111111],[-91.71000000000001,40.17861111111111],[-91.7725,40.17583333333333],[-91.7725,40.17583333333333],[-91.86388888888888,40.171388888888885],[-91.86388888888888,40.171388888888885],[-92.025,40.16305555555555],[-92.025,40.16305555555555],[-92.08333333333333,40.16083333333333],[-92.08333333333333,40.16083333333333],[-92.08333333333333,40.16083333333333],[-92.23972222222223,40.15333333333333],[-92.33111111111111,40.14861111111111],[-92.33111111111111,40.14861111111111],[-92.33111111111111,40.14861111111111],[-92.33111111111111,40.14861111111111],[-92.40805555555556,40.14472222222222],[-92.48444444444445,40.14055555555556],[-92.48444444444445,40.14055555555556],[-92.48444444444445,40.14055555555556],[-92.48444444444445,40.14055555555556],[-92.5625,40.13666666666666],[-92.5625,40.13666666666666],[-92.64166666666668,40.13611111111111],[-92.715,40.13777777777778],[-92.715,40.13777777777778],[-92.79583333333333,40.13972222222222],[-92.79583333333333,40.13972222222222],[-92.79583333333333,40.13972222222222],[-92.86805555555554,40.14138888888889],[-92.86805555555554,40.14138888888889],[-92.86805555555554,40.14138888888889],[-92.9525,40.14333333333333],[-92.9525,40.14333333333333],[-92.9525,40.14333333333333],[-93.25972222222222,40.14972222222222],[-93.25972222222222,40.14972222222222],[-93.25972222222222,40.14972222222222],[-93.32583333333334,40.15083333333333],[-93.32583333333334,40.15083333333333],[-93.32583333333334,40.15083333333333],[-93.32583333333334,40.15083333333333],[-93.56611111111111,40.155],[-93.56611111111111,40.155],[-93.56611111111111,40.155],[-93.56611111111111,40.155],[-93.63,40.15611111111111],[-93.63,40.15611111111111],[-93.63,40.15611111111111],[-94.025,40.16166666666666],[-94.025,40.16166666666666],[-94.24527777777777,40.16416666666667],[-94.24527777777777,40.16416666666667],[-94.24527777777777,40.16416666666667],[-94.39805555555556,40.16555555555556],[-94.39805555555556,40.16555555555556],[-94.39805555555556,40.16555555555556],[-94.39805555555556,40.16555555555556],[-94.39805555555556,40.16555555555556],[-94.64277777777778,40.1675],[-94.64277777777778,40.1675],[-94.64277777777778,40.1675],[-94.705,40.168055555555554],[-94.705,40.168055555555554],[-94.705,40.168055555555554],[-94.705,40.168055555555554],[-94.705,40.168055555555554],[-94.8586111111111,40.16888888888889],[-94.8586111111111,40.16888888888889],[-94.8586111111111,40.16888888888889],[-94.8586111111111,40.16888888888889],[-94.8586111111111,40.16888888888889],[-95.16527777777779,40.169999999999995],[-95.16527777777779,40.169999999999995],[-95.16527777777779,40.169999999999995],[-95.25805555555556,40.17027777777778],[-95.25805555555556,40.17027777777778],[-95.31861111111111,40.17027777777778],[-95.31861111111111,40.17027777777778],[-95.31861111111111,40.17027777777778],[-95.62277777777777,40.17027777777778],[-95.62277777777777,40.17027777777778],[-95.71972222222223,40.17027777777778],[-95.71972222222223,40.17027777777778],[-95.77833333333334,40.169999999999995],[-95.77833333333334,40.169999999999995],[-95.93083333333334,40.169444444444444],[-95.93083333333334,40.169444444444444],[-95.93083333333334,40.169444444444444],[-96.03055555555555,40.16916666666666],[-96.03055555555555,40.16916666666666],[-96.03055555555555,40.16916666666666],[-96.03055555555555,40.16916666666666],[-96.18333333333334,40.16833333333333],[-96.18333333333334,40.16833333333333],[-96.24722222222222,40.16777777777777],[-96.24722222222222,40.16777777777777],[-96.24722222222222,40.16777777777777],[-96.24722222222222,40.16777777777777],[-96.33777777777777,40.1675],[-96.33777777777777,40.1675],[-96.33777777777777,40.1675],[-96.49277777777777,40.17027777777778],[-96.49277777777777,40.17027777777778],[-96.49277777777777,40.17027777777778],[-96.69916666666667,40.17305555555555],[-96.69916666666667,40.17305555555555],[-96.69916666666667,40.17305555555555],[-96.80138888888888,40.17388888888889],[-96.80138888888888,40.17388888888889],[-96.85305555555556,40.17444444444444],[-96.85305555555556,40.17444444444444],[-96.85305555555556,40.17444444444444],[-96.95861111111111,40.175555555555555],[-97.00722222222223,40.17583333333333],[-97.00722222222223,40.17583333333333],[-97.00722222222223,40.17583333333333],[-97.00722222222223,40.17583333333333],[-97.11388888888888,40.176944444444445],[-97.16250000000001,40.17722222222222],[-97.16250000000001,40.17722222222222],[-97.16250000000001,40.17722222222222],[-97.47333333333333,40.17916666666667],[-97.47333333333333,40.17916666666667],[-97.47333333333333,40.17916666666667],[-97.6438888888889,40.18],[-97.6438888888889,40.18],[-97.70833333333334,40.18],[-97.70833333333334,40.18],[-97.76944444444445,40.180277777777775],[-97.76944444444445,40.180277777777775],[-97.76944444444445,40.180277777777775],[-97.76944444444445,40.180277777777775],[-97.865,40.180277777777775],[-97.865,40.180277777777775],[-97.865,40.180277777777775],[-97.9263888888889,40.18055555555555],[-97.9263888888889,40.18055555555555],[-98.3325,40.180277777777775],[-98.3325,40.180277777777775],[-98.39416666666668,40.18],[-98.39416666666668,40.18],[-98.39416666666668,40.18],[-98.55055555555555,40.17944444444444],[-98.55055555555555,40.17944444444444],[-98.55055555555555,40.17944444444444],[-98.7038888888889,40.17861111111111],[-98.7038888888889,40.17861111111111],[-98.7038888888889,40.17861111111111],[-98.7038888888889,40.17861111111111],[-98.7038888888889,40.17861111111111],[-98.7038888888889,40.17861111111111],[-98.79944444444445,40.17805555555555],[-98.95305555555557,40.176944444444445],[-98.95305555555557,40.176944444444445],[-99.01583333333333,40.17638888888889],[-99.01583333333333,40.17638888888889],[-99.16972222222223,40.175],[-99.16972222222223,40.175],[-99.16972222222223,40.175],[-99.16972222222223,40.175],[-99.26305555555555,40.174166666666665],[-99.26305555555555,40.174166666666665],[-99.32444444444444,40.17333333333333],[-99.32444444444444,40.17333333333333],[-99.47722222222222,40.17166666666667],[-99.47722222222222,40.17166666666667],[-99.63083333333333,40.169444444444444],[-99.63083333333333,40.169444444444444],[-99.63083333333333,40.169444444444444],[-99.72305555555556,40.16833333333333],[-99.72305555555556,40.16833333333333],[-99.72305555555556,40.16833333333333],[-99.78555555555555,40.16722222222222],[-99.78555555555555,40.16722222222222],[-99.8761111111111,40.16583333333333],[-100.03194444444445,40.163333333333334],[-100.03194444444445,40.163333333333334],[-100.03194444444445,40.163333333333334],[-100.03194444444445,40.163333333333334],[-100.07638888888889,40.1625],[-100.07638888888889,40.1625],[-100.17944444444444,40.16083333333333],[-100.22944444444444,40.15972222222222],[-100.4863888888889,40.155277777777776],[-100.4863888888889,40.155277777777776],[-100.4863888888889,40.155277777777776],[-100.4863888888889,40.155277777777776],[-100.69305555555556,40.15],[-100.69305555555556,40.15],[-101.00472222222223,40.1425],[-101.00472222222223,40.1425],[-101.00472222222223,40.1425],[-101.00472222222223,40.1425],[-101.00472222222223,40.1425],[-101.00472222222223,40.1425],[-101.47083333333333,40.12888888888889],[-101.47083333333333,40.12888888888889],[-101.47083333333333,40.12888888888889],[-101.47083333333333,40.12888888888889],[-101.47083333333333,40.12888888888889],[-101.47083333333333,40.12888888888889],[-102.2375,40.095555555555556],[-102.2375,40.095555555555556],[-102.2375,40.095555555555556],[-102.2375,40.095555555555556],[-102.2375,40.095555555555556],[-102.38861111111112,40.08833333333334],[-102.41944444444445,40.08583333333333],[-102.41944444444445,40.08583333333333],[-102.41944444444445,40.08583333333333],[-102.41944444444445,40.08583333333333],[-102.54333333333334,40.08083333333334],[-102.54333333333334,40.08083333333334],[-102.54333333333334,40.08083333333334],[-102.57055555555556,40.07944444444445],[-102.69416666666667,40.07333333333334],[-102.69416666666667,40.07333333333334],[-102.87666666666667,40.06333333333333],[-102.87666666666667,40.06333333333333],[-102.87666666666667,40.06333333333333],[-103.00444444444445,40.05722222222222],[-103.00444444444445,40.05722222222222],[-103.00444444444445,40.05722222222222],[-103.00444444444445,40.05722222222222],[-103.18194444444445,40.04694444444444],[-103.18194444444445,40.04694444444444],[-103.30888888888889,40.04055555555556],[-103.335,40.03805555555555],[-103.335,40.03805555555555],[-103.335,40.03805555555555],[-103.48777777777778,40.02916666666667],[-103.48777777777778,40.02916666666667],[-103.79138888888889,40.01222222222222],[-103.91833333333334,40.005],[-103.91833333333334,40.005],[-103.91833333333334,40.005],[-104.06944444444444,40.00194444444445],[-104.06944444444444,40.00194444444445],[-104.06944444444444,40.00194444444445],[-104.06944444444444,40.00194444444445],[-104.06944444444444,40.00194444444445],[-104.56722222222221,40.01722222222222],[-104.56722222222221,40.01722222222222],[-104.56722222222221,40.01722222222222],[-104.68583333333333,40.021388888888886],[-104.71972222222223,40.02166666666667],[-104.71972222222223,40.02166666666667],[-104.71972222222223,40.02166666666667],[-104.83722222222222,40.025555555555556],[-104.98361111111112,40.029444444444444],[-105.01944444444445,40.028888888888886],[-105.01944444444445,40.028888888888886],[-105.01944444444445,40.028888888888886],[-105.01944444444445,40.028888888888886],[-105.01944444444445,40.028888888888886],[-105.42861111111111,40.03916666666667],[-105.42861111111111,40.03916666666667],[-105.42861111111111,40.03916666666667],[-105.57388888888889,40.027499999999996],[-105.57388888888889,40.027499999999996],[-105.57388888888889,40.027499999999996],[-105.57388888888889,40.027499999999996],[-105.58416666666666,40.026666666666664],[-105.71722222222222,40.01166666666666],[-105.71722222222222,40.01166666666666],[-105.72805555555556,40.00944444444445],[-105.72805555555556,40.00944444444445],[-105.72805555555556,40.00944444444445],[-106.00666666666666,39.978611111111114],[-106.00666666666666,39.978611111111114],[-106.00666666666666,39.978611111111114],[-106.16805555555555,39.959722222222226],[-106.30611111111111,39.94361111111111],[-106.30611111111111,39.94361111111111],[-106.32027777777778,39.94138888888889],[-106.32027777777778,39.94138888888889],[-106.32027777777778,39.94138888888889],[-106.32027777777778,39.94138888888889],[-106.49,39.92194444444444],[-106.49,39.92194444444444],[-106.4725,39.924166666666665],[-106.63027777777778,39.905],[-106.63027777777778,39.905],[-106.63027777777778,39.905],[-106.63027777777778,39.905],[-107.11222222222221,39.844722222222224],[-107.11222222222221,39.844722222222224],[-107.22972222222222,39.83083333333334],[-107.22972222222222,39.83083333333334],[-107.22972222222222,39.83083333333334],[-107.25944444444444,39.82666666666667],[-107.37194444444444,39.812777777777775],[-107.40166666666667,39.808611111111105],[-107.40166666666667,39.808611111111105],[-107.40166666666667,39.808611111111105],[-107.54083333333332,39.790277777777774],[-107.54083333333332,39.790277777777774],[-107.54083333333332,39.790277777777774],[-107.54083333333332,39.790277777777774],[-107.64972222222222,39.776944444444446],[-107.64972222222222,39.776944444444446],[-107.67416666666666,39.7725],[-107.67416666666666,39.7725],[-107.77833333333334,39.76027777777778],[-107.77833333333334,39.76027777777778],[-107.90583333333333,39.74333333333333],[-107.90583333333333,39.74333333333333],[-107.90583333333333,39.74333333333333],[-108.03444444444445,39.72666666666667],[-108.03444444444445,39.72666666666667],[-108.03444444444445,39.72666666666667],[-108.40972222222223,39.67666666666666],[-108.40972222222223,39.67666666666666],[-108.40972222222223,39.67666666666666],[-108.40972222222223,39.67666666666666],[-108.40972222222223,39.67666666666666],[-108.56305555555555,39.655833333333334],[-108.56305555555555,39.655833333333334],[-108.56305555555555,39.655833333333334],[-108.56305555555555,39.655833333333334],[-109.05472222222222,39.587500000000006],[-109.05472222222222,39.587500000000006],[-109.05472222222222,39.587500000000006],[-109.05472222222222,39.587500000000006],[-109.18027777777779,39.57],[-109.18027777777779,39.57],[-109.30805555555555,39.55166666666666],[-109.30805555555555,39.55166666666666],[-109.30805555555555,39.55166666666666],[-109.30805555555555,39.55166666666666],[-109.30805555555555,39.55166666666666],[-109.30805555555555,39.55166666666666],[-109.56194444444444,39.515],[-109.56194444444444,39.515],[-109.56194444444444,39.515],[-109.56194444444444,39.515],[-109.68861111111111,39.49638888888889],[-109.68861111111111,39.49638888888889],[-109.68861111111111,39.49638888888889],[-109.69055555555556,39.49611111111111],[-109.69055555555556,39.49611111111111],[-109.81638888888888,39.47777777777778],[-109.81638888888888,39.47777777777778],[-109.81638888888888,39.47777777777778],[-109.9413888888889,39.45916666666667],[-109.9413888888889,39.45916666666667],[-109.9413888888889,39.45916666666667],[-110.06194444444444,39.441111111111105],[-110.06194444444444,39.441111111111105],[-110.06194444444444,39.441111111111105],[-110.06194444444444,39.441111111111105],[-110.06194444444444,39.441111111111105],[-110.06194444444444,39.441111111111105],[-110.06194444444444,39.441111111111105],[-110.18694444444445,39.42222222222222],[-110.18694444444445,39.42222222222222],[-110.43194444444445,39.385],[-110.43194444444445,39.385],[-110.43194444444445,39.385],[-110.43194444444445,39.385],[-110.43194444444445,39.385],[-110.67555555555556,39.34722222222222],[-110.80666666666666,39.32666666666667],[-110.80666666666666,39.32666666666667],[-110.80666666666666,39.32666666666667],[-110.80666666666666,39.32666666666667],[-110.80666666666666,39.32666666666667],[-111.07666666666667,39.28388888888889],[-111.07666666666667,39.28388888888889],[-111.07666666666667,39.28388888888889],[-111.07666666666667,39.28388888888889],[-111.61083333333333,39.197222222222216],[-111.61083333333333,39.197222222222216],[-111.61083333333333,39.197222222222216],[-111.61083333333333,39.197222222222216],[-111.61083333333333,39.197222222222216],[-111.61083333333333,39.197222222222216],[-112.53583333333333,39.04111111111111],[-112.53583333333333,39.04111111111111],[-112.53583333333333,39.04111111111111],[-112.53583333333333,39.04111111111111],[-112.66833333333334,39.018055555555556],[-112.66833333333334,39.018055555555556],[-112.66833333333334,39.018055555555556],[-112.79972222222221,38.995],[-112.79972222222221,38.995],[-112.79972222222221,38.995],[-112.79972222222221,38.995],[-113.05749999999999,38.94944444444444],[-113.05749999999999,38.94944444444444],[-113.05749999999999,38.94944444444444],[-113.05749999999999,38.94944444444444],[-113.43972222222223,38.88055555555555],[-113.43972222222223,38.88055555555555],[-113.43972222222223,38.88055555555555],[-113.43972222222223,38.88055555555555],[-113.43972222222223,38.88055555555555],[-113.56833333333333,38.85722222222223],[-113.56833333333333,38.85722222222223],[-113.56833333333333,38.85722222222223],[-113.82972222222222,38.80888888888889],[-113.82972222222222,38.80888888888889],[-113.82972222222222,38.80888888888889],[-113.82972222222222,38.80888888888889],[-113.82972222222222,38.80888888888889],[-113.96222222222222,38.78444444444444],[-113.96222222222222,38.78444444444444],[-113.96222222222222,38.78444444444444],[-114.0936111111111,38.75972222222222],[-114.0936111111111,38.75972222222222],[-114.80749999999999,38.62305555555555],[-115.06388888888888,38.57277777777778],[-115.06388888888888,38.57277777777778],[-115.06388888888888,38.57277777777778],[-115.06388888888888,38.57277777777778],[-115.06388888888888,38.57277777777778],[-115.25583333333333,38.53583333333333],[-115.25583333333333,38.53583333333333],[-115.25583333333333,38.53583333333333],[-115.25583333333333,38.53583333333333],[-115.31916666666666,38.52222222222222],[-115.38333333333334,38.51111111111111],[-115.38333333333334,38.51111111111111],[-115.43361111111112,38.49916666666667],[-115.43361111111112,38.49916666666667],[-115.43361111111112,38.49916666666667],[-115.43361111111112,38.49916666666667],[-115.89833333333334,38.40472222222222],[-115.89833333333334,38.40472222222222],[-115.89833333333334,38.40472222222222],[-115.89833333333334,38.40472222222222],[-115.89833333333334,38.40472222222222],[-116.02583333333334,38.37861111111111],[-116.07555555555555,38.36833333333333],[-116.07555555555555,38.36833333333333],[-116.1538888888889,38.35194444444445],[-116.1538888888889,38.35194444444445],[-116.20527777777778,38.34138888888889],[-116.20527777777778,38.34138888888889],[-116.20527777777778,38.34138888888889],[-116.20527777777778,38.34138888888889],[-116.33194444444445,38.31472222222222],[-116.33194444444445,38.31472222222222],[-116.46083333333334,38.28777777777778],[-116.46083333333334,38.28777777777778],[-116.53916666666666,38.27111111111111],[-116.53916666666666,38.27111111111111],[-116.53916666666666,38.27111111111111],[-116.71944444444445,38.23277777777778],[-116.71944444444445,38.23277777777778],[-116.71944444444445,38.23277777777778],[-116.71944444444445,38.23277777777778],[-116.92777777777778,38.18833333333333],[-116.92777777777778,38.18833333333333],[-116.92777777777778,38.18833333333333],[-117.10638888888889,38.14944444444444],[-117.10638888888889,38.14944444444444],[-117.10638888888889,38.14944444444444],[-117.10638888888889,38.14944444444444],[-117.18833333333333,38.13166666666667],[-117.18833333333333,38.13166666666667],[-117.31916666666666,38.10305555555556],[-117.37722222222222,38.09055555555556],[-117.37722222222222,38.09055555555556],[-117.37722222222222,38.09055555555556],[-117.43,38.07888888888889],[-117.43,38.07888888888889],[-117.50777777777778,38.06166666666666],[-117.56138888888889,38.04972222222222],[-117.56138888888889,38.04972222222222],[-117.56138888888889,38.04972222222222],[-117.69027777777778,38.02111111111111],[-117.69027777777778,38.02111111111111],[-117.69027777777778,38.02111111111111],[-117.82444444444444,37.99583333333334],[-117.82444444444444,37.99583333333334],[-117.92861111111111,37.98694444444445],[-117.92861111111111,37.98694444444445],[-117.92861111111111,37.98694444444445],[-118.03805555555556,37.975833333333334],[-118.03805555555556,37.975833333333334],[-118.03805555555556,37.975833333333334],[-118.17444444444445,37.96083333333333],[-118.17444444444445,37.96083333333333],[-118.22972222222222,37.95472222222222],[-118.22972222222222,37.95472222222222],[-118.30916666666667,37.94583333333333],[-118.30916666666667,37.94583333333333],[-118.30916666666667,37.94583333333333],[-118.44361111111111,37.93138888888889],[-118.44361111111111,37.93138888888889],[-118.44361111111111,37.93138888888889],[-118.89750000000001,37.88055555555555],[-118.89750000000001,37.88055555555555],[-118.89750000000001,37.88055555555555],[-119.17305555555556,37.848888888888894],[-119.17305555555556,37.848888888888894],[-119.17305555555556,37.848888888888894],[-119.17305555555556,37.848888888888894],[-119.17305555555556,37.848888888888894],[-119.29777777777778,37.83444444444444],[-119.42027777777778,37.82],[-119.42027777777778,37.82],[-119.42027777777778,37.82],[-119.42027777777778,37.82],[-119.5411111111111,37.80555555555555],[-119.5411111111111,37.80555555555555],[-119.5411111111111,37.80555555555555],[-119.5411111111111,37.80555555555555],[-119.5411111111111,37.80555555555555],[-119.66444444444446,37.79083333333333],[-119.66444444444446,37.79083333333333],[-119.66444444444446,37.79083333333333],[-119.66444444444446,37.79083333333333],[-120.14,37.7325],[-120.14,37.7325],[-120.14,37.7325],[-120.14,37.7325],[-120.39333333333335,37.70055555555556],[-120.39333333333335,37.70055555555556],[-120.5213888888889,37.68555555555555],[-120.5213888888889,37.68555555555555],[-120.5213888888889,37.68555555555555],[-120.5213888888889,37.68555555555555],[-120.5213888888889,37.68555555555555],[-120.88416666666667,37.6425],[-120.88416666666667,37.6425],[-120.88416666666667,37.6425],[-120.88416666666667,37.6425],[-120.99777777777778,37.62861111111111],[-120.99777777777778,37.62861111111111],[-120.99777777777778,37.62861111111111],[-121.44500000000001,37.57194444444445],[-121.44500000000001,37.57194444444445],[-121.44500000000001,37.57194444444445],[-121.44500000000001,37.57194444444445],[-121.55,37.56666666666667],[-121.55,37.56666666666667],[-121.55,37.56666666666667],[-121.55,37.56666666666667],[-121.55,37.56666666666667],[-121.55,37.56666666666667],[-121.83277777777778,37.50111111111111],[-121.83277777777778,37.50111111111111],[-121.83277777777778,37.50111111111111],[-121.83277777777778,37.50111111111111],[-121.91666666666667,37.5],[-121.91666666666667,37.5],[-122,37.5],[-122,37.5],[-122,37.5],[-122,37.5],[-122.14194444444445,37.52388888888889],[-122.14194444444445,37.52388888888889],[-122.14194444444445,37.52388888888889],[-122.19444444444444,37.54694444444444],[-122.19444444444444,37.54694444444444],[-122.19444444444444,37.54694444444444],[-122.19444444444444,37.54694444444444],[-122.24444444444444,37.566111111111105],[-122.24444444444444,37.566111111111105],[-122.28972222222222,37.58527777777778],[-122.28972222222222,37.58527777777778]],"type":"LineString"}
}
