{
  "id": 2015195537,
  "type": "Feature",
  "properties": {
    "geom:area": 0,
    "geom:bbox": "-122.361340,36.729820,-121.885380,37.612500",
    "geom:latitude": 37.22416975117659,
    "geom:longitude": -122.07173612103843,
    "src:alt_label": "swim-approach",
    "src:geom": "swim",
    "swim:elevations": [
      5103,
      4790,
      4643,
      4287,
      3969,
      3841,
      3597,
      3415,
      3243,
      3063,
      3037,
      3039,
      3012,
      2888,
      2731,
      2524,
      2347,
      2083,
      1930,
      1743,
      1682,
      1367,
      1255,
      1217,
      1067,
      913,
      873,
      810,
      685,
      592,
      397,
      278,
      173,
      149,
      122,
      186
    ],
    "swim:geom": "approach",
    "swim:timestamps": [
      1775246481,
      1775246516,
      1775246533,
      1775246574,
      1775246608,
      1775246623,
      1775246652,
      1775246694,
      1775246719,
      1775246742,
      1775246769,
      1775246793,
      1775246846,
      1775246863,
      1775246890,
      1775246924,
      1775246953,
      1775246995,
      1775247016,
      1775247033,
      1775247040,
      1775247086,
      1775247113,
      1775247130,
      1775247167,
      1775247208,
      1775247225,
      1775247238,
      1775247265,
      1775247283,
      1775247325,
      1775247353,
      1775247388,
      1775247394,
      1775247403,
      1775247444
    ],
    "wof:geomhash": "2abd7408f01fc68af44a20a4c7eb9982",
    "wof:id": 2015195537,
    "wof:repo": "sfomuseum-data-flights-2026-04"
  },
  "bbox": [
    -122.36134,
    36.72982,
    -121.88538,
    37.6125
  ],
  "geometry": {"coordinates":[[-121.88538,36.72982],[-121.90433,36.7786],[-121.91125,36.80183],[-121.92726,36.85844],[-121.94054,36.90575],[-121.9463,36.92672],[-121.95902,36.96618],[-121.9794,37.01838],[-121.99138,37.04879],[-122.00214,37.07653],[-122.01471,37.10882],[-122.02611,37.13818],[-122.0494,37.19774],[-122.05661,37.21612],[-122.06848,37.24587],[-122.10211,37.27189],[-122.12207,37.29847],[-122.11136,37.34354],[-122.10518,37.36554],[-122.10335,37.3824],[-122.10317,37.39008],[-122.10202,37.43921],[-122.10192,37.46445],[-122.11065,37.4776],[-122.13659,37.50442],[-122.1676,37.53045],[-122.18383,37.53797],[-122.19672,37.54363],[-122.22326,37.55492],[-122.2416,37.56265],[-122.2818,37.57955],[-122.30348,37.58873],[-122.32749,37.59878],[-122.33135,37.60037],[-122.33693,37.60273],[-122.36134,37.6125]],"type":"LineString"}
}
