{
  "id": 2031105109,
  "type": "Feature",
  "properties": {
    "geom:area": 0,
    "geom:bbox": "-122.527500,37.634600,-121.465520,38.507880",
    "geom:latitude": 38.039574796290374,
    "geom:longitude": -122.0303970935004,
    "src:alt_label": "swim-takeoff",
    "src:geom": "swim",
    "swim:elevations": [
      449,
      546,
      1021,
      1520,
      2003,
      2685,
      2780,
      3267,
      3368,
      3645,
      3827,
      4048,
      4454,
      4734,
      4849,
      5319,
      5421,
      5840,
      6171,
      6498,
      6681,
      6882,
      6999,
      7132,
      7340
    ],
    "swim:geom": "takeoff",
    "swim:timestamps": [
      1777039707,
      1777039715,
      1777039774,
      1777039851,
      1777039892,
      1777039949,
      1777039955,
      1777040006,
      1777040023,
      1777040067,
      1777040093,
      1777040117,
      1777040157,
      1777040182,
      1777040190,
      1777040243,
      1777040255,
      1777040300,
      1777040344,
      1777040398,
      1777040428,
      1777040456,
      1777040474,
      1777040495,
      1777040525
    ],
    "wof:geomhash": "c313bb1a1389eb0abaf46c94110ffd5c",
    "wof:id": 2031105109,
    "wof:repo": "sfomuseum-data-flights-2026-04"
  },
  "bbox": [
    -122.5275,
    37.6346,
    -121.46552,
    38.50788
  ],
  "geometry": {"coordinates":[[-122.41063,37.6346],[-122.41793,37.63784],[-122.47462,37.66147],[-122.5275,37.727],[-122.51233,37.77573],[-122.43037,37.8111],[-122.41993,37.81509],[-122.3409,37.84579],[-122.31319,37.85632],[-122.23427,37.88601],[-122.18397,37.90521],[-122.13657,37.92298],[-122.05444,37.95397],[-122.0114,37.98157],[-121.99966,37.99262],[-121.92363,38.07161],[-121.90653,38.08901],[-121.83969,38.15618],[-121.77393,38.22206],[-121.68786,38.30795],[-121.64041,38.35525],[-121.59379,38.40169],[-121.56362,38.4294],[-121.52116,38.46105],[-121.46552,38.50788]],"type":"LineString"}
}
