{
  "id": 2031095235,
  "type": "Feature",
  "properties": {
    "geom:area": 0,
    "geom:bbox": "-122.404410,37.631130,-121.244150,38.426700",
    "geom:latitude": 38.028506418537816,
    "geom:longitude": -121.83303155221766,
    "src:alt_label": "swim-takeoff",
    "src:geom": "swim",
    "swim:elevations": [
      374,
      675,
      1074,
      1236,
      1367,
      1643,
      1845,
      2253,
      2313,
      2804,
      3007,
      3203,
      3389,
      3509,
      3540,
      3657,
      3882,
      4288,
      5053,
      5340,
      5578,
      5867,
      5915,
      6306,
      6459,
      6692,
      6772,
      7122,
      7293,
      7451,
      7512
    ],
    "swim:geom": "takeoff",
    "swim:timestamps": [
      1776928969,
      1776928991,
      1776929028,
      1776929056,
      1776929075,
      1776929118,
      1776929134,
      1776929165,
      1776929170,
      1776929213,
      1776929233,
      1776929261,
      1776929306,
      1776929334,
      1776929342,
      1776929369,
      1776929393,
      1776929416,
      1776929453,
      1776929479,
      1776929513,
      1776929546,
      1776929553,
      1776929598,
      1776929624,
      1776929656,
      1776929671,
      1776929725,
      1776929755,
      1776929782,
      1776929791
    ],
    "wof:geomhash": "d40a45a3ac644c3565db06a1e2ca74b3",
    "wof:id": 2031095235,
    "wof:repo": "sfomuseum-data-flights-2026-04"
  },
  "bbox": [
    -122.40441,
    37.63113,
    -121.24415,
    38.4267
  ],
  "geometry": {"coordinates":[[-122.40146,37.63113],[-122.40441,37.64795],[-122.3721,37.66335],[-122.34394,37.67285],[-122.32182,37.68043],[-122.26503,37.70004],[-122.24224,37.70797],[-122.20295,37.72962],[-122.19892,37.73444],[-122.15863,37.77907],[-122.14007,37.79974],[-122.11274,37.83031],[-122.06215,37.88391],[-122.01627,37.91521],[-122.00306,37.92421],[-121.95731,37.95551],[-121.91424,37.98461],[-121.87184,38.0131],[-121.81036,38.05454],[-121.76951,38.08206],[-121.71615,38.11815],[-121.66375,38.15335],[-121.65246,38.16095],[-121.57808,38.21074],[-121.53493,38.23953],[-121.48062,38.2758],[-121.45629,38.29203],[-121.36324,38.35368],[-121.30946,38.38641],[-121.26039,38.41664],[-121.24415,38.4267]],"type":"LineString"}
}
