{
  "id": 2015359629,
  "type": "Feature",
  "properties": {
    "geom:area": 0,
    "geom:bbox": "-122.538370,36.734410,-121.317650,37.667440",
    "geom:latitude": 37.20995597030764,
    "geom:longitude": -122.01061880710725,
    "src:alt_label": "swim-takeoff",
    "src:geom": "swim",
    "swim:elevations": [
      122,
      703,
      1110,
      1304,
      1871,
      2242,
      2650,
      2728,
      3104,
      3419,
      3446,
      3995,
      4237,
      4483,
      4616,
      4742,
      5016,
      5253,
      5493,
      5556,
      5731,
      5985,
      6197,
      6400,
      6493,
      6736,
      6974,
      7080
    ],
    "swim:geom": "takeoff",
    "swim:timestamps": [
      1776877375,
      1776877417,
      1776877473,
      1776877503,
      1776877548,
      1776877577,
      1776877613,
      1776877622,
      1776877653,
      1776877704,
      1776877712,
      1776877795,
      1776877818,
      1776877856,
      1776877879,
      1776877895,
      1776877926,
      1776877957,
      1776877995,
      1776878002,
      1776878025,
      1776878058,
      1776878093,
      1776878124,
      1776878135,
      1776878176,
      1776878218,
      1776878240
    ],
    "wof:geomhash": "1044f1fdeee435ca689ecbe28ea9d16d",
    "wof:id": 2015359629,
    "wof:repo": "sfomuseum-data-flights-2026-04"
  },
  "bbox": [
    -122.53837,
    36.73441,
    -121.31765,
    37.66744
  ],
  "geometry": {"coordinates":[[-122.39283,37.62625],[-122.43192,37.6431],[-122.48792,37.66744],[-122.52941,37.66228],[-122.53837,37.61158],[-122.51934,37.5777],[-122.49745,37.53361],[-122.49167,37.52247],[-122.46536,37.4845],[-122.39056,37.43609],[-122.3788,37.42831],[-122.23274,37.3347],[-122.19141,37.30779],[-122.11936,37.26084],[-122.07567,37.23238],[-122.04396,37.21179],[-121.98302,37.17216],[-121.91943,37.13092],[-121.84174,37.08005],[-121.82638,37.07001],[-121.77941,37.03926],[-121.71088,36.99427],[-121.63717,36.94591],[-121.57217,36.90316],[-121.54739,36.88684],[-121.4589,36.82841],[-121.36671,36.76699],[-121.31765,36.73441]],"type":"LineString"}
}
