{
  "id": 2015337625,
  "type": "Feature",
  "properties": {
    "geom:area": 0,
    "geom:bbox": "-122.770000,37.620000,-73.780000,43.450000",
    "geom:latitude": 41.941573875047105,
    "geom:longitude": -98.80484749804334,
    "src:alt_label": "swim-route",
    "src:geom": "swim",
    "swim:geom": "route",
    "wof:geomhash": "de8c35d717437025ea48a9e591d56292",
    "wof:id": 2015337625,
    "wof:repo": "sfomuseum-data-flights-2026-04"
  },
  "bbox": [
    -122.77,
    37.62,
    -73.78,
    43.45
  ],
  "geometry": {"coordinates":[[-73.78,40.64],[-76.48,41.9],[-76.71,42],[-77.2,42.21],[-77.41,42.31],[-77.85,42.49],[-78.73,42.86],[-78.97,42.96],[-79.05,42.97],[-79.63,43.03],[-82.26,43.27],[-82.28,43.27],[-82.29,43.27],[-82.71,43.26],[-83.31,43.32],[-84.41,43.41],[-84.94,43.45],[-85,43.45],[-86.01,43.42],[-87,43.38],[-87.27,43.37],[-87.36,43.36],[-87.68,43.35],[-87.87,43.34],[-89.16,43.13],[-89.67,43.04],[-90.61,42.88],[-90.72,42.86],[-91.69,42.72],[-92.3,42.63],[-92.48,42.6],[-92.54,42.59],[-92.58,42.59],[-92.94,42.53],[-93.04,42.51],[-93.12,42.5],[-93.18,42.49],[-93.61,42.46],[-93.81,42.46],[-93.94,42.47],[-96.27,42.52],[-98.85,42.52],[-99.44,42.51],[-100.23,42.49],[-102.27,42.43],[-102.87,42.4],[-103.16,42.39],[-103.76,42.36],[-104.65,42.31],[-105.66,42.24],[-106.04,42.21],[-107.42,42.1],[-108.17,42.04],[-108.28,42.02],[-110.85,41.75],[-112.52,41.55],[-112.71,41.52],[-112.91,41.49],[-113.84,41.36],[-114.46,41.21],[-114.74,41.15],[-115.02,41.08],[-115.57,40.94],[-116.82,40.61],[-116.87,40.6],[-117.08,40.54],[-117.51,40.42],[-118.04,40.28],[-118.1,40.26],[-118.3,40.2],[-118.58,40.13],[-119.06,39.98],[-120.5,39.53],[-121.07,39.34],[-121.1,39.34],[-121.12,39.32],[-121.64,39.02],[-121.88,38.88],[-121.9,38.87],[-122.18,38.7],[-122.4,38.57],[-122.44,38.54],[-122.77,38.22],[-122.67,37.9],[-122.68,37.85],[-122.7,37.78],[-122.7,37.77],[-122.71,37.72],[-122.71,37.7],[-122.61,37.69],[-122.6,37.68],[-122.53,37.67],[-122.48,37.66],[-122.47,37.71],[-122.46,37.71],[-122.45,37.74],[-122.42,37.69],[-122.38,37.62]],"type":"LineString"}
}
