{
  "id": 2015253795,
  "type": "Feature",
  "properties": {
    "geom:area": 0,
    "geom:bbox": "-122.364300,37.468580,-121.245710,37.621830",
    "geom:latitude": 37.549531503076516,
    "geom:longitude": -121.81235250296984,
    "src:alt_label": "swim-approach",
    "src:geom": "swim",
    "swim:elevations": [
      4669,
      4421,
      4101,
      3995,
      3658,
      3445,
      3353,
      3375,
      3371,
      3353,
      3286,
      3048,
      2984,
      2806,
      2798,
      2658,
      2562,
      2438,
      2438,
      2438,
      2216,
      2184,
      2134,
      2154,
      2127,
      1912,
      1718,
      1582,
      1524,
      1493,
      1405,
      1278,
      983,
      679,
      570,
      476,
      339,
      300,
      79,
      0
    ],
    "swim:geom": "approach",
    "swim:timestamps": [
      1775812556,
      1775812582,
      1775812616,
      1775812627,
      1775812669,
      1775812700,
      1775812724,
      1775812767,
      1775812770,
      1775812786,
      1775812802,
      1775812858,
      1775812881,
      1775812916,
      1775812920,
      1775812950,
      1775812966,
      1775812997,
      1775813038,
      1775813048,
      1775813093,
      1775813102,
      1775813143,
      1775813158,
      1775813188,
      1775813217,
      1775813245,
      1775813271,
      1775813295,
      1775813333,
      1775813361,
      1775813379,
      1775813407,
      1775813441,
      1775813463,
      1775813481,
      1775813512,
      1775813522,
      1775813575,
      1775813597
    ],
    "wof:geomhash": "6318a639922607830b71661cbdda2f02",
    "wof:id": 2015253795,
    "wof:repo": "sfomuseum-data-flights-2026-04"
  },
  "bbox": [
    -122.3643,
    37.46858,
    -121.24571,
    37.62183
  ],
  "geometry": {"coordinates":[[-121.24571,37.59501],[-121.2962,37.58841],[-121.36212,37.58137],[-121.38297,37.57908],[-121.46388,37.56978],[-121.52101,37.56334],[-121.56246,37.55829],[-121.62844,37.54956],[-121.63282,37.5489],[-121.65667,37.55113],[-121.67784,37.56111],[-121.74769,37.59951],[-121.77517,37.61469],[-121.82043,37.62183],[-121.8253,37.61973],[-121.84209,37.59449],[-121.83553,37.5789],[-121.80995,37.55308],[-121.7903,37.51601],[-121.79287,37.50611],[-121.81976,37.46956],[-121.83113,37.46858],[-121.88335,37.47338],[-121.9036,37.47546],[-121.94334,37.47908],[-121.98209,37.48256],[-122.01946,37.486],[-122.05358,37.48947],[-122.08313,37.49809],[-122.127,37.51668],[-122.1558,37.5289],[-122.17272,37.53596],[-122.20015,37.54758],[-122.23401,37.56184],[-122.25333,37.56999],[-122.26928,37.57665],[-122.29496,37.58743],[-122.30322,37.59097],[-122.34607,37.6089],[-122.3643,37.61629]],"type":"LineString"}
}
