{
  "id": 2031141835,
  "type": "Feature",
  "properties": {
    "geom:area": 0,
    "geom:bbox": "-122.770000,37.500000,-79.630000,46.000000",
    "geom:latitude": 43.58445496703108,
    "geom:longitude": -102.0995919384341,
    "src:alt_label": "swim-route",
    "src:geom": "swim",
    "swim:geom": "route",
    "wof:geomhash": "6f070fe442bf8c17752c92860e0cefbe",
    "wof:id": 2031141835,
    "wof:repo": "sfomuseum-data-flights-2026-04"
  },
  "bbox": [
    -122.77,
    37.5,
    -79.63,
    46
  ],
  "geometry": {"coordinates":[[-79.63,43.68],[-79.74,43.71],[-79.83,43.73],[-79.93,43.76],[-80.15,43.83],[-80.18,43.83],[-80.18,43.84],[-80.19,43.84],[-80.24,43.85],[-80.36,43.89],[-80.37,43.9],[-80.78,44.03],[-81.02,44.11],[-81.28,44.19],[-81.38,44.22],[-81.53,44.27],[-81.58,44.28],[-81.9,44.38],[-82.2,44.47],[-82.32,44.51],[-86.5,45.59],[-87.09,45.72],[-90,46],[-92.18,45.87],[-92.18,45.87],[-95.02,45.71],[-97.13,45.54],[-97.77,45.48],[-98.37,45.42],[-98.89,45.37],[-100.2,45.24],[-101.11,45.15],[-101.66,45.08],[-101.72,45.08],[-102.65,44.88],[-102.9,44.83],[-103.24,44.75],[-104.41,44.49],[-104.99,44.35],[-106.44,44],[-107.27,43.78],[-107.55,43.7],[-110.17,42.93],[-112.05,42.33],[-112.45,42.2],[-112.68,42.14],[-112.91,42.07],[-113.36,41.95],[-114.5,41.62],[-116.02,41.5],[-116.02,41.24],[-117.03,40.88],[-117.9,40.56],[-118.31,40.41],[-118.37,40.39],[-118.9,40.18],[-119.42,39.96],[-119.69,39.86],[-120.47,39.57],[-120.51,39.56],[-120.91,39.41],[-121.03,39.42],[-121.09,39.35],[-121.1,39.34],[-121.1,39.33],[-121.34,39.33],[-121.58,39.32],[-121.62,39.32],[-122.01,39.2],[-122.02,39.18],[-122.15,39.13],[-122.19,39.1],[-122.24,39.03],[-122.34,38.87],[-122.59,38.49],[-122.68,38.36],[-122.71,38.32],[-122.71,38.31],[-122.77,38.22],[-122.75,38.16],[-122.7,38],[-122.69,37.95],[-122.67,37.9],[-122.65,37.87],[-122.59,37.82],[-122.58,37.81],[-122.53,37.77],[-122.51,37.74],[-122.5,37.74],[-122.5,37.73],[-122.44,37.68],[-122.32,37.5],[-122.37,37.62],[-122.38,37.62]],"type":"LineString"}
}
