{
  "id": 2031113545,
  "type": "Feature",
  "properties": {
    "geom:area": 0,
    "geom:bbox": "-175.530000,16.660000,180.000000,37.850000",
    "geom:latitude": 28.205545847758938,
    "geom:longitude": 5.94954140427447,
    "src:alt_label": "swim-route",
    "src:geom": "swim",
    "swim:geom": "route",
    "wof:geomhash": "767ae329638426b4133e7bed136b0c02",
    "wof:id": 2031113545,
    "wof:repo": "sfomuseum-data-flights-2026-04"
  },
  "bbox": [
    -175.53,
    16.66,
    180,
    37.85
  ],
  "geometry": {"coordinates":[[[-122.38,37.62],[-122.5,37.67],[-122.5,37.67],[-122.5,37.67],[-122.61,37.68],[-122.61,37.68],[-122.66,37.68],[-122.74,37.69],[-122.75,37.69],[-122.86,37.7],[-122.88,37.7],[-123,37.7],[-123.09,37.71],[-123.53,37.73],[-123.54,37.73],[-123.8,37.75],[-124.01,37.76],[-124.12,37.76],[-124.32,37.77],[-124.4,37.78],[-124.57,37.78],[-124.76,37.79],[-124.94,37.8],[-125.29,37.81],[-125.83,37.83],[-126.99,37.85],[-127,37.85],[-128.11,37.85],[-130,37.83],[-140,37],[-145.06,36.1],[-150,35],[-156.06,33.9],[-157.05,33.68],[-158.04,33.46],[-160,33],[-166.05,31.89],[-168.04,31.46],[-170,31],[-175.53,29.46]],[[180,28],[170,24],[165.4,22.71],[160,21],[158.33,20.71],[155.83,20.24],[153.34,19.74],[150,19],[144.56,17.98],[140,17],[130,16.66],[127.38,17.4],[116.67,20],[116,20.64],[115.94,20.7],[115.74,20.88],[115.68,20.94],[115.64,20.98],[115.48,21.13],[115.25,21.34],[115.05,21.53],[114.81,21.75],[114.69,21.87],[114.52,22.02],[114.49,22.05],[114.39,22.14],[114.33,22.2],[114.26,22.26],[114.2,22.32]]],"type":"MultiLineString"}
}
