{
  "id": 2015336969,
  "type": "Feature",
  "properties": {
    "geom:area": 0,
    "geom:bbox": "-122.731111,33.918333,-118.433333,37.733333",
    "geom:latitude": 35.81667960563822,
    "geom:longitude": -120.95709571878785,
    "src:alt_label": "swim-path",
    "src:geom": "swim",
    "swim:altitudes": [
      "010",
      "010",
      "010",
      "058",
      "085",
      "085",
      "108",
      "140",
      "140",
      "162",
      "162",
      "183",
      "203",
      "203",
      "220",
      "220",
      "251",
      "251",
      "251",
      "265",
      "277",
      "277",
      "293",
      "293",
      "293",
      "306",
      "322",
      "335",
      "335",
      "357",
      "357",
      "360C",
      "358",
      "358",
      "358",
      "347",
      "320",
      "252",
      "252",
      "237",
      "218",
      "210",
      "203",
      "172",
      "172",
      "166",
      "166",
      "155",
      "118",
      "118",
      "113",
      "113",
      "113",
      "110",
      "106",
      "103",
      "093",
      "093",
      "086",
      "082",
      "080",
      "080",
      "080",
      "080",
      "080",
      "080",
      "080",
      "080",
      "075",
      "075",
      "075",
      "063",
      "063",
      "060",
      "060",
      "060",
      "056",
      "049",
      "037",
      "037",
      "030",
      "030",
      "030",
      "026",
      "021",
      "021",
      "009",
      "009"
    ],
    "swim:geom": "path",
    "swim:speeds": [
      167,
      167,
      167,
      267,
      278,
      278,
      292,
      384,
      384,
      407,
      407,
      426,
      439,
      439,
      447,
      447,
      465,
      465,
      465,
      474,
      482,
      482,
      483,
      483,
      483,
      482,
      480,
      470,
      470,
      462,
      462,
      470,
      470,
      470,
      470,
      470,
      471,
      441,
      441,
      433,
      418,
      405,
      407,
      379,
      379,
      378,
      378,
      374,
      373,
      373,
      372,
      372,
      372,
      324,
      306,
      289,
      275,
      275,
      269,
      262,
      247,
      247,
      254,
      261,
      261,
      257,
      233,
      235,
      213,
      213,
      213,
      225,
      225,
      189,
      192,
      191,
      191,
      195,
      220,
      220,
      198,
      198,
      196,
      173,
      145,
      145,
      140,
      140
    ],
    "swim:timestamps": [
      1776722457,
      1776722457,
      1776722457,
      1776722606,
      1776722666,
      1776722666,
      1776722726,
      1776722846,
      1776722846,
      1776722906,
      1776722906,
      1776722967,
      1776723027,
      1776723027,
      1776723091,
      1776723091,
      1776723207,
      1776723207,
      1776723207,
      1776723271,
      1776723331,
      1776723331,
      1776723387,
      1776723387,
      1776723387,
      1776723451,
      1776723511,
      1776723567,
      1776723567,
      1776723691,
      1776723691,
      1776723812,
      1776724048,
      1776724048,
      1776724048,
      1776724112,
      1776724172,
      1776724366,
      1776724366,
      1776724412,
      1776724472,
      1776724499,
      1776724532,
      1776724619,
      1776724619,
      1776724653,
      1776724653,
      1776724679,
      1776724799,
      1776724799,
      1776724833,
      1776724833,
      1776724833,
      1776724953,
      1776724979,
      1776725013,
      1776725073,
      1776725073,
      1776725100,
      1776725133,
      1776725160,
      1776725160,
      1776725193,
      1776725220,
      1776725220,
      1776725253,
      1776725340,
      1776725434,
      1776725494,
      1776725494,
      1776725494,
      1776725580,
      1776725580,
      1776725700,
      1776725734,
      1776725760,
      1776725794,
      1776725820,
      1776725880,
      1776725880,
      1776725940,
      1776725940,
      1776726000,
      1776726060,
      1776726126,
      1776726126,
      1776726240,
      1776726240
    ],
    "wof:geomhash": "35f161b8151bd32e7adf2694e0fa5f2b",
    "wof:id": 2015336969,
    "wof:repo": "sfomuseum-data-flights-2026-04"
  },
  "bbox": [
    -122.73111111111112,
    33.91833333333333,
    -118.43333333333334,
    37.733333333333334
  ],
  "geometry": {"coordinates":[[-118.43333333333334,33.95],[-118.43333333333334,33.95],[-118.43333333333334,33.95],[-118.62805555555555,33.933055555555555],[-118.72027777777778,33.92583333333333],[-118.72027777777778,33.92583333333333],[-118.81444444444445,33.91833333333333],[-119.04861111111111,33.939166666666665],[-119.04861111111111,33.939166666666665],[-119.16472222222222,33.999722222222225],[-119.16472222222222,33.999722222222225],[-119.2538888888889,34.08861111111111],[-119.34166666666667,34.19027777777777],[-119.34166666666667,34.19027777777777],[-119.42805555555556,34.29],[-119.42805555555556,34.29],[-119.62972222222221,34.48972222222222],[-119.62972222222221,34.48972222222222],[-119.62972222222221,34.48972222222222],[-119.74694444444445,34.58527777777778],[-119.86277777777777,34.678888888888885],[-119.86277777777777,34.678888888888885],[-119.97722222222222,34.771388888888886],[-119.97722222222222,34.771388888888886],[-119.97722222222222,34.771388888888886],[-120.09722222222221,34.86694444444444],[-120.22,34.96527777777778],[-120.31055555555555,35.03777777777778],[-120.31055555555555,35.03777777777778],[-120.54388888888889,35.24],[-120.54388888888889,35.24],[-120.74583333333334,35.446666666666665],[-121.115,35.856944444444444],[-121.115,35.856944444444444],[-121.115,35.856944444444444],[-121.22333333333333,35.97638888888889],[-121.32,36.08277777777778],[-121.61666666666666,36.416666666666664],[-121.61666666666666,36.416666666666664],[-121.69,36.48555555555556],[-121.76861111111111,36.58305555555556],[-121.8,36.63333333333333],[-121.83083333333333,36.66138888888889],[-121.96666666666667,36.8],[-121.96666666666667,36.8],[-121.99527777777777,36.83777777777778],[-121.99527777777777,36.83777777777778],[-122.05,36.88333333333333],[-122.21666666666667,37.05],[-122.21666666666667,37.05],[-122.24666666666667,37.07555555555556],[-122.24666666666667,37.07555555555556],[-122.24666666666667,37.07555555555556],[-122.39611111111111,37.21333333333334],[-122.43333333333334,37.25],[-122.46583333333334,37.27777777777778],[-122.52888888888889,37.33416666666667],[-122.52888888888889,37.33416666666667],[-122.56666666666666,37.36666666666667],[-122.59472222222222,37.38666666666666],[-122.65,37.4],[-122.65,37.4],[-122.67083333333333,37.4175],[-122.7,37.45],[-122.7,37.45],[-122.73111111111112,37.473055555555554],[-122.7,37.55],[-122.595,37.53361111111111],[-122.52027777777778,37.528055555555554],[-122.52027777777778,37.528055555555554],[-122.52027777777778,37.528055555555554],[-122.43333333333334,37.55],[-122.43333333333334,37.55],[-122.55,37.6],[-122.57249999999999,37.606944444444444],[-122.61666666666666,37.61666666666667],[-122.63722222222223,37.61972222222222],[-122.68333333333334,37.63333333333333],[-122.71666666666667,37.68333333333333],[-122.71666666666667,37.68333333333333],[-122.7,37.71666666666667],[-122.7,37.71666666666667],[-122.63333333333334,37.733333333333334],[-122.56666666666666,37.71666666666667],[-122.51666666666667,37.68333333333333],[-122.51666666666667,37.68333333333333],[-122.43333333333334,37.65],[-122.43333333333334,37.65]],"type":"LineString"}
}
