{
  "id": 2031109015,
  "type": "Feature",
  "properties": {
    "geom:area": 0,
    "geom:bbox": "-159.333333,21.966667,-122.116667,37.573889",
    "geom:latitude": 29.455363766246727,
    "geom:longitude": -140.5629454865353,
    "src:alt_label": "swim-path",
    "src:geom": "swim",
    "swim:altitudes": [
      "001",
      "001",
      "001",
      "001",
      "001",
      "001",
      "040C",
      "040C",
      "040C",
      "040C",
      "040C",
      "040C",
      "040C",
      "040C",
      "040C",
      "087C",
      "087C",
      "087C",
      "109C",
      "109C",
      "109C",
      "162C",
      "162C",
      "162C",
      "162C",
      "162C",
      "162C",
      "267C",
      "267C",
      "267C",
      "267C",
      "267C",
      "303C",
      "303C",
      "303C",
      "303C",
      "311C",
      "311C",
      "311C",
      "321C",
      "332C",
      "332C",
      "332C",
      "332C",
      "332C",
      "350",
      "350",
      "350",
      "350",
      "350",
      "350",
      "350",
      "350",
      "350",
      "350",
      "350",
      "350",
      "350",
      "350",
      "350",
      "350",
      "350",
      "350",
      "350",
      "350",
      "350",
      "350",
      "350",
      "350",
      "350",
      "350",
      "350",
      "350",
      "350",
      "350",
      "350",
      "350",
      "350",
      "350",
      "350",
      "350",
      "350",
      "350",
      "350",
      "350",
      "350",
      "350",
      "350",
      "350",
      "350",
      "350",
      "350",
      "350",
      "350",
      "350",
      "350",
      "350",
      "350",
      "350",
      "350C",
      "350C",
      "350C",
      "350C",
      "350",
      "350",
      "350",
      "350",
      "350",
      "350",
      "334C",
      "334C",
      "334C",
      "265",
      "265",
      "265",
      "265",
      "176",
      "176",
      "176",
      "176",
      "085",
      "085",
      "080",
      "080",
      "080",
      "066",
      "066",
      "061",
      "061",
      "060",
      "060",
      "059",
      "059",
      "052",
      "040",
      "040",
      "040",
      "040",
      "032",
      "032",
      "029",
      "029",
      "015"
    ],
    "swim:geom": "path",
    "swim:speeds": [
      90,
      90,
      90,
      90,
      90,
      90,
      240,
      240,
      240,
      240,
      250,
      250,
      250,
      250,
      250,
      270,
      270,
      270,
      290,
      290,
      290,
      360,
      360,
      360,
      360,
      360,
      360,
      430,
      430,
      430,
      430,
      430,
      440,
      440,
      440,
      440,
      450,
      450,
      450,
      450,
      450,
      450,
      450,
      450,
      450,
      450,
      450,
      450,
      450,
      450,
      450,
      450,
      450,
      450,
      450,
      450,
      450,
      450,
      440,
      440,
      440,
      450,
      450,
      450,
      450,
      450,
      440,
      450,
      450,
      450,
      450,
      450,
      450,
      450,
      450,
      450,
      450,
      450,
      450,
      450,
      450,
      450,
      450,
      450,
      450,
      450,
      450,
      450,
      450,
      450,
      450,
      450,
      450,
      450,
      450,
      450,
      450,
      450,
      450,
      452,
      452,
      452,
      452,
      450,
      450,
      450,
      450,
      450,
      450,
      450,
      450,
      450,
      413,
      413,
      413,
      413,
      340,
      340,
      340,
      340,
      287,
      287,
      288,
      283,
      283,
      285,
      285,
      279,
      279,
      281,
      281,
      241,
      241,
      241,
      192,
      192,
      174,
      174,
      172,
      172,
      160,
      160,
      155
    ],
    "swim:timestamps": [
      1777157068,
      1777157068,
      1777157068,
      1777157068,
      1777157068,
      1777157068,
      1777157215,
      1777157215,
      1777157215,
      1777157215,
      1777157336,
      1777157336,
      1777157336,
      1777157336,
      1777157336,
      1777157456,
      1777157456,
      1777157456,
      1777157516,
      1777157516,
      1777157516,
      1777157696,
      1777157696,
      1777157696,
      1777157696,
      1777157696,
      1777157696,
      1777158117,
      1777158117,
      1777158117,
      1777158117,
      1777158117,
      1777158298,
      1777158298,
      1777158298,
      1777158298,
      1777158358,
      1777158358,
      1777158358,
      1777158418,
      1777158478,
      1777158478,
      1777158478,
      1777158478,
      1777158478,
      1777158719,
      1777158719,
      1777158719,
      1777158779,
      1777158779,
      1777158779,
      1777158779,
      1777158959,
      1777158959,
      1777158959,
      1777158959,
      1777158959,
      1777158959,
      1777159080,
      1777159080,
      1777159080,
      1777159200,
      1777159200,
      1777159200,
      1777159200,
      1777159200,
      1777159260,
      1777159320,
      1777159320,
      1777159320,
      1777159441,
      1777159441,
      1777159501,
      1777159501,
      1777159561,
      1777159561,
      1777159561,
      1777159561,
      1777159561,
      1777159561,
      1777159802,
      1777159802,
      1777159802,
      1777159802,
      1777159802,
      1777159982,
      1777159982,
      1777160043,
      1777160043,
      1777160043,
      1777160043,
      1777160102,
      1777160102,
      1777160102,
      1777160253,
      1777160253,
      1777160253,
      1777160253,
      1777160253,
      1777172501,
      1777172501,
      1777172501,
      1777172501,
      1777172681,
      1777172681,
      1777172681,
      1777172861,
      1777172861,
      1777172861,
      1777172966,
      1777172966,
      1777172966,
      1777173161,
      1777173161,
      1777173161,
      1777173161,
      1777173449,
      1777173449,
      1777173449,
      1777173449,
      1777173773,
      1777173773,
      1777173822,
      1777173834,
      1777173834,
      1777173942,
      1777173942,
      1777173953,
      1777173953,
      1777174014,
      1777174014,
      1777174079,
      1777174079,
      1777174122,
      1777174242,
      1777174242,
      1777174254,
      1777174254,
      1777174302,
      1777174302,
      1777174374,
      1777174374,
      1777174482
    ],
    "wof:geomhash": "1b99b3d1ef4cf8f4a5d9ec20f20e9ed3",
    "wof:id": 2031109015,
    "wof:repo": "sfomuseum-data-flights-2026-04"
  },
  "bbox": [
    -159.33333333333334,
    21.966666666666665,
    -122.11666666666666,
    37.573888888888895
  ],
  "geometry": {"coordinates":[[-159.33333333333334,21.966666666666665],[-159.33333333333334,21.966666666666665],[-159.33333333333334,21.966666666666665],[-159.33333333333334,21.966666666666665],[-159.33333333333334,21.966666666666665],[-159.33333333333334,21.966666666666665],[-159.25,22.066666666666666],[-159.25,22.066666666666666],[-159.25,22.066666666666666],[-159.25,22.066666666666666],[-159.15,22.183333333333334],[-159.15,22.183333333333334],[-159.15,22.183333333333334],[-159.15,22.183333333333334],[-159.15,22.183333333333334],[-159,22.216666666666665],[-159,22.216666666666665],[-159,22.216666666666665],[-158.91666666666666,22.233333333333334],[-158.91666666666666,22.233333333333334],[-158.91666666666666,22.233333333333334],[-158.61666666666667,22.283333333333335],[-158.61666666666667,22.283333333333335],[-158.61666666666667,22.283333333333335],[-158.61666666666667,22.283333333333335],[-158.61666666666667,22.283333333333335],[-158.61666666666667,22.283333333333335],[-157.8,22.433333333333334],[-157.8,22.433333333333334],[-157.8,22.433333333333334],[-157.8,22.433333333333334],[-157.8,22.433333333333334],[-157.41666666666666,22.516666666666666],[-157.41666666666666,22.516666666666666],[-157.41666666666666,22.516666666666666],[-157.41666666666666,22.516666666666666],[-157.28333333333333,22.533333333333335],[-157.28333333333333,22.533333333333335],[-157.28333333333333,22.533333333333335],[-157.15,22.566666666666666],[-157.01666666666668,22.583333333333332],[-157.01666666666668,22.583333333333332],[-157.01666666666668,22.583333333333332],[-157.01666666666668,22.583333333333332],[-157.01666666666668,22.583333333333332],[-156.48333333333332,22.683333333333334],[-156.48333333333332,22.683333333333334],[-156.48333333333332,22.683333333333334],[-156.35,22.7],[-156.35,22.7],[-156.35,22.7],[-156.35,22.7],[-155.95,22.766666666666666],[-155.95,22.766666666666666],[-155.95,22.766666666666666],[-155.95,22.766666666666666],[-155.95,22.766666666666666],[-155.95,22.766666666666666],[-155.7,22.816666666666666],[-155.7,22.816666666666666],[-155.7,22.816666666666666],[-155.43333333333334,22.866666666666667],[-155.43333333333334,22.866666666666667],[-155.43333333333334,22.866666666666667],[-155.43333333333334,22.866666666666667],[-155.43333333333334,22.866666666666667],[-155.3,22.9],[-155.18333333333334,22.95],[-155.18333333333334,22.95],[-155.18333333333334,22.95],[-154.93333333333334,23.066666666666666],[-154.93333333333334,23.066666666666666],[-154.81666666666666,23.116666666666667],[-154.81666666666666,23.116666666666667],[-154.7,23.166666666666668],[-154.7,23.166666666666668],[-154.7,23.166666666666668],[-154.7,23.166666666666668],[-154.7,23.166666666666668],[-154.7,23.166666666666668],[-154.2,23.4],[-154.2,23.4],[-154.2,23.4],[-154.2,23.4],[-154.2,23.4],[-153.83333333333334,23.566666666666666],[-153.83333333333334,23.566666666666666],[-153.71666666666667,23.616666666666667],[-153.71666666666667,23.616666666666667],[-153.71666666666667,23.616666666666667],[-153.71666666666667,23.616666666666667],[-153.58333333333334,23.666666666666668],[-153.58333333333334,23.666666666666668],[-153.58333333333334,23.666666666666668],[-153.28333333333333,23.816666666666666],[-153.28333333333333,23.816666666666666],[-153.28333333333333,23.816666666666666],[-153.28333333333333,23.816666666666666],[-153.28333333333333,23.816666666666666],[-125.29055555555556,36.11],[-125.29055555555556,36.11],[-125.29055555555556,36.11],[-125.29055555555556,36.11],[-124.89333333333335,36.30361111111111],[-124.89333333333335,36.30361111111111],[-124.89333333333335,36.30361111111111],[-124.49333333333334,36.49611111111111],[-124.49333333333334,36.49611111111111],[-124.49333333333334,36.49611111111111],[-124.25,36.6],[-124.25,36.6],[-124.25,36.6],[-123.8436111111111,36.80416666666667],[-123.8436111111111,36.80416666666667],[-123.8436111111111,36.80416666666667],[-123.8436111111111,36.80416666666667],[-123.3,37.06666666666667],[-123.3,37.06666666666667],[-123.3,37.06666666666667],[-123.3,37.06666666666667],[-122.75,37.28333333333333],[-122.75,37.28333333333333],[-122.6913888888889,37.297777777777775],[-122.65,37.3],[-122.65,37.3],[-122.50138888888888,37.341944444444444],[-122.50138888888888,37.341944444444444],[-122.46666666666667,37.35],[-122.46666666666667,37.35],[-122.36666666666666,37.36666666666667],[-122.36666666666666,37.36666666666667],[-122.28333333333333,37.4],[-122.28333333333333,37.4],[-122.23583333333333,37.403055555555554],[-122.12305555555555,37.462500000000006],[-122.12305555555555,37.462500000000006],[-122.11666666666666,37.483333333333334],[-122.11666666666666,37.483333333333334],[-122.1275,37.5075],[-122.1275,37.5075],[-122.18333333333334,37.53333333333333],[-122.18333333333334,37.53333333333333],[-122.26861111111111,37.573888888888895]],"type":"LineString"}
}
