{
  "id": 2015237101,
  "type": "Feature",
  "properties": {
    "geom:area": 0,
    "geom:bbox": "-122.770000,37.620000,-114.020000,51.110000",
    "geom:latitude": 44.24384048999333,
    "geom:longitude": -118.4014137607271,
    "src:alt_label": "swim-route",
    "src:geom": "swim",
    "swim:geom": "route",
    "wof:geomhash": "160ce84ea70a08d909c467744d53a9fb",
    "wof:id": 2015237101,
    "wof:repo": "sfomuseum-data-flights-2026-04"
  },
  "bbox": [
    -122.77,
    37.62,
    -114.02,
    51.11
  ],
  "geometry": {"coordinates":[[-114.02,51.11],[-114.07,51.02],[-114.07,51.01],[-114.1,50.96],[-114.1,50.95],[-114.18,50.95],[-114.19,50.92],[-114.27,50.76],[-114.34,50.6],[-114.35,50.56],[-114.48,50.28],[-114.55,50.1],[-114.64,49.9],[-114.67,49.83],[-114.72,49.71],[-114.73,49.7],[-114.74,49.68],[-114.97,49.38],[-115.04,49.29],[-115.06,49.27],[-115.26,49],[-115.3,48.95],[-116,48],[-116.49,47.24],[-117.43,45.7],[-117.65,45.33],[-117.71,45.23],[-117.84,45.03],[-118.22,44.42],[-119.09,42.98],[-119.14,42.89],[-119.19,42.8],[-119.71,41.9],[-119.75,41.81],[-119.82,41.7],[-120.42,41],[-120.75,40.62],[-121.42,39.81],[-121.55,39.65],[-121.86,39.28],[-121.91,39.21],[-122.01,39.08],[-122.11,38.96],[-122.15,38.91],[-122.17,38.88],[-122.31,38.71],[-122.34,38.67],[-122.44,38.54],[-122.68,38.31],[-122.69,38.3],[-122.77,38.22],[-122.75,38.16],[-122.7,38],[-122.69,37.95],[-122.67,37.9],[-122.65,37.87],[-122.59,37.82],[-122.58,37.81],[-122.53,37.77],[-122.51,37.74],[-122.5,37.74],[-122.5,37.73],[-122.44,37.68],[-122.37,37.62],[-122.38,37.62]],"type":"LineString"}
}
