{
  "id": 2031105205,
  "type": "Feature",
  "properties": {
    "geom:area": 0,
    "geom:bbox": "-122.541740,36.722040,-121.298230,37.668200",
    "geom:latitude": 37.20424062151799,
    "geom:longitude": -122.00205638639558,
    "src:alt_label": "swim-takeoff",
    "src:geom": "swim",
    "swim:elevations": [
      152,
      605,
      876,
      965,
      1140,
      1341,
      1763,
      2101,
      2909,
      3249,
      3449,
      4028,
      4232,
      4677,
      5219,
      5280,
      5665,
      5954,
      6450,
      6795,
      6914,
      7079,
      7345,
      7389,
      7789,
      7909,
      8224,
      8418,
      8443,
      8748,
      8918,
      8930,
      9170
    ],
    "swim:geom": "takeoff",
    "swim:timestamps": [
      1777055568,
      1777055599,
      1777055626,
      1777055633,
      1777055659,
      1777055679,
      1777055708,
      1777055732,
      1777055783,
      1777055805,
      1777055835,
      1777055877,
      1777055893,
      1777055923,
      1777055964,
      1777055973,
      1777056013,
      1777056043,
      1777056085,
      1777056116,
      1777056129,
      1777056144,
      1777056175,
      1777056181,
      1777056232,
      1777056250,
      1777056297,
      1777056327,
      1777056332,
      1777056388,
      1777056418,
      1777056421,
      1777056452
    ],
    "wof:geomhash": "85ecae01ce15bc24f2bcfc2de6442e0a",
    "wof:id": 2031105205,
    "wof:repo": "sfomuseum-data-flights-2026-04"
  },
  "bbox": [
    -122.54174,
    36.72204,
    -121.29823,
    37.6682
  ],
  "geometry": {"coordinates":[[-122.39211,37.62608],[-122.41919,37.63801],[-122.44326,37.6481],[-122.44995,37.651],[-122.47848,37.6635],[-122.50566,37.6682],[-122.54119,37.64842],[-122.54174,37.61872],[-122.50874,37.55606],[-122.49435,37.52833],[-122.467,37.48873],[-122.40462,37.44513],[-122.37818,37.42818],[-122.32953,37.39688],[-122.26175,37.35306],[-122.24685,37.34341],[-122.17766,37.29865],[-122.12328,37.2634],[-122.04538,37.21277],[-121.98784,37.17538],[-121.96494,37.16049],[-121.93508,37.14107],[-121.87645,37.10277],[-121.86478,37.09515],[-121.76533,37.02999],[-121.72894,37.00588],[-121.63224,36.94284],[-121.56963,36.90151],[-121.55936,36.89471],[-121.43917,36.81539],[-121.37394,36.77227],[-121.36726,36.76777],[-121.29823,36.72204]],"type":"LineString"}
}
