{
  "id": 2015221217,
  "type": "Feature",
  "properties": {
    "geom:area": 0,
    "geom:bbox": "-122.852790,37.363470,-122.094910,38.516840",
    "geom:latitude": 37.687335022157576,
    "geom:longitude": -122.4365743386417,
    "src:alt_label": "swim-approach",
    "src:geom": "swim",
    "swim:elevations": [
      7934,
      7608,
      7490,
      7134,
      6782,
      6370,
      6269,
      5904,
      5533,
      5284,
      5245,
      4820,
      4659,
      4259,
      3898,
      3600,
      3381,
      3353,
      3349,
      3353,
      3353,
      2989,
      2394,
      2027,
      1830,
      1829,
      1829,
      1661,
      1396,
      1319,
      1216,
      1219,
      1216,
      1198,
      1024,
      916,
      846,
      792,
      762,
      573,
      486,
      396,
      378,
      335,
      409,
      700,
      1097,
      1146,
      1174,
      1219,
      1270,
      1396,
      1528,
      1821,
      1830,
      1831,
      1829,
      1829,
      1829,
      1829,
      1829,
      1829,
      1829,
      1829,
      1829,
      1829,
      1781,
      1624,
      1516,
      1437,
      1253,
      1212,
      920,
      793,
      792,
      794,
      792,
      714,
      548,
      491,
      404,
      304,
      210,
      154,
      72,
      0
    ],
    "swim:geom": "approach",
    "swim:timestamps": [
      1775486305,
      1775486335,
      1775486348,
      1775486382,
      1775486417,
      1775486457,
      1775486467,
      1775486503,
      1775486543,
      1775486577,
      1775486580,
      1775486629,
      1775486645,
      1775486690,
      1775486712,
      1775486734,
      1775486765,
      1775486800,
      1775486825,
      1775486877,
      1775486896,
      1775486937,
      1775486968,
      1775486992,
      1775487028,
      1775487053,
      1775487061,
      1775487097,
      1775487148,
      1775487174,
      1775487202,
      1775487218,
      1775487261,
      1775487275,
      1775487319,
      1775487338,
      1775487356,
      1775487381,
      1775487397,
      1775487442,
      1775487469,
      1775487493,
      1775487502,
      1775487514,
      1775487559,
      1775487573,
      1775487621,
      1775487647,
      1775487651,
      1775487679,
      1775487709,
      1775487738,
      1775487765,
      1775487807,
      1775487813,
      1775487844,
      1775487881,
      1775487924,
      1775487937,
      1775487958,
      1775487983,
      1775487995,
      1775488025,
      1775488055,
      1775488084,
      1775488137,
      1775488162,
      1775488188,
      1775488226,
      1775488246,
      1775488288,
      1775488295,
      1775488341,
      1775488378,
      1775488398,
      1775488405,
      1775488428,
      1775488462,
      1775488498,
      1775488521,
      1775488541,
      1775488585,
      1775488607,
      1775488632,
      1775488665,
      1775488684
    ],
    "wof:geomhash": "f528a28d740706723e5339b906b21bab",
    "wof:id": 2015221217,
    "wof:repo": "sfomuseum-data-flights-2026-04"
  },
  "bbox": [
    -122.85279,
    37.36347,
    -122.09491,
    38.51684
  ],
  "geometry": {"coordinates":[[-122.85279,38.51684],[-122.8361,38.46009],[-122.82888,38.43584],[-122.8106,38.37355],[-122.79184,38.30974],[-122.77038,38.23651],[-122.7654,38.21953],[-122.74667,38.15499],[-122.72692,38.08686],[-122.71063,38.03037],[-122.70913,38.0253],[-122.68622,37.94646],[-122.67905,37.92138],[-122.63195,37.86129],[-122.60289,37.83396],[-122.57569,37.80817],[-122.53675,37.77135],[-122.496,37.73286],[-122.46748,37.70585],[-122.40805,37.64994],[-122.38613,37.6293],[-122.35091,37.58014],[-122.32779,37.54211],[-122.30975,37.51303],[-122.28343,37.47011],[-122.26654,37.4426],[-122.26128,37.43388],[-122.22237,37.41191],[-122.15684,37.40749],[-122.13105,37.42214],[-122.10552,37.43768],[-122.09491,37.44943],[-122.10251,37.48768],[-122.10721,37.49964],[-122.14357,37.52124],[-122.16017,37.52835],[-122.17576,37.53491],[-122.19649,37.54369],[-122.2092,37.54906],[-122.24693,37.56487],[-122.26805,37.57382],[-122.28351,37.58037],[-122.28904,37.5827],[-122.29612,37.58562],[-122.32472,37.59735],[-122.33608,37.60182],[-122.38104,37.60854],[-122.40928,37.61109],[-122.41415,37.61153],[-122.44912,37.61452],[-122.48791,37.61732],[-122.51786,37.60235],[-122.53124,37.57698],[-122.53466,37.53364],[-122.53492,37.52672],[-122.53621,37.49332],[-122.53787,37.45451],[-122.53992,37.40747],[-122.54035,37.39348],[-122.52999,37.37361],[-122.49723,37.36347],[-122.48036,37.36465],[-122.43856,37.36857],[-122.39747,37.37222],[-122.35641,37.37591],[-122.28395,37.38638],[-122.25066,37.39422],[-122.21691,37.40198],[-122.16797,37.4137],[-122.14339,37.4197],[-122.11799,37.45096],[-122.11598,37.45751],[-122.11955,37.49695],[-122.14616,37.52098],[-122.16424,37.52964],[-122.17061,37.53247],[-122.18977,37.54081],[-122.21841,37.55293],[-122.24837,37.5655],[-122.26621,37.57309],[-122.27959,37.5787],[-122.30592,37.58978],[-122.31807,37.59479],[-122.33168,37.60047],[-122.34927,37.60792],[-122.3598,37.61224]],"type":"LineString"}
}
