{
  "id": 2015223719,
  "type": "Feature",
  "properties": {
    "geom:area": 0,
    "geom:bbox": "-122.402380,37.628330,-121.370940,38.504620",
    "geom:latitude": 38.13147139465749,
    "geom:longitude": -121.99212637506699,
    "src:alt_label": "swim-takeoff",
    "src:geom": "swim",
    "swim:elevations": [
      274,
      633,
      828,
      1241,
      1478,
      1881,
      2462,
      2916,
      3239,
      3289,
      3912,
      4182,
      4606,
      5008,
      5351,
      5517,
      5895,
      6267,
      6568,
      6856,
      6920,
      7269,
      7542,
      7723,
      8114,
      8213,
      8378,
      8383,
      8656,
      8729
    ],
    "swim:geom": "takeoff",
    "swim:timestamps": [
      1775543604,
      1775543633,
      1775543648,
      1775543686,
      1775543714,
      1775543743,
      1775543782,
      1775543811,
      1775543844,
      1775543853,
      1775543908,
      1775543929,
      1775543965,
      1775543995,
      1775544026,
      1775544047,
      1775544080,
      1775544116,
      1775544145,
      1775544177,
      1775544182,
      1775544205,
      1775544229,
      1775544247,
      1775544298,
      1775544314,
      1775544338,
      1775544342,
      1775544382,
      1775544391
    ],
    "wof:geomhash": "fc29a1cf9e8219b36f3bccccd451fcc9",
    "wof:id": 2015223719,
    "wof:repo": "sfomuseum-data-flights-2026-04"
  },
  "bbox": [
    -122.40238,
    37.62833,
    -121.37094,
    38.50462
  ],
  "geometry": {"coordinates":[[-122.39708,37.62833],[-122.40238,37.64956],[-122.39136,37.66076],[-122.36436,37.69098],[-122.34311,37.71776],[-122.34208,37.75294],[-122.36389,37.79816],[-122.38117,37.83303],[-122.38656,37.87829],[-122.38609,37.89167],[-122.33835,37.96843],[-122.30226,37.99052],[-122.23834,38.0295],[-122.18442,38.06213],[-122.1275,38.09682],[-122.08948,38.11996],[-122.02577,38.15858],[-121.95706,38.20012],[-121.89794,38.23596],[-121.83464,38.27437],[-121.82532,38.28001],[-121.77808,38.30847],[-121.73007,38.33359],[-121.69021,38.35294],[-121.58048,38.40523],[-121.54586,38.42159],[-121.49231,38.44731],[-121.48324,38.45169],[-121.39179,38.4948],[-121.37094,38.50462]],"type":"LineString"}
}
