{
  "id": 2015245079,
  "type": "Feature",
  "properties": {
    "geom:area": 0,
    "geom:bbox": "-122.480460,36.746620,-121.892720,37.615250",
    "geom:latitude": 37.19240083580027,
    "geom:longitude": -122.23590230608103,
    "src:alt_label": "swim-approach",
    "src:geom": "swim",
    "swim:elevations": [
      5481,
      5213,
      5106,
      4687,
      4552,
      4456,
      4272,
      3921,
      3812,
      3656,
      3596,
      3507,
      3472,
      3413,
      3367,
      3252,
      3217,
      3108,
      2974,
      2785,
      2761,
      2578,
      2316,
      2162,
      2155,
      2134,
      2134,
      2134,
      1927,
      1831,
      1829,
      1829,
      1829,
      1829,
      1829,
      1720,
      1582,
      1515,
      1310,
      1219,
      1219,
      1219,
      1219,
      1091,
      1001,
      791,
      792,
      792,
      706,
      686,
      580,
      505,
      438,
      275,
      170,
      113,
      98,
      35
    ],
    "swim:geom": "approach",
    "swim:timestamps": [
      1775766166,
      1775766196,
      1775766210,
      1775766262,
      1775766276,
      1775766289,
      1775766312,
      1775766354,
      1775766369,
      1775766405,
      1775766421,
      1775766447,
      1775766457,
      1775766475,
      1775766487,
      1775766531,
      1775766549,
      1775766582,
      1775766600,
      1775766646,
      1775766649,
      1775766673,
      1775766717,
      1775766747,
      1775766750,
      1775766804,
      1775766813,
      1775766830,
      1775766865,
      1775766893,
      1775766928,
      1775766936,
      1775766954,
      1775766973,
      1775766993,
      1775767017,
      1775767045,
      1775767057,
      1775767095,
      1775767137,
      1775767149,
      1775767168,
      1775767177,
      1775767197,
      1775767209,
      1775767252,
      1775767277,
      1775767314,
      1775767347,
      1775767353,
      1775767377,
      1775767400,
      1775767416,
      1775767464,
      1775767484,
      1775767501,
      1775767508,
      1775767532
    ],
    "wof:geomhash": "db29fa4d898ef6a91de5e1c2fcdb8967",
    "wof:id": 2015245079,
    "wof:repo": "sfomuseum-data-flights-2026-04"
  },
  "bbox": [
    -122.48046,
    36.74662,
    -121.89272,
    37.61525
  ],
  "geometry": {"coordinates":[[-121.89272,36.74662],[-121.90883,36.79381],[-121.91476,36.81486],[-121.9685,36.87805],[-121.99294,36.88105],[-122.0154,36.87834],[-122.05372,36.87186],[-122.12266,36.86032],[-122.14771,36.85612],[-122.20258,36.87154],[-122.21763,36.88965],[-122.24055,36.91968],[-122.24838,36.92994],[-122.26355,36.9498],[-122.27319,36.96233],[-122.30786,37.00715],[-122.32228,37.02571],[-122.34901,37.05946],[-122.36357,37.0779],[-122.39506,37.12634],[-122.39678,37.12954],[-122.41105,37.15561],[-122.43724,37.20227],[-122.4549,37.23355],[-122.45669,37.23668],[-122.48046,37.29439],[-122.47779,37.30458],[-122.47228,37.32347],[-122.44918,37.35719],[-122.41138,37.3617],[-122.36312,37.36411],[-122.35233,37.36564],[-122.3282,37.36914],[-122.30214,37.37287],[-122.27718,37.37674],[-122.24877,37.38116],[-122.21695,37.38606],[-122.203,37.38846],[-122.16011,37.3998],[-122.13393,37.43333],[-122.12853,37.44359],[-122.12004,37.45956],[-122.11611,37.4668],[-122.10933,37.48286],[-122.11121,37.4927],[-122.13672,37.51795],[-122.15791,37.5276],[-122.19077,37.54126],[-122.21916,37.55318],[-122.22406,37.5553],[-122.24355,37.5635],[-122.26269,37.57149],[-122.27513,37.57672],[-122.3111,37.59187],[-122.32674,37.59845],[-122.33973,37.60391],[-122.34574,37.60647],[-122.36561,37.61525]],"type":"LineString"}
}
