{
  "id": 2031104621,
  "type": "Feature",
  "properties": {
    "geom:area": 0,
    "geom:bbox": "-123.501740,37.632050,-122.405150,37.783640",
    "geom:latitude": 37.71881098710373,
    "geom:longitude": -122.95006485597561,
    "src:alt_label": "swim-takeoff",
    "src:geom": "swim",
    "swim:elevations": [
      412,
      613,
      715,
      874,
      1035,
      1155,
      1588,
      2317,
      2346,
      2756,
      3041,
      3167,
      3390,
      3755,
      3791,
      3989,
      4094,
      4232,
      4267,
      4411,
      4621,
      5020,
      5171,
      5330,
      5722,
      5870
    ],
    "swim:geom": "takeoff",
    "swim:timestamps": [
      1777067696,
      1777067714,
      1777067753,
      1777067775,
      1777067791,
      1777067810,
      1777067842,
      1777067908,
      1777067911,
      1777067950,
      1777067974,
      1777067983,
      1777068010,
      1777068055,
      1777068065,
      1777068116,
      1777068131,
      1777068146,
      1777068152,
      1777068166,
      1777068193,
      1777068238,
      1777068256,
      1777068271,
      1777068316,
      1777068332
    ],
    "wof:geomhash": "2b0c323750fdea64ea8ad778e46f85f5",
    "wof:id": 2031104621,
    "wof:repo": "sfomuseum-data-flights-2026-04"
  },
  "bbox": [
    -123.50174,
    37.63205,
    -122.40515,
    37.78364
  ],
  "geometry": {"coordinates":[[-122.40515,37.63205],[-122.41951,37.63845],[-122.4595,37.65546],[-122.48459,37.66648],[-122.50497,37.67444],[-122.53241,37.67759],[-122.58105,37.67995],[-122.68273,37.68587],[-122.6874,37.68626],[-122.74897,37.69433],[-122.78714,37.69944],[-122.80139,37.70126],[-122.84442,37.70651],[-122.91936,37.71541],[-122.93518,37.71734],[-123.03275,37.7289],[-123.06419,37.73264],[-123.09573,37.73636],[-123.10834,37.73787],[-123.13813,37.74135],[-123.19597,37.74814],[-123.29342,37.75957],[-123.33226,37.76408],[-123.3672,37.76813],[-123.46657,37.77958],[-123.50174,37.78364]],"type":"LineString"}
}
