{
  "id": 2015267059,
  "type": "Feature",
  "properties": {
    "geom:area": 0,
    "geom:bbox": "-122.363070,36.752010,-121.895320,37.613490",
    "geom:latitude": 37.256225362626175,
    "geom:longitude": -122.08741625735678,
    "src:alt_label": "swim-approach",
    "src:geom": "swim",
    "swim:elevations": [
      5161,
      5043,
      4659,
      4609,
      4221,
      4120,
      3864,
      3824,
      3748,
      3394,
      3301,
      3052,
      2745,
      2503,
      2333,
      2154,
      2136,
      2087,
      2026,
      1875,
      1829,
      1707,
      1588,
      1386,
      1248,
      1247,
      1219,
      1060,
      1005,
      915,
      914,
      914,
      881,
      798,
      679,
      597,
      394,
      338,
      267,
      226,
      39,
      291
    ],
    "swim:geom": "approach",
    "swim:timestamps": [
      1775994415,
      1775994430,
      1775994478,
      1775994486,
      1775994535,
      1775994551,
      1775994596,
      1775994603,
      1775994630,
      1775994682,
      1775994692,
      1775994721,
      1775994769,
      1775994800,
      1775994822,
      1775994865,
      1775994875,
      1775994909,
      1775994927,
      1775994949,
      1775994974,
      1775995015,
      1775995039,
      1775995076,
      1775995098,
      1775995118,
      1775995144,
      1775995194,
      1775995205,
      1775995231,
      1775995254,
      1775995273,
      1775995294,
      1775995308,
      1775995335,
      1775995357,
      1775995406,
      1775995416,
      1775995437,
      1775995448,
      1775995493,
      1775995505
    ],
    "wof:geomhash": "4c1434fdb5b9c48d0353b52d72b90401",
    "wof:id": 2015267059,
    "wof:repo": "sfomuseum-data-flights-2026-04"
  },
  "bbox": [
    -122.36307,
    36.75201,
    -121.89532,
    37.61349
  ],
  "geometry": {"coordinates":[[-121.89532,36.75201],[-121.90274,36.77465],[-121.92419,36.84805],[-121.92768,36.86018],[-121.94826,36.93558],[-121.95529,36.95819],[-121.97792,37.01689],[-121.98111,37.02496],[-121.99411,37.05714],[-122.03055,37.10753],[-122.03711,37.11648],[-122.05735,37.14402],[-122.091,37.19011],[-122.11142,37.21816],[-122.12693,37.23935],[-122.15563,37.27845],[-122.16271,37.28808],[-122.18358,37.31738],[-122.18858,37.33388],[-122.17074,37.35048],[-122.14283,37.36179],[-122.1034,37.38711],[-122.08633,37.40644],[-122.06281,37.43677],[-122.06551,37.45731],[-122.06575,37.47601],[-122.05721,37.49983],[-122.08812,37.52623],[-122.09964,37.52605],[-122.12652,37.52545],[-122.15059,37.52583],[-122.1697,37.53238],[-122.18833,37.5402],[-122.20165,37.54593],[-122.22561,37.55593],[-122.24467,37.56394],[-122.28391,37.5805],[-122.29094,37.58342],[-122.30742,37.59035],[-122.31642,37.59415],[-122.35236,37.60916],[-122.36307,37.61349]],"type":"LineString"}
}
