{
  "id": 2015330143,
  "type": "Feature",
  "properties": {
    "geom:area": 0,
    "geom:bbox": "-123.478100,36.973680,-122.122370,37.610350",
    "geom:latitude": 37.305709891031356,
    "geom:longitude": -122.68649139219346,
    "src:alt_label": "swim-approach",
    "src:geom": "swim",
    "swim:elevations": [
      6151,
      6066,
      5921,
      5476,
      5138,
      4917,
      4599,
      4435,
      4259,
      4077,
      3726,
      3425,
      3310,
      3177,
      3160,
      3048,
      3048,
      3048,
      3048,
      3048,
      3048,
      3048,
      3048,
      3048,
      3048,
      3048,
      3048,
      3048,
      2994,
      2748,
      2683,
      2577,
      2379,
      2173,
      2069,
      1888,
      1829,
      1829,
      1829,
      1672,
      1494,
      1464,
      1402,
      1097,
      1067,
      973,
      912,
      799,
      757,
      591,
      365,
      353,
      270,
      122,
      44
    ],
    "swim:geom": "approach",
    "swim:timestamps": [
      1776626724,
      1776626733,
      1776626748,
      1776626787,
      1776626818,
      1776626842,
      1776626877,
      1776626893,
      1776626914,
      1776626944,
      1776626993,
      1776627028,
      1776627040,
      1776627058,
      1776627061,
      1776627097,
      1776627127,
      1776627174,
      1776627207,
      1776627215,
      1776627238,
      1776627267,
      1776627276,
      1776627318,
      1776627334,
      1776627355,
      1776627367,
      1776627377,
      1776627397,
      1776627445,
      1776627456,
      1776627480,
      1776627511,
      1776627541,
      1776627559,
      1776627588,
      1776627618,
      1776627633,
      1776627665,
      1776627703,
      1776627746,
      1776627760,
      1776627780,
      1776627836,
      1776627844,
      1776627868,
      1776627887,
      1776627928,
      1776627946,
      1776627975,
      1776628016,
      1776628020,
      1776628047,
      1776628076,
      1776628100
    ],
    "wof:geomhash": "e02c0387a09680dd2edf355a76311401",
    "wof:id": 2015330143,
    "wof:repo": "sfomuseum-data-flights-2026-04"
  },
  "bbox": [
    -123.4781,
    36.97368,
    -122.12237,
    37.61035
  ],
  "geometry": {"coordinates":[[-123.4781,36.97368],[-123.45939,36.98239],[-123.42616,36.99777],[-123.35078,37.03359],[-123.28892,37.06209],[-123.24127,37.08412],[-123.17565,37.11426],[-123.14403,37.12877],[-123.10886,37.15208],[-123.06567,37.19065],[-123.0017,37.24867],[-122.9566,37.28863],[-122.94141,37.30172],[-122.91255,37.31544],[-122.9073,37.31618],[-122.84655,37.31253],[-122.79429,37.31021],[-122.72153,37.30753],[-122.67303,37.30641],[-122.66184,37.30567],[-122.6286,37.30215],[-122.58693,37.29753],[-122.57479,37.29618],[-122.51493,37.28936],[-122.49274,37.28681],[-122.46155,37.28337],[-122.44466,37.28149],[-122.43063,37.28003],[-122.4014,37.28503],[-122.38197,37.33708],[-122.39091,37.34744],[-122.41464,37.36914],[-122.44122,37.40057],[-122.4293,37.43473],[-122.40827,37.44404],[-122.37072,37.4389],[-122.33399,37.43007],[-122.31595,37.42573],[-122.27865,37.41644],[-122.23237,37.40619],[-122.18134,37.42545],[-122.16511,37.43361],[-122.14495,37.44371],[-122.12237,37.48619],[-122.12741,37.49327],[-122.14309,37.51064],[-122.15721,37.52558],[-122.19869,37.54427],[-122.21624,37.55207],[-122.24704,37.56475],[-122.28554,37.58107],[-122.28931,37.58268],[-122.31239,37.59255],[-122.33632,37.60248],[-122.35521,37.61035]],"type":"LineString"}
}
