{
  "id": 2015302859,
  "type": "Feature",
  "properties": {
    "geom:area": 0,
    "geom:bbox": "-122.348490,37.403520,-121.260860,37.609950",
    "geom:latitude": 37.52448074563281,
    "geom:longitude": -121.81396318259056,
    "src:alt_label": "swim-approach",
    "src:geom": "swim",
    "swim:elevations": [
      5026,
      4789,
      4646,
      4496,
      4406,
      4121,
      3893,
      3656,
      3548,
      3375,
      3245,
      3089,
      3048,
      3048,
      2964,
      2883,
      2805,
      2743,
      2657,
      2479,
      2381,
      2181,
      2135,
      2134,
      2068,
      1755,
      1570,
      1272,
      1100,
      965,
      803,
      743,
      579,
      453,
      426,
      302,
      120,
      64
    ],
    "swim:geom": "approach",
    "swim:timestamps": [
      1776337393,
      1776337421,
      1776337441,
      1776337461,
      1776337473,
      1776337514,
      1776337549,
      1776337583,
      1776337603,
      1776337633,
      1776337668,
      1776337696,
      1776337738,
      1776337753,
      1776337784,
      1776337809,
      1776337836,
      1776337869,
      1776337908,
      1776337945,
      1776337967,
      1776338000,
      1776338017,
      1776338028,
      1776338063,
      1776338098,
      1776338114,
      1776338157,
      1776338185,
      1776338208,
      1776338242,
      1776338250,
      1776338293,
      1776338330,
      1776338340,
      1776338373,
      1776338423,
      1776338439
    ],
    "wof:geomhash": "2182ea760f278ecac5a5a40f041d95ff",
    "wof:id": 2015302859,
    "wof:repo": "sfomuseum-data-flights-2026-04"
  },
  "bbox": [
    -122.34849,
    37.40352,
    -121.26086,
    37.60995
  ],
  "geometry": {"coordinates":[[-121.26086,37.59298],[-121.30954,37.58735],[-121.34243,37.58367],[-121.37478,37.57993],[-121.39476,37.57759],[-121.45681,37.57042],[-121.50688,37.56455],[-121.55348,37.55914],[-121.58054,37.55596],[-121.62076,37.55101],[-121.66645,37.54074],[-121.70345,37.53777],[-121.75354,37.55171],[-121.7727,37.55685],[-121.80802,37.54118],[-121.81222,37.51174],[-121.80914,37.47854],[-121.80219,37.44069],[-121.8239,37.40352],[-121.86907,37.40707],[-121.89433,37.4178],[-121.93038,37.43322],[-121.94864,37.44103],[-121.9611,37.44635],[-122.00037,37.46308],[-122.03785,37.47888],[-122.05613,37.48673],[-122.10443,37.50715],[-122.13447,37.51987],[-122.16066,37.53094],[-122.1966,37.54529],[-122.20434,37.54832],[-122.24463,37.56642],[-122.27453,37.57886],[-122.28247,37.58218],[-122.30446,37.59144],[-122.33797,37.60558],[-122.34849,37.60995]],"type":"LineString"}
}
