{
  "id": 2015225135,
  "type": "Feature",
  "properties": {
    "geom:area": 0,
    "geom:bbox": "-122.533056,32.683333,-116.897778,37.534722",
    "geom:latitude": 34.860328655001105,
    "geom:longitude": -119.83040436110376,
    "src:alt_label": "swim-path",
    "src:geom": "swim",
    "swim:altitudes": [
      "110",
      "157",
      "257",
      "306",
      "329",
      "350C",
      "350C",
      "350C",
      "350C",
      "350C",
      "350C",
      "350C",
      "350C",
      "350C",
      "350C",
      "350C",
      "350C",
      "331",
      "331",
      "316",
      "316",
      "297",
      "297",
      "281",
      "281",
      "208",
      "158",
      "124",
      "121",
      "121",
      "100",
      "075",
      "064",
      "047",
      "043",
      "040",
      "040",
      "038",
      "033",
      "029",
      "029",
      "019",
      "007"
    ],
    "swim:geom": "path",
    "swim:speeds": [
      288,
      349,
      426,
      473,
      490,
      489,
      489,
      493,
      493,
      496,
      495,
      494,
      494,
      494,
      493,
      494,
      494,
      496,
      496,
      491,
      491,
      476,
      476,
      471,
      471,
      413,
      369,
      349,
      352,
      352,
      298,
      251,
      242,
      210,
      209,
      193,
      193,
      180,
      179,
      181,
      181,
      175,
      152
    ],
    "swim:timestamps": [
      1775534975,
      1775535095,
      1775535394,
      1775535636,
      1775535754,
      1775536115,
      1775536115,
      1775536356,
      1775536356,
      1775536597,
      1775536777,
      1775536836,
      1775536836,
      1775536896,
      1775536956,
      1775537076,
      1775537076,
      1775537256,
      1775537256,
      1775537317,
      1775537317,
      1775537377,
      1775537377,
      1775537437,
      1775537437,
      1775537677,
      1775537842,
      1775537956,
      1775537977,
      1775537977,
      1775538098,
      1775538203,
      1775538262,
      1775538437,
      1775538458,
      1775538497,
      1775538497,
      1775538557,
      1775538617,
      1775538638,
      1775538638,
      1775538676,
      1775538759
    ],
    "wof:geomhash": "75c5f7948192156c2d9f17dcdaeeedc5",
    "wof:id": 2015225135,
    "wof:repo": "sfomuseum-data-flights-2026-04"
  },
  "bbox": [
    -122.53305555555555,
    32.68333333333333,
    -116.89777777777779,
    37.53472222222222
  ],
  "geometry": {"coordinates":[[-122.51694444444445,37.53472222222222],[-122.53305555555555,37.34916666666667],[-122.36138888888888,36.85277777777778],[-121.97305555555556,36.45805555555556],[-121.76222222222222,36.24111111111111],[-121.15361111111112,35.60583333333334],[-121.15361111111112,35.60583333333334],[-120.62666666666667,35.25861111111111],[-120.62666666666667,35.25861111111111],[-120.06,34.92444444444444],[-119.65555555555557,34.68222222222222],[-119.52638888888889,34.60444444444445],[-119.52638888888889,34.60444444444445],[-119.39500000000001,34.52472222222222],[-119.26138888888889,34.44361111111111],[-118.99333333333334,34.28],[-118.99333333333334,34.28],[-118.5925,34.032777777777774],[-118.5925,34.032777777777774],[-118.46000000000001,33.95055555555556],[-118.46000000000001,33.95055555555556],[-118.33972222222222,33.861666666666665],[-118.33972222222222,33.861666666666665],[-118.24416666666667,33.78777777777778],[-118.24416666666667,33.78777777777778],[-117.82166666666666,33.45416666666667],[-117.56666666666666,33.21666666666667],[-117.43333333333334,33.06666666666667],[-117.41944444444445,33.059999999999995],[-117.41944444444445,33.059999999999995],[-117.29722222222222,32.91416666666667],[-117.18333333333334,32.8],[-117.1,32.8],[-116.9,32.75],[-116.89777777777779,32.73361111111111],[-116.91666666666667,32.7],[-116.91666666666667,32.7],[-116.96666666666667,32.68333333333333],[-117.03333333333333,32.7],[-117.04944444444445,32.69944444444444],[-117.04944444444445,32.69944444444444],[-117.08333333333333,32.7],[-117.15083333333334,32.72416666666667]],"type":"LineString"}
}
