{
  "id": 2015203863,
  "type": "Feature",
  "properties": {
    "geom:area": 0,
    "geom:bbox": "-122.352640,37.491990,-121.267090,37.611630",
    "geom:latitude": 37.541707323221914,
    "geom:longitude": -121.81676077806692,
    "src:alt_label": "swim-approach",
    "src:geom": "swim",
    "swim:elevations": [
      4517,
      4285,
      4066,
      3775,
      3260,
      3167,
      3109,
      2900,
      2837,
      2538,
      2438,
      2158,
      2101,
      1951,
      1844,
      1808,
      1655,
      1395,
      1200,
      1090,
      1008,
      774,
      683,
      458,
      327,
      197,
      67,
      42
    ],
    "swim:geom": "approach",
    "swim:timestamps": [
      1775312358,
      1775312381,
      1775312404,
      1775312433,
      1775312487,
      1775312502,
      1775312520,
      1775312572,
      1775312586,
      1775312637,
      1775312655,
      1775312697,
      1775312712,
      1775312742,
      1775312763,
      1775312802,
      1775312826,
      1775312867,
      1775312898,
      1775312915,
      1775312927,
      1775312964,
      1775312983,
      1775313022,
      1775313050,
      1775313082,
      1775313116,
      1775313123
    ],
    "wof:geomhash": "0178692df491a9dcbd3dba49be91d168",
    "wof:id": 2015203863,
    "wof:repo": "sfomuseum-data-flights-2026-04"
  },
  "bbox": [
    -122.35264,
    37.49199,
    -121.26709,
    37.61163
  ],
  "geometry": {"coordinates":[[-121.26709,37.59207],[-121.31588,37.58629],[-121.36258,37.58132],[-121.42193,37.57468],[-121.52861,37.56215],[-121.55833,37.55868],[-121.59249,37.55462],[-121.67863,37.53791],[-121.69852,37.53332],[-121.77501,37.51473],[-121.80078,37.50847],[-121.86163,37.49435],[-121.88404,37.49199],[-121.92814,37.49393],[-121.95778,37.49548],[-122.00902,37.49845],[-122.04091,37.50026],[-122.09449,37.50437],[-122.13185,37.51873],[-122.15124,37.52693],[-122.16599,37.53309],[-122.21019,37.55169],[-122.23031,37.5602],[-122.27055,37.57713],[-122.29509,37.58738],[-122.32083,37.59832],[-122.34769,37.60954],[-122.35264,37.61163]],"type":"LineString"}
}
