{
  "id": 2015187173,
  "type": "Feature",
  "properties": {
    "geom:area": 0,
    "geom:bbox": "-122.355940,37.492260,-121.266660,37.613040",
    "geom:latitude": 37.542063063965564,
    "geom:longitude": -121.81823185013029,
    "src:alt_label": "swim-approach",
    "src:geom": "swim",
    "swim:elevations": [
      4812,
      4505,
      4086,
      4040,
      3476,
      3195,
      3127,
      2947,
      2684,
      2564,
      2427,
      2287,
      2067,
      1837,
      1762,
      1562,
      1474,
      1361,
      1250,
      1063,
      921,
      759,
      441,
      333,
      218,
      156,
      4
    ],
    "swim:geom": "approach",
    "swim:timestamps": [
      1775197434,
      1775197462,
      1775197498,
      1775197501,
      1775197552,
      1775197580,
      1775197598,
      1775197642,
      1775197678,
      1775197695,
      1775197724,
      1775197749,
      1775197790,
      1775197828,
      1775197857,
      1775197886,
      1775197902,
      1775197926,
      1775197958,
      1775197990,
      1775198015,
      1775198040,
      1775198097,
      1775198124,
      1775198152,
      1775198170,
      1775198203
    ],
    "wof:geomhash": "64d3bee67868ad44dde74630538a6d77",
    "wof:id": 2015187173,
    "wof:repo": "sfomuseum-data-flights-2026-04"
  },
  "bbox": [
    -122.35594,
    37.49226,
    -121.26666,
    37.61304
  ],
  "geometry": {"coordinates":[[-121.26666,37.59228],[-121.32292,37.5855],[-121.39659,37.5774],[-121.40265,37.57672],[-121.50582,37.56486],[-121.55948,37.55849],[-121.59465,37.55439],[-121.66925,37.5401],[-121.72788,37.52615],[-121.75438,37.51982],[-121.79905,37.50919],[-121.83579,37.50042],[-121.89859,37.49226],[-121.9557,37.49521],[-121.99512,37.49758],[-122.03316,37.4998],[-122.05408,37.50104],[-122.08594,37.50325],[-122.12506,37.51543],[-122.16275,37.53178],[-122.19111,37.54376],[-122.21874,37.55536],[-122.27721,37.5799],[-122.29926,37.58919],[-122.31974,37.59776],[-122.33291,37.60339],[-122.35594,37.61304]],"type":"LineString"}
}
