{
  "id": 2015362405,
  "type": "Feature",
  "properties": {
    "geom:area": 0,
    "geom:bbox": "-123.050030,37.412290,-122.122400,38.449670",
    "geom:latitude": 37.84032705123977,
    "geom:longitude": -122.5330380838302,
    "src:alt_label": "swim-approach",
    "src:geom": "swim",
    "swim:elevations": [
      7620,
      7465,
      7222,
      7035,
      7008,
      6944,
      6709,
      6587,
      6271,
      6128,
      5788,
      5529,
      5439,
      5254,
      5105,
      4764,
      4741,
      4408,
      3967,
      3652,
      3553,
      3350,
      3353,
      3353,
      3353,
      3353,
      3353,
      3176,
      2922,
      2814,
      2612,
      2307,
      2276,
      2049,
      1892,
      1606,
      1427,
      1321,
      1239,
      1219,
      1155,
      1030,
      756,
      708,
      523,
      497,
      471,
      397,
      274,
      165,
      46,
      0
    ],
    "swim:geom": "approach",
    "swim:timestamps": [
      1776981407,
      1776981434,
      1776981474,
      1776981499,
      1776981502,
      1776981510,
      1776981540,
      1776981558,
      1776981597,
      1776981613,
      1776981654,
      1776981681,
      1776981693,
      1776981720,
      1776981741,
      1776981777,
      1776981780,
      1776981818,
      1776981864,
      1776981891,
      1776981907,
      1776981948,
      1776981987,
      1776982009,
      1776982040,
      1776982053,
      1776982077,
      1776982096,
      1776982137,
      1776982150,
      1776982176,
      1776982224,
      1776982232,
      1776982277,
      1776982303,
      1776982347,
      1776982378,
      1776982397,
      1776982414,
      1776982438,
      1776982463,
      1776982477,
      1776982528,
      1776982536,
      1776982577,
      1776982588,
      1776982592,
      1776982610,
      1776982639,
      1776982668,
      1776982698,
      1776982710
    ],
    "wof:geomhash": "a4be519b7717808349a95670ce9377d5",
    "wof:id": 2015362405,
    "wof:repo": "sfomuseum-data-flights-2026-04"
  },
  "bbox": [
    -123.05003,
    37.41229,
    -122.1224,
    38.44967
  ],
  "geometry": {"coordinates":[[-123.05003,38.44967],[-123.00632,38.41508],[-122.942,38.364],[-122.90251,38.33252],[-122.8979,38.32883],[-122.88621,38.31951],[-122.83932,38.28208],[-122.81323,38.26117],[-122.76495,38.20965],[-122.75562,38.18399],[-122.737,38.12084],[-122.72516,38.07912],[-122.71963,38.05976],[-122.70776,38.01875],[-122.69883,37.98751],[-122.68308,37.93309],[-122.68177,37.92863],[-122.65018,37.8776],[-122.59527,37.82572],[-122.56262,37.79525],[-122.54378,37.77747],[-122.49666,37.73301],[-122.45338,37.69219],[-122.4317,37.6718],[-122.40215,37.64394],[-122.3903,37.6328],[-122.3678,37.61157],[-122.3546,37.59139],[-122.33225,37.5468],[-122.32463,37.53363],[-122.30824,37.50704],[-122.27776,37.45922],[-122.27302,37.45187],[-122.22446,37.42315],[-122.19142,37.41229],[-122.14263,37.43261],[-122.12802,37.4617],[-122.12257,37.47882],[-122.1224,37.49339],[-122.13634,37.51127],[-122.15479,37.52757],[-122.16837,37.53391],[-122.21941,37.55563],[-122.22645,37.55857],[-122.26225,37.57364],[-122.27093,37.57733],[-122.27347,37.57842],[-122.287,37.58402],[-122.3088,37.59326],[-122.33118,37.60263],[-122.35346,37.61205],[-122.36224,37.61533]],"type":"LineString"}
}
