{
  "id": 2031115427,
  "type": "Feature",
  "properties": {
    "geom:area": 0,
    "geom:bbox": "-123.328611,37.358333,-122.164722,47.430556",
    "geom:latitude": 42.403334328042384,
    "geom:longitude": -123.0435222537288,
    "src:alt_label": "swim-path",
    "src:geom": "swim",
    "swim:altitudes": [
      "009",
      "013",
      "040",
      "040",
      "069",
      "069",
      "069",
      "121",
      "121",
      "121",
      "121",
      "147",
      "198",
      "222",
      "222",
      "240",
      "240",
      "240",
      "265",
      "265",
      "265",
      "265",
      "347",
      "350C",
      "350C",
      "350C",
      "350C",
      "350C",
      "350C",
      "350C",
      "350C",
      "350C",
      "350C",
      "350C",
      "350C",
      "350C",
      "350C",
      "350C",
      "350C",
      "350C",
      "350C",
      "350C",
      "350C",
      "350C",
      "350C",
      "350C",
      "350C",
      "350C",
      "350C",
      "350C",
      "350C",
      "350C",
      "350C",
      "350C",
      "350C",
      "350C",
      "350C",
      "350C",
      "350C",
      "350C",
      "350C",
      "350C",
      "350C",
      "350C",
      "350C",
      "350C",
      "350C",
      "350C",
      "350C",
      "350C",
      "350C",
      "350C",
      "350C",
      "350C",
      "350C",
      "350",
      "350",
      "350",
      "350",
      "350",
      "350",
      "350",
      "320",
      "279",
      "279",
      "279",
      "279",
      "238",
      "238",
      "163",
      "163",
      "163",
      "163",
      "123",
      "123",
      "113",
      "110",
      "110",
      "110",
      "095",
      "070",
      "056",
      "056",
      "044",
      "024",
      "024",
      "016",
      "008"
    ],
    "swim:geom": "path",
    "swim:speeds": [
      175,
      175,
      256,
      256,
      270,
      270,
      270,
      324,
      324,
      324,
      324,
      348,
      413,
      429,
      429,
      442,
      442,
      442,
      500,
      500,
      500,
      500,
      513,
      511,
      511,
      511,
      508,
      508,
      506,
      506,
      506,
      506,
      506,
      506,
      506,
      507,
      509,
      509,
      509,
      509,
      509,
      508,
      508,
      507,
      507,
      507,
      506,
      506,
      507,
      507,
      507,
      511,
      512,
      512,
      512,
      508,
      506,
      503,
      503,
      503,
      503,
      502,
      502,
      501,
      500,
      500,
      499,
      496,
      496,
      493,
      493,
      491,
      491,
      491,
      491,
      489,
      489,
      487,
      487,
      486,
      486,
      486,
      471,
      450,
      450,
      450,
      450,
      428,
      428,
      367,
      367,
      367,
      367,
      278,
      278,
      257,
      255,
      255,
      255,
      245,
      241,
      239,
      239,
      223,
      163,
      163,
      167,
      148
    ],
    "swim:timestamps": [
      1777264677,
      1777264688,
      1777264808,
      1777264808,
      1777264928,
      1777264928,
      1777264928,
      1777265048,
      1777265048,
      1777265048,
      1777265048,
      1777265108,
      1777265228,
      1777265288,
      1777265288,
      1777265348,
      1777265348,
      1777265348,
      1777265468,
      1777265468,
      1777265468,
      1777265468,
      1777265768,
      1777265828,
      1777265828,
      1777265828,
      1777265949,
      1777265949,
      1777266069,
      1777266069,
      1777266069,
      1777266249,
      1777266249,
      1777266249,
      1777266249,
      1777266309,
      1777266369,
      1777266369,
      1777266369,
      1777266369,
      1777266369,
      1777266609,
      1777266609,
      1777266669,
      1777266669,
      1777266669,
      1777266789,
      1777266849,
      1777266909,
      1777266909,
      1777266909,
      1777267039,
      1777267099,
      1777267149,
      1777267159,
      1777267339,
      1777267399,
      1777267510,
      1777267519,
      1777267519,
      1777267519,
      1777267690,
      1777267690,
      1777267810,
      1777267870,
      1777267870,
      1777267940,
      1777268000,
      1777268000,
      1777268110,
      1777268110,
      1777268230,
      1777268230,
      1777268230,
      1777268290,
      1777268410,
      1777268410,
      1777268530,
      1777268530,
      1777268600,
      1777268600,
      1777268600,
      1777268781,
      1777268901,
      1777268901,
      1777268901,
      1777268901,
      1777269021,
      1777269021,
      1777269261,
      1777269261,
      1777269261,
      1777269261,
      1777269441,
      1777269441,
      1777269497,
      1777269563,
      1777269563,
      1777269563,
      1777269677,
      1777269861,
      1777269921,
      1777269921,
      1777269981,
      1777270222,
      1777270222,
      1777270277,
      1777270342
    ],
    "wof:geomhash": "dc8b0f1a2d4859d701364861ed1f6b33",
    "wof:id": 2031115427,
    "wof:repo": "sfomuseum-data-flights-2026-04"
  },
  "bbox": [
    -123.3286111111111,
    37.358333333333334,
    -122.16472222222222,
    47.43055555555555
  ],
  "geometry": {"coordinates":[[-122.30972222222222,47.43055555555555],[-122.30722222222222,47.42388888888889],[-122.35638888888889,47.31527777777777],[-122.35638888888889,47.31527777777777],[-122.57694444444444,47.31055555555555],[-122.57694444444444,47.31055555555555],[-122.57694444444444,47.31055555555555],[-122.81416666666667,47.303888888888885],[-122.81416666666667,47.303888888888885],[-122.81416666666667,47.303888888888885],[-122.81416666666667,47.303888888888885],[-122.94250000000001,47.26972222222222],[-123.08,47.096944444444446],[-123.0975,46.97944444444445],[-123.0975,46.97944444444445],[-123.11138888888888,46.871944444444445],[-123.11138888888888,46.871944444444445],[-123.11138888888888,46.871944444444445],[-123.14361111111111,46.605000000000004],[-123.14361111111111,46.605000000000004],[-123.14361111111111,46.605000000000004],[-123.14361111111111,46.605000000000004],[-123.20861111111111,45.876666666666665],[-123.2213888888889,45.73555555555556],[-123.2213888888889,45.73555555555556],[-123.2213888888889,45.73555555555556],[-123.24722222222222,45.45472222222222],[-123.24722222222222,45.45472222222222],[-123.26861111111111,45.202222222222225],[-123.26861111111111,45.202222222222225],[-123.26861111111111,45.202222222222225],[-123.30527777777777,44.774166666666666],[-123.30527777777777,44.774166666666666],[-123.30527777777777,44.774166666666666],[-123.30527777777777,44.774166666666666],[-123.31777777777778,44.63111111111111],[-123.3286111111111,44.488055555555555],[-123.3286111111111,44.488055555555555],[-123.3286111111111,44.488055555555555],[-123.3286111111111,44.488055555555555],[-123.3286111111111,44.488055555555555],[-123.30611111111111,43.92611111111111],[-123.30611111111111,43.92611111111111],[-123.30027777777778,43.785],[-123.30027777777778,43.785],[-123.30027777777778,43.785],[-123.28944444444444,43.50361111111111],[-123.28388888888888,43.36138888888889],[-123.27833333333334,43.22138888888889],[-123.27833333333334,43.22138888888889],[-123.27833333333334,43.22138888888889],[-123.26777777777778,42.901666666666664],[-123.26055555555556,42.75972222222222],[-123.25638888888889,42.647777777777776],[-123.25555555555556,42.6175],[-123.24,42.19416666666666],[-123.23472222222222,42.05472222222222],[-123.22555555555556,41.808055555555555],[-123.22444444444444,41.777499999999996],[-123.22444444444444,41.777499999999996],[-123.22444444444444,41.777499999999996],[-123.21111111111111,41.39083333333333],[-123.21111111111111,41.39083333333333],[-123.20361111111112,41.11694444444444],[-123.19972222222222,40.97638888888889],[-123.19972222222222,40.97638888888889],[-123.19555555555556,40.808611111111105],[-123.19166666666668,40.656388888888884],[-123.19166666666668,40.656388888888884],[-123.18611111111112,40.42583333333333],[-123.18611111111112,40.42583333333333],[-123.17944444444444,40.15277777777778],[-123.17944444444444,40.15277777777778],[-123.17944444444444,40.15277777777778],[-123.1563888888889,40.01777777777777],[-123.09666666666666,39.74722222222222],[-123.09666666666666,39.74722222222222],[-123.03777777777778,39.48083333333334],[-123.03777777777778,39.48083333333334],[-123.00222222222222,39.31805555555556],[-123.00222222222222,39.31805555555556],[-123.00222222222222,39.31805555555556],[-122.91722222222222,38.92444444444444],[-122.86388888888888,38.67861111111111],[-122.86388888888888,38.67861111111111],[-122.86388888888888,38.67861111111111],[-122.86388888888888,38.67861111111111],[-122.81305555555555,38.439166666666665],[-122.81305555555555,38.439166666666665],[-122.7075,38.01777777777777],[-122.7075,38.01777777777777],[-122.7075,38.01777777777777],[-122.7075,38.01777777777777],[-122.54194444444444,37.775277777777774],[-122.54194444444444,37.775277777777774],[-122.48333333333333,37.71666666666667],[-122.41666666666667,37.666666666666664],[-122.41666666666667,37.666666666666664],[-122.41666666666667,37.666666666666664],[-122.33333333333333,37.55],[-122.30611111111111,37.35861111111111],[-122.22777777777777,37.358333333333334],[-122.22777777777777,37.358333333333334],[-122.16472222222222,37.39416666666666],[-122.21666666666667,37.55222222222222],[-122.21666666666667,37.55222222222222],[-122.26666666666667,37.56666666666667],[-122.31527777777778,37.593611111111116]],"type":"LineString"}
}
