{
  "id": 2031112677,
  "type": "Feature",
  "properties": {
    "geom:area": 0,
    "geom:bbox": "-122.560000,32.680000,-116.930000,37.660000",
    "geom:latitude": 34.91006339824567,
    "geom:longitude": -119.88969025534077,
    "src:alt_label": "swim-route",
    "src:geom": "swim",
    "swim:geom": "route",
    "wof:geomhash": "cde9be4e7a5f9006fd33466603f7919e",
    "wof:id": 2031112677,
    "wof:repo": "sfomuseum-data-flights-2026-04"
  },
  "bbox": [
    -122.56,
    32.68,
    -116.93,
    37.66
  ],
  "geometry": {"coordinates":[[-122.38,37.62],[-122.48,37.66],[-122.48,37.66],[-122.48,37.65],[-122.48,37.59],[-122.48,37.59],[-122.48,37.56],[-122.48,37.51],[-122.47,37.5],[-122.47,37.49],[-122.48,37.46],[-122.5,37.34],[-122.53,37.18],[-122.54,37.12],[-122.55,37.08],[-122.55,37.06],[-122.56,37.06],[-122.56,37.01],[-122.52,36.95],[-122.51,36.93],[-122.46,36.87],[-122.41,36.81],[-122.39,36.8],[-122.36,36.77],[-122.34,36.74],[-122.23,36.65],[-122.18,36.6],[-122.02,36.44],[-121.96,36.38],[-121.86,36.29],[-121.83,36.26],[-121.57,36.01],[-121.54,35.98],[-121.24,35.68],[-121.07,35.52],[-120.99,35.47],[-119.13,34.36],[-118.98,34.27],[-118.65,34.07],[-118.43,33.93],[-118.29,33.83],[-118.23,33.78],[-118.21,33.77],[-118.15,33.71],[-118.02,33.61],[-117.93,33.55],[-117.88,33.51],[-117.84,33.47],[-117.81,33.44],[-117.65,33.3],[-117.61,33.26],[-117.61,33.25],[-117.6,33.25],[-117.55,33.2],[-117.49,33.14],[-117.49,33.14],[-117.48,33.14],[-117.46,33.1],[-117.41,33.05],[-117.39,33.02],[-117.35,32.98],[-117.3,32.92],[-117.28,32.9],[-117.25,32.86],[-117.25,32.85],[-117.21,32.81],[-117.15,32.8],[-117.08,32.78],[-117.06,32.78],[-116.99,32.75],[-116.99,32.75],[-117.09,32.74],[-116.93,32.68],[-117.19,32.73]],"type":"LineString"}
}
