{
  "id": 2015190471,
  "type": "Feature",
  "properties": {
    "geom:area": 0,
    "geom:bbox": "-122.410380,37.626810,-121.286730,38.035160",
    "geom:latitude": 37.94386628213728,
    "geom:longitude": -121.96281987094102,
    "src:alt_label": "swim-takeoff",
    "src:geom": "swim",
    "swim:elevations": [
      183,
      640,
      817,
      928,
      1422,
      1712,
      1957,
      2147,
      2545,
      2688,
      3180,
      3378,
      3530,
      3560,
      3731,
      3961,
      4256,
      4580,
      4756,
      4898,
      5201,
      5413,
      5439,
      5711,
      5860,
      6040,
      6421,
      6614,
      6702,
      6760
    ],
    "swim:geom": "takeoff",
    "swim:timestamps": [
      1775175169,
      1775175208,
      1775175233,
      1775175253,
      1775175293,
      1775175317,
      1775175339,
      1775175354,
      1775175382,
      1775175393,
      1775175436,
      1775175477,
      1775175507,
      1775175515,
      1775175536,
      1775175562,
      1775175592,
      1775175625,
      1775175645,
      1775175661,
      1775175693,
      1775175722,
      1775175731,
      1775175765,
      1775175782,
      1775175810,
      1775175866,
      1775175897,
      1775175919,
      1775175931
    ],
    "wof:geomhash": "bae94e6d63097e7899e93df45890c392",
    "wof:id": 2015190471,
    "wof:repo": "sfomuseum-data-flights-2026-04"
  },
  "bbox": [
    -122.41038,
    37.62681,
    -121.28673,
    38.03516
  ],
  "geometry": {"coordinates":[[-122.39475,37.62681],[-122.41038,37.6524],[-122.39435,37.6708],[-122.37759,37.68646],[-122.34293,37.72111],[-122.33947,37.74885],[-122.35123,37.77328],[-122.36046,37.79094],[-122.37671,37.8235],[-122.38229,37.8352],[-122.38579,37.88771],[-122.36158,37.93966],[-122.30642,37.95748],[-122.29073,37.9604],[-122.24651,37.96865],[-122.19026,37.9795],[-122.12348,37.98838],[-122.04676,37.98858],[-122.00036,37.98887],[-121.96273,37.99022],[-121.88661,37.99609],[-121.81805,38.00145],[-121.79619,38.00303],[-121.71191,38.00857],[-121.67026,38.01123],[-121.60139,38.01558],[-121.45775,38.02458],[-121.37675,38.02956],[-121.31967,38.03314],[-121.28673,38.03516]],"type":"LineString"}
}
