{
  "id": 2031098253,
  "type": "Feature",
  "properties": {
    "geom:area": 0,
    "geom:bbox": "-123.930000,37.620000,-122.370000,49.190000",
    "geom:latitude": 43.511284674275096,
    "geom:longitude": -123.34863811039872,
    "src:alt_label": "swim-route",
    "src:geom": "swim",
    "swim:geom": "route",
    "wof:geomhash": "8dc6a7c00fc47b59c6b81515227b7f7f",
    "wof:id": 2031098253,
    "wof:repo": "sfomuseum-data-flights-2026-04"
  },
  "bbox": [
    -123.93,
    37.62,
    -122.37,
    49.19
  ],
  "geometry": {"coordinates":[[-123.18,49.19],[-123.22,49.13],[-123.24,49.1],[-123.35,49.09],[-123.46,49.08],[-123.72,49.05],[-123.83,49.03],[-123.93,48.98],[-123.92,48.94],[-123.86,48.73],[-123.82,48.61],[-123.8,48.54],[-123.77,48.43],[-123.73,48.29],[-123.72,48.25],[-123.71,48.23],[-123.69,48.15],[-123.66,48.03],[-123.65,48],[-123.55,47.67],[-123.46,47.33],[-123.41,47.15],[-123.4,46.92],[-123.4,46.91],[-123.37,46.04],[-123.35,45.3],[-123.33,44.5],[-123.32,44.18],[-123.29,43.55],[-123.25,42.48],[-123.22,41.62],[-123.22,41.52],[-123.21,41.34],[-123.21,41.33],[-123.68,40.72],[-123.82,40.62],[-123.78,40.48],[-123.7,40.32],[-123.7,40.3],[-123.32,39.47],[-123.12,39.02],[-123.02,38.8],[-123,38.76],[-122.81,38.33],[-122.81,38.32],[-122.77,38.22],[-122.75,38.16],[-122.7,38],[-122.69,37.95],[-122.67,37.9],[-122.65,37.87],[-122.59,37.82],[-122.58,37.81],[-122.53,37.77],[-122.51,37.74],[-122.5,37.74],[-122.5,37.73],[-122.44,37.68],[-122.37,37.62],[-122.38,37.62]],"type":"LineString"}
}
