{
  "id": 2015197111,
  "type": "Feature",
  "properties": {
    "geom:area": 0,
    "geom:bbox": "-122.412620,37.630910,-121.309120,38.386730",
    "geom:latitude": 38.004289336692075,
    "geom:longitude": -121.86910953634491,
    "src:alt_label": "swim-takeoff",
    "src:geom": "swim",
    "swim:elevations": [
      241,
      507,
      726,
      999,
      1410,
      1643,
      1993,
      2443,
      2859,
      3231,
      3501,
      3513,
      3717,
      4070,
      4097,
      4536,
      4661,
      5030,
      5298,
      5399,
      5832,
      6043,
      6277,
      6413,
      6526,
      6727,
      6955
    ],
    "swim:geom": "takeoff",
    "swim:timestamps": [
      1775228008,
      1775228032,
      1775228061,
      1775228095,
      1775228128,
      1775228149,
      1775228179,
      1775228213,
      1775228242,
      1775228285,
      1775228338,
      1775228344,
      1775228364,
      1775228398,
      1775228401,
      1775228449,
      1775228466,
      1775228511,
      1775228544,
      1775228562,
      1775228607,
      1775228631,
      1775228664,
      1775228686,
      1775228704,
      1775228732,
      1775228763
    ],
    "wof:geomhash": "5fc2df6bc4ccd243cc73539e858e8a0c",
    "wof:id": 2015197111,
    "wof:repo": "sfomuseum-data-flights-2026-04"
  },
  "bbox": [
    -122.41262,
    37.63091,
    -121.30912,
    38.38673
  ],
  "geometry": {"coordinates":[[-122.40353,37.63091],[-122.41262,37.64872],[-122.3911,37.66427],[-122.34751,37.67264],[-122.30534,37.68716],[-122.27689,37.69687],[-122.23426,37.71102],[-122.19483,37.7396],[-122.16744,37.77017],[-122.12597,37.81541],[-122.06475,37.88019],[-122.05686,37.88668],[-122.0242,37.90937],[-121.97047,37.94581],[-121.96519,37.94938],[-121.88468,38.00409],[-121.85568,38.02376],[-121.77767,38.07629],[-121.71894,38.11581],[-121.68649,38.13757],[-121.60426,38.19286],[-121.56004,38.22246],[-121.49991,38.26263],[-121.458,38.29058],[-121.42461,38.31283],[-121.37135,38.34827],[-121.30912,38.38673]],"type":"LineString"}
}
