{
  "id": 2031099821,
  "type": "Feature",
  "properties": {
    "geom:area": 0,
    "geom:bbox": "-122.343056,35.886944,-115.257222,37.686667",
    "geom:latitude": 37.18971050411136,
    "geom:longitude": -118.7882242111079,
    "src:alt_label": "swim-path",
    "src:geom": "swim",
    "swim:altitudes": [
      "062",
      "062",
      "109",
      "109",
      "144",
      "144",
      "197",
      "240",
      "288",
      "300C",
      "300C",
      "300C",
      "300C",
      "300C",
      "300C",
      "300C",
      "300C",
      "300C",
      "300C",
      "300C",
      "300C",
      "300C",
      "300C",
      "300C",
      "300",
      "300",
      "300",
      "271",
      "256",
      "193",
      "169",
      "161",
      "144",
      "144",
      "139",
      "139",
      "139",
      "124",
      "110",
      "086",
      "074",
      "074",
      "050",
      "039",
      "028",
      "003",
      "003"
    ],
    "swim:geom": "path",
    "swim:speeds": [
      237,
      237,
      282,
      282,
      354,
      354,
      383,
      411,
      421,
      414,
      419,
      439,
      444,
      444,
      445,
      446,
      446,
      440,
      439,
      441,
      441,
      447,
      447,
      447,
      439,
      439,
      440,
      425,
      417,
      361,
      371,
      334,
      266,
      266,
      264,
      264,
      303,
      303,
      248,
      234,
      228,
      228,
      228,
      215,
      198,
      122,
      122
    ],
    "swim:timestamps": [
      1777068575,
      1777068575,
      1777068793,
      1777068793,
      1777068913,
      1777068913,
      1777069033,
      1777069153,
      1777069334,
      1777069424,
      1777069634,
      1777069664,
      1777069754,
      1777069784,
      1777069874,
      1777069964,
      1777069964,
      1777070235,
      1777070325,
      1777070445,
      1777070445,
      1777070685,
      1777070745,
      1777070745,
      1777071046,
      1777071046,
      1777071106,
      1777071252,
      1777071286,
      1777071457,
      1777071523,
      1777071587,
      1777071707,
      1777071707,
      1777071827,
      1777071827,
      1777071947,
      1777072117,
      1777072247,
      1777072368,
      1777072417,
      1777072417,
      1777072608,
      1777072668,
      1777072717,
      1777072908,
      1777072908
    ],
    "wof:geomhash": "e133cbdcf7c2e9e0453ea63a54c4873f",
    "wof:id": 2031099821,
    "wof:repo": "sfomuseum-data-flights-2026-04"
  },
  "bbox": [
    -122.34305555555555,
    35.886944444444445,
    -115.25722222222223,
    37.68666666666666
  ],
  "geometry": {"coordinates":[[-115.25722222222223,36.06472222222222],[-115.25722222222223,36.06472222222222],[-115.46277777777777,35.886944444444445],[-115.46277777777777,35.886944444444445],[-115.68722222222223,35.89138888888889],[-115.68722222222223,35.89138888888889],[-115.93777777777778,35.90472222222222],[-116.13916666666667,36.05888888888889],[-116.43111111111112,36.293055555555554],[-116.59027777777777,36.427499999999995],[-116.92416666666666,36.719166666666666],[-116.97333333333333,36.78111111111111],[-117.07277777777777,36.93555555555555],[-117.11527777777778,37.00111111111111],[-117.21555555555555,37.15416666666667],[-117.34055555555555,37.3275],[-117.34055555555555,37.3275],[-117.93361111111112,37.52833333333333],[-118.17777777777778,37.54722222222222],[-118.48666666666666,37.57083333333334],[-118.48666666666666,37.57083333333334],[-119.11138888888888,37.61638888888889],[-119.26611111111112,37.62694444444445],[-119.26611111111112,37.62694444444445],[-120.03555555555555,37.676944444444445],[-120.03555555555555,37.676944444444445],[-120.18972222222223,37.68666666666666],[-120.55,37.68333333333333],[-120.64055555555557,37.67166666666667],[-121.01666666666667,37.63333333333333],[-121.15,37.6],[-121.26694444444445,37.591944444444444],[-121.23194444444445,37.513333333333335],[-121.23194444444445,37.513333333333335],[-121.0411111111111,37.53944444444444],[-121.0411111111111,37.53944444444444],[-121.10055555555554,37.61611111111111],[-121.4,37.583333333333336],[-121.60249999999999,37.55333333333333],[-121.76,37.51833333333333],[-121.83333333333333,37.5],[-121.83333333333333,37.5],[-122.0736111111111,37.50222222222222],[-122.14472222222223,37.524166666666666],[-122.2,37.55],[-122.34305555555555,37.6075],[-122.34305555555555,37.6075]],"type":"LineString"}
}
