{
  "id": 2015254169,
  "type": "Feature",
  "properties": {
    "date:cessation_lower": "2026-04-10",
    "date:cessation_upper": "2026-04-10",
    "date:inception_lower": "2026-04-10",
    "date:inception_upper": "2026-04-10",
    "edtf:cessation": "2026-04-10T03:28:43-07:00",
    "edtf:inception": "2026-04-10T08:31:00Z",
    "flysfo:actual_timestamp": -1,
    "flysfo:airline": "UA",
    "flysfo:base_airline": "",
    "flysfo:base_flight_number": "7012",
    "flysfo:date": "2026-04-10",
    "flysfo:estimated_timestamp": 1775843040,
    "flysfo:event": "A",
    "flysfo:flight_number": "UA838",
    "flysfo:gate": "G8",
    "flysfo:journey": "NRT-SFO",
    "flysfo:scheduled_timestamp": 1775842200,
    "flysfo:timestamp": 1775843040,
    "geom:area": 0,
    "geom:bbox": "-122.370943,35.755744,140.395257,37.617990",
    "geom:latitude": 36.686867,
    "geom:longitude": 9.012156999999995,
    "iata:airline": "UA",
    "iata:base_airline": "",
    "icao:aircraft": "B772",
    "icao:airline": "UAL",
    "icao:base_airline": "ANA",
    "lbl:latitude": 37.61836,
    "lbl:longitude": -122.393229,
    "sfomuseum:aircraft_id": 1159289985,
    "sfomuseum:airline_id": 1159285413,
    "sfomuseum:arrival_id": 102527513,
    "sfomuseum:base_flight_id": "20260410-A-ANA-7012",
    "sfomuseum:departure_id": 102541685,
    "sfomuseum:flight_id": "20260410-A-UAL-838",
    "sfomuseum:flight_number": [
      "UAL838",
      "UA838"
    ],
    "sfomuseum:placetype": "flight",
    "src:geom": "flysfo",
    "src:geom_alt": [
      "swim-route",
      "swim-approach"
    ],
    "swim:tail_number": "N69020",
    "wof:belongsto": [
      1947304067,
      102527513,
      1947304129,
      102191575,
      85633793,
      102087579,
      85922583,
      554784711,
      85688637,
      1947304133,
      1947304069,
      102085387
    ],
    "wof:concordances": {
      "swim:flight_ref": "143786032"
    },
    "wof:country": "US",
    "wof:created": 1775923738,
    "wof:geomhash": "d46bcc8d1d94e68df95be799ac6a3b4c",
    "wof:hierarchy": [
      {
        "building_id": 1947304067,
        "campus_id": 102527513,
        "concourse_id": 1947304129,
        "continent_id": 102191575,
        "country_id": 85633793,
        "county_id": 102087579,
        "custom_id": 2015254169,
        "flight_id": 2015254169,
        "locality_id": 85922583,
        "postalcode_id": 554784711,
        "region_id": 85688637,
        "venue_id": 1947304133,
        "wing_id": 1947304069
      },
      {
        "building_id": 1947304067,
        "campus_id": 102527513,
        "concourse_id": 1947304129,
        "continent_id": 102191575,
        "country_id": 85633793,
        "county_id": 102085387,
        "custom_id": 2015254169,
        "flight_id": 2015254169,
        "region_id": 85688637,
        "venue_id": 1947304133,
        "wing_id": 1947304069
      }
    ],
    "wof:id": 2015254169,
    "wof:involves": [
      102541685,
      1159285413,
      1947304133,
      1159283875,
      1159289985,
      102527513
    ],
    "wof:lastmodified": 1775924313,
    "wof:name": "UA838 (NRT-SFO)",
    "wof:parent_id": 1947304133,
    "wof:placetype": "custom",
    "wof:placetype_alt": [
      "flight"
    ],
    "wof:repo": "sfomuseum-data-flights-2026-04",
    "wof:superseded_by": [],
    "wof:supersedes": []
  },
  "bbox": [
    -122.370943,
    35.755744,
    140.395257,
    37.61799
  ],
  "geometry": {"coordinates":[[140.395257,35.755744],[-122.370943,37.61799]],"type":"MultiPoint"}
}
