{
  "id": 2031114047,
  "type": "Feature",
  "properties": {
    "geom:area": 0,
    "geom:bbox": "-122.360250,37.422460,-121.256020,37.614110",
    "geom:latitude": 37.53833286121565,
    "geom:longitude": -121.81935456425376,
    "src:alt_label": "swim-approach",
    "src:geom": "swim",
    "swim:elevations": [
      5447,
      5122,
      4788,
      4640,
      4550,
      4305,
      3968,
      3783,
      3720,
      3687,
      3681,
      3521,
      3383,
      3251,
      3032,
      2806,
      2771,
      2743,
      2743,
      2562,
      2288,
      2163,
      2135,
      2098,
      1970,
      1831,
      1672,
      1514,
      1276,
      1245,
      1057,
      913,
      768,
      682,
      572,
      541,
      516,
      306,
      268,
      133,
      133
    ],
    "swim:geom": "approach",
    "swim:timestamps": [
      1777200232,
      1777200265,
      1777200293,
      1777200307,
      1777200314,
      1777200342,
      1777200387,
      1777200416,
      1777200434,
      1777200455,
      1777200472,
      1777200507,
      1777200528,
      1777200546,
      1777200577,
      1777200610,
      1777200622,
      1777200653,
      1777200660,
      1777200700,
      1777200748,
      1777200772,
      1777200790,
      1777200817,
      1777200856,
      1777200889,
      1777200907,
      1777200942,
      1777200988,
      1777200996,
      1777201032,
      1777201063,
      1777201091,
      1777201112,
      1777201134,
      1777201140,
      1777201144,
      1777201196,
      1777201214,
      1777201246,
      1777201277
    ],
    "wof:geomhash": "71025a9f4e342f793f97f8d87175346b",
    "wof:id": 2031114047,
    "wof:repo": "sfomuseum-data-flights-2026-04"
  },
  "bbox": [
    -122.36025,
    37.42246,
    -121.25602,
    37.61411
  ],
  "geometry": {"coordinates":[[-121.25602,37.59389],[-121.31353,37.58682],[-121.36184,37.5815],[-121.38507,37.57883],[-121.39696,37.57745],[-121.44389,37.57205],[-121.51916,37.56326],[-121.56639,37.55758],[-121.5957,37.55494],[-121.62587,37.55961],[-121.64964,37.56466],[-121.69721,37.57477],[-121.72357,37.5804],[-121.74709,37.58539],[-121.78822,37.5905],[-121.81856,37.56569],[-121.82225,37.55308],[-121.83081,37.51958],[-121.83295,37.51125],[-121.84403,37.46908],[-121.86763,37.42401],[-121.89818,37.42246],[-121.92049,37.42965],[-121.95296,37.44284],[-121.99826,37.46207],[-122.03145,37.47606],[-122.0496,37.48378],[-122.08417,37.49847],[-122.12738,37.51669],[-122.13419,37.51963],[-122.16578,37.53305],[-122.19325,37.54462],[-122.21762,37.55488],[-122.23554,37.56243],[-122.25492,37.57052],[-122.25942,37.57251],[-122.26283,37.57399],[-122.30102,37.58999],[-122.31359,37.59543],[-122.33642,37.60494],[-122.36025,37.61411]],"type":"LineString"}
}
