{
  "id": 2015265199,
  "type": "Feature",
  "properties": {
    "geom:area": 0,
    "geom:bbox": "-123.495500,37.464300,-122.218240,38.024440",
    "geom:latitude": 37.66057093837852,
    "geom:longitude": -122.80207243803184,
    "src:alt_label": "swim-takeoff",
    "src:geom": "swim",
    "swim:elevations": [
      122,
      546,
      650,
      703,
      942,
      1212,
      1573,
      1762,
      2170,
      2551,
      2767,
      2949,
      3293,
      3343,
      3600,
      3949,
      4196,
      4349,
      4495,
      4914,
      5002,
      5393,
      5794,
      6080,
      6364,
      6642,
      6765,
      7275,
      7349,
      7861,
      7887,
      8132,
      8420,
      8719,
      8961
    ],
    "swim:geom": "takeoff",
    "swim:timestamps": [
      1775916646,
      1775916678,
      1775916697,
      1775916704,
      1775916742,
      1775916776,
      1775916808,
      1775916823,
      1775916853,
      1775916880,
      1775916894,
      1775916910,
      1775916952,
      1775916964,
      1775917006,
      1775917045,
      1775917063,
      1775917076,
      1775917087,
      1775917134,
      1775917143,
      1775917172,
      1775917201,
      1775917225,
      1775917252,
      1775917279,
      1775917290,
      1775917345,
      1775917352,
      1775917407,
      1775917410,
      1775917438,
      1775917460,
      1775917472,
      1775917508
    ],
    "wof:geomhash": "6823713e58364cde14baac3863dde3cc",
    "wof:id": 2015265199,
    "wof:repo": "sfomuseum-data-flights-2026-04"
  },
  "bbox": [
    -123.4955,
    37.4643,
    -122.21824,
    38.02444
  ],
  "geometry": {"coordinates":[[-122.36094,37.61286],[-122.33005,37.6072],[-122.3101,37.60363],[-122.30262,37.60178],[-122.25962,37.58645],[-122.23382,37.55743],[-122.21824,37.52439],[-122.22193,37.50775],[-122.23603,37.47737],[-122.27264,37.4643],[-122.29497,37.46629],[-122.31935,37.46977],[-122.38601,37.47933],[-122.40701,37.48232],[-122.48462,37.49301],[-122.56472,37.50309],[-122.60366,37.50817],[-122.62988,37.51174],[-122.65394,37.51521],[-122.75134,37.54139],[-122.76856,37.55161],[-122.82359,37.5884],[-122.87772,37.62377],[-122.92299,37.65339],[-122.97438,37.68653],[-123.02774,37.72129],[-123.04925,37.73524],[-123.1579,37.80599],[-123.17294,37.81572],[-123.28618,37.88863],[-123.29245,37.89259],[-123.35115,37.92969],[-123.39858,37.96054],[-123.42305,37.97654],[-123.4955,38.02444]],"type":"LineString"}
}
