{
  "id": 2015212035,
  "type": "Feature",
  "properties": {
    "geom:area": 0,
    "geom:bbox": "-122.362520,36.741630,-121.890460,37.612930",
    "geom:latitude": 37.180709244328916,
    "geom:longitude": -122.10906305436377,
    "src:alt_label": "swim-approach",
    "src:geom": "swim",
    "swim:elevations": [
      979,
      904,
      798,
      732,
      548,
      409,
      278,
      215,
      63,
      118,
      5392,
      5104,
      4861,
      4712,
      4332,
      3920,
      3769,
      3645
    ],
    "swim:geom": "approach",
    "swim:timestamps": [
      1775372426,
      1775372458,
      1775372481,
      1775372500,
      1775372541,
      1775372569,
      1775372601,
      1775372619,
      1775372659,
      1775372675,
      1775458615,
      1775458643,
      1775458667,
      1775458682,
      1775458723,
      1775458765,
      1775458780,
      1775458792
    ],
    "wof:geomhash": "3d0e0ed6fff4e2b655ee93d2ddd36173",
    "wof:id": 2015212035,
    "wof:repo": "sfomuseum-data-flights-2026-04"
  },
  "bbox": [
    -122.36252,
    36.74163,
    -121.89046,
    37.61293
  ],
  "geometry": {"coordinates":[[-122.1452,37.52138],[-122.17633,37.53513],[-122.19947,37.5449],[-122.21746,37.55256],[-122.25594,37.56846],[-122.28141,37.57926],[-122.30747,37.59028],[-122.32098,37.59593],[-122.34973,37.60811],[-122.36252,37.61293],[-121.89046,36.74163],[-121.90676,36.78701],[-121.9178,36.82576],[-121.9245,36.84994],[-121.94254,36.91474],[-121.96424,36.98063],[-121.97301,37.00331],[-121.98004,37.02131]],"type":"LineString"}
}
