{
  "id": 2015220931,
  "type": "Feature",
  "properties": {
    "geom:area": 0,
    "geom:bbox": "-122.416667,28.422500,-81.073889,37.602500",
    "geom:latitude": 33.718313252131175,
    "geom:longitude": -102.12417273626637,
    "src:alt_label": "swim-path",
    "src:geom": "swim",
    "swim:altitudes": [
      "320C",
      "320C",
      "320C",
      "320C",
      "320C",
      "320C",
      "320C",
      "320C",
      "320C",
      "320C",
      "320C",
      "320C",
      "320C",
      "320C",
      "320C",
      "320C",
      "320C",
      "320C",
      "320C",
      "320C",
      "320C",
      "320C",
      "320C",
      "320C",
      "320C",
      "320C",
      "320C",
      "320C",
      "320C",
      "320C",
      "320C",
      "320C",
      "320C",
      "320C",
      "320C",
      "320C",
      "320C",
      "320C",
      "320C",
      "320C",
      "320C",
      "320C",
      "320C",
      "320C",
      "320C",
      "320C",
      "320C",
      "320C",
      "320C",
      "320C",
      "320C",
      "320C",
      "320C",
      "320C",
      "320C",
      "320C",
      "320C",
      "320C",
      "320C",
      "320C",
      "320C",
      "320C",
      "320C",
      "320C",
      "320C",
      "320C",
      "320C",
      "320C",
      "320C",
      "320C",
      "320C",
      "320C",
      "320C",
      "320C",
      "320C",
      "320C",
      "320C",
      "320C",
      "320C",
      "320C",
      "320C",
      "320C",
      "320C",
      "320C",
      "320C",
      "320C",
      "320C",
      "320C",
      "320C",
      "320C",
      "320C",
      "320C",
      "320C",
      "320C",
      "320C",
      "320C",
      "320C",
      "320C",
      "320C",
      "320C",
      "320C",
      "320C",
      "320C",
      "320C",
      "320C",
      "320C",
      "320C",
      "320C",
      "320C",
      "320C",
      "320C",
      "320C",
      "320C",
      "320C",
      "320C",
      "320C",
      "320C",
      "320C",
      "320C",
      "320C",
      "320C",
      "320C",
      "320C",
      "320C",
      "320C",
      "320C",
      "320C",
      "320C",
      "320C",
      "320C",
      "320C",
      "320C",
      "320C",
      "320C",
      "320C",
      "320C",
      "320C",
      "320C",
      "320C",
      "320C",
      "320C",
      "320C",
      "320C",
      "320C",
      "320C",
      "320C",
      "320C",
      "320C",
      "320C",
      "320C",
      "337",
      "340C",
      "340C",
      "340C",
      "340C",
      "340C",
      "340C",
      "340C",
      "340C",
      "340C",
      "340C",
      "340C",
      "340C",
      "340C",
      "340C",
      "340C",
      "340C",
      "340C",
      "340C",
      "340C",
      "340C",
      "340C",
      "340C",
      "340C",
      "340C",
      "340C",
      "340C",
      "340C",
      "340C",
      "340C",
      "340C",
      "340C",
      "340C",
      "340C",
      "340C",
      "340C",
      "340C",
      "340C",
      "340C",
      "340C",
      "340C",
      "340C",
      "340C",
      "340C",
      "340C",
      "340C",
      "340C",
      "340C",
      "340C",
      "340C",
      "340C",
      "340C",
      "340C",
      "340C",
      "340C",
      "340C",
      "340C",
      "340C",
      "340C",
      "340C",
      "340C",
      "340C",
      "340C",
      "340C",
      "340C",
      "340C",
      "340C",
      "340C",
      "340C",
      "340C",
      "340C",
      "340C",
      "340C",
      "340C",
      "340C",
      "340C",
      "346",
      "360C",
      "360C",
      "360C",
      "360C",
      "360C",
      "360C",
      "360C",
      "360C",
      "360C",
      "360C",
      "360C",
      "360C",
      "360C",
      "360C",
      "360C",
      "360C",
      "360C",
      "360C",
      "360C",
      "360C",
      "360C",
      "360C",
      "360C",
      "360C",
      "360C",
      "360C",
      "360C",
      "360C",
      "360C",
      "360C",
      "360C",
      "360C",
      "360C",
      "360C",
      "360C",
      "360C",
      "360C",
      "360C",
      "360C",
      "360C",
      "360C",
      "360C",
      "360C",
      "360C",
      "360C",
      "360C",
      "360C",
      "360C",
      "360C",
      "360C",
      "360C",
      "360C",
      "360C",
      "360C",
      "360C",
      "360C",
      "360C",
      "360C",
      "360C",
      "360C",
      "360C",
      "360C",
      "360C",
      "360C",
      "360C",
      "360C",
      "360C",
      "360C",
      "360C",
      "360C",
      "360C",
      "360C",
      "360C",
      "360",
      "360C",
      "360",
      "360",
      "347",
      "322",
      "300",
      "256",
      "227",
      "215",
      "187",
      "172",
      "163",
      "138",
      "103",
      "090",
      "083",
      "083",
      "080",
      "080",
      "062",
      "060",
      "060",
      "060",
      "053",
      "051",
      "043",
      "040",
      "040",
      "040",
      "040",
      "040",
      "034",
      "017",
      "009",
      "005"
    ],
    "swim:geom": "path",
    "swim:speeds": [
      455,
      455,
      455,
      456,
      456,
      458,
      458,
      461,
      461,
      441,
      441,
      440,
      440,
      440,
      440,
      441,
      442,
      443,
      443,
      444,
      444,
      444,
      445,
      445,
      445,
      444,
      444,
      444,
      443,
      443,
      442,
      442,
      442,
      442,
      442,
      442,
      442,
      443,
      443,
      443,
      443,
      443,
      443,
      441,
      441,
      441,
      441,
      441,
      441,
      441,
      448,
      448,
      447,
      444,
      447,
      447,
      447,
      447,
      443,
      443,
      442,
      442,
      440,
      440,
      435,
      435,
      432,
      431,
      430,
      430,
      430,
      427,
      427,
      427,
      427,
      427,
      427,
      427,
      427,
      427,
      425,
      425,
      425,
      425,
      424,
      423,
      422,
      422,
      422,
      421,
      421,
      422,
      422,
      422,
      427,
      427,
      429,
      430,
      431,
      431,
      430,
      430,
      430,
      431,
      431,
      431,
      431,
      431,
      431,
      431,
      431,
      431,
      431,
      431,
      431,
      431,
      430,
      430,
      430,
      429,
      429,
      429,
      429,
      429,
      429,
      429,
      431,
      435,
      435,
      435,
      436,
      437,
      437,
      435,
      432,
      432,
      430,
      425,
      425,
      424,
      424,
      423,
      423,
      417,
      413,
      413,
      413,
      413,
      414,
      414,
      410,
      406,
      404,
      403,
      403,
      398,
      398,
      395,
      394,
      393,
      395,
      395,
      396,
      398,
      398,
      397,
      397,
      396,
      396,
      396,
      396,
      398,
      399,
      400,
      402,
      404,
      408,
      408,
      408,
      408,
      408,
      407,
      407,
      407,
      407,
      410,
      410,
      410,
      411,
      411,
      411,
      411,
      410,
      410,
      409,
      409,
      409,
      408,
      408,
      408,
      408,
      408,
      409,
      411,
      411,
      413,
      413,
      413,
      416,
      418,
      420,
      424,
      424,
      427,
      427,
      429,
      423,
      422,
      422,
      422,
      422,
      423,
      427,
      429,
      429,
      430,
      429,
      405,
      418,
      418,
      426,
      426,
      426,
      425,
      425,
      425,
      426,
      426,
      426,
      429,
      429,
      430,
      434,
      434,
      436,
      435,
      432,
      432,
      431,
      428,
      428,
      427,
      427,
      424,
      423,
      423,
      423,
      423,
      421,
      421,
      422,
      421,
      420,
      403,
      403,
      397,
      399,
      401,
      404,
      400,
      401,
      401,
      393,
      383,
      383,
      382,
      382,
      382,
      382,
      382,
      381,
      382,
      382,
      382,
      384,
      384,
      385,
      385,
      386,
      387,
      388,
      388,
      388,
      388,
      388,
      388,
      388,
      388,
      389,
      389,
      389,
      390,
      391,
      391,
      393,
      407,
      407,
      391,
      377,
      377,
      359,
      333,
      329,
      310,
      242,
      234,
      233,
      233,
      229,
      229,
      228,
      228,
      201,
      210,
      210,
      211,
      206,
      204,
      201,
      187,
      187,
      180,
      180,
      152,
      150,
      151
    ],
    "swim:timestamps": [
      1775519400,
      1775519400,
      1775519400,
      1775519460,
      1775519520,
      1775519577,
      1775519577,
      1775519700,
      1775519700,
      1775519757,
      1775519757,
      1775519820,
      1775519820,
      1775519877,
      1775519877,
      1775519998,
      1775520121,
      1775520181,
      1775520181,
      1775520238,
      1775520315,
      1775520315,
      1775520361,
      1775520361,
      1775520418,
      1775520481,
      1775520481,
      1775520495,
      1775520541,
      1775520555,
      1775520601,
      1775520601,
      1775520661,
      1775520721,
      1775520721,
      1775520721,
      1775520842,
      1775520902,
      1775520902,
      1775520902,
      1775521202,
      1775521202,
      1775521202,
      1775521442,
      1775521442,
      1775521442,
      1775521503,
      1775521563,
      1775521623,
      1775521623,
      1775521830,
      1775521830,
      1775521891,
      1775521923,
      1775521951,
      1775521951,
      1775521951,
      1775522011,
      1775522043,
      1775522043,
      1775522103,
      1775522103,
      1775522163,
      1775522163,
      1775522284,
      1775522311,
      1775522344,
      1775522431,
      1775522524,
      1775522524,
      1775522524,
      1775522824,
      1775522824,
      1775522824,
      1775522885,
      1775522958,
      1775522958,
      1775522972,
      1775523019,
      1775523019,
      1775523152,
      1775523152,
      1775523199,
      1775523199,
      1775523212,
      1775523379,
      1775523393,
      1775523393,
      1775523439,
      1775523453,
      1775523453,
      1775523499,
      1775523559,
      1775523559,
      1775523740,
      1775523740,
      1775523753,
      1775523873,
      1775523894,
      1775523894,
      1775523980,
      1775523980,
      1775523980,
      1775523993,
      1775524015,
      1775524075,
      1775524075,
      1775524114,
      1775524114,
      1775524174,
      1775524195,
      1775524234,
      1775524234,
      1775524255,
      1775524255,
      1775524315,
      1775524375,
      1775524414,
      1775524435,
      1775524474,
      1775524474,
      1775524556,
      1775524556,
      1775524616,
      1775524616,
      1775524736,
      1775524796,
      1775524916,
      1775524916,
      1775524916,
      1775524976,
      1775525096,
      1775525096,
      1775525217,
      1775525337,
      1775525337,
      1775525457,
      1775525817,
      1775525817,
      1775525878,
      1775525938,
      1775525998,
      1775525998,
      1775526178,
      1775526298,
      1775526358,
      1775526358,
      1775526418,
      1775526659,
      1775526659,
      1775526779,
      1775526899,
      1775527019,
      1775527079,
      1775527079,
      1775527260,
      1775527260,
      1775527380,
      1775527440,
      1775527740,
      1775527801,
      1775527801,
      1775527861,
      1775527981,
      1775528082,
      1775528204,
      1775528221,
      1775528262,
      1775528322,
      1775528341,
      1775528462,
      1775528522,
      1775528562,
      1775528582,
      1775528622,
      1775528682,
      1775528822,
      1775528822,
      1775528882,
      1775528942,
      1775528942,
      1775528983,
      1775529002,
      1775529043,
      1775529123,
      1775529286,
      1775529346,
      1775529363,
      1775529406,
      1775529423,
      1775529466,
      1775529526,
      1775529586,
      1775529603,
      1775529646,
      1775529646,
      1775529663,
      1775529707,
      1775529767,
      1775529784,
      1775529844,
      1775529844,
      1775529887,
      1775530007,
      1775530007,
      1775530127,
      1775530204,
      1775530307,
      1775530608,
      1775530788,
      1775530908,
      1775531028,
      1775531028,
      1775531209,
      1775531209,
      1775531389,
      1775531629,
      1775531689,
      1775531689,
      1775531749,
      1775531749,
      1775531870,
      1775531990,
      1775532050,
      1775532050,
      1775532110,
      1775532230,
      1775532353,
      1775532533,
      1775532533,
      1775532593,
      1775532654,
      1775532714,
      1775532774,
      1775532834,
      1775532834,
      1775532894,
      1775532954,
      1775533014,
      1775533254,
      1775533254,
      1775533315,
      1775533435,
      1775533435,
      1775533675,
      1775533735,
      1775533855,
      1775533915,
      1775533976,
      1775534096,
      1775534096,
      1775534276,
      1775534276,
      1775534516,
      1775534576,
      1775534697,
      1775534757,
      1775534757,
      1775534937,
      1775534997,
      1775535117,
      1775535177,
      1775535237,
      1775535418,
      1775535418,
      1775535598,
      1775535778,
      1775535838,
      1775535888,
      1775535898,
      1775535948,
      1775535948,
      1775536019,
      1775536139,
      1775536139,
      1775536199,
      1775536248,
      1775536319,
      1775536319,
      1775536379,
      1775536499,
      1775536549,
      1775536559,
      1775536609,
      1775536729,
      1775536740,
      1775536789,
      1775536789,
      1775536800,
      1775536909,
      1775536980,
      1775537040,
      1775537040,
      1775537089,
      1775537209,
      1775537329,
      1775537341,
      1775537389,
      1775537449,
      1775537461,
      1775537521,
      1775537569,
      1775537629,
      1775537629,
      1775537690,
      1775537750,
      1775537810,
      1775537930,
      1775538007,
      1775538050,
      1775538128,
      1775538188,
      1775538230,
      1775538308,
      1775538488,
      1775538548,
      1775538590,
      1775538590,
      1775538650,
      1775538710,
      1775538788,
      1775538831,
      1775538848,
      1775538908,
      1775539011,
      1775539028,
      1775539071,
      1775539088,
      1775539131,
      1775539191,
      1775539191,
      1775539208,
      1775539251,
      1775539388,
      1775539448,
      1775539491
    ],
    "wof:geomhash": "906a542c09a73c2ad26f48647a7dc4fa",
    "wof:id": 2015220931,
    "wof:repo": "sfomuseum-data-flights-2026-04"
  },
  "bbox": [
    -122.41666666666667,
    28.4225,
    -81.07388888888889,
    37.6025
  ],
  "geometry": {"coordinates":[[-81.07388888888889,28.4225],[-81.07388888888889,28.4225],[-81.07388888888889,28.4225],[-81.12666666666667,28.5375],[-81.18083333333334,28.655555555555555],[-81.23555555555555,28.773055555555555],[-81.23555555555555,28.773055555555555],[-81.34444444444443,29.012777777777778],[-81.34444444444443,29.012777777777778],[-81.45277777777778,29.086388888888887],[-81.45277777777778,29.086388888888887],[-81.5761111111111,29.145],[-81.5761111111111,29.145],[-81.69833333333334,29.203055555555554],[-81.69833333333334,29.203055555555554],[-81.94583333333334,29.319166666666668],[-82.19388888888889,29.434722222222224],[-82.31888888888888,29.49277777777778],[-82.31888888888888,29.49277777777778],[-82.44361111111111,29.550555555555555],[-82.59444444444443,29.62388888888889],[-82.59444444444443,29.62388888888889],[-82.7125,29.674444444444447],[-82.7125,29.674444444444447],[-82.81916666666666,29.723055555555554],[-82.96444444444445,29.789722222222224],[-82.96444444444445,29.789722222222224],[-82.96916666666667,29.796944444444446],[-83.08972222222222,29.844166666666666],[-83.09527777777777,29.851111111111113],[-83.21916666666667,29.89527777777778],[-83.21916666666667,29.89527777777778],[-83.34222222222222,29.945555555555554],[-83.46972222222223,29.996944444444445],[-83.46972222222223,29.996944444444445],[-83.46972222222223,29.996944444444445],[-83.73527777777778,30.08361111111111],[-83.86777777777777,30.125833333333333],[-83.86777777777777,30.125833333333333],[-83.86777777777777,30.125833333333333],[-84.54527777777777,30.33972222222222],[-84.54527777777777,30.33972222222222],[-84.54527777777777,30.33972222222222],[-85.07722222222222,30.504444444444445],[-85.07722222222222,30.504444444444445],[-85.07722222222222,30.504444444444445],[-85.20861111111111,30.544722222222223],[-85.34277777777777,30.585833333333333],[-85.47777777777777,30.626944444444444],[-85.47777777777777,30.626944444444444],[-85.9413888888889,30.76833333333333],[-85.9413888888889,30.76833333333333],[-86.0775,30.80527777777778],[-86.15083333333334,30.828611111111112],[-86.21277777777777,30.846944444444443],[-86.21277777777777,30.846944444444443],[-86.21277777777777,30.846944444444443],[-86.34805555555555,30.890277777777776],[-86.41944444444445,30.908055555555553],[-86.41944444444445,30.908055555555553],[-86.55361111111111,30.9475],[-86.55361111111111,30.9475],[-86.6888888888889,30.987222222222222],[-86.6888888888889,30.987222222222222],[-86.94861111111112,31.06277777777778],[-87.015,31.08138888888889],[-87.09388888888888,31.104444444444447],[-87.27833333333334,31.15722222222222],[-87.48722222222223,31.216944444444444],[-87.48722222222223,31.216944444444444],[-87.48722222222223,31.216944444444444],[-88.1438888888889,31.401666666666664],[-88.1438888888889,31.401666666666664],[-88.1438888888889,31.401666666666664],[-88.27444444444444,31.43777777777778],[-88.43305555555555,31.481666666666666],[-88.43305555555555,31.481666666666666],[-88.45861111111111,31.488611111111112],[-88.56388888888888,31.5175],[-88.56388888888888,31.5175],[-88.87833333333333,31.603055555555557],[-88.87833333333333,31.603055555555557],[-88.9525,31.623333333333335],[-88.9525,31.623333333333335],[-89.01,31.63888888888889],[-89.34666666666666,31.728888888888886],[-89.40083333333334,31.743333333333336],[-89.40083333333334,31.743333333333336],[-89.47694444444444,31.76361111111111],[-89.53305555555555,31.77861111111111],[-89.53305555555555,31.77861111111111],[-89.61138888888888,31.799166666666668],[-89.74305555555556,31.833888888888886],[-89.74305555555556,31.833888888888886],[-90.14500000000001,31.93888888888889],[-90.14500000000001,31.93888888888889],[-90.19944444444445,31.953055555555554],[-90.47055555555556,32.022777777777776],[-90.49916666666667,32.03],[-90.49916666666667,32.03],[-90.68527777777778,32.0775],[-90.68527777777778,32.0775],[-90.68527777777778,32.0775],[-90.74138888888889,32.091944444444444],[-90.77,32.098888888888894],[-90.90361111111112,32.13305555555556],[-90.90361111111112,32.13305555555556],[-91.0125,32.16027777777778],[-91.0125,32.16027777777778],[-91.14750000000001,32.193888888888885],[-91.17583333333334,32.20111111111111],[-91.285,32.22833333333333],[-91.285,32.22833333333333],[-91.3086111111111,32.23416666666667],[-91.3086111111111,32.23416666666667],[-91.44472222222223,32.26777777777777],[-91.58083333333333,32.30138888888889],[-91.69083333333333,32.32833333333333],[-91.71638888888889,32.334722222222226],[-91.82527777777777,32.361111111111114],[-91.82527777777777,32.361111111111114],[-91.98722222222223,32.400555555555556],[-91.98722222222223,32.400555555555556],[-92.12083333333332,32.43277777777777],[-92.12083333333332,32.43277777777777],[-92.39250000000001,32.49777777777778],[-92.55055555555555,32.535555555555554],[-92.82972222222222,32.60138888888889],[-92.82972222222222,32.60138888888889],[-92.82972222222222,32.60138888888889],[-92.97083333333333,32.634166666666665],[-93.24861111111112,32.698611111111106],[-93.24861111111112,32.698611111111106],[-93.52555555555556,32.761944444444445],[-93.77305555555556,32.81805555555556],[-93.77305555555556,32.81805555555556],[-94.04805555555555,32.88],[-94.86916666666666,33.059999999999995],[-94.86916666666666,33.059999999999995],[-95.00555555555556,33.089444444444446],[-95.14055555555557,33.11833333333333],[-95.27694444444444,33.14722222222222],[-95.27694444444444,33.14722222222222],[-95.68111111111112,33.23222222222223],[-95.94611111111111,33.286944444444444],[-96.07972222222222,33.31444444444444],[-96.07972222222222,33.31444444444444],[-96.21277777777777,33.34166666666667],[-96.74555555555555,33.44888888888889],[-96.74555555555555,33.44888888888889],[-97.01277777777777,33.501666666666665],[-97.295,33.556666666666665],[-97.55583333333333,33.60666666666667],[-97.68472222222222,33.63138888888889],[-97.68472222222222,33.63138888888889],[-98.07055555555556,33.70416666666667],[-98.07055555555556,33.70416666666667],[-98.3261111111111,33.751666666666665],[-98.45555555555556,33.775555555555556],[-99.09416666666667,33.89083333333333],[-99.23055555555555,33.915],[-99.23055555555555,33.915],[-99.36,33.937777777777775],[-99.62138888888889,33.983333333333334],[-99.83944444444444,34.02111111111111],[-100.09861111111111,34.065],[-100.14,34.07194444444445],[-100.22777777777777,34.086666666666666],[-100.35777777777777,34.10861111111111],[-100.4,34.11555555555556],[-100.66055555555556,34.15861111111111],[-100.77416666666666,34.176944444444445],[-100.88111111111111,34.19444444444444],[-100.90777777777778,34.19888888888889],[-101.015,34.21611111111111],[-101.15083333333334,34.23777777777778],[-101.44583333333334,34.28472222222222],[-101.44583333333334,34.28472222222222],[-101.58027777777778,34.30555555555555],[-101.71611111111112,34.32666666666667],[-101.71611111111112,34.32666666666667],[-101.82388888888889,34.343333333333334],[-101.85,34.34722222222222],[-101.96000000000001,34.36416666666667],[-102.11944444444444,34.388333333333335],[-102.5025,34.44583333333333],[-102.63833333333334,34.465833333333336],[-102.66472222222222,34.469722222222224],[-102.77555555555556,34.48583333333333],[-102.80055555555555,34.489444444444445],[-102.90972222222223,34.5075],[-103.04444444444444,34.53138888888889],[-103.17972222222222,34.555],[-103.20583333333333,34.559444444444445],[-103.31333333333333,34.57833333333333],[-103.31333333333333,34.57833333333333],[-103.34027777777777,34.58277777777778],[-103.44888888888889,34.60166666666667],[-103.5825,34.62444444444444],[-103.61,34.62916666666667],[-103.74472222222222,34.651944444444446],[-103.74472222222222,34.651944444444446],[-103.85388888888889,34.67055555555555],[-104.12555555555555,34.715833333333336],[-104.12555555555555,34.715833333333336],[-104.37527777777777,34.75694444444444],[-104.56416666666667,34.78777777777778],[-104.78833333333333,34.823888888888895],[-105.4786111111111,34.93222222222222],[-105.91083333333334,34.99805555555556],[-106.19666666666667,35.04083333333333],[-106.47638888888889,35.08166666666667],[-106.47638888888889,35.08166666666667],[-106.90527777777778,35.143055555555556],[-106.90527777777778,35.143055555555556],[-107.33916666666666,35.20388888888889],[-107.90777777777778,35.28055555555555],[-108.05055555555555,35.29944444444444],[-108.05055555555555,35.29944444444444],[-108.1913888888889,35.31805555555556],[-108.1913888888889,35.31805555555556],[-108.47666666666667,35.35472222222222],[-108.76555555555555,35.39138888888889],[-108.91055555555556,35.409444444444446],[-108.91055555555556,35.409444444444446],[-109.05694444444444,35.427499999999995],[-109.3461111111111,35.462500000000006],[-109.60916666666667,35.4925],[-110.05416666666666,35.544999999999995],[-110.05416666666666,35.544999999999995],[-110.19888888888889,35.559999999999995],[-110.3411111111111,35.57555555555556],[-110.48472222222222,35.59305555555556],[-110.62555555555555,35.60944444444445],[-110.76861111111111,35.625],[-110.76861111111111,35.625],[-110.91250000000001,35.640277777777776],[-111.05666666666666,35.655833333333334],[-111.20083333333334,35.67111111111111],[-111.7825,35.73027777777778],[-111.7825,35.73027777777778],[-111.93027777777779,35.74472222222222],[-112.2225,35.77305555555555],[-112.2225,35.77305555555555],[-112.8125,35.82777777777778],[-112.95833333333334,35.84111111111111],[-113.25055555555555,35.86666666666667],[-113.39250000000001,35.849444444444444],[-113.52833333333334,35.805277777777775],[-113.80333333333333,35.715],[-113.80333333333333,35.715],[-114.20138888888889,35.5825],[-114.20138888888889,35.5825],[-114.74444444444444,35.399166666666666],[-114.87722222222222,35.35388888888889],[-115.14277777777778,35.26277777777778],[-115.275,35.21666666666667],[-115.275,35.21666666666667],[-115.66722222222222,35.07972222222222],[-115.79916666666666,35.03333333333333],[-116.06305555555555,34.94027777777777],[-116.19250000000001,34.89416666666666],[-116.32249999999999,34.847500000000004],[-116.7225,34.77166666666667],[-116.7225,34.77166666666667],[-117.12138888888889,34.731388888888894],[-117.52277777777778,34.689722222222215],[-117.6588888888889,34.67527777777777],[-117.77027777777778,34.66111111111111],[-117.7925,34.66083333333333],[-117.90166666666667,34.64833333333333],[-117.90166666666667,34.64833333333333],[-118.05805555555555,34.6375],[-118.2863888888889,34.73694444444445],[-118.2863888888889,34.73694444444445],[-118.39805555555556,34.79],[-118.4875,34.83277777777778],[-118.62527777777777,34.89666666666667],[-118.62527777777777,34.89666666666667],[-118.73694444444445,34.94888888888889],[-118.96000000000001,35.05277777777778],[-119.05305555555556,35.096111111111114],[-119.0736111111111,35.105555555555554],[-119.16638888888889,35.14861111111111],[-119.39361111111111,35.253055555555555],[-119.41472222222222,35.26277777777778],[-119.50777777777778,35.305],[-119.50777777777778,35.305],[-119.52888888888889,35.31472222222222],[-119.73805555555556,35.41],[-119.8736111111111,35.47138888888889],[-119.98777777777778,35.52305555555555],[-119.98777777777778,35.52305555555555],[-120.08361111111111,35.566111111111105],[-120.31166666666667,35.66833333333333],[-120.54888888888888,35.76111111111111],[-120.56888888888888,35.76861111111111],[-120.6675,35.80611111111111],[-120.78805555555556,35.85194444444445],[-120.80888888888889,35.859722222222224],[-120.92944444444444,35.905277777777776],[-121.0275,35.94472222222222],[-121.125,36.019444444444446],[-121.125,36.019444444444446],[-121.22111111111111,36.099444444444444],[-121.31777777777778,36.18],[-121.415,36.26083333333333],[-121.60416666666666,36.4175],[-121.73333333333333,36.53333333333333],[-121.76694444444445,36.58083333333334],[-121.86666666666666,36.7],[-121.9,36.78333333333333],[-121.92027777777778,36.83527777777778],[-121.95,36.96666666666667],[-122.08333333333333,37.166666666666664],[-122.16666666666667,37.166666666666664],[-122.2025,37.165],[-122.2025,37.165],[-122.2786111111111,37.18111111111111],[-122.35138888888888,37.20666666666667],[-122.4,37.28333333333333],[-122.40666666666667,37.32222222222222],[-122.41666666666667,37.35],[-122.38333333333334,37.38333333333333],[-122.25861111111111,37.39055555555556],[-122.23333333333333,37.4],[-122.18916666666667,37.40472222222222],[-122.16666666666667,37.416666666666664],[-122.12916666666666,37.42972222222222],[-122.10277777777777,37.476111111111116],[-122.10277777777777,37.476111111111116],[-122.11666666666666,37.483333333333334],[-122.1375,37.516666666666666],[-122.25,37.56666666666667],[-122.3,37.583333333333336],[-122.33611111111111,37.6025]],"type":"LineString"}
}
