{
  "id": 2015211553,
  "type": "Feature",
  "properties": {
    "geom:area": 0,
    "geom:bbox": "-122.356770,37.437490,-121.247340,37.613080",
    "geom:latitude": 37.53752220154473,
    "geom:longitude": -121.80889034763808,
    "src:alt_label": "swim-approach",
    "src:geom": "swim",
    "swim:elevations": [
      4828,
      4780,
      4542,
      4376,
      4140,
      3903,
      3639,
      3486,
      3291,
      3154,
      3135,
      3013,
      2950,
      2797,
      2747,
      2683,
      2621,
      2402,
      2219,
      2198,
      2140,
      2134,
      2134,
      1998,
      1879,
      1831,
      1672,
      1596,
      1357,
      1029,
      876,
      828,
      569,
      448,
      355,
      237,
      90,
      8
    ],
    "swim:geom": "approach",
    "swim:timestamps": [
      1775429067,
      1775429074,
      1775429106,
      1775429154,
      1775429187,
      1775429214,
      1775429247,
      1775429274,
      1775429307,
      1775429334,
      1775429340,
      1775429359,
      1775429371,
      1775429397,
      1775429414,
      1775429457,
      1775429469,
      1775429512,
      1775429548,
      1775429551,
      1775429563,
      1775429605,
      1775429628,
      1775429665,
      1775429686,
      1775429709,
      1775429754,
      1775429771,
      1775429812,
      1775429848,
      1775429871,
      1775429880,
      1775429937,
      1775429968,
      1775429994,
      1775430019,
      1775430054,
      1775430072
    ],
    "wof:geomhash": "3e10493bfc2448673a6e08dd62a8c413",
    "wof:id": 2015211553,
    "wof:repo": "sfomuseum-data-flights-2026-04"
  },
  "bbox": [
    -122.35677,
    37.43749,
    -121.24734,
    37.61308
  ],
  "geometry": {"coordinates":[[-121.24734,37.59473],[-121.25997,37.593],[-121.31654,37.58639],[-121.39238,37.57806],[-121.44117,37.57239],[-121.48053,37.56768],[-121.52938,37.56178],[-121.56895,37.55884],[-121.616,37.56865],[-121.65428,37.57687],[-121.66182,37.57847],[-121.68833,37.58401],[-121.70522,37.58738],[-121.74181,37.59482],[-121.76517,37.59355],[-121.78159,37.55268],[-121.77961,37.53943],[-121.78326,37.49308],[-121.80324,37.45936],[-121.80494,37.4566],[-121.81389,37.44603],[-121.86842,37.43883],[-121.90008,37.43749],[-121.94992,37.4425],[-121.97651,37.45256],[-122.00358,37.46412],[-122.0579,37.48749],[-122.0788,37.49624],[-122.12845,37.51725],[-122.16891,37.53435],[-122.19302,37.54452],[-122.20223,37.54839],[-122.25282,37.56965],[-122.27708,37.57993],[-122.29702,37.58832],[-122.31593,37.59619],[-122.34323,37.60766],[-122.35677,37.61308]],"type":"LineString"}
}
