{
  "id": 2015312843,
  "type": "Feature",
  "properties": {
    "geom:area": 0,
    "geom:bbox": "-122.356810,37.491950,-121.245810,37.613440",
    "geom:latitude": 37.54307974836693,
    "geom:longitude": -121.80836500943545,
    "src:alt_label": "swim-approach",
    "src:geom": "swim",
    "swim:elevations": [
      4842,
      4558,
      4266,
      4108,
      3920,
      3707,
      3574,
      3379,
      3247,
      3166,
      2877,
      2695,
      2561,
      2440,
      2402,
      2186,
      2049,
      1949,
      1878,
      1760,
      1619,
      1520,
      1271,
      1216,
      1055,
      1015,
      853,
      816,
      596,
      429,
      293,
      243,
      61,
      23
    ],
    "swim:geom": "approach",
    "swim:timestamps": [
      1776465487,
      1776465524,
      1776465557,
      1776465579,
      1776465601,
      1776465627,
      1776465645,
      1776465675,
      1776465707,
      1776465732,
      1776465766,
      1776465785,
      1776465800,
      1776465836,
      1776465848,
      1776465885,
      1776465921,
      1776465946,
      1776465962,
      1776466013,
      1776466037,
      1776466056,
      1776466104,
      1776466119,
      1776466161,
      1776466167,
      1776466195,
      1776466204,
      1776466251,
      1776466281,
      1776466314,
      1776466328,
      1776466378,
      1776466387
    ],
    "wof:geomhash": "e5424b7bfc3fd2fe9646dc3b8596c88b",
    "wof:id": 2015312843,
    "wof:repo": "sfomuseum-data-flights-2026-04"
  },
  "bbox": [
    -122.35681,
    37.49195,
    -121.24581,
    37.61344
  ],
  "geometry": {"coordinates":[[-121.24581,37.59502],[-121.309,37.5871],[-121.36801,37.58089],[-121.40458,37.57664],[-121.44267,37.57217],[-121.4867,37.56706],[-121.51876,37.56327],[-121.56968,37.55707],[-121.62089,37.55113],[-121.65587,37.54332],[-121.70317,37.5321],[-121.72821,37.52612],[-121.74898,37.52087],[-121.79485,37.51021],[-121.8088,37.50683],[-121.85317,37.49605],[-121.8962,37.49195],[-121.92551,37.49351],[-121.94514,37.49465],[-122.00382,37.49818],[-122.03078,37.49998],[-122.05203,37.50126],[-122.1052,37.50715],[-122.12039,37.5129],[-122.16063,37.53124],[-122.16674,37.53368],[-122.19586,37.54576],[-122.20479,37.54949],[-122.24941,37.56825],[-122.27723,37.57994],[-122.30421,37.59131],[-122.3141,37.59547],[-122.35026,37.61069],[-122.35681,37.61344]],"type":"LineString"}
}
