{
  "id": 2031111341,
  "type": "Feature",
  "properties": {
    "geom:area": 0,
    "geom:bbox": "-122.740000,37.620000,-121.730000,47.510000",
    "geom:latitude": 42.643173712872255,
    "geom:longitude": -122.15582816841614,
    "src:alt_label": "swim-route",
    "src:geom": "swim",
    "swim:geom": "route",
    "wof:geomhash": "18882ff4d7bd6515f5d39632bca8785a",
    "wof:id": 2031111341,
    "wof:repo": "sfomuseum-data-flights-2026-04"
  },
  "bbox": [
    -122.74,
    37.62,
    -121.73,
    47.51
  ],
  "geometry": {"coordinates":[[-122.38,37.62],[-122.28,37.68],[-122.27,37.69],[-122.27,37.69],[-122.21,37.72],[-122.21,37.73],[-122.21,37.73],[-122.21,37.75],[-122.2,37.8],[-122.2,37.82],[-122.2,37.84],[-122.19,37.89],[-122.16,37.99],[-122.15,38],[-122.12,38.07],[-122.12,38.16],[-122.11,38.19],[-122.11,38.22],[-122.1,38.28],[-122.09,38.4],[-122.08,38.49],[-122.07,38.62],[-122.07,38.68],[-122.05,38.88],[-122.04,38.96],[-122.03,39.04],[-122.03,39.08],[-122.03,39.12],[-122,39.37],[-121.94,40.04],[-121.83,41.17],[-121.81,41.3],[-121.73,42.15],[-121.9,42.89],[-122,43.35],[-122.09,43.74],[-122.47,45.26],[-122.5,45.38],[-122.59,45.73],[-122.59,45.75],[-122.6,45.8],[-122.64,45.95],[-122.65,46],[-122.68,46.09],[-122.68,46.1],[-122.69,46.15],[-122.72,46.32],[-122.72,46.38],[-122.73,46.63],[-122.74,46.78],[-122.67,46.84],[-122.64,46.87],[-122.57,46.93],[-122.56,46.94],[-122.53,47.01],[-122.5,47.08],[-122.5,47.08],[-122.48,47.19],[-122.47,47.23],[-122.46,47.35],[-122.46,47.39],[-122.46,47.41],[-122.46,47.44],[-122.46,47.45],[-122.46,47.48],[-122.46,47.51],[-122.39,47.49],[-122.31,47.45]],"type":"LineString"}
}
