{
  "id": 2015233059,
  "type": "Feature",
  "properties": {
    "geom:area": 0,
    "geom:bbox": "-122.542500,35.999444,-114.985556,37.650278",
    "geom:latitude": 37.05447556235652,
    "geom:longitude": -118.7104755386925,
    "src:alt_label": "swim-path",
    "src:geom": "swim",
    "swim:altitudes": [
      "006",
      "012",
      "058",
      "058",
      "089",
      "111",
      "189",
      "189",
      "189",
      "235",
      "235",
      "273",
      "273",
      "273",
      "310C",
      "310C",
      "310C",
      "310C",
      "310C",
      "310C",
      "310C",
      "310C",
      "310C",
      "310C",
      "310C",
      "310C",
      "310C",
      "301",
      "290",
      "290",
      "280",
      "280",
      "280",
      "260",
      "219",
      "208",
      "190",
      "187",
      "143",
      "113",
      "099",
      "093",
      "080",
      "042",
      "035",
      "033",
      "026"
    ],
    "swim:geom": "path",
    "swim:speeds": [
      174,
      172,
      269,
      269,
      291,
      325,
      420,
      420,
      420,
      449,
      449,
      492,
      492,
      492,
      508,
      509,
      509,
      509,
      508,
      508,
      508,
      505,
      505,
      505,
      505,
      499,
      499,
      497,
      489,
      489,
      476,
      476,
      476,
      465,
      441,
      426,
      365,
      355,
      328,
      308,
      285,
      266,
      255,
      204,
      205,
      196,
      180
    ],
    "swim:timestamps": [
      1775587461,
      1775587490,
      1775587610,
      1775587610,
      1775587670,
      1775587730,
      1775587970,
      1775587970,
      1775587970,
      1775588153,
      1775588153,
      1775588331,
      1775588331,
      1775588331,
      1775588571,
      1775588633,
      1775588633,
      1775588633,
      1775588752,
      1775588752,
      1775588752,
      1775589354,
      1775589354,
      1775589414,
      1775589414,
      1775589595,
      1775589595,
      1775589713,
      1775589775,
      1775589775,
      1775589833,
      1775589833,
      1775589833,
      1775589955,
      1775590196,
      1775590252,
      1775590376,
      1775590436,
      1775590616,
      1775590736,
      1775590806,
      1775590857,
      1775590917,
      1775591116,
      1775591157,
      1775591171,
      1775591217
    ],
    "wof:geomhash": "af64d589b7a7525a0e0a457c4c0631d6",
    "wof:id": 2015233059,
    "wof:repo": "sfomuseum-data-flights-2026-04"
  },
  "bbox": [
    -122.5425,
    35.99944444444444,
    -114.98555555555555,
    37.650277777777774
  ],
  "geometry": {"coordinates":[[-122.4,37.63333333333333],[-122.41055555555556,37.63388888888889],[-122.5425,37.650277777777774],[-122.5425,37.650277777777774],[-122.5213888888889,37.57416666666667],[-122.47527777777778,37.49638888888889],[-122.03972222222222,37.24527777777778],[-122.03972222222222,37.24527777777778],[-122.03972222222222,37.24527777777778],[-121.57444444444444,37.249722222222225],[-121.57444444444444,37.249722222222225],[-121.04694444444445,37.2725],[-121.04694444444445,37.2725],[-121.04694444444445,37.2725],[-120.34194444444444,37.29722222222222],[-120.18194444444445,37.301944444444445],[-120.18194444444445,37.301944444444445],[-120.18194444444445,37.301944444444445],[-119.81472222222222,37.312777777777775],[-119.81472222222222,37.312777777777775],[-119.81472222222222,37.312777777777775],[-118.04305555555555,37.34916666666667],[-118.04305555555555,37.34916666666667],[-117.87027777777777,37.35111111111111],[-117.87027777777777,37.35111111111111],[-117.35166666666666,37.37555555555556],[-117.35166666666666,37.37555555555556],[-117.06444444444445,37.236666666666665],[-116.94,37.14722222222222],[-116.94,37.14722222222222],[-116.82944444444443,37.04694444444444],[-116.82944444444443,37.04694444444444],[-116.82944444444443,37.04694444444444],[-116.64722222222223,36.83444444444444],[-116.23111111111112,36.466944444444444],[-116.11555555555555,36.38472222222222],[-115.91055555555556,36.239444444444445],[-115.81527777777778,36.17944444444444],[-115.50555555555556,36.06305555555555],[-115.30194444444444,36.01361111111111],[-115.17916666666667,36.007777777777775],[-115.10166666666666,36.00361111111111],[-115.01722222222222,35.99944444444444],[-114.98555555555555,36.07277777777778],[-115.03055555555555,36.07361111111111],[-115.04805555555555,36.07416666666667],[-115.0925,36.07361111111111]],"type":"LineString"}
}
