{
  "id": 2015358209,
  "type": "Feature",
  "properties": {
    "geom:area": 0,
    "geom:bbox": "-122.533333,33.983333,-118.228889,37.665556",
    "geom:latitude": 35.80506033858258,
    "geom:longitude": -120.43262875910503,
    "src:alt_label": "swim-path",
    "src:geom": "swim",
    "swim:altitudes": [
      "005",
      "005",
      "005",
      "005",
      "037",
      "037",
      "049",
      "049",
      "055",
      "077",
      "077",
      "077",
      "077",
      "084",
      "084",
      "104",
      "104",
      "104",
      "104",
      "104",
      "104",
      "156",
      "156",
      "156",
      "209",
      "209",
      "209",
      "209",
      "209",
      "278",
      "278",
      "278",
      "278",
      "278",
      "278",
      "337",
      "337",
      "337",
      "337",
      "337",
      "337",
      "381",
      "381",
      "381",
      "381",
      "381",
      "381",
      "390C",
      "390C",
      "390C",
      "390C",
      "390C",
      "390C",
      "390C",
      "390C",
      "390",
      "390",
      "390",
      "390",
      "390",
      "390",
      "390",
      "390",
      "390",
      "390",
      "390",
      "351",
      "351",
      "351",
      "351",
      "319",
      "286",
      "286",
      "286",
      "286",
      "286",
      "286",
      "203",
      "203",
      "203",
      "203",
      "203",
      "183",
      "183",
      "183",
      "144",
      "144",
      "144",
      "144",
      "144",
      "121",
      "121",
      "121",
      "117",
      "117",
      "117",
      "117",
      "100",
      "100",
      "100",
      "093",
      "093",
      "090",
      "090",
      "079",
      "079",
      "079",
      "076",
      "076",
      "076",
      "070",
      "070",
      "050",
      "050",
      "050",
      "030",
      "030",
      "026",
      "026",
      "026",
      "026",
      "026",
      "026"
    ],
    "swim:geom": "path",
    "swim:speeds": [
      175,
      175,
      175,
      175,
      191,
      191,
      236,
      236,
      255,
      269,
      269,
      269,
      269,
      281,
      281,
      294,
      294,
      294,
      294,
      294,
      294,
      357,
      357,
      357,
      408,
      408,
      408,
      408,
      408,
      456,
      456,
      456,
      456,
      456,
      456,
      497,
      497,
      497,
      497,
      497,
      497,
      501,
      501,
      501,
      501,
      501,
      501,
      507,
      507,
      507,
      508,
      508,
      508,
      508,
      508,
      481,
      481,
      481,
      481,
      481,
      480,
      480,
      480,
      480,
      480,
      480,
      474,
      474,
      474,
      474,
      471,
      482,
      482,
      482,
      482,
      482,
      482,
      408,
      408,
      408,
      408,
      408,
      395,
      395,
      395,
      380,
      380,
      380,
      380,
      380,
      334,
      334,
      334,
      326,
      326,
      326,
      326,
      318,
      318,
      318,
      306,
      306,
      302,
      302,
      286,
      286,
      286,
      273,
      273,
      273,
      250,
      250,
      236,
      236,
      236,
      225,
      225,
      203,
      203,
      203,
      203,
      203,
      203
    ],
    "swim:timestamps": [
      1776873779,
      1776873779,
      1776873779,
      1776873779,
      1776873857,
      1776873857,
      1776873909,
      1776873909,
      1776873917,
      1776873969,
      1776873969,
      1776873969,
      1776873969,
      1776873977,
      1776873977,
      1776874029,
      1776874029,
      1776874029,
      1776874029,
      1776874029,
      1776874029,
      1776874153,
      1776874153,
      1776874153,
      1776874274,
      1776874274,
      1776874274,
      1776874274,
      1776874274,
      1776874454,
      1776874454,
      1776874454,
      1776874454,
      1776874454,
      1776874454,
      1776874694,
      1776874694,
      1776874694,
      1776874694,
      1776874694,
      1776874694,
      1776874874,
      1776874874,
      1776874874,
      1776874874,
      1776874874,
      1776874874,
      1776874995,
      1776874995,
      1776874995,
      1776875055,
      1776875055,
      1776875055,
      1776875055,
      1776875055,
      1776875291,
      1776875291,
      1776875291,
      1776875291,
      1776875291,
      1776875351,
      1776875351,
      1776875351,
      1776875351,
      1776875351,
      1776875351,
      1776875531,
      1776875531,
      1776875531,
      1776875531,
      1776875595,
      1776875651,
      1776875651,
      1776875651,
      1776875651,
      1776875651,
      1776875651,
      1776875896,
      1776875896,
      1776875896,
      1776875896,
      1776875896,
      1776875956,
      1776875956,
      1776875956,
      1776876076,
      1776876076,
      1776876076,
      1776876076,
      1776876076,
      1776876165,
      1776876165,
      1776876165,
      1776876196,
      1776876196,
      1776876196,
      1776876196,
      1776876256,
      1776876256,
      1776876256,
      1776876285,
      1776876285,
      1776876317,
      1776876317,
      1776876405,
      1776876405,
      1776876405,
      1776876437,
      1776876437,
      1776876437,
      1776876465,
      1776876465,
      1776876525,
      1776876525,
      1776876525,
      1776876617,
      1776876617,
      1776876645,
      1776876645,
      1776876645,
      1776876645,
      1776876645,
      1776876645
    ],
    "wof:geomhash": "7dbf24b21994c64675d6df981803fc8f",
    "wof:id": 2015358209,
    "wof:repo": "sfomuseum-data-flights-2026-04"
  },
  "bbox": [
    -122.53333333333333,
    33.983333333333334,
    -118.22888888888889,
    37.66555555555556
  ],
  "geometry": {"coordinates":[[-122.38333333333334,37.63333333333333],[-122.38333333333334,37.63333333333333],[-122.38333333333334,37.63333333333333],[-122.38333333333334,37.63333333333333],[-122.45,37.65],[-122.45,37.65],[-122.51388888888889,37.66555555555556],[-122.51388888888889,37.66555555555556],[-122.53333333333333,37.65],[-122.5275,37.602222222222224],[-122.5275,37.602222222222224],[-122.5275,37.602222222222224],[-122.5275,37.602222222222224],[-122.51666666666667,37.583333333333336],[-122.51666666666667,37.583333333333336],[-122.49166666666667,37.526666666666664],[-122.49166666666667,37.526666666666664],[-122.49166666666667,37.526666666666664],[-122.49166666666667,37.526666666666664],[-122.49166666666667,37.526666666666664],[-122.49166666666667,37.526666666666664],[-122.31666666666666,37.37583333333333],[-122.31666666666666,37.37583333333333],[-122.31666666666666,37.37583333333333],[-122.10249999999999,37.21944444444445],[-122.10249999999999,37.21944444444445],[-122.10249999999999,37.21944444444445],[-122.10249999999999,37.21944444444445],[-122.10249999999999,37.21944444444445],[-121.7575,36.96027777777778],[-121.7575,36.96027777777778],[-121.7575,36.96027777777778],[-121.7575,36.96027777777778],[-121.7575,36.96027777777778],[-121.7575,36.96027777777778],[-121.26166666666667,36.58694444444445],[-121.26166666666667,36.58694444444445],[-121.26166666666667,36.58694444444445],[-121.26166666666667,36.58694444444445],[-121.26166666666667,36.58694444444445],[-121.26166666666667,36.58694444444445],[-120.87555555555555,36.30277777777778],[-120.87555555555555,36.30277777777778],[-120.87555555555555,36.30277777777778],[-120.87555555555555,36.30277777777778],[-120.87555555555555,36.30277777777778],[-120.87555555555555,36.30277777777778],[-120.61222222222221,36.1175],[-120.61222222222221,36.1175],[-120.61222222222221,36.1175],[-120.48111111111112,36.025555555555556],[-120.48111111111112,36.025555555555556],[-120.48111111111112,36.025555555555556],[-120.48111111111112,36.025555555555556],[-120.48111111111112,36.025555555555556],[-120.07305555555556,35.62083333333334],[-120.07305555555556,35.62083333333334],[-120.07305555555556,35.62083333333334],[-120.07305555555556,35.62083333333334],[-120.07305555555556,35.62083333333334],[-119.98722222222223,35.50555555555555],[-119.98722222222223,35.50555555555555],[-119.98722222222223,35.50555555555555],[-119.98722222222223,35.50555555555555],[-119.98722222222223,35.50555555555555],[-119.98722222222223,35.50555555555555],[-119.71666666666667,35.174166666666665],[-119.71666666666667,35.174166666666665],[-119.71666666666667,35.174166666666665],[-119.71666666666667,35.174166666666665],[-119.60305555555556,35.05305555555555],[-119.5225,34.964444444444446],[-119.5225,34.964444444444446],[-119.5225,34.964444444444446],[-119.5225,34.964444444444446],[-119.5225,34.964444444444446],[-119.5225,34.964444444444446],[-119.16416666666667,34.559999999999995],[-119.16416666666667,34.559999999999995],[-119.16416666666667,34.559999999999995],[-119.16416666666667,34.559999999999995],[-119.16416666666667,34.559999999999995],[-119.08555555555554,34.471944444444446],[-119.08555555555554,34.471944444444446],[-119.08555555555554,34.471944444444446],[-118.93555555555555,34.3],[-118.93555555555555,34.3],[-118.93555555555555,34.3],[-118.93555555555555,34.3],[-118.93555555555555,34.3],[-118.81666666666666,34.18333333333333],[-118.81666666666666,34.18333333333333],[-118.81666666666666,34.18333333333333],[-118.79138888888889,34.14694444444444],[-118.79138888888889,34.14694444444444],[-118.79138888888889,34.14694444444444],[-118.79138888888889,34.14694444444444],[-118.72111111111111,34.08166666666667],[-118.72111111111111,34.08166666666667],[-118.72111111111111,34.08166666666667],[-118.68333333333334,34.05],[-118.68333333333334,34.05],[-118.64444444444445,34.02833333333333],[-118.64444444444445,34.02833333333333],[-118.48333333333333,34.016666666666666],[-118.48333333333333,34.016666666666666],[-118.48333333333333,34.016666666666666],[-118.45083333333334,34.011944444444445],[-118.45083333333334,34.011944444444445],[-118.45083333333334,34.011944444444445],[-118.4,34.016666666666666],[-118.4,34.016666666666666],[-118.31666666666666,34.03333333333333],[-118.31666666666666,34.03333333333333],[-118.31666666666666,34.03333333333333],[-118.22888888888889,34.01583333333333],[-118.22888888888889,34.01583333333333],[-118.23333333333333,33.983333333333334],[-118.23333333333333,33.983333333333334],[-118.23333333333333,33.983333333333334],[-118.23333333333333,33.983333333333334],[-118.23333333333333,33.983333333333334],[-118.23333333333333,33.983333333333334]],"type":"LineString"}
}
