{
  "id": 2015187305,
  "type": "Feature",
  "properties": {
    "geom:area": 0,
    "geom:bbox": "-122.785070,37.389800,-122.137040,38.507970",
    "geom:latitude": 37.84269620244061,
    "geom:longitude": -122.4956947433261,
    "src:alt_label": "swim-approach",
    "src:geom": "swim",
    "swim:elevations": [
      7474,
      7251,
      7010,
      7010,
      7010,
      7010,
      7010,
      6861,
      6680,
      6347,
      6120,
      5833,
      5762,
      5676,
      5504,
      5253,
      4843,
      4567,
      4437,
      4157,
      4112,
      3794,
      3771,
      3434,
      3353,
      3353,
      3353,
      3353,
      3353,
      3353,
      3353,
      3353,
      3353,
      3353,
      3353,
      3353,
      3353,
      3353,
      3353,
      3252,
      3087,
      2971,
      2829,
      2697,
      2596,
      2470,
      2274,
      2061,
      1955,
      1783,
      1621,
      1242,
      1085,
      914,
      914,
      914,
      822,
      614,
      454,
      456,
      394,
      311,
      242,
      171,
      12,
      17
    ],
    "swim:geom": "approach",
    "swim:timestamps": [
      1775166257,
      1775166284,
      1775166324,
      1775166347,
      1775166356,
      1775166366,
      1775166386,
      1775166407,
      1775166426,
      1775166467,
      1775166498,
      1775166527,
      1775166533,
      1775166541,
      1775166558,
      1775166588,
      1775166628,
      1775166656,
      1775166667,
      1775166693,
      1775166698,
      1775166728,
      1775166737,
      1775166764,
      1775166800,
      1775166838,
      1775166851,
      1775166879,
      1775166898,
      1775166922,
      1775166953,
      1775166978,
      1775166996,
      1775167023,
      1775167050,
      1775167060,
      1775167092,
      1775167113,
      1775167142,
      1775167179,
      1775167209,
      1775167235,
      1775167258,
      1775167277,
      1775167295,
      1775167322,
      1775167353,
      1775167390,
      1775167401,
      1775167424,
      1775167444,
      1775167493,
      1775167523,
      1775167558,
      1775167579,
      1775167594,
      1775167628,
      1775167666,
      1775167707,
      1775167713,
      1775167723,
      1775167747,
      1775167765,
      1775167784,
      1775167826,
      1775167833
    ],
    "wof:geomhash": "d473a91cfff2c3648908c565ecef0c67",
    "wof:id": 2015187305,
    "wof:repo": "sfomuseum-data-flights-2026-04"
  },
  "bbox": [
    -122.78507,
    37.3898,
    -122.13704,
    38.50797
  ],
  "geometry": {"coordinates":[[-122.47549,38.50797],[-122.51202,38.47298],[-122.56306,38.42422],[-122.59163,38.39563],[-122.60289,38.38411],[-122.61192,38.37103],[-122.61873,38.3375],[-122.61787,38.30111],[-122.6175,38.26967],[-122.6264,38.20043],[-122.63541,38.1501],[-122.64208,38.10376],[-122.64352,38.09386],[-122.64538,38.08114],[-122.64915,38.05467],[-122.65603,38.00896],[-122.66604,37.94662],[-122.67215,37.90475],[-122.67454,37.88964],[-122.69976,37.85802],[-122.70662,37.85523],[-122.75422,37.8586],[-122.7645,37.86441],[-122.78507,37.89158],[-122.78492,37.93333],[-122.73947,37.95793],[-122.71769,37.9562],[-122.68265,37.92968],[-122.67532,37.9013],[-122.6511,37.87301],[-122.61032,37.84119],[-122.58032,37.81295],[-122.55945,37.79266],[-122.52912,37.76344],[-122.49696,37.73283],[-122.48476,37.72135],[-122.44717,37.68608],[-122.42317,37.6636],[-122.3925,37.63475],[-122.3567,37.59843],[-122.33763,37.56461],[-122.3236,37.53437],[-122.30819,37.50921],[-122.29966,37.48707],[-122.30556,37.46611],[-122.30666,37.43426],[-122.27567,37.4112],[-122.2308,37.39229],[-122.21639,37.3898],[-122.18953,37.396],[-122.16704,37.40371],[-122.13704,37.43956],[-122.1469,37.4662],[-122.1598,37.49718],[-122.16817,37.51611],[-122.17808,37.52652],[-122.20369,37.54674],[-122.23896,37.56156],[-122.27267,37.57568],[-122.27703,37.5776],[-122.28433,37.5806],[-122.30232,37.58819],[-122.31554,37.5937],[-122.33007,37.59987],[-122.36038,37.61262],[-122.36543,37.61525]],"type":"LineString"}
}
