{
  "id": 2015337959,
  "type": "Feature",
  "properties": {
    "geom:area": 0,
    "geom:bbox": "-122.263889,30.253333,-97.663611,37.691944",
    "geom:latitude": 34.91446059424331,
    "geom:longitude": -109.71291364373076,
    "src:alt_label": "swim-path",
    "src:geom": "swim",
    "swim:altitudes": [
      "025",
      "025",
      "025",
      "052",
      "052",
      "085",
      "085",
      "085",
      "127",
      "127",
      "127",
      "156",
      "156",
      "176",
      "193",
      "207",
      "207",
      "226",
      "226",
      "238",
      "249",
      "249",
      "263",
      "286",
      "286",
      "296",
      "305",
      "313",
      "313",
      "313",
      "330",
      "348",
      "348",
      "360C",
      "360C",
      "360C",
      "360C",
      "360C",
      "360C",
      "360C",
      "360C",
      "360C",
      "360C",
      "360C",
      "360C",
      "360C",
      "360C",
      "360C",
      "360C",
      "360C",
      "360C",
      "360C",
      "360C",
      "360C",
      "360C",
      "360C",
      "360C",
      "360C",
      "360C",
      "360C",
      "359C",
      "359C",
      "359C",
      "359C",
      "360C",
      "360C",
      "360C",
      "360C",
      "360C",
      "360C",
      "360C",
      "360C",
      "360C",
      "360C",
      "360C",
      "360C",
      "360C",
      "360C",
      "360C",
      "360C",
      "360C",
      "360C",
      "360C",
      "360C",
      "360C",
      "360C",
      "360C",
      "360C",
      "360C",
      "360C",
      "360C",
      "360C",
      "360C",
      "359C",
      "360C",
      "360C",
      "360C",
      "360C",
      "360C",
      "360C",
      "360C",
      "360C",
      "360C",
      "360C",
      "360C",
      "360C",
      "360C",
      "360C",
      "360C",
      "360C",
      "360C",
      "360C",
      "360C",
      "360C",
      "360C",
      "360C",
      "360C",
      "360C",
      "360C",
      "360C",
      "360C",
      "360C",
      "360C",
      "360C",
      "360C",
      "360C",
      "360C",
      "360C",
      "360C",
      "360C",
      "360C",
      "360C",
      "360C",
      "360C",
      "360C",
      "360C",
      "360C",
      "360C",
      "360C",
      "360C",
      "360C",
      "360C",
      "360C",
      "360C",
      "360C",
      "360C",
      "360C",
      "360C",
      "360C",
      "360C",
      "360C",
      "360C",
      "360C",
      "360C",
      "360C",
      "360C",
      "360C",
      "360C",
      "360C",
      "360C",
      "360C",
      "360C",
      "360C",
      "360C",
      "360C",
      "360C",
      "360C",
      "360C",
      "360C",
      "360C",
      "360C",
      "360C",
      "360C",
      "360C",
      "360C",
      "360C",
      "360C",
      "360C",
      "360C",
      "360C",
      "360C",
      "360C",
      "360C",
      "360C",
      "360C",
      "360C",
      "360C",
      "360C",
      "360C",
      "360C",
      "360C",
      "360C",
      "353",
      "353",
      "344",
      "344",
      "344",
      "340",
      "312",
      "312",
      "312",
      "276",
      "216",
      "216",
      "216",
      "196",
      "174",
      "174",
      "153",
      "153",
      "134",
      "119",
      "119",
      "119",
      "115",
      "028",
      "028",
      "017",
      "017"
    ],
    "swim:geom": "path",
    "swim:speeds": [
      215,
      215,
      215,
      283,
      283,
      284,
      284,
      284,
      333,
      333,
      333,
      331,
      331,
      341,
      341,
      363,
      363,
      369,
      369,
      375,
      396,
      396,
      402,
      413,
      413,
      417,
      422,
      427,
      427,
      427,
      433,
      432,
      432,
      420,
      420,
      420,
      423,
      423,
      423,
      422,
      422,
      422,
      420,
      420,
      421,
      421,
      422,
      422,
      422,
      423,
      424,
      424,
      426,
      426,
      430,
      430,
      436,
      437,
      437,
      437,
      439,
      439,
      439,
      439,
      439,
      439,
      439,
      439,
      439,
      439,
      438,
      438,
      438,
      436,
      435,
      435,
      435,
      435,
      436,
      436,
      437,
      437,
      437,
      437,
      446,
      446,
      447,
      447,
      448,
      448,
      448,
      440,
      440,
      440,
      442,
      442,
      442,
      447,
      447,
      447,
      447,
      448,
      447,
      447,
      441,
      441,
      441,
      441,
      443,
      443,
      443,
      449,
      449,
      448,
      448,
      446,
      446,
      446,
      444,
      444,
      444,
      444,
      444,
      443,
      443,
      443,
      444,
      444,
      444,
      445,
      444,
      444,
      444,
      444,
      444,
      444,
      442,
      442,
      442,
      442,
      443,
      443,
      443,
      444,
      444,
      444,
      444,
      444,
      445,
      445,
      447,
      454,
      457,
      457,
      457,
      457,
      455,
      455,
      455,
      457,
      458,
      460,
      460,
      458,
      461,
      461,
      467,
      469,
      469,
      471,
      471,
      471,
      471,
      470,
      469,
      438,
      435,
      434,
      434,
      434,
      434,
      439,
      439,
      440,
      440,
      440,
      440,
      437,
      437,
      437,
      437,
      437,
      440,
      440,
      437,
      437,
      437,
      431,
      418,
      418,
      418,
      379,
      349,
      349,
      349,
      341,
      335,
      335,
      332,
      332,
      333,
      328,
      328,
      328,
      276,
      221,
      221,
      182,
      182
    ],
    "swim:timestamps": [
      1776717290,
      1776717290,
      1776717290,
      1776717370,
      1776717379,
      1776717430,
      1776717439,
      1776717439,
      1776717550,
      1776717559,
      1776717559,
      1776717619,
      1776717619,
      1776717671,
      1776717739,
      1776717791,
      1776717799,
      1776717851,
      1776717851,
      1776717911,
      1776717980,
      1776717980,
      1776718040,
      1776718160,
      1776718160,
      1776718220,
      1776718280,
      1776718340,
      1776718340,
      1776718340,
      1776718452,
      1776718581,
      1776718581,
      1776718701,
      1776718701,
      1776718701,
      1776718881,
      1776718881,
      1776718932,
      1776719001,
      1776719001,
      1776719061,
      1776719116,
      1776719116,
      1776719181,
      1776719181,
      1776719296,
      1776719296,
      1776719296,
      1776719362,
      1776719537,
      1776719537,
      1776719597,
      1776719597,
      1776719722,
      1776719722,
      1776719902,
      1776719957,
      1776719957,
      1776719957,
      1776720078,
      1776720078,
      1776720198,
      1776720198,
      1776720378,
      1776720378,
      1776720378,
      1776720438,
      1776720498,
      1776720498,
      1776720623,
      1776720623,
      1776720623,
      1776720739,
      1776720799,
      1776720799,
      1776720799,
      1776720919,
      1776720979,
      1776720979,
      1776721099,
      1776721099,
      1776721159,
      1776721159,
      1776721520,
      1776721520,
      1776721580,
      1776721580,
      1776721640,
      1776721700,
      1776721700,
      1776721999,
      1776721999,
      1776722059,
      1776722239,
      1776722239,
      1776722239,
      1776722480,
      1776722480,
      1776722480,
      1776722540,
      1776722720,
      1776722780,
      1776722780,
      1776722960,
      1776722960,
      1776723202,
      1776723202,
      1776723303,
      1776723303,
      1776723303,
      1776723503,
      1776723503,
      1776723623,
      1776723623,
      1776723724,
      1776723724,
      1776723743,
      1776723803,
      1776723844,
      1776723863,
      1776723904,
      1776723904,
      1776723923,
      1776723923,
      1776723984,
      1776724024,
      1776724044,
      1776724044,
      1776724084,
      1776724104,
      1776724164,
      1776724164,
      1776724164,
      1776724224,
      1776724264,
      1776724404,
      1776724464,
      1776724464,
      1776724464,
      1776724745,
      1776724745,
      1776724745,
      1776724925,
      1776724925,
      1776724925,
      1776725105,
      1776725105,
      1776725166,
      1776725166,
      1776725226,
      1776725286,
      1776725406,
      1776725406,
      1776725466,
      1776725466,
      1776725646,
      1776725646,
      1776725706,
      1776725766,
      1776725826,
      1776725842,
      1776725842,
      1776725887,
      1776725962,
      1776725962,
      1776726007,
      1776726082,
      1776726082,
      1776726187,
      1776726203,
      1776726203,
      1776726203,
      1776726263,
      1776726307,
      1776726503,
      1776726550,
      1776726563,
      1776726611,
      1776726611,
      1776726611,
      1776726743,
      1776726743,
      1776726791,
      1776726803,
      1776726803,
      1776726803,
      1776726911,
      1776726971,
      1776726971,
      1776727031,
      1776727031,
      1776727224,
      1776727224,
      1776727284,
      1776727284,
      1776727284,
      1776727464,
      1776727584,
      1776727584,
      1776727584,
      1776727704,
      1776727885,
      1776727885,
      1776727885,
      1776727945,
      1776728005,
      1776728005,
      1776728065,
      1776728065,
      1776728125,
      1776728185,
      1776728185,
      1776728185,
      1776728233,
      1776728666,
      1776728666,
      1776728726,
      1776728726
    ],
    "wof:geomhash": "c2cef883633ab94d00eeaa7a306b279e",
    "wof:id": 2015337959,
    "wof:repo": "sfomuseum-data-flights-2026-04"
  },
  "bbox": [
    -122.26388888888889,
    30.253333333333334,
    -97.66361111111112,
    37.69194444444444
  ],
  "geometry": {"coordinates":[[-97.66361111111112,30.253333333333334],[-97.66361111111112,30.253333333333334],[-97.66361111111112,30.253333333333334],[-97.70861111111111,30.3275],[-97.70861111111111,30.32777777777778],[-97.79777777777778,30.346944444444443],[-97.79777777777778,30.346944444444443],[-97.79777777777778,30.346944444444443],[-97.98972222222223,30.389444444444443],[-97.99166666666667,30.389722222222222],[-97.99166666666667,30.389722222222222],[-98.09472222222222,30.412777777777777],[-98.09472222222222,30.412777777777777],[-98.20027777777779,30.435833333333335],[-98.30694444444444,30.4625],[-98.40833333333335,30.509722222222223],[-98.40833333333335,30.509722222222223],[-98.51305555555555,30.55777777777778],[-98.51305555555555,30.55777777777778],[-98.62166666666666,30.599444444444444],[-98.72833333333334,30.661944444444444],[-98.72833333333334,30.661944444444444],[-98.84722222222221,30.731111111111108],[-99.06888888888888,30.859444444444446],[-99.06888888888888,30.859444444444446],[-99.18194444444445,30.924722222222222],[-99.295,30.989722222222223],[-99.41055555555556,31.055833333333332],[-99.41055555555556,31.055833333333332],[-99.41055555555556,31.055833333333332],[-99.61861111111111,31.17527777777778],[-99.875,31.320555555555554],[-99.875,31.320555555555554],[-100.10249999999999,31.449166666666667],[-100.10249999999999,31.449166666666667],[-100.10249999999999,31.449166666666667],[-100.44722222222222,31.642777777777777],[-100.44722222222222,31.642777777777777],[-100.53972222222222,31.694166666666668],[-100.66777777777779,31.76527777777778],[-100.66777777777779,31.76527777777778],[-100.78388888888888,31.829722222222223],[-100.89916666666667,31.89361111111111],[-100.89916666666667,31.89361111111111],[-101.01361111111112,31.95638888888889],[-101.01361111111112,31.95638888888889],[-101.25527777777778,32.08888888888889],[-101.25527777777778,32.08888888888889],[-101.25527777777778,32.08888888888889],[-101.36361111111111,32.14805555555556],[-101.72083333333333,32.341944444444444],[-101.72083333333333,32.341944444444444],[-101.83999999999999,32.40555555555555],[-101.83999999999999,32.40555555555555],[-102.08,32.53472222222222],[-102.08,32.53472222222222],[-102.45944444444444,32.736666666666665],[-102.55749999999999,32.78861111111111],[-102.55749999999999,32.78861111111111],[-102.55749999999999,32.78861111111111],[-102.80111111111111,32.916666666666664],[-102.80111111111111,32.916666666666664],[-103.0475,33.04555555555555],[-103.0475,33.04555555555555],[-103.41583333333334,33.23638888888889],[-103.41583333333334,33.23638888888889],[-103.41583333333334,33.23638888888889],[-103.53972222222222,33.3],[-103.66388888888889,33.36388888888889],[-103.66388888888889,33.36388888888889],[-103.93527777777778,33.50222222222222],[-103.93527777777778,33.50222222222222],[-103.93527777777778,33.50222222222222],[-104.17777777777778,33.625277777777775],[-104.30222222222221,33.68805555555555],[-104.30222222222221,33.68805555555555],[-104.30222222222221,33.68805555555555],[-104.54916666666666,33.811388888888885],[-104.67333333333333,33.87361111111111],[-104.67333333333333,33.87361111111111],[-104.92444444444445,33.998333333333335],[-104.92444444444445,33.998333333333335],[-105.04555555555555,34.058055555555555],[-105.04555555555555,34.058055555555555],[-105.72,34.550555555555555],[-105.72,34.550555555555555],[-105.83333333333333,34.63305555555556],[-105.83333333333333,34.63305555555556],[-105.95055555555555,34.717777777777776],[-106.06777777777778,34.800555555555555],[-106.06777777777778,34.800555555555555],[-106.78055555555555,34.98416666666667],[-106.78055555555555,34.98416666666667],[-106.91638888888889,35.014722222222225],[-107.33138888888888,35.10888888888889],[-107.33138888888888,35.10888888888889],[-107.33138888888888,35.10888888888889],[-107.92555555555556,35.23972222222222],[-107.92555555555556,35.23972222222222],[-107.92555555555556,35.23972222222222],[-108.07249999999999,35.27166666666667],[-108.51527777777778,35.36666666666667],[-108.66277777777778,35.397777777777776],[-108.66277777777778,35.397777777777776],[-109.10111111111111,35.48888888888889],[-109.10111111111111,35.48888888888889],[-109.69416666666667,35.574444444444445],[-109.69416666666667,35.574444444444445],[-109.94666666666667,35.6025],[-109.94666666666667,35.6025],[-109.94666666666667,35.6025],[-110.45694444444445,35.65083333333333],[-110.45694444444445,35.65083333333333],[-110.76,35.68],[-110.76,35.68],[-111.00805555555556,35.70305555555556],[-111.00805555555556,35.70305555555556],[-111.06138888888889,35.70805555555556],[-111.21166666666667,35.72166666666667],[-111.30805555555555,35.73027777777778],[-111.36138888888888,35.735],[-111.45972222222223,35.74388888888889],[-111.45972222222223,35.74388888888889],[-111.51666666666667,35.74888888888889],[-111.51666666666667,35.74888888888889],[-111.6675,35.761944444444445],[-111.76222222222222,35.77027777777778],[-111.81944444444444,35.775],[-111.81944444444444,35.775],[-111.91166666666668,35.783055555555556],[-111.96972222222223,35.78777777777778],[-112.11972222222222,35.80027777777777],[-112.11972222222222,35.80027777777777],[-112.11972222222222,35.80027777777777],[-112.27055555555556,35.812777777777775],[-112.36305555555555,35.82027777777778],[-112.71805555555555,35.84861111111111],[-112.86638888888888,35.86],[-112.86638888888888,35.86],[-112.86638888888888,35.86],[-113.58944444444444,35.91305555555555],[-113.58944444444444,35.91305555555555],[-113.58944444444444,35.91305555555555],[-114.04666666666667,35.94444444444444],[-114.04666666666667,35.94444444444444],[-114.04666666666667,35.94444444444444],[-114.50111111111111,35.97361111111111],[-114.50111111111111,35.97361111111111],[-114.655,35.983333333333334],[-114.655,35.983333333333334],[-114.80944444444444,35.9925],[-114.95333333333333,36.03527777777778],[-115.23111111111112,36.156388888888884],[-115.23111111111112,36.156388888888884],[-115.36805555555554,36.215833333333336],[-115.36805555555554,36.215833333333336],[-115.76833333333333,36.38805555555555],[-115.76833333333333,36.38805555555555],[-115.90666666666667,36.447222222222216],[-116.03972222222222,36.50361111111111],[-116.17888888888889,36.5625],[-116.23583333333333,36.58638888888889],[-116.23583333333333,36.58638888888889],[-116.32083333333333,36.62222222222222],[-116.51972222222223,36.70722222222223],[-116.51972222222223,36.70722222222223],[-116.595,36.75611111111111],[-116.7575,36.88722222222222],[-116.7575,36.88722222222222],[-116.94111111111111,37.035],[-116.9888888888889,37.07333333333334],[-116.9888888888889,37.07333333333334],[-116.9888888888889,37.07333333333334],[-117.10527777777777,37.16611111111111],[-117.17444444444445,37.221111111111114],[-117.58527777777778,37.49888888888889],[-117.67583333333334,37.50666666666667],[-117.70611111111111,37.50944444444445],[-117.82722222222222,37.519444444444446],[-117.82722222222222,37.519444444444446],[-117.82722222222222,37.519444444444446],[-118.16361111111112,37.54611111111111],[-118.16361111111112,37.54611111111111],[-118.29305555555555,37.55611111111111],[-118.31666666666666,37.558055555555555],[-118.31666666666666,37.558055555555555],[-118.31666666666666,37.558055555555555],[-118.5911111111111,37.578611111111115],[-118.74166666666667,37.58972222222222],[-118.74166666666667,37.58972222222222],[-118.89583333333334,37.60055555555556],[-118.89583333333334,37.60055555555556],[-119.38666666666667,37.635],[-119.38666666666667,37.635],[-119.53666666666666,37.644999999999996],[-119.53666666666666,37.644999999999996],[-119.53666666666666,37.644999999999996],[-119.98916666666666,37.67388888888889],[-120.28361111111111,37.69194444444444],[-120.28361111111111,37.69194444444444],[-120.28361111111111,37.69194444444444],[-120.55555555555556,37.68138888888889],[-120.92833333333334,37.63722222222222],[-120.92833333333334,37.63722222222222],[-120.92833333333334,37.63722222222222],[-121.04805555555555,37.62166666666667],[-121.17305555555556,37.60472222222222],[-121.17305555555556,37.60472222222222],[-121.29083333333332,37.58916666666667],[-121.29083333333332,37.58916666666667],[-121.40444444444445,37.57666666666667],[-121.51777777777778,37.56333333333333],[-121.51777777777778,37.56333333333333],[-121.51777777777778,37.56333333333333],[-121.6,37.55],[-122.20472222222223,37.54944444444444],[-122.20472222222223,37.54944444444444],[-122.26388888888889,37.57416666666667],[-122.26388888888889,37.57416666666667]],"type":"LineString"}
}
