{
  "id": 2015233383,
  "type": "Feature",
  "properties": {
    "geom:area": 0,
    "geom:bbox": "-176.110000,25.080000,180.000000,44.100000",
    "geom:latitude": 40.09644021864488,
    "geom:longitude": 3.7554520012254073,
    "src:alt_label": "swim-route",
    "src:geom": "swim",
    "swim:geom": "route",
    "wof:geomhash": "a809ca79d07edd47d6bb68b4b0acf71d",
    "wof:id": 2015233383,
    "wof:repo": "sfomuseum-data-flights-2026-04"
  },
  "bbox": [
    -176.11,
    25.08,
    180,
    44.1
  ],
  "geometry": {"coordinates":[[[-122.38,37.62],[-122.5,37.67],[-122.51,37.68],[-122.59,37.73],[-122.6,37.73],[-122.63,37.75],[-122.7,37.79],[-122.71,37.8],[-122.74,37.81],[-122.76,37.82],[-122.79,37.87],[-122.91,38.01],[-123.14,38.28],[-123.14,38.29],[-123.29,38.46],[-123.41,38.6],[-123.46,38.67],[-123.57,38.79],[-123.58,38.8],[-123.63,38.86],[-123.72,38.97],[-123.75,39],[-123.82,39.03],[-124.07,39.12],[-126.5,40],[-126.99,40.15],[-127,40.15],[-130,41],[-140,43],[-143.71,43.48],[-143.93,43.5],[-150,44],[-154.13,44.1],[-156.25,44.1],[-160,44],[-166.29,43.48],[-170,43],[-173.1,42.19],[-176.11,41.3]],[[180,40],[177.75,39.42],[176.91,39.19],[172.9,37.99],[170.63,37.22],[170,37],[169.16,36.95],[168.88,36.93],[168.33,36.89],[165,36.61],[164.16,36.52],[163.32,36.43],[160,36],[155.03,36.6],[150,37],[148.48,36.89],[146.3,36.4],[145.67,36.21],[145.47,36.15],[141.29,34.94],[137.19,33.58],[135,32.77],[133.83,32.32],[131.48,31.36],[129.42,30.48],[128.39,30.01],[128.38,30.01],[127.46,29.59],[126.08,28.61],[124.72,27.62],[124,27.1],[123.24,26.52],[123.17,26.47],[123.13,26.44],[122.86,26.22],[122.8,26.18],[122.59,26.01],[122.4,25.87],[122.22,25.73],[122.08,25.62],[121.95,25.54],[121.79,25.44],[121.6,25.32],[121.56,25.29],[121.44,25.22],[121.37,25.18],[121.29,25.13],[121.22,25.08]]],"type":"MultiLineString"}
}
