{
  "id": 2031139883,
  "type": "Feature",
  "properties": {
    "geom:area": 0,
    "geom:bbox": "-123.629722,37.424444,-122.133333,47.616667",
    "geom:latitude": 42.454198870741166,
    "geom:longitude": -123.12811958659255,
    "src:alt_label": "swim-path",
    "src:geom": "swim",
    "swim:altitudes": [
      "010",
      "018",
      "018",
      "036",
      "036",
      "036",
      "048",
      "048",
      "048",
      "048",
      "060",
      "060",
      "060",
      "060",
      "070",
      "070",
      "070",
      "149",
      "149",
      "149",
      "149",
      "149",
      "176",
      "176",
      "176",
      "197",
      "197",
      "197",
      "197",
      "197",
      "284",
      "284",
      "284",
      "284",
      "284",
      "284",
      "309",
      "309",
      "309",
      "309",
      "309",
      "334",
      "334",
      "334",
      "334",
      "334",
      "334",
      "370C",
      "370C",
      "370C",
      "370C",
      "370C",
      "370C",
      "370C",
      "370C",
      "370C",
      "370C",
      "370C",
      "370C",
      "370C",
      "370C",
      "370C",
      "370C",
      "370C",
      "370C",
      "370C",
      "370C",
      "370C",
      "370C",
      "370C",
      "370C",
      "370C",
      "370C",
      "370C",
      "370C",
      "370C",
      "370C",
      "370C",
      "370C",
      "370C",
      "370C",
      "370C",
      "370C",
      "370C",
      "370C",
      "370C",
      "370C",
      "370C",
      "370C",
      "370C",
      "370C",
      "370C",
      "370C",
      "370C",
      "370C",
      "370C",
      "370C",
      "370C",
      "370C",
      "370C",
      "370C",
      "370C",
      "370C",
      "370C",
      "370C",
      "370C",
      "370C",
      "370C",
      "370C",
      "370C",
      "370C",
      "370C",
      "370C",
      "370C",
      "370C",
      "370C",
      "370C",
      "370C",
      "370C",
      "370C",
      "370C",
      "370C",
      "370C",
      "370C",
      "370C",
      "370C",
      "370C",
      "370C",
      "370C",
      "370C",
      "370C",
      "370C",
      "370C",
      "370C",
      "370C",
      "370C",
      "370C",
      "370C",
      "370C",
      "370C",
      "370C",
      "370C",
      "370C",
      "370C",
      "370C",
      "370C",
      "370C",
      "370C",
      "370C",
      "370C",
      "370C",
      "370C",
      "370C",
      "370C",
      "370C",
      "370C",
      "370C",
      "370C",
      "370C",
      "370C",
      "370C",
      "370C",
      "370C",
      "370C",
      "370C",
      "370C",
      "370C",
      "370",
      "370",
      "370",
      "370",
      "368",
      "368",
      "368",
      "368",
      "362",
      "362",
      "362",
      "362",
      "362",
      "331",
      "331",
      "331",
      "331",
      "290",
      "290",
      "290",
      "290",
      "290",
      "290",
      "231",
      "231",
      "231",
      "231",
      "231",
      "212",
      "212",
      "212",
      "212",
      "203",
      "203",
      "194",
      "194",
      "180",
      "180",
      "180",
      "180",
      "180",
      "141",
      "141",
      "141",
      "141",
      "141",
      "141",
      "128",
      "112",
      "112",
      "110C",
      "110C",
      "110C",
      "110C",
      "107",
      "107",
      "107",
      "100",
      "100",
      "100",
      "100",
      "100",
      "082",
      "082",
      "082",
      "074",
      "069",
      "069",
      "061",
      "061",
      "055",
      "055",
      "044",
      "044",
      "031",
      "031",
      "031",
      "031",
      "031",
      "028",
      "028",
      "018",
      "018",
      "018",
      "018",
      "002",
      "002",
      "002"
    ],
    "swim:geom": "path",
    "swim:speeds": [
      170,
      173,
      173,
      215,
      215,
      215,
      271,
      271,
      271,
      271,
      279,
      279,
      279,
      279,
      284,
      284,
      284,
      365,
      365,
      365,
      365,
      365,
      379,
      379,
      379,
      395,
      395,
      395,
      395,
      395,
      477,
      477,
      477,
      477,
      477,
      477,
      493,
      493,
      493,
      493,
      493,
      500,
      500,
      500,
      500,
      500,
      500,
      505,
      505,
      505,
      505,
      505,
      505,
      505,
      499,
      499,
      499,
      499,
      499,
      499,
      498,
      498,
      498,
      497,
      497,
      497,
      497,
      497,
      497,
      497,
      499,
      499,
      499,
      499,
      499,
      499,
      501,
      501,
      504,
      504,
      504,
      504,
      504,
      504,
      497,
      497,
      497,
      497,
      497,
      496,
      496,
      496,
      496,
      496,
      495,
      495,
      495,
      495,
      495,
      495,
      495,
      495,
      496,
      496,
      496,
      496,
      496,
      496,
      496,
      495,
      495,
      495,
      495,
      493,
      493,
      493,
      493,
      493,
      491,
      491,
      490,
      490,
      490,
      490,
      490,
      481,
      481,
      481,
      477,
      477,
      475,
      475,
      475,
      475,
      475,
      475,
      475,
      470,
      470,
      470,
      470,
      469,
      469,
      469,
      469,
      469,
      469,
      469,
      469,
      459,
      459,
      459,
      459,
      459,
      459,
      459,
      443,
      444,
      444,
      444,
      465,
      465,
      465,
      471,
      471,
      473,
      473,
      473,
      473,
      473,
      473,
      473,
      473,
      473,
      473,
      472,
      472,
      472,
      472,
      472,
      474,
      474,
      474,
      474,
      453,
      453,
      453,
      453,
      453,
      453,
      436,
      436,
      436,
      436,
      436,
      422,
      422,
      422,
      422,
      410,
      410,
      407,
      407,
      390,
      390,
      390,
      390,
      390,
      365,
      365,
      365,
      365,
      365,
      365,
      351,
      339,
      339,
      273,
      273,
      273,
      273,
      265,
      265,
      265,
      267,
      267,
      267,
      267,
      267,
      257,
      257,
      257,
      243,
      243,
      243,
      232,
      232,
      233,
      233,
      229,
      229,
      208,
      208,
      208,
      208,
      208,
      202,
      202,
      184,
      184,
      184,
      184,
      146,
      146,
      146
    ],
    "swim:timestamps": [
      1777500849,
      1777500873,
      1777500873,
      1777500939,
      1777500939,
      1777500939,
      1777500993,
      1777500993,
      1777500993,
      1777500993,
      1777501031,
      1777501031,
      1777501031,
      1777501031,
      1777501054,
      1777501054,
      1777501054,
      1777501272,
      1777501272,
      1777501272,
      1777501272,
      1777501272,
      1777501332,
      1777501332,
      1777501332,
      1777501392,
      1777501392,
      1777501392,
      1777501392,
      1777501392,
      1777501692,
      1777501692,
      1777501692,
      1777501692,
      1777501692,
      1777501692,
      1777501812,
      1777501812,
      1777501812,
      1777501812,
      1777501812,
      1777501932,
      1777501932,
      1777501932,
      1777501932,
      1777501932,
      1777501932,
      1777502173,
      1777502173,
      1777502173,
      1777502173,
      1777502173,
      1777502173,
      1777502173,
      1777502533,
      1777502533,
      1777502533,
      1777502533,
      1777502533,
      1777502533,
      1777502593,
      1777502593,
      1777502593,
      1777502653,
      1777502653,
      1777502653,
      1777502713,
      1777502713,
      1777502713,
      1777502713,
      1777502953,
      1777502953,
      1777502953,
      1777502953,
      1777502953,
      1777502953,
      1777503134,
      1777503134,
      1777503166,
      1777503166,
      1777503166,
      1777503166,
      1777503166,
      1777503166,
      1777503374,
      1777503374,
      1777503374,
      1777503374,
      1777503374,
      1777503434,
      1777503434,
      1777503434,
      1777503434,
      1777503434,
      1777503494,
      1777503494,
      1777503494,
      1777503614,
      1777503614,
      1777503614,
      1777503614,
      1777503614,
      1777503707,
      1777503707,
      1777503707,
      1777503707,
      1777503707,
      1777503707,
      1777503707,
      1777503827,
      1777503827,
      1777503827,
      1777503827,
      1777503915,
      1777503915,
      1777503915,
      1777503915,
      1777503915,
      1777504008,
      1777504008,
      1777504035,
      1777504035,
      1777504035,
      1777504035,
      1777504035,
      1777504128,
      1777504128,
      1777504128,
      1777504155,
      1777504155,
      1777504188,
      1777504188,
      1777504188,
      1777504215,
      1777504215,
      1777504215,
      1777504215,
      1777504335,
      1777504335,
      1777504335,
      1777504335,
      1777504368,
      1777504368,
      1777504428,
      1777504428,
      1777504428,
      1777504428,
      1777504488,
      1777504488,
      1777504515,
      1777504515,
      1777504515,
      1777504515,
      1777504515,
      1777504515,
      1777504515,
      1777504729,
      1777504755,
      1777504755,
      1777504755,
      1777504789,
      1777504789,
      1777504789,
      1777504816,
      1777504816,
      1777504849,
      1777504849,
      1777504936,
      1777504936,
      1777504936,
      1777504936,
      1777504996,
      1777504996,
      1777504996,
      1777504996,
      1777505029,
      1777505029,
      1777505029,
      1777505029,
      1777505029,
      1777505209,
      1777505209,
      1777505209,
      1777505209,
      1777505329,
      1777505329,
      1777505329,
      1777505329,
      1777505329,
      1777505329,
      1777505510,
      1777505510,
      1777505510,
      1777505510,
      1777505510,
      1777505570,
      1777505570,
      1777505570,
      1777505570,
      1777505591,
      1777505591,
      1777505630,
      1777505630,
      1777505669,
      1777505669,
      1777505669,
      1777505669,
      1777505669,
      1777505810,
      1777505810,
      1777505810,
      1777505810,
      1777505810,
      1777505810,
      1777505844,
      1777505904,
      1777505904,
      1777505990,
      1777505990,
      1777505990,
      1777505990,
      1777506050,
      1777506050,
      1777506050,
      1777506084,
      1777506084,
      1777506084,
      1777506084,
      1777506084,
      1777506170,
      1777506170,
      1777506170,
      1777506204,
      1777506230,
      1777506230,
      1777506264,
      1777506264,
      1777506291,
      1777506291,
      1777506324,
      1777506324,
      1777506411,
      1777506411,
      1777506411,
      1777506411,
      1777506411,
      1777506471,
      1777506471,
      1777506531,
      1777506531,
      1777506531,
      1777506531,
      1777506651,
      1777506651,
      1777506651
    ],
    "wof:geomhash": "7294724ff67ccf37175260ea24a31eba",
    "wof:id": 2031139883,
    "wof:repo": "sfomuseum-data-flights-2026-04"
  },
  "bbox": [
    -123.62972222222221,
    37.42444444444444,
    -122.13333333333334,
    47.61666666666667
  ],
  "geometry": {"coordinates":[[-122.30972222222222,47.46611111111111],[-122.3086111111111,47.48583333333333],[-122.3086111111111,47.48583333333333],[-122.3111111111111,47.54666666666667],[-122.3111111111111,47.54666666666667],[-122.3111111111111,47.54666666666667],[-122.35416666666666,47.599722222222226],[-122.35416666666666,47.599722222222226],[-122.35416666666666,47.599722222222226],[-122.35416666666666,47.599722222222226],[-122.41305555555556,47.61666666666667],[-122.41305555555556,47.61666666666667],[-122.41305555555556,47.61666666666667],[-122.41305555555556,47.61666666666667],[-122.46333333333334,47.61611111111111],[-122.46333333333334,47.61611111111111],[-122.46333333333334,47.61611111111111],[-122.81055555555555,47.39555555555555],[-122.81055555555555,47.39555555555555],[-122.81055555555555,47.39555555555555],[-122.81055555555555,47.39555555555555],[-122.81055555555555,47.39555555555555],[-122.92194444444445,47.32222222222222],[-122.92194444444445,47.32222222222222],[-122.92194444444445,47.32222222222222],[-123.03833333333333,47.244166666666665],[-123.03833333333333,47.244166666666665],[-123.03833333333333,47.244166666666665],[-123.03833333333333,47.244166666666665],[-123.03833333333333,47.244166666666665],[-123.39500000000001,46.708333333333336],[-123.39500000000001,46.708333333333336],[-123.39500000000001,46.708333333333336],[-123.39500000000001,46.708333333333336],[-123.39500000000001,46.708333333333336],[-123.39500000000001,46.708333333333336],[-123.38666666666667,46.43527777777778],[-123.38666666666667,46.43527777777778],[-123.38666666666667,46.43527777777778],[-123.38666666666667,46.43527777777778],[-123.38666666666667,46.43527777777778],[-123.37777777777777,46.155833333333334],[-123.37777777777777,46.155833333333334],[-123.37777777777777,46.155833333333334],[-123.37777777777777,46.155833333333334],[-123.37777777777777,46.155833333333334],[-123.37777777777777,46.155833333333334],[-123.3625,45.61333333333334],[-123.3625,45.61333333333334],[-123.3625,45.61333333333334],[-123.3625,45.61333333333334],[-123.3625,45.61333333333334],[-123.3625,45.61333333333334],[-123.3625,45.61333333333334],[-123.33694444444444,44.77472222222222],[-123.33694444444444,44.77472222222222],[-123.33694444444444,44.77472222222222],[-123.33694444444444,44.77472222222222],[-123.33694444444444,44.77472222222222],[-123.33694444444444,44.77472222222222],[-123.33305555555555,44.636944444444445],[-123.33305555555555,44.636944444444445],[-123.33305555555555,44.636944444444445],[-123.32944444444443,44.49888888888889],[-123.32944444444443,44.49888888888889],[-123.32944444444443,44.49888888888889],[-123.3236111111111,44.36083333333333],[-123.3236111111111,44.36083333333333],[-123.3236111111111,44.36083333333333],[-123.3236111111111,44.36083333333333],[-123.30111111111111,43.79388888888889],[-123.30111111111111,43.79388888888889],[-123.30111111111111,43.79388888888889],[-123.30111111111111,43.79388888888889],[-123.30111111111111,43.79388888888889],[-123.30111111111111,43.79388888888889],[-123.28444444444445,43.37638888888889],[-123.28444444444445,43.37638888888889],[-123.28166666666667,43.31083333333333],[-123.28166666666667,43.31083333333333],[-123.28166666666667,43.31083333333333],[-123.28166666666667,43.31083333333333],[-123.28166666666667,43.31083333333333],[-123.28166666666667,43.31083333333333],[-123.26333333333334,42.821111111111115],[-123.26333333333334,42.821111111111115],[-123.26333333333334,42.821111111111115],[-123.26333333333334,42.821111111111115],[-123.26333333333334,42.821111111111115],[-123.25805555555556,42.67777777777778],[-123.25805555555556,42.67777777777778],[-123.25805555555556,42.67777777777778],[-123.25805555555556,42.67777777777778],[-123.25805555555556,42.67777777777778],[-123.25277777777778,42.54083333333333],[-123.25277777777778,42.54083333333333],[-123.25277777777778,42.54083333333333],[-123.2425,42.26694444444444],[-123.2425,42.26694444444444],[-123.2425,42.26694444444444],[-123.2425,42.26694444444444],[-123.2425,42.26694444444444],[-123.23527777777778,42.07666666666667],[-123.23527777777778,42.07666666666667],[-123.23527777777778,42.07666666666667],[-123.23527777777778,42.07666666666667],[-123.23527777777778,42.07666666666667],[-123.23527777777778,42.07666666666667],[-123.23527777777778,42.07666666666667],[-123.22472222222223,41.774166666666666],[-123.22472222222223,41.774166666666666],[-123.22472222222223,41.774166666666666],[-123.22472222222223,41.774166666666666],[-123.2175,41.58416666666667],[-123.2175,41.58416666666667],[-123.2175,41.58416666666667],[-123.2175,41.58416666666667],[-123.2175,41.58416666666667],[-123.21000000000001,41.36611111111111],[-123.21000000000001,41.36611111111111],[-123.20777777777778,41.301944444444445],[-123.20777777777778,41.301944444444445],[-123.20777777777778,41.301944444444445],[-123.20777777777778,41.301944444444445],[-123.20777777777778,41.301944444444445],[-123.20333333333333,41.11027777777778],[-123.20333333333333,41.11027777777778],[-123.20333333333333,41.11027777777778],[-123.20222222222222,41.06194444444444],[-123.20222222222222,41.06194444444444],[-123.20027777777779,40.97916666666667],[-123.20027777777779,40.97916666666667],[-123.20027777777779,40.97916666666667],[-123.19888888888889,40.92972222222222],[-123.19888888888889,40.92972222222222],[-123.19888888888889,40.92972222222222],[-123.19888888888889,40.92972222222222],[-123.19194444444445,40.668055555555554],[-123.19194444444445,40.668055555555554],[-123.19194444444445,40.668055555555554],[-123.19194444444445,40.668055555555554],[-123.18972222222223,40.58888888888889],[-123.18972222222223,40.58888888888889],[-123.18666666666667,40.45944444444445],[-123.18666666666667,40.45944444444445],[-123.18666666666667,40.45944444444445],[-123.18666666666667,40.45944444444445],[-123.18694444444445,40.33083333333334],[-123.18694444444445,40.33083333333334],[-123.20527777777778,40.28055555555555],[-123.20527777777778,40.28055555555555],[-123.20527777777778,40.28055555555555],[-123.20527777777778,40.28055555555555],[-123.20527777777778,40.28055555555555],[-123.20527777777778,40.28055555555555],[-123.20527777777778,40.28055555555555],[-123.58722222222222,39.965],[-123.61638888888888,39.92388888888889],[-123.61638888888888,39.92388888888889],[-123.61638888888888,39.92388888888889],[-123.62972222222221,39.845],[-123.62972222222221,39.845],[-123.62972222222221,39.845],[-123.60666666666665,39.799166666666665],[-123.60666666666665,39.799166666666665],[-123.565,39.723888888888894],[-123.565,39.723888888888894],[-123.47444444444444,39.55722222222222],[-123.47444444444444,39.55722222222222],[-123.47444444444444,39.55722222222222],[-123.47444444444444,39.55722222222222],[-123.40861111111111,39.43472222222222],[-123.40861111111111,39.43472222222222],[-123.40861111111111,39.43472222222222],[-123.40861111111111,39.43472222222222],[-123.37027777777777,39.36277777777778],[-123.37027777777777,39.36277777777778],[-123.37027777777777,39.36277777777778],[-123.37027777777777,39.36277777777778],[-123.37027777777777,39.36277777777778],[-123.17472222222223,38.9975],[-123.17472222222223,38.9975],[-123.17472222222223,38.9975],[-123.17472222222223,38.9975],[-123.04833333333333,38.75944444444445],[-123.04833333333333,38.75944444444445],[-123.04833333333333,38.75944444444445],[-123.04833333333333,38.75944444444445],[-123.04833333333333,38.75944444444445],[-123.04833333333333,38.75944444444445],[-122.87138888888889,38.42333333333333],[-122.87138888888889,38.42333333333333],[-122.87138888888889,38.42333333333333],[-122.87138888888889,38.42333333333333],[-122.87138888888889,38.42333333333333],[-122.81444444444445,38.315],[-122.81444444444445,38.315],[-122.81444444444445,38.315],[-122.81444444444445,38.315],[-122.78333333333333,38.266666666666666],[-122.78333333333333,38.266666666666666],[-122.76305555555555,38.21027777777778],[-122.76305555555555,38.21027777777778],[-122.73333333333333,38.13333333333333],[-122.73333333333333,38.13333333333333],[-122.73333333333333,38.13333333333333],[-122.73333333333333,38.13333333333333],[-122.73333333333333,38.13333333333333],[-122.67333333333333,37.907777777777774],[-122.67333333333333,37.907777777777774],[-122.67333333333333,37.907777777777774],[-122.67333333333333,37.907777777777774],[-122.67333333333333,37.907777777777774],[-122.67333333333333,37.907777777777774],[-122.61666666666666,37.85],[-122.53333333333333,37.766666666666666],[-122.53333333333333,37.766666666666666],[-122.44694444444445,37.68583333333333],[-122.44694444444445,37.68583333333333],[-122.44694444444445,37.68583333333333],[-122.44694444444445,37.68583333333333],[-122.38722222222223,37.62972222222222],[-122.38722222222223,37.62972222222222],[-122.38722222222223,37.62972222222222],[-122.35,37.6],[-122.35,37.6],[-122.35,37.6],[-122.35,37.6],[-122.35,37.6],[-122.30444444444444,37.50277777777778],[-122.30444444444444,37.50277777777778],[-122.30444444444444,37.50277777777778],[-122.28333333333333,37.46666666666667],[-122.2538888888889,37.45027777777778],[-122.2538888888889,37.45027777777778],[-122.21666666666667,37.43333333333333],[-122.21666666666667,37.43333333333333],[-122.18083333333334,37.42444444444444],[-122.18083333333334,37.42444444444444],[-122.13333333333334,37.43333333333333],[-122.13333333333334,37.43333333333333],[-122.15527777777778,37.50694444444444],[-122.15527777777778,37.50694444444444],[-122.15527777777778,37.50694444444444],[-122.15527777777778,37.50694444444444],[-122.15527777777778,37.50694444444444],[-122.19972222222222,37.54694444444444],[-122.19972222222222,37.54694444444444],[-122.25805555555556,37.57194444444445],[-122.25805555555556,37.57194444444445],[-122.25805555555556,37.57194444444445],[-122.25805555555556,37.57194444444445],[-122.35194444444444,37.61138888888889],[-122.35194444444444,37.61138888888889],[-122.35194444444444,37.61138888888889]],"type":"LineString"}
}
