{
  "id": 2015351755,
  "type": "Feature",
  "properties": {
    "geom:area": 0,
    "geom:bbox": "-122.480000,29.980000,-95.340000,37.660000",
    "geom:latitude": 33.023750946513296,
    "geom:longitude": -109.36453221849625,
    "src:alt_label": "swim-route",
    "src:geom": "swim",
    "swim:geom": "route",
    "wof:geomhash": "61b7e2df1bf1d2bcf204ecf0d1814e45",
    "wof:id": 2015351755,
    "wof:repo": "sfomuseum-data-flights-2026-04"
  },
  "bbox": [
    -122.48,
    29.98,
    -95.34,
    37.66
  ],
  "geometry": {"coordinates":[[-122.38,37.62],[-122.48,37.66],[-122.48,37.66],[-122.48,37.65],[-122.47,37.65],[-122.42,37.61],[-122.41,37.6],[-122.37,37.58],[-122.43,37.54],[-122.44,37.54],[-122.47,37.52],[-122.43,37.49],[-122.43,37.49],[-122.41,37.48],[-122.4,37.48],[-122.4,37.46],[-122.4,37.45],[-122.39,37.42],[-122.39,37.42],[-122.36,37.4],[-122.34,37.4],[-122.32,37.39],[-122.3,37.38],[-122.13,37.32],[-122.11,37.32],[-122.09,37.31],[-121.97,37.22],[-121.9,37.18],[-121.84,37.13],[-121.72,37.05],[-121.71,37.04],[-121.63,36.98],[-121.52,36.91],[-121.47,36.87],[-121.45,36.85],[-121.36,36.79],[-121.29,36.74],[-121.24,36.7],[-121.17,36.65],[-121.04,36.55],[-120.95,36.49],[-120.87,36.44],[-120.65,36.29],[-120,35.85],[-119.96,35.82],[-119.4,35.42],[-118.97,35.12],[-118.04,34.43],[-118.03,34.42],[-117.95,34.41],[-117.68,34.35],[-117.42,34.3],[-117.33,34.28],[-116.8,34.17],[-116.48,34.1],[-116.4,34],[-116.39,33.98],[-115.09,33.75],[-114.23,33.58],[-114,33.53],[-113.71,33.47],[-110.63,32.67],[-109.77,32.44],[-108.2,32.34],[-106.22,32.18],[-105.71,32.13],[-103.67,31.92],[-103.24,31.87],[-101.39,31.55],[-100.45,31.37],[-99.88,31.23],[-98.84,30.96],[-97.94,30.84],[-97.84,30.82],[-97.51,30.77],[-97.26,30.74],[-97.21,30.73],[-97.12,30.71],[-97.05,30.7],[-97.01,30.7],[-96.99,30.7],[-96.9,30.68],[-96.71,30.65],[-96.54,30.62],[-96.42,30.61],[-96.27,30.51],[-96.26,30.51],[-96.15,30.43],[-96.06,30.37],[-96.05,30.37],[-96.04,30.36],[-95.98,30.21],[-95.96,30.14],[-95.95,30.14],[-95.8,30.1],[-95.61,30.05],[-95.55,30.04],[-95.52,30.03],[-95.43,30.01],[-95.34,29.98]],"type":"LineString"}
}
