{
  "id": 2015211559,
  "type": "Feature",
  "properties": {
    "geom:area": 0,
    "geom:bbox": "-122.357750,37.491390,-121.259080,37.613710",
    "geom:latitude": 37.542418219451896,
    "geom:longitude": -121.81547312682707,
    "src:alt_label": "swim-approach",
    "src:geom": "swim",
    "swim:elevations": [
      4722,
      4567,
      4131,
      4092,
      3607,
      3262,
      3259,
      3060,
      2924,
      2785,
      2560,
      2406,
      2157,
      2073,
      1827,
      1765,
      1496,
      1471,
      1369,
      1301,
      1251,
      1097,
      935,
      903,
      644,
      534,
      364,
      278,
      211,
      34
    ],
    "swim:geom": "approach",
    "swim:timestamps": [
      1775436778,
      1775436793,
      1775436838,
      1775436841,
      1775436890,
      1775436927,
      1775436930,
      1775436986,
      1775437009,
      1775437027,
      1775437056,
      1775437092,
      1775437138,
      1775437164,
      1775437196,
      1775437206,
      1775437258,
      1775437266,
      1775437287,
      1775437300,
      1775437318,
      1775437347,
      1775437378,
      1775437383,
      1775437434,
      1775437455,
      1775437495,
      1775437516,
      1775437530,
      1775437580
    ],
    "wof:geomhash": "19627e5300d1846f94277db8448dd090",
    "wof:id": 2015211559,
    "wof:repo": "sfomuseum-data-flights-2026-04"
  },
  "bbox": [
    -122.35775,
    37.49139,
    -121.25908,
    37.61371
  ],
  "geometry": {"coordinates":[[-121.25908,37.59315],[-121.28931,37.58915],[-121.37925,37.57951],[-121.38517,37.57884],[-121.48057,37.5678],[-121.55332,37.55914],[-121.55911,37.55846],[-121.65635,37.5433],[-121.69421,37.53435],[-121.72372,37.52737],[-121.76892,37.51659],[-121.82179,37.50389],[-121.88511,37.49139],[-121.92121,37.49337],[-121.96331,37.49571],[-121.9772,37.49649],[-122.04654,37.50083],[-122.05652,37.50144],[-122.08398,37.50296],[-122.09902,37.50546],[-122.11915,37.51301],[-122.14885,37.52586],[-122.18115,37.53952],[-122.18594,37.5415],[-122.23598,37.5626],[-122.25708,37.57146],[-122.29169,37.58605],[-122.30817,37.59296],[-122.31921,37.59761],[-122.35775,37.61371]],"type":"LineString"}
}
