{
  "id": 2031104239,
  "type": "Feature",
  "properties": {
    "geom:area": 0,
    "geom:bbox": "-122.404690,37.632270,-121.303830,37.945650",
    "geom:latitude": 37.80972905568963,
    "geom:longitude": -121.86735480101905,
    "src:alt_label": "swim-takeoff",
    "src:geom": "swim",
    "swim:elevations": [
      414,
      501,
      682,
      1029,
      1133,
      1589,
      2071,
      2918,
      3176,
      3342,
      3386,
      3654,
      4088,
      4229,
      4732,
      4952,
      5054,
      5508,
      5657,
      5908,
      6135
    ],
    "swim:geom": "takeoff",
    "swim:timestamps": [
      1777043607,
      1777043616,
      1777043650,
      1777043697,
      1777043707,
      1777043738,
      1777043769,
      1777043841,
      1777043867,
      1777043903,
      1777043912,
      1777043954,
      1777043995,
      1777044010,
      1777044058,
      1777044076,
      1777044092,
      1777044139,
      1777044152,
      1777044181,
      1777044223
    ],
    "wof:geomhash": "b34f9f96c02c0a2f10a4429900e79397",
    "wof:id": 2031104239,
    "wof:repo": "sfomuseum-data-flights-2026-04"
  },
  "bbox": [
    -122.40469,
    37.63227,
    -121.30383,
    37.94565
  ],
  "geometry": {"coordinates":[[-122.40112,37.63227],[-122.40469,37.63791],[-122.39107,37.66342],[-122.32974,37.68063],[-122.31385,37.68482],[-122.26925,37.69863],[-122.22266,37.71418],[-122.11789,37.75895],[-122.07379,37.76845],[-122.0075,37.7837],[-121.99153,37.78739],[-121.90519,37.80746],[-121.81567,37.82831],[-121.783,37.83591],[-121.6788,37.86],[-121.63785,37.86937],[-121.60281,37.87737],[-121.49738,37.90145],[-121.46716,37.90837],[-121.40069,37.9235],[-121.30383,37.94565]],"type":"LineString"}
}
