{
  "id": 2015207659,
  "type": "Feature",
  "properties": {
    "geom:area": 0,
    "geom:bbox": "-122.412160,37.631350,-121.300650,37.912770",
    "geom:latitude": 37.82095092783972,
    "geom:longitude": -121.87616267593043,
    "src:alt_label": "swim-takeoff",
    "src:geom": "swim",
    "swim:elevations": [
      255,
      562,
      735,
      1363,
      1705,
      1829,
      1979,
      2599,
      2845,
      3246,
      3712,
      3943,
      4051,
      4357,
      4869,
      5070,
      5524,
      5840,
      6019,
      6193,
      6451,
      6739,
      7019,
      7102,
      7260,
      7600,
      7648
    ],
    "swim:geom": "takeoff",
    "swim:timestamps": [
      1775294121,
      1775294149,
      1775294167,
      1775294245,
      1775294273,
      1775294283,
      1775294295,
      1775294335,
      1775294350,
      1775294378,
      1775294413,
      1775294434,
      1775294443,
      1775294471,
      1775294513,
      1775294529,
      1775294576,
      1775294607,
      1775294628,
      1775294647,
      1775294678,
      1775294711,
      1775294745,
      1775294757,
      1775294776,
      1775294818,
      1775294824
    ],
    "wof:geomhash": "93082d8b1afba64fc91719a6659f0545",
    "wof:id": 2015207659,
    "wof:repo": "sfomuseum-data-flights-2026-04"
  },
  "bbox": [
    -122.41216,
    37.63135,
    -121.30065,
    37.91277
  ],
  "geometry": {"coordinates":[[-122.40409,37.63135],[-122.41216,37.65253],[-122.3975,37.66128],[-122.30804,37.68712],[-122.26699,37.70039],[-122.2533,37.70482],[-122.23546,37.71077],[-122.17705,37.73683],[-122.15638,37.74751],[-122.11777,37.76714],[-122.06899,37.7926],[-122.03801,37.80869],[-122.02527,37.81524],[-121.97934,37.8309],[-121.90509,37.84426],[-121.87627,37.84962],[-121.79238,37.86509],[-121.73629,37.87556],[-121.69777,37.88267],[-121.66026,37.88966],[-121.59989,37.90096],[-121.53586,37.91277],[-121.46649,37.91239],[-121.44166,37.91108],[-121.40208,37.90888],[-121.31289,37.90361],[-121.30065,37.90286]],"type":"LineString"}
}
