{
  "id": 2031121175,
  "type": "Feature",
  "properties": {
    "geom:area": 0,
    "geom:bbox": "-122.559444,32.696667,-116.964444,37.663056",
    "geom:latitude": 34.98410578604229,
    "geom:longitude": -119.96844399211443,
    "src:alt_label": "swim-path",
    "src:geom": "swim",
    "swim:altitudes": [
      "010",
      "010",
      "010",
      "051",
      "051",
      "051",
      "169",
      "169",
      "169",
      "222",
      "222",
      "222",
      "246",
      "304",
      "304",
      "304",
      "304",
      "341",
      "341",
      "357",
      "357",
      "371",
      "371",
      "371",
      "390C",
      "390C",
      "390C",
      "390C",
      "390C",
      "390C",
      "390C",
      "390C",
      "390C",
      "390C",
      "390C",
      "390C",
      "390C",
      "390C",
      "390C",
      "390C",
      "390C",
      "390C",
      "390C",
      "390C",
      "390C",
      "390C",
      "390C",
      "390C",
      "390C",
      "390C",
      "390C",
      "390C",
      "390C",
      "390C",
      "390C",
      "390C",
      "390C",
      "390C",
      "390",
      "390",
      "390",
      "390",
      "390",
      "349",
      "349",
      "349",
      "349",
      "349",
      "248",
      "248",
      "216",
      "216",
      "216",
      "216",
      "189",
      "189",
      "189",
      "104",
      "104",
      "104",
      "104",
      "104",
      "090",
      "090",
      "090",
      "087",
      "087",
      "087",
      "077",
      "075",
      "075",
      "057",
      "057",
      "051",
      "051",
      "049",
      "049",
      "040",
      "040",
      "040",
      "028",
      "021",
      "021",
      "021",
      "021",
      "010",
      "010",
      "001",
      "001",
      "001",
      "001",
      "001"
    ],
    "swim:geom": "path",
    "swim:speeds": [
      151,
      151,
      151,
      241,
      241,
      241,
      376,
      376,
      376,
      409,
      409,
      409,
      443,
      480,
      480,
      480,
      480,
      476,
      476,
      476,
      476,
      475,
      475,
      475,
      473,
      473,
      473,
      473,
      474,
      474,
      474,
      474,
      474,
      474,
      483,
      481,
      481,
      481,
      481,
      482,
      482,
      482,
      482,
      482,
      483,
      483,
      485,
      485,
      489,
      489,
      489,
      492,
      492,
      497,
      497,
      497,
      497,
      497,
      498,
      498,
      498,
      498,
      498,
      468,
      468,
      468,
      468,
      468,
      501,
      501,
      475,
      475,
      475,
      475,
      447,
      447,
      447,
      359,
      359,
      359,
      359,
      359,
      284,
      284,
      284,
      286,
      286,
      286,
      274,
      279,
      279,
      254,
      254,
      237,
      237,
      238,
      238,
      214,
      214,
      214,
      203,
      165,
      165,
      165,
      165,
      141,
      141,
      137,
      137,
      137,
      137,
      137
    ],
    "swim:timestamps": [
      1777262727,
      1777262727,
      1777262727,
      1777262847,
      1777262847,
      1777262847,
      1777263087,
      1777263087,
      1777263087,
      1777263207,
      1777263207,
      1777263207,
      1777263267,
      1777263447,
      1777263447,
      1777263447,
      1777263447,
      1777263567,
      1777263567,
      1777263627,
      1777263627,
      1777263687,
      1777263687,
      1777263687,
      1777263988,
      1777263988,
      1777263988,
      1777263988,
      1777264108,
      1777264108,
      1777264108,
      1777264108,
      1777264108,
      1777264108,
      1777264288,
      1777264349,
      1777264349,
      1777264349,
      1777264349,
      1777264529,
      1777264529,
      1777264529,
      1777264529,
      1777264529,
      1777264649,
      1777264649,
      1777264709,
      1777264709,
      1777264769,
      1777264769,
      1777264769,
      1777264829,
      1777264829,
      1777264950,
      1777264950,
      1777264950,
      1777264950,
      1777264950,
      1777265250,
      1777265250,
      1777265250,
      1777265250,
      1777265250,
      1777265430,
      1777265430,
      1777265430,
      1777265430,
      1777265430,
      1777265551,
      1777265551,
      1777265611,
      1777265611,
      1777265611,
      1777265611,
      1777265671,
      1777265671,
      1777265671,
      1777265911,
      1777265911,
      1777265911,
      1777265911,
      1777265911,
      1777266014,
      1777266014,
      1777266014,
      1777266031,
      1777266031,
      1777266031,
      1777266074,
      1777266091,
      1777266091,
      1777266212,
      1777266212,
      1777266254,
      1777266254,
      1777266272,
      1777266272,
      1777266314,
      1777266314,
      1777266314,
      1777266392,
      1777266428,
      1777266428,
      1777266428,
      1777266428,
      1777266512,
      1777266512,
      1777266572,
      1777266572,
      1777266572,
      1777266572,
      1777266572
    ],
    "wof:geomhash": "3d562efd0d9367e36efb8e8c0f978cca",
    "wof:id": 2031121175,
    "wof:repo": "sfomuseum-data-flights-2026-04"
  },
  "bbox": [
    -122.55944444444444,
    32.696666666666665,
    -116.96444444444445,
    37.66305555555555
  ],
  "geometry": {"coordinates":[[-122.3938888888889,37.62916666666667],[-122.3938888888889,37.62916666666667],[-122.3938888888889,37.62916666666667],[-122.5213888888889,37.66305555555555],[-122.5213888888889,37.66305555555555],[-122.5213888888889,37.66305555555555],[-122.55055555555555,37.323888888888895],[-122.55055555555555,37.323888888888895],[-122.55055555555555,37.323888888888895],[-122.55944444444444,37.103611111111114],[-122.55944444444444,37.103611111111114],[-122.55944444444444,37.103611111111114],[-122.48833333333333,36.99888888888889],[-122.18361111111112,36.68694444444444],[-122.18361111111112,36.68694444444444],[-122.18361111111112,36.68694444444444],[-122.18361111111112,36.68694444444444],[-121.98111111111112,36.47777777777778],[-121.98111111111112,36.47777777777778],[-121.87944444444443,36.37222222222222],[-121.87944444444443,36.37222222222222],[-121.78,36.26861111111111],[-121.78,36.26861111111111],[-121.78,36.26861111111111],[-121.26694444444445,35.7275],[-121.26694444444445,35.7275],[-121.26694444444445,35.7275],[-121.26694444444445,35.7275],[-121.08194444444445,35.532777777777774],[-121.08194444444445,35.532777777777774],[-121.08194444444445,35.532777777777774],[-121.08194444444445,35.532777777777774],[-121.08194444444445,35.532777777777774],[-121.08194444444445,35.532777777777774],[-120.68472222222222,35.29277777777778],[-120.55222222222221,35.21527777777778],[-120.55222222222221,35.21527777777778],[-120.55222222222221,35.21527777777778],[-120.55222222222221,35.21527777777778],[-120.15138888888889,34.978611111111114],[-120.15138888888889,34.978611111111114],[-120.15138888888889,34.978611111111114],[-120.15138888888889,34.978611111111114],[-120.15138888888889,34.978611111111114],[-119.88472222222222,34.82],[-119.88472222222222,34.82],[-119.75111111111111,34.73972222222222],[-119.75111111111111,34.73972222222222],[-119.61749999999999,34.65888888888889],[-119.61749999999999,34.65888888888889],[-119.61749999999999,34.65888888888889],[-119.49083333333333,34.5825],[-119.49083333333333,34.5825],[-119.22027777777778,34.41861111111111],[-119.22027777777778,34.41861111111111],[-119.22027777777778,34.41861111111111],[-119.22027777777778,34.41861111111111],[-119.22027777777778,34.41861111111111],[-118.54583333333333,34.00388888888889],[-118.54583333333333,34.00388888888889],[-118.54583333333333,34.00388888888889],[-118.54583333333333,34.00388888888889],[-118.54583333333333,34.00388888888889],[-118.17222222222223,33.73222222222223],[-118.17222222222223,33.73222222222223],[-118.17222222222223,33.73222222222223],[-118.17222222222223,33.73222222222223],[-118.17222222222223,33.73222222222223],[-117.9263888888889,33.545833333333334],[-117.9263888888889,33.545833333333334],[-117.81694444444445,33.45],[-117.81694444444445,33.45],[-117.81694444444445,33.45],[-117.81694444444445,33.45],[-117.71583333333334,33.355555555555554],[-117.71583333333334,33.355555555555554],[-117.71583333333334,33.355555555555554],[-117.37694444444443,33.00944444444445],[-117.37694444444443,33.00944444444445],[-117.37694444444443,33.00944444444445],[-117.37694444444443,33.00944444444445],[-117.37694444444443,33.00944444444445],[-117.26666666666667,32.88333333333333],[-117.26666666666667,32.88333333333333],[-117.26666666666667,32.88333333333333],[-117.26222222222222,32.871944444444445],[-117.26222222222222,32.871944444444445],[-117.26222222222222,32.871944444444445],[-117.21666666666667,32.81666666666667],[-117.20555555555556,32.81166666666666],[-117.20555555555556,32.81166666666666],[-117.0363888888889,32.77222222222222],[-117.0363888888889,32.77222222222222],[-116.98333333333333,32.75],[-116.98333333333333,32.75],[-116.96444444444445,32.748333333333335],[-116.96444444444445,32.748333333333335],[-116.96666666666667,32.7],[-116.96666666666667,32.7],[-116.96666666666667,32.7],[-117.0375,32.696666666666665],[-117.08333333333333,32.7],[-117.08333333333333,32.7],[-117.08333333333333,32.7],[-117.08333333333333,32.7],[-117.13527777777779,32.72027777777778],[-117.13527777777779,32.72027777777778],[-117.17805555555556,32.73083333333334],[-117.17805555555556,32.73083333333334],[-117.17805555555556,32.73083333333334],[-117.17805555555556,32.73083333333334],[-117.17805555555556,32.73083333333334]],"type":"LineString"}
}
