{
  "id": 2031132775,
  "type": "Feature",
  "properties": {
    "geom:area": 0,
    "geom:bbox": "-122.282830,37.491890,-121.301530,37.588020",
    "geom:latitude": 37.53596540368082,
    "geom:longitude": -121.79733682558219,
    "src:alt_label": "swim-approach",
    "src:geom": "swim",
    "swim:elevations": [
      4357,
      4116,
      3933,
      3617,
      3491,
      3280,
      3080,
      3048,
      3011,
      2830,
      2597,
      2452,
      2310,
      2113,
      1984,
      1905,
      1838,
      1777,
      1763,
      1463,
      1280,
      1176,
      950,
      768,
      604,
      578,
      417
    ],
    "swim:geom": "approach",
    "swim:timestamps": [
      1777396429,
      1777396457,
      1777396483,
      1777396518,
      1777396532,
      1777396558,
      1777396585,
      1777396591,
      1777396633,
      1777396665,
      1777396701,
      1777396730,
      1777396757,
      1777396795,
      1777396823,
      1777396838,
      1777396851,
      1777396886,
      1777396892,
      1777396938,
      1777396971,
      1777396998,
      1777397033,
      1777397063,
      1777397095,
      1777397102,
      1777397137
    ],
    "wof:geomhash": "f07737a8eedafa04fe81c92e46181d9e",
    "wof:id": 2031132775,
    "wof:repo": "sfomuseum-data-flights-2026-04"
  },
  "bbox": [
    -122.28283,
    37.49189,
    -121.30153,
    37.58802
  ],
  "geometry": {"coordinates":[[-121.30153,37.58802],[-121.35111,37.58255],[-121.39646,37.57749],[-121.45652,37.57047],[-121.47939,37.56783],[-121.52323,37.56272],[-121.57002,37.5573],[-121.57993,37.55612],[-121.6495,37.54491],[-121.69991,37.53286],[-121.75123,37.52052],[-121.79107,37.51106],[-121.82853,37.50203],[-121.879,37.49189],[-121.91795,37.49306],[-121.93886,37.4943],[-121.95644,37.4954],[-122.00285,37.4983],[-122.01074,37.49874],[-122.07182,37.50219],[-122.11394,37.51103],[-122.14608,37.52462],[-122.18554,37.54137],[-122.21753,37.55478],[-122.24868,37.56792],[-122.25498,37.57062],[-122.28283,37.5823]],"type":"LineString"}
}
