{
  "id": 2031145233,
  "type": "Feature",
  "properties": {
    "geom:area": 0,
    "geom:bbox": "-122.533889,33.279444,-111.800000,37.666667",
    "geom:latitude": 34.83001964700193,
    "geom:longitude": -117.46356209777576,
    "src:alt_label": "swim-path",
    "src:geom": "swim",
    "swim:altitudes": [
      "007",
      "007",
      "007",
      "028",
      "028",
      "028",
      "038",
      "038",
      "038",
      "051",
      "051",
      "051",
      "086",
      "086",
      "086",
      "086",
      "174",
      "174",
      "174",
      "172",
      "172",
      "172",
      "172",
      "172",
      "242",
      "242",
      "242",
      "242",
      "242",
      "242",
      "242",
      "242",
      "332",
      "332",
      "347",
      "347",
      "347",
      "347",
      "347",
      "347",
      "347",
      "347",
      "390C",
      "390C",
      "390C",
      "390C",
      "390C",
      "390C",
      "390C",
      "390C",
      "390C",
      "390C",
      "390C",
      "390C",
      "390C",
      "390C",
      "390C",
      "390C",
      "390C",
      "390C",
      "390C",
      "390C",
      "390C",
      "390C",
      "390C",
      "390C",
      "390C",
      "390C",
      "390C",
      "390C",
      "390C",
      "390C",
      "390C",
      "390C",
      "390C",
      "390C",
      "390C",
      "390C",
      "390C",
      "390C",
      "390C",
      "390C",
      "390C",
      "390C",
      "390C",
      "390C",
      "390C",
      "390C",
      "390C",
      "390C",
      "390C",
      "390C",
      "390C",
      "390C",
      "390C",
      "390C",
      "390C",
      "390C",
      "390C",
      "390C",
      "390C",
      "390C",
      "390C",
      "390C",
      "390C",
      "390C",
      "390C",
      "390C",
      "390C",
      "390C",
      "390C",
      "390C",
      "390C",
      "390C",
      "390C",
      "390C",
      "390C",
      "390C",
      "390C",
      "390C",
      "390C",
      "390C",
      "390C",
      "390C",
      "390C",
      "390C",
      "390C",
      "390C",
      "390C",
      "390C",
      "390C",
      "390C",
      "390C",
      "390C",
      "390C",
      "390C",
      "390C",
      "390C",
      "390C",
      "390C",
      "390C",
      "390C",
      "390C",
      "390C",
      "390C",
      "390C",
      "390C",
      "390C",
      "390C",
      "390C",
      "390C",
      "390C",
      "390C",
      "390C",
      "390C",
      "390C",
      "390C",
      "390C",
      "390C",
      "390C",
      "390C",
      "363",
      "363",
      "363",
      "363",
      "363",
      "363",
      "363",
      "250",
      "250",
      "250",
      "250",
      "229",
      "229",
      "229",
      "229",
      "229",
      "229",
      "229",
      "184",
      "172",
      "172",
      "172",
      "172",
      "171",
      "171",
      "151",
      "151",
      "148",
      "148",
      "138",
      "121",
      "121",
      "121",
      "111",
      "111",
      "111",
      "096",
      "096",
      "092",
      "092",
      "092",
      "073",
      "073",
      "073",
      "073",
      "062",
      "058",
      "058",
      "058",
      "058",
      "058",
      "036",
      "036",
      "035",
      "030",
      "030",
      "030",
      "030",
      "030"
    ],
    "swim:geom": "path",
    "swim:speeds": [
      146,
      146,
      146,
      209,
      209,
      209,
      218,
      218,
      218,
      269,
      269,
      269,
      287,
      287,
      287,
      287,
      382,
      382,
      382,
      363,
      363,
      363,
      363,
      363,
      431,
      431,
      431,
      431,
      431,
      431,
      431,
      431,
      483,
      483,
      481,
      481,
      481,
      481,
      481,
      481,
      481,
      481,
      462,
      462,
      462,
      462,
      462,
      462,
      462,
      462,
      462,
      462,
      462,
      462,
      462,
      461,
      461,
      461,
      461,
      460,
      460,
      460,
      460,
      460,
      460,
      460,
      460,
      460,
      457,
      457,
      457,
      457,
      457,
      457,
      456,
      456,
      456,
      456,
      455,
      455,
      455,
      455,
      455,
      455,
      455,
      455,
      461,
      461,
      461,
      461,
      461,
      463,
      463,
      463,
      463,
      465,
      465,
      465,
      467,
      467,
      467,
      467,
      466,
      466,
      466,
      466,
      466,
      470,
      470,
      470,
      470,
      470,
      470,
      470,
      472,
      472,
      472,
      472,
      472,
      509,
      509,
      509,
      509,
      509,
      509,
      509,
      511,
      511,
      511,
      511,
      511,
      511,
      513,
      513,
      513,
      513,
      513,
      516,
      516,
      516,
      518,
      518,
      518,
      518,
      518,
      518,
      519,
      519,
      519,
      519,
      519,
      519,
      519,
      519,
      514,
      514,
      514,
      514,
      514,
      514,
      514,
      521,
      521,
      521,
      521,
      521,
      521,
      521,
      461,
      461,
      461,
      461,
      447,
      447,
      447,
      447,
      447,
      447,
      447,
      397,
      389,
      389,
      389,
      389,
      390,
      390,
      344,
      344,
      345,
      345,
      334,
      327,
      327,
      327,
      314,
      314,
      314,
      303,
      303,
      268,
      268,
      268,
      246,
      246,
      246,
      246,
      244,
      247,
      247,
      247,
      247,
      247,
      224,
      224,
      228,
      187,
      187,
      187,
      187,
      187
    ],
    "swim:timestamps": [
      1777489053,
      1777489053,
      1777489053,
      1777489131,
      1777489131,
      1777489131,
      1777489145,
      1777489145,
      1777489145,
      1777489191,
      1777489191,
      1777489191,
      1777489251,
      1777489251,
      1777489251,
      1777489251,
      1777489431,
      1777489431,
      1777489431,
      1777489433,
      1777489433,
      1777489433,
      1777489433,
      1777489433,
      1777489613,
      1777489613,
      1777489613,
      1777489613,
      1777489613,
      1777489613,
      1777489613,
      1777489613,
      1777489912,
      1777489912,
      1777489974,
      1777489974,
      1777489974,
      1777489974,
      1777489974,
      1777489974,
      1777489974,
      1777489974,
      1777490154,
      1777490154,
      1777490154,
      1777490154,
      1777490154,
      1777490154,
      1777490334,
      1777490334,
      1777490334,
      1777490334,
      1777490334,
      1777490334,
      1777490334,
      1777490395,
      1777490395,
      1777490395,
      1777490395,
      1777490455,
      1777490455,
      1777490465,
      1777490515,
      1777490515,
      1777490515,
      1777490515,
      1777490515,
      1777490515,
      1777490635,
      1777490635,
      1777490635,
      1777490645,
      1777490645,
      1777490645,
      1777490695,
      1777490695,
      1777490695,
      1777490705,
      1777490755,
      1777490755,
      1777490765,
      1777490815,
      1777490815,
      1777490815,
      1777490815,
      1777490815,
      1777490946,
      1777490946,
      1777490946,
      1777490946,
      1777490946,
      1777491006,
      1777491006,
      1777491006,
      1777491006,
      1777491056,
      1777491056,
      1777491056,
      1777491126,
      1777491126,
      1777491126,
      1777491126,
      1777491176,
      1777491176,
      1777491176,
      1777491176,
      1777491176,
      1777491416,
      1777491416,
      1777491416,
      1777491416,
      1777491416,
      1777491416,
      1777491416,
      1777491536,
      1777491536,
      1777491536,
      1777491536,
      1777491536,
      1777491596,
      1777491596,
      1777491596,
      1777491596,
      1777491596,
      1777491596,
      1777491596,
      1777491897,
      1777491897,
      1777491897,
      1777491897,
      1777491897,
      1777491897,
      1777491957,
      1777491957,
      1777491957,
      1777491957,
      1777491957,
      1777492077,
      1777492077,
      1777492077,
      1777492137,
      1777492137,
      1777492137,
      1777492137,
      1777492137,
      1777492137,
      1777492318,
      1777492318,
      1777492318,
      1777492318,
      1777492318,
      1777492318,
      1777492318,
      1777492318,
      1777492502,
      1777492502,
      1777492502,
      1777492502,
      1777492502,
      1777492502,
      1777492502,
      1777492678,
      1777492678,
      1777492678,
      1777492678,
      1777492678,
      1777492678,
      1777492678,
      1777493103,
      1777493103,
      1777493103,
      1777493103,
      1777493219,
      1777493219,
      1777493219,
      1777493219,
      1777493219,
      1777493219,
      1777493219,
      1777493466,
      1777493508,
      1777493508,
      1777493508,
      1777493508,
      1777493524,
      1777493524,
      1777493622,
      1777493622,
      1777493644,
      1777493644,
      1777493682,
      1777493764,
      1777493764,
      1777493764,
      1777493802,
      1777493802,
      1777493802,
      1777493884,
      1777493884,
      1777493923,
      1777493923,
      1777493923,
      1777494048,
      1777494048,
      1777494048,
      1777494048,
      1777494103,
      1777494122,
      1777494122,
      1777494122,
      1777494122,
      1777494122,
      1777494228,
      1777494228,
      1777494242,
      1777494289,
      1777494289,
      1777494289,
      1777494289,
      1777494289
    ],
    "wof:geomhash": "fee5deeb0fdff1da30a2a1efdddf8dec",
    "wof:id": 2031145233,
    "wof:repo": "sfomuseum-data-flights-2026-04"
  },
  "bbox": [
    -122.53388888888888,
    33.279444444444444,
    -111.8,
    37.666666666666664
  ],
  "geometry": {"coordinates":[[-122.38333333333334,37.61666666666667],[-122.38333333333334,37.61666666666667],[-122.38333333333334,37.61666666666667],[-122.4538888888889,37.65222222222222],[-122.4538888888889,37.65222222222222],[-122.4538888888889,37.65222222222222],[-122.48333333333333,37.666666666666664],[-122.48333333333333,37.666666666666664],[-122.48333333333333,37.666666666666664],[-122.53388888888888,37.65555555555555],[-122.53388888888888,37.65555555555555],[-122.53388888888888,37.65555555555555],[-122.52,37.58111111111111],[-122.52,37.58111111111111],[-122.52,37.58111111111111],[-122.52,37.58111111111111],[-122.28611111111111,37.36833333333333],[-122.28611111111111,37.36833333333333],[-122.28611111111111,37.36833333333333],[-122.29194444444444,37.37555555555556],[-122.29194444444444,37.37555555555556],[-122.29194444444444,37.37555555555556],[-122.29194444444444,37.37555555555556],[-122.29194444444444,37.37555555555556],[-121.94944444444445,37.154444444444444],[-121.94944444444445,37.154444444444444],[-121.94944444444445,37.154444444444444],[-121.94944444444445,37.154444444444444],[-121.94944444444445,37.154444444444444],[-121.94944444444445,37.154444444444444],[-121.94944444444445,37.154444444444444],[-121.94944444444445,37.154444444444444],[-121.31527777777778,36.73277777777778],[-121.31527777777778,36.73277777777778],[-121.19027777777778,36.65361111111111],[-121.19027777777778,36.65361111111111],[-121.19027777777778,36.65361111111111],[-121.19027777777778,36.65361111111111],[-121.19027777777778,36.65361111111111],[-121.19027777777778,36.65361111111111],[-121.19027777777778,36.65361111111111],[-121.19027777777778,36.65361111111111],[-120.81777777777778,36.400555555555556],[-120.81777777777778,36.400555555555556],[-120.81777777777778,36.400555555555556],[-120.81777777777778,36.400555555555556],[-120.81777777777778,36.400555555555556],[-120.81777777777778,36.400555555555556],[-120.44944444444445,36.153055555555554],[-120.44944444444445,36.153055555555554],[-120.44944444444445,36.153055555555554],[-120.44944444444445,36.153055555555554],[-120.44944444444445,36.153055555555554],[-120.44944444444445,36.153055555555554],[-120.44944444444445,36.153055555555554],[-120.32944444444443,36.07194444444445],[-120.32944444444443,36.07194444444445],[-120.32944444444443,36.07194444444445],[-120.32944444444443,36.07194444444445],[-120.20833333333334,35.989444444444445],[-120.20833333333334,35.989444444444445],[-120.17972222222222,35.97],[-120.08666666666666,35.906388888888884],[-120.08666666666666,35.906388888888884],[-120.08666666666666,35.906388888888884],[-120.08666666666666,35.906388888888884],[-120.08666666666666,35.906388888888884],[-120.08666666666666,35.906388888888884],[-119.84722222222221,35.74],[-119.84722222222221,35.74],[-119.84722222222221,35.74],[-119.82055555555556,35.721111111111114],[-119.82055555555556,35.721111111111114],[-119.82055555555556,35.721111111111114],[-119.72972222222222,35.65694444444444],[-119.72972222222222,35.65694444444444],[-119.72972222222222,35.65694444444444],[-119.70305555555557,35.63805555555555],[-119.6111111111111,35.57277777777778],[-119.6111111111111,35.57277777777778],[-119.58527777777778,35.55472222222222],[-119.49444444444444,35.49],[-119.49444444444444,35.49],[-119.49444444444444,35.49],[-119.49444444444444,35.49],[-119.49444444444444,35.49],[-119.23055555555555,35.301944444444445],[-119.23055555555555,35.301944444444445],[-119.23055555555555,35.301944444444445],[-119.23055555555555,35.301944444444445],[-119.23055555555555,35.301944444444445],[-119.11194444444443,35.21638888888889],[-119.11194444444443,35.21638888888889],[-119.11194444444443,35.21638888888889],[-119.11194444444443,35.21638888888889],[-119.01861111111111,35.149166666666666],[-119.01861111111111,35.149166666666666],[-119.01861111111111,35.149166666666666],[-118.87166666666666,35.04277777777778],[-118.87166666666666,35.04277777777778],[-118.87166666666666,35.04277777777778],[-118.87166666666666,35.04277777777778],[-118.78194444444445,34.97777777777778],[-118.78194444444445,34.97777777777778],[-118.78194444444445,34.97777777777778],[-118.78194444444445,34.97777777777778],[-118.78194444444445,34.97777777777778],[-118.30416666666666,34.62777777777778],[-118.30416666666666,34.62777777777778],[-118.30416666666666,34.62777777777778],[-118.30416666666666,34.62777777777778],[-118.30416666666666,34.62777777777778],[-118.30416666666666,34.62777777777778],[-118.30416666666666,34.62777777777778],[-118.06777777777778,34.453611111111115],[-118.06777777777778,34.453611111111115],[-118.06777777777778,34.453611111111115],[-118.06777777777778,34.453611111111115],[-118.06777777777778,34.453611111111115],[-117.91805555555555,34.39694444444444],[-117.91805555555555,34.39694444444444],[-117.91805555555555,34.39694444444444],[-117.91805555555555,34.39694444444444],[-117.91805555555555,34.39694444444444],[-117.91805555555555,34.39694444444444],[-117.91805555555555,34.39694444444444],[-117.10027777777778,34.19833333333333],[-117.10027777777778,34.19833333333333],[-117.10027777777778,34.19833333333333],[-117.10027777777778,34.19833333333333],[-117.10027777777778,34.19833333333333],[-117.10027777777778,34.19833333333333],[-116.93361111111112,34.157222222222224],[-116.93361111111112,34.157222222222224],[-116.93361111111112,34.157222222222224],[-116.93361111111112,34.157222222222224],[-116.93361111111112,34.157222222222224],[-116.61083333333333,34.07666666666667],[-116.61083333333333,34.07666666666667],[-116.61083333333333,34.07666666666667],[-116.44194444444445,34.03444444444444],[-116.44194444444445,34.03444444444444],[-116.44194444444445,34.03444444444444],[-116.44194444444445,34.03444444444444],[-116.44194444444445,34.03444444444444],[-116.44194444444445,34.03444444444444],[-115.94277777777778,33.90694444444444],[-115.94277777777778,33.90694444444444],[-115.94277777777778,33.90694444444444],[-115.94277777777778,33.90694444444444],[-115.94277777777778,33.90694444444444],[-115.94277777777778,33.90694444444444],[-115.94277777777778,33.90694444444444],[-115.94277777777778,33.90694444444444],[-115.43083333333334,33.77444444444444],[-115.43083333333334,33.77444444444444],[-115.43083333333334,33.77444444444444],[-115.43083333333334,33.77444444444444],[-115.43083333333334,33.77444444444444],[-115.43083333333334,33.77444444444444],[-115.43083333333334,33.77444444444444],[-114.95,33.64666666666667],[-114.95,33.64666666666667],[-114.95,33.64666666666667],[-114.95,33.64666666666667],[-114.95,33.64666666666667],[-114.95,33.64666666666667],[-114.95,33.64666666666667],[-113.82388888888889,33.410555555555554],[-113.82388888888889,33.410555555555554],[-113.82388888888889,33.410555555555554],[-113.82388888888889,33.410555555555554],[-113.53,33.35111111111111],[-113.53,33.35111111111111],[-113.53,33.35111111111111],[-113.53,33.35111111111111],[-113.53,33.35111111111111],[-113.53,33.35111111111111],[-113.53,33.35111111111111],[-112.96666666666667,33.28333333333333],[-112.86666666666666,33.28333333333333],[-112.86666666666666,33.28333333333333],[-112.86666666666666,33.28333333333333],[-112.86666666666666,33.28333333333333],[-112.85527777777777,33.279444444444444],[-112.85527777777777,33.279444444444444],[-112.65,33.3],[-112.65,33.3],[-112.61999999999999,33.29944444444444],[-112.61999999999999,33.29944444444444],[-112.53333333333333,33.3],[-112.40333333333334,33.31944444444445],[-112.40333333333334,33.31944444444445],[-112.40333333333334,33.31944444444445],[-112.31666666666666,33.333333333333336],[-112.31666666666666,33.333333333333336],[-112.31666666666666,33.333333333333336],[-112.19944444444445,33.338055555555556],[-112.19944444444445,33.338055555555556],[-112.13333333333334,33.35],[-112.13333333333334,33.35],[-112.13333333333334,33.35],[-111.95,33.35],[-111.95,33.35],[-111.95,33.35],[-111.95,33.35],[-111.88333333333334,33.35],[-111.86361111111111,33.344722222222224],[-111.86361111111111,33.344722222222224],[-111.86361111111111,33.344722222222224],[-111.86361111111111,33.344722222222224],[-111.86361111111111,33.344722222222224],[-111.8,33.416666666666664],[-111.8,33.416666666666664],[-111.80888888888889,33.413333333333334],[-111.86666666666666,33.43333333333333],[-111.86666666666666,33.43333333333333],[-111.86666666666666,33.43333333333333],[-111.86666666666666,33.43333333333333],[-111.86666666666666,33.43333333333333]],"type":"LineString"}
}
