{
  "id": 2015207681,
  "type": "Feature",
  "properties": {
    "geom:area": 0,
    "geom:bbox": "-122.526840,37.626060,-121.252630,38.384410",
    "geom:latitude": 38.05343838562179,
    "geom:longitude": -121.85672019818458,
    "src:alt_label": "swim-takeoff",
    "src:geom": "swim",
    "swim:elevations": [
      6855,
      6931,
      7181,
      7322,
      7653,
      7972,
      8131,
      8393,
      8409,
      8526,
      8651,
      122,
      405,
      797,
      916,
      1280,
      1476,
      1610,
      1987,
      2375,
      2889,
      3089,
      3456,
      3744,
      4058,
      4234,
      4618,
      5017,
      5403,
      5593,
      5940,
      6037,
      6239,
      6436,
      6841,
      7115,
      7452,
      7720,
      7779,
      8039,
      8425,
      8562,
      8749,
      8905
    ],
    "swim:geom": "takeoff",
    "swim:timestamps": [
      1775286019,
      1775286028,
      1775286056,
      1775286072,
      1775286106,
      1775286146,
      1775286170,
      1775286209,
      1775286213,
      1775286229,
      1775286250,
      1775371528,
      1775371554,
      1775371587,
      1775371594,
      1775371634,
      1775371652,
      1775371665,
      1775371692,
      1775371717,
      1775371750,
      1775371789,
      1775371820,
      1775371840,
      1775371868,
      1775371880,
      1775371909,
      1775371942,
      1775371975,
      1775371996,
      1775372034,
      1775372046,
      1775372066,
      1775372086,
      1775372123,
      1775372154,
      1775372188,
      1775372218,
      1775372227,
      1775372255,
      1775372306,
      1775372329,
      1775372352,
      1775372372
    ],
    "wof:geomhash": "b6b5763434a3a9202674afdc9b631dab",
    "wof:id": 2015207681,
    "wof:repo": "sfomuseum-data-flights-2026-04"
  },
  "bbox": [
    -122.52684,
    37.62606,
    -121.25263,
    38.38441
  ],
  "geometry": {"coordinates":[[-121.78808,38.17191],[-121.76816,38.17923],[-121.70642,38.20191],[-121.66914,38.21554],[-121.59108,38.24409],[-121.50036,38.27703],[-121.44428,38.29737],[-121.35181,38.33046],[-121.34221,38.3338],[-121.3015,38.3484],[-121.25263,38.3659],[-122.39283,37.62606],[-122.41753,37.63597],[-122.45054,37.6497],[-122.45766,37.65302],[-122.50102,37.67348],[-122.51851,37.68854],[-122.52499,37.7037],[-122.52512,37.73883],[-122.52684,37.77196],[-122.50813,37.81335],[-122.44686,37.83594],[-122.39663,37.85549],[-122.36464,37.87112],[-122.31898,37.89383],[-122.29881,37.90386],[-122.24855,37.92841],[-122.18987,37.95684],[-122.13092,37.98528],[-122.09215,38.0037],[-122.02029,38.0374],[-121.99578,38.04898],[-121.95558,38.06814],[-121.91619,38.0869],[-121.84058,38.12304],[-121.77736,38.15306],[-121.70688,38.18647],[-121.64296,38.21678],[-121.6237,38.22593],[-121.56198,38.25484],[-121.45192,38.30712],[-121.40074,38.33111],[-121.35349,38.35804],[-121.31196,38.38441]],"type":"LineString"}
}
