{
  "id": 2031133847,
  "type": "Feature",
  "properties": {
    "geom:area": 0,
    "geom:bbox": "-122.357440,37.455970,-121.264050,37.611370",
    "geom:latitude": 37.53967687284376,
    "geom:longitude": -121.81976184331909,
    "src:alt_label": "swim-approach",
    "src:geom": "swim",
    "swim:elevations": [
      4613,
      4507,
      4323,
      4092,
      3952,
      3793,
      3718,
      3581,
      3478,
      3146,
      2919,
      2772,
      2739,
      2743,
      2743,
      2743,
      2577,
      2452,
      2315,
      2154,
      1955,
      1883,
      1830,
      1655,
      1514,
      1382,
      1073,
      976,
      887,
      630,
      609,
      362,
      272,
      233,
      85,
      23
    ],
    "swim:geom": "approach",
    "swim:timestamps": [
      1777370230,
      1777370242,
      1777370261,
      1777370302,
      1777370322,
      1777370353,
      1777370372,
      1777370397,
      1777370416,
      1777370454,
      1777370482,
      1777370506,
      1777370518,
      1777370536,
      1777370574,
      1777370594,
      1777370633,
      1777370660,
      1777370689,
      1777370715,
      1777370756,
      1777370783,
      1777370805,
      1777370842,
      1777370859,
      1777370883,
      1777370938,
      1777370960,
      1777370974,
      1777371026,
      1777371033,
      1777371087,
      1777371117,
      1777371129,
      1777371171,
      1777371187
    ],
    "wof:geomhash": "3628e1658ceb5a7e9c3f746a061007eb",
    "wof:id": 2031133847,
    "wof:repo": "sfomuseum-data-flights-2026-04"
  },
  "bbox": [
    -122.35744,
    37.45597,
    -121.26405,
    37.61137
  ],
  "geometry": {"coordinates":[[-121.26405,37.59259],[-121.28693,37.58961],[-121.3256,37.58524],[-121.40156,37.57672],[-121.43644,37.5727],[-121.48767,37.56678],[-121.51658,37.56344],[-121.554,37.55897],[-121.58165,37.55571],[-121.63391,37.5486],[-121.67335,37.54685],[-121.70398,37.55728],[-121.71954,37.56267],[-121.74366,37.57088],[-121.7954,37.57865],[-121.81575,37.56494],[-121.82356,37.52258],[-121.82616,37.4935],[-121.84812,37.46928],[-121.88394,37.46379],[-121.93995,37.45857],[-121.97525,37.45597],[-122.00351,37.46237],[-122.04572,37.47999],[-122.06507,37.48817],[-122.09319,37.50009],[-122.15363,37.52553],[-122.17475,37.53445],[-122.1874,37.53985],[-122.23771,37.56105],[-122.24347,37.56342],[-122.28853,37.58244],[-122.30948,37.59117],[-122.31731,37.59446],[-122.34686,37.60688],[-122.35744,37.61137]],"type":"LineString"}
}
