{
  "id": 2015342533,
  "type": "Feature",
  "properties": {
    "geom:area": 0,
    "geom:bbox": "-122.290000,32.690000,-116.984722,37.585278",
    "geom:latitude": 35.03353496132676,
    "geom:longitude": -119.64987741467229,
    "src:alt_label": "swim-path",
    "src:geom": "swim",
    "swim:altitudes": [
      "039",
      "039",
      "126",
      "126",
      "153",
      "215",
      "215",
      "215",
      "327",
      "327",
      "327",
      "365",
      "365",
      "370C",
      "370C",
      "370C",
      "370C",
      "370C",
      "370C",
      "370C",
      "370C",
      "370C",
      "370C",
      "370C",
      "370C",
      "370C",
      "370C",
      "370C",
      "370C",
      "370C",
      "370C",
      "370C",
      "370",
      "352",
      "343",
      "343",
      "343",
      "280",
      "280",
      "229",
      "229",
      "207",
      "207",
      "207",
      "162",
      "162",
      "145",
      "130",
      "130",
      "115",
      "115",
      "103",
      "103",
      "071",
      "071",
      "061",
      "061",
      "061",
      "037",
      "037",
      "037",
      "017",
      "017"
    ],
    "swim:geom": "path",
    "swim:speeds": [
      175,
      175,
      333,
      333,
      363,
      402,
      402,
      402,
      443,
      443,
      443,
      438,
      438,
      438,
      439,
      439,
      440,
      440,
      422,
      422,
      422,
      428,
      428,
      428,
      429,
      429,
      429,
      429,
      428,
      428,
      428,
      428,
      419,
      418,
      424,
      424,
      424,
      388,
      388,
      348,
      348,
      338,
      338,
      338,
      319,
      319,
      303,
      296,
      296,
      291,
      291,
      283,
      283,
      261,
      261,
      252,
      252,
      252,
      204,
      204,
      204,
      154,
      154
    ],
    "swim:timestamps": [
      1776724785,
      1776724785,
      1776725021,
      1776725021,
      1776725085,
      1776725262,
      1776725262,
      1776725262,
      1776725686,
      1776725686,
      1776725686,
      1776725863,
      1776725863,
      1776725923,
      1776725983,
      1776725983,
      1776726287,
      1776726287,
      1776726407,
      1776726407,
      1776726407,
      1776726587,
      1776726587,
      1776726587,
      1776726647,
      1776726647,
      1776726647,
      1776726707,
      1776726767,
      1776726767,
      1776726767,
      1776726827,
      1776727067,
      1776727187,
      1776727247,
      1776727247,
      1776727247,
      1776727488,
      1776727488,
      1776727640,
      1776727640,
      1776727728,
      1776727728,
      1776727728,
      1776727908,
      1776727908,
      1776727970,
      1776728030,
      1776728030,
      1776728090,
      1776728090,
      1776728150,
      1776728150,
      1776728329,
      1776728329,
      1776728389,
      1776728389,
      1776728389,
      1776728569,
      1776728569,
      1776728569,
      1776728690,
      1776728690
    ],
    "wof:geomhash": "bd68d34e07b014c48077a5fe6346edfd",
    "wof:id": 2015342533,
    "wof:repo": "sfomuseum-data-flights-2026-04"
  },
  "bbox": [
    -122.28999999999999,
    32.69,
    -116.98472222222222,
    37.58527777777778
  ],
  "geometry": {"coordinates":[[-122.28999999999999,37.58527777777778],[-122.28999999999999,37.58527777777778],[-122.02333333333333,37.37222222222222],[-122.02333333333333,37.37222222222222],[-121.94666666666667,37.28055555555555],[-121.71861111111112,37.01972222222222],[-121.71861111111112,37.01972222222222],[-121.71861111111112,37.01972222222222],[-121.07972222222222,36.30222222222222],[-121.07972222222222,36.30222222222222],[-121.07972222222222,36.30222222222222],[-120.79194444444444,36.02111111111111],[-120.79194444444444,36.02111111111111],[-120.69722222222222,35.926944444444445],[-120.60249999999999,35.83305555555556],[-120.60249999999999,35.83305555555556],[-120.13833333333334,35.369166666666665],[-120.13833333333334,35.369166666666665],[-119.95805555555556,35.18666666666666],[-119.95805555555556,35.18666666666666],[-119.95805555555556,35.18666666666666],[-119.66027777777778,34.93],[-119.66027777777778,34.93],[-119.66027777777778,34.93],[-119.55666666666666,34.846944444444446],[-119.55666666666666,34.846944444444446],[-119.55666666666666,34.846944444444446],[-119.45222222222222,34.76361111111111],[-119.34805555555555,34.68],[-119.34805555555555,34.68],[-119.34805555555555,34.68],[-119.24666666666667,34.598333333333336],[-118.83916666666666,34.2675],[-118.6388888888889,34.103611111111114],[-118.53805555555556,34.02055555555555],[-118.53805555555556,34.02055555555555],[-118.53805555555556,34.02055555555555],[-118.15166666666667,33.665277777777774],[-118.15166666666667,33.665277777777774],[-117.9,33.5],[-117.9,33.5],[-117.78305555555555,33.419444444444444],[-117.78305555555555,33.419444444444444],[-117.78305555555555,33.419444444444444],[-117.57055555555556,33.22],[-117.57055555555556,33.22],[-117.5,33.15],[-117.43333333333334,33.083333333333336],[-117.43333333333334,33.083333333333336],[-117.38333333333334,33.016666666666666],[-117.38333333333334,33.016666666666666],[-117.31666666666666,32.95],[-117.31666666666666,32.95],[-117.16194444444444,32.80083333333333],[-117.16194444444444,32.80083333333333],[-117.08222222222221,32.782777777777774],[-117.08222222222221,32.782777777777774],[-117.08222222222221,32.782777777777774],[-116.98472222222222,32.69],[-116.98472222222222,32.69],[-116.98472222222222,32.69],[-117.10027777777778,32.71194444444445],[-117.10027777777778,32.71194444444445]],"type":"LineString"}
}
