{
  "id": 2031100107,
  "type": "Feature",
  "properties": {
    "geom:area": 0,
    "geom:bbox": "-122.380000,37.490000,-70.730000,42.460000",
    "geom:latitude": 39.01359520294698,
    "geom:longitude": -96.04223906092757,
    "src:alt_label": "swim-route",
    "src:geom": "swim",
    "swim:geom": "route",
    "wof:geomhash": "7574dd4b3304018d98af2ed5ac353a2d",
    "wof:id": 2031100107,
    "wof:repo": "sfomuseum-data-flights-2026-04"
  },
  "bbox": [
    -122.38,
    37.49,
    -70.73,
    42.46
  ],
  "geometry": {"coordinates":[[-71.01,42.36],[-70.97,42.44],[-70.87,42.46],[-70.86,42.46],[-70.85,42.46],[-70.83,42.45],[-70.76,42.43],[-70.75,42.42],[-70.75,42.39],[-70.74,42.36],[-70.73,42.33],[-70.73,42.32],[-70.75,42.31],[-70.78,42.29],[-70.78,42.29],[-70.78,42.29],[-70.87,42.28],[-70.91,42.28],[-70.92,42.28],[-71,42.28],[-71.22,42.26],[-71.23,42.26],[-71.44,42.25],[-71.58,42.24],[-71.75,42.23],[-71.84,42.22],[-72.14,42.2],[-72.39,42.19],[-72.51,42.18],[-72.72,42.16],[-72.9,42.07],[-72.94,42.05],[-73,42.01],[-73,42.01],[-73.02,42],[-73.36,41.78],[-73.49,41.69],[-73.74,41.53],[-74.03,41.33],[-74.13,41.26],[-74.82,40.8],[-75.08,40.68],[-75.4,40.54],[-75.64,40.42],[-75.66,40.41],[-75.79,40.36],[-75.83,40.34],[-76.29,40.12],[-76.48,40.03],[-76.7,39.93],[-76.93,39.82],[-77.23,39.68],[-77.31,39.65],[-77.85,39.39],[-78.38,39.18],[-78.86,38.98],[-79.05,38.9],[-79.2,38.84],[-80.05,38.69],[-80.17,38.66],[-80.28,38.63],[-80.59,38.65],[-80.91,38.64],[-81.14,38.66],[-83.03,38.73],[-84.39,38.76],[-86.4,38.78],[-88.11,38.77],[-89.87,38.73],[-89.95,38.73],[-90.07,38.73],[-90.34,38.72],[-91.31,38.68],[-92.3,38.65],[-94.72,38.81],[-95.07,38.82],[-96.35,38.88],[-99.11,38.96],[-99.45,38.96],[-99.8,38.97],[-101.16,38.97],[-102,38.96],[-102.22,38.97],[-104.12,38.93],[-104.98,38.91],[-105.29,38.9],[-105.37,38.9],[-105.41,38.89],[-105.52,38.88],[-105.94,38.87],[-106.73,38.84],[-107.53,38.8],[-108.45,38.74],[-108.84,38.72],[-109.98,38.63],[-110.52,38.59],[-111.84,38.48],[-113.01,38.36],[-113.97,38.29],[-114.39,38.25],[-117.24,38.05],[-117.77,38],[-118.76,37.9],[-118.86,37.88],[-118.99,37.87],[-119.1,37.86],[-119.38,37.82],[-119.72,37.78],[-119.82,37.77],[-119.92,37.76],[-120.02,37.75],[-120.31,37.71],[-120.4,37.7],[-120.4,37.7],[-120.57,37.68],[-120.69,37.67],[-120.75,37.66],[-120.79,37.65],[-120.8,37.65],[-120.96,37.63],[-121,37.63],[-121.01,37.63],[-121.07,37.62],[-121.17,37.61],[-121.26,37.59],[-121.39,37.58],[-121.41,37.58],[-121.6,37.55],[-121.61,37.55],[-121.62,37.55],[-121.72,37.53],[-121.8,37.51],[-121.88,37.49],[-121.89,37.49],[-122.01,37.53],[-122.08,37.54],[-122.18,37.57],[-122.18,37.57],[-122.28,37.59],[-122.33,37.61],[-122.36,37.61],[-122.38,37.62]],"type":"LineString"}
}
