{
  "id": 2015243277,
  "type": "Feature",
  "properties": {
    "geom:area": 0,
    "geom:bbox": "-122.839440,37.423520,-122.091960,38.470310",
    "geom:latitude": 37.806210004271186,
    "geom:longitude": -122.48392540643981,
    "src:alt_label": "swim-approach",
    "src:geom": "swim",
    "swim:elevations": [
      7620,
      7434,
      7282,
      7187,
      7019,
      6920,
      6761,
      6489,
      6272,
      5879,
      5426,
      5189,
      4903,
      4570,
      4310,
      4180,
      3681,
      3464,
      3411,
      3383,
      3353,
      3353,
      3353,
      3353,
      3353,
      3353,
      3353,
      3353,
      3270,
      3232,
      3113,
      2809,
      2685,
      2610,
      2548,
      2215,
      2059,
      1734,
      1511,
      1336,
      1217,
      1084,
      885,
      778,
      596,
      455,
      359,
      311,
      245,
      38,
      33
    ],
    "swim:geom": "approach",
    "swim:timestamps": [
      1775777511,
      1775777545,
      1775777577,
      1775777596,
      1775777629,
      1775777638,
      1775777656,
      1775777683,
      1775777705,
      1775777744,
      1775777787,
      1775777811,
      1775777840,
      1775777874,
      1775777901,
      1775777913,
      1775777965,
      1775777988,
      1775778004,
      1775778016,
      1775778050,
      1775778081,
      1775778111,
      1775778126,
      1775778164,
      1775778173,
      1775778185,
      1775778203,
      1775778233,
      1775778260,
      1775778284,
      1775778326,
      1775778348,
      1775778362,
      1775778371,
      1775778413,
      1775778437,
      1775778478,
      1775778507,
      1775778536,
      1775778567,
      1775778597,
      1775778624,
      1775778639,
      1775778683,
      1775778713,
      1775778732,
      1775778744,
      1775778757,
      1775778807,
      1775778813
    ],
    "wof:geomhash": "c00550399335add5df14ffb3d22ee72f",
    "wof:id": 2015243277,
    "wof:repo": "sfomuseum-data-flights-2026-04"
  },
  "bbox": [
    -122.83944,
    37.42352,
    -122.09196,
    38.47031
  ],
  "geometry": {"coordinates":[[-122.83944,38.47031],[-122.82304,38.41452],[-122.80822,38.3638],[-122.79917,38.33294],[-122.784,38.28069],[-122.77986,38.26644],[-122.77147,38.23793],[-122.75926,38.19614],[-122.74966,38.1626],[-122.73219,38.10298],[-122.71366,38.039],[-122.70344,38.00365],[-122.69106,37.96118],[-122.67619,37.91267],[-122.65089,37.87849],[-122.63548,37.86397],[-122.57372,37.8054],[-122.54629,37.77939],[-122.52755,37.76176],[-122.51419,37.7492],[-122.47883,37.71586],[-122.4487,37.68757],[-122.42235,37.66274],[-122.40909,37.65029],[-122.37604,37.61916],[-122.36831,37.61164],[-122.3598,37.60076],[-122.35034,37.58351],[-122.33546,37.55398],[-122.3194,37.52786],[-122.3052,37.5045],[-122.27893,37.46408],[-122.25385,37.45289],[-122.23613,37.44807],[-122.22489,37.44499],[-122.1729,37.43093],[-122.14276,37.42352],[-122.09924,37.44766],[-122.09196,37.47932],[-122.11158,37.50699],[-122.14354,37.52337],[-122.1728,37.53598],[-122.1978,37.5464],[-122.21123,37.55204],[-122.24914,37.56825],[-122.27584,37.5795],[-122.29153,37.58611],[-122.30109,37.59015],[-122.31148,37.59435],[-122.35156,37.61116],[-122.35634,37.61324]],"type":"LineString"}
}
