{
  "id": 2031128921,
  "type": "Feature",
  "properties": {
    "geom:area": 0,
    "geom:bbox": "-122.548333,33.527222,-117.788611,37.666667",
    "geom:latitude": 35.115755687378694,
    "geom:longitude": -120.49751154502435,
    "src:alt_label": "swim-path",
    "src:geom": "swim",
    "swim:altitudes": [
      "049",
      "049",
      "049",
      "089",
      "147",
      "147",
      "203",
      "203",
      "203",
      "269",
      "269",
      "269",
      "269",
      "310C",
      "310C",
      "310C",
      "310C",
      "310C",
      "310C",
      "311C",
      "311C",
      "311C",
      "310C",
      "310C",
      "310C",
      "310C",
      "310C",
      "310C",
      "310C",
      "310C",
      "310C",
      "310C",
      "310C",
      "310C",
      "310C",
      "310C",
      "310",
      "310",
      "310",
      "308",
      "292",
      "292",
      "270",
      "270",
      "270",
      "190",
      "190",
      "170",
      "170",
      "170",
      "110",
      "110",
      "110",
      "110",
      "089",
      "089",
      "058",
      "058",
      "058",
      "058",
      "050",
      "050",
      "050",
      "050",
      "050",
      "050",
      "050",
      "050",
      "050",
      "050",
      "040",
      "040",
      "030",
      "030",
      "028",
      "028",
      "028",
      "018",
      "010",
      "010",
      "004",
      "004"
    ],
    "swim:geom": "path",
    "swim:speeds": [
      245,
      245,
      245,
      283,
      349,
      349,
      373,
      373,
      373,
      441,
      441,
      441,
      441,
      461,
      461,
      461,
      461,
      461,
      461,
      463,
      463,
      463,
      460,
      460,
      460,
      460,
      453,
      453,
      451,
      451,
      449,
      449,
      449,
      448,
      448,
      446,
      445,
      445,
      445,
      455,
      458,
      458,
      463,
      463,
      463,
      405,
      405,
      396,
      396,
      396,
      362,
      362,
      362,
      362,
      315,
      315,
      282,
      282,
      282,
      282,
      220,
      220,
      220,
      211,
      211,
      211,
      211,
      211,
      211,
      211,
      202,
      202,
      201,
      201,
      179,
      179,
      179,
      173,
      131,
      131,
      128,
      128
    ],
    "swim:timestamps": [
      1777337193,
      1777337193,
      1777337193,
      1777337269,
      1777337389,
      1777337389,
      1777337506,
      1777337506,
      1777337506,
      1777337687,
      1777337687,
      1777337687,
      1777337687,
      1777337927,
      1777338047,
      1777338047,
      1777338110,
      1777338110,
      1777338110,
      1777338228,
      1777338228,
      1777338228,
      1777338408,
      1777338408,
      1777338408,
      1777338408,
      1777338708,
      1777338708,
      1777338768,
      1777338768,
      1777338829,
      1777338829,
      1777338829,
      1777338891,
      1777338891,
      1777339011,
      1777339071,
      1777339071,
      1777339071,
      1777339369,
      1777339430,
      1777339430,
      1777339490,
      1777339490,
      1777339490,
      1777339730,
      1777339730,
      1777339790,
      1777339790,
      1777339790,
      1777339966,
      1777339966,
      1777339966,
      1777339966,
      1777340091,
      1777340091,
      1777340211,
      1777340211,
      1777340211,
      1777340211,
      1777340331,
      1777340331,
      1777340331,
      1777340446,
      1777340446,
      1777340446,
      1777340507,
      1777340507,
      1777340572,
      1777340572,
      1777340627,
      1777340627,
      1777340686,
      1777340686,
      1777340872,
      1777340872,
      1777340872,
      1777340932,
      1777340992,
      1777340992,
      1777341052,
      1777341052
    ],
    "wof:geomhash": "6d600781efef32c5f01414f019a55a38",
    "wof:id": 2031128921,
    "wof:repo": "sfomuseum-data-flights-2026-04"
  },
  "bbox": [
    -122.54833333333333,
    33.52722222222222,
    -117.78861111111111,
    37.666666666666664
  ],
  "geometry": {"coordinates":[[-122.48333333333333,37.666666666666664],[-122.48333333333333,37.666666666666664],[-122.48333333333333,37.666666666666664],[-122.54833333333333,37.61833333333333],[-122.48166666666667,37.450833333333335],[-122.48166666666667,37.450833333333335],[-122.51833333333333,37.256388888888885],[-122.51833333333333,37.256388888888885],[-122.51833333333333,37.256388888888885],[-122.50777777777778,36.92805555555555],[-122.50777777777778,36.92805555555555],[-122.50777777777778,36.92805555555555],[-122.50777777777778,36.92805555555555],[-122.18583333333333,36.48833333333334],[-122.02638888888889,36.268055555555556],[-122.02638888888889,36.268055555555556],[-121.94083333333333,36.14944444444444],[-121.94083333333333,36.14944444444444],[-121.94083333333333,36.14944444444444],[-121.76138888888889,35.95472222222222],[-121.76138888888889,35.95472222222222],[-121.76138888888889,35.95472222222222],[-121.38777777777779,35.71888888888889],[-121.38777777777779,35.71888888888889],[-121.38777777777779,35.71888888888889],[-121.38777777777779,35.71888888888889],[-120.81833333333333,35.28388888888889],[-120.81833333333333,35.28388888888889],[-120.71777777777778,35.190555555555555],[-120.71777777777778,35.190555555555555],[-120.61555555555555,35.09527777777778],[-120.61555555555555,35.09527777777778],[-120.61555555555555,35.09527777777778],[-120.53222222222222,35.00888888888889],[-120.53222222222222,35.00888888888889],[-120.36555555555555,34.80222222222222],[-120.28361111111111,34.70055555555556],[-120.28361111111111,34.70055555555556],[-120.28361111111111,34.70055555555556],[-119.86194444444443,34.170833333333334],[-119.77277777777778,34.06944444444445],[-119.77277777777778,34.06944444444445],[-119.64055555555557,34.0025],[-119.64055555555557,34.0025],[-119.64055555555557,34.0025],[-119.15944444444445,33.763888888888886],[-119.15944444444445,33.763888888888886],[-119.04722222222222,33.708333333333336],[-119.04722222222222,33.708333333333336],[-119.04722222222222,33.708333333333336],[-118.7,33.56666666666667],[-118.7,33.56666666666667],[-118.7,33.56666666666667],[-118.7,33.56666666666667],[-118.50305555555556,33.52722222222222],[-118.50305555555556,33.52722222222222],[-118.29444444444444,33.52972222222222],[-118.29444444444444,33.52972222222222],[-118.29444444444444,33.52972222222222],[-118.29444444444444,33.52972222222222],[-118.14861111111112,33.583333333333336],[-118.14861111111112,33.583333333333336],[-118.14861111111112,33.583333333333336],[-118.03333333333333,33.65],[-118.03333333333333,33.65],[-118.03333333333333,33.65],[-117.98333333333333,33.68333333333333],[-117.98333333333333,33.68333333333333],[-117.91666666666667,33.71666666666667],[-117.91666666666667,33.71666666666667],[-117.9,33.766666666666666],[-117.9,33.766666666666666],[-117.86666666666666,33.81666666666667],[-117.86666666666666,33.81666666666667],[-117.78861111111111,33.801944444444445],[-117.78861111111111,33.801944444444445],[-117.78861111111111,33.801944444444445],[-117.81583333333333,33.759166666666665],[-117.83777777777777,33.724444444444444],[-117.83777777777777,33.724444444444444],[-117.85749999999999,33.69361111111111],[-117.85749999999999,33.69361111111111]],"type":"LineString"}
}
