{
  "id": 2015202581,
  "type": "Feature",
  "properties": {
    "geom:area": 0,
    "geom:bbox": "-122.339100,37.455970,-121.274930,37.603590",
    "geom:latitude": 37.5328961915932,
    "geom:longitude": -121.81329525486416,
    "src:alt_label": "swim-approach",
    "src:geom": "swim",
    "swim:elevations": [
      4471,
      4201,
      3940,
      3704,
      3383,
      3352,
      3334,
      3242,
      3178,
      2823,
      2652,
      2440,
      2415,
      2347,
      2271,
      2228,
      2060,
      1828,
      1812,
      1587,
      1393,
      985,
      845,
      731,
      593,
      448,
      366,
      208,
      124
    ],
    "swim:geom": "approach",
    "swim:timestamps": [
      1775299184,
      1775299214,
      1775299240,
      1775299268,
      1775299312,
      1775299322,
      1775299374,
      1775299399,
      1775299412,
      1775299460,
      1775299490,
      1775299526,
      1775299556,
      1775299573,
      1775299586,
      1775299592,
      1775299641,
      1775299678,
      1775299702,
      1775299734,
      1775299762,
      1775299828,
      1775299856,
      1775299878,
      1775299905,
      1775299935,
      1775299954,
      1775299998,
      1775300019
    ],
    "wof:geomhash": "ad52f6ef4de8ac8b88bab2ebd1104c39",
    "wof:id": 2015202581,
    "wof:repo": "sfomuseum-data-flights-2026-04"
  },
  "bbox": [
    -122.3391,
    37.45597,
    -121.27493,
    37.60359
  ],
  "geometry": {"coordinates":[[-121.27493,37.59127],[-121.33563,37.58431],[-121.38976,37.57807],[-121.44588,37.57171],[-121.53175,37.56174],[-121.55194,37.5594],[-121.64123,37.56445],[-121.67967,37.57197],[-121.69926,37.57381],[-121.74668,37.53796],[-121.7645,37.50801],[-121.78663,37.47395],[-121.82491,37.46193],[-121.84831,37.46071],[-121.86515,37.45983],[-121.8733,37.45936],[-121.94124,37.45597],[-121.9899,37.45795],[-122.01934,37.4687],[-122.05754,37.48495],[-122.08979,37.49861],[-122.16456,37.5302],[-122.19476,37.54292],[-122.21694,37.55231],[-122.24461,37.56383],[-122.27379,37.5762],[-122.29004,37.58301],[-122.3231,37.59689],[-122.3391,37.60359]],"type":"LineString"}
}
