{
  "id": 2015207623,
  "type": "Feature",
  "properties": {
    "geom:area": 0,
    "geom:bbox": "-123.504220,37.412090,-122.388360,37.670170",
    "geom:latitude": 37.5551575771698,
    "geom:longitude": -122.94464522218462,
    "src:alt_label": "swim-takeoff",
    "src:geom": "swim",
    "swim:elevations": [
      91,
      171,
      511,
      790,
      1224,
      1391,
      1719,
      2119,
      2672,
      3099,
      3256,
      3527,
      4013,
      4278,
      4403,
      4802,
      4959,
      5329,
      5496,
      5917,
      6145,
      6294,
      6783,
      6814
    ],
    "swim:geom": "takeoff",
    "swim:timestamps": [
      1775298359,
      1775298368,
      1775298401,
      1775298422,
      1775298471,
      1775298493,
      1775298517,
      1775298541,
      1775298583,
      1775298621,
      1775298648,
      1775298672,
      1775298712,
      1775298733,
      1775298742,
      1775298778,
      1775298791,
      1775298830,
      1775298851,
      1775298894,
      1775298918,
      1775298934,
      1775298987,
      1775298991
    ],
    "wof:geomhash": "61a207d7efe3fb0dad46c3ba9e85f89b",
    "wof:id": 2015207623,
    "wof:repo": "sfomuseum-data-flights-2026-04"
  },
  "bbox": [
    -123.50422,
    37.41209,
    -122.38836,
    37.67017
  ],
  "geometry": {"coordinates":[[-122.38836,37.62425],[-122.39757,37.62816],[-122.43132,37.64272],[-122.45305,37.65254],[-122.50985,37.67017],[-122.5418,37.66634],[-122.57769,37.6563],[-122.61405,37.64604],[-122.67946,37.62902],[-122.74083,37.61356],[-122.79042,37.60012],[-122.83576,37.5881],[-122.91484,37.56821],[-122.95547,37.55773],[-122.97322,37.55305],[-123.04598,37.53362],[-123.07192,37.5267],[-123.15213,37.50563],[-123.1975,37.49368],[-123.28949,37.46922],[-123.34139,37.45543],[-123.37649,37.44617],[-123.49471,37.41464],[-123.50422,37.41209]],"type":"LineString"}
}
