{
  "id": 2015203345,
  "type": "Feature",
  "properties": {
    "geom:area": 0,
    "geom:bbox": "-122.763960,37.438260,-122.117900,38.491890",
    "geom:latitude": 37.83335554250504,
    "geom:longitude": -122.48935223728816,
    "src:alt_label": "swim-approach",
    "src:geom": "swim",
    "swim:elevations": [
      7652,
      7509,
      7081,
      6900,
      6489,
      6222,
      6158,
      5755,
      5462,
      5136,
      4955,
      4698,
      4428,
      4188,
      3837,
      3811,
      3810,
      3810,
      3810,
      3810,
      3810,
      3301,
      2943,
      2629,
      2546,
      2225,
      2032,
      1950,
      1770,
      1421,
      1374,
      1075,
      969,
      727,
      587,
      480,
      397,
      272,
      164,
      0
    ],
    "swim:geom": "approach",
    "swim:timestamps": [
      1775311675,
      1775311690,
      1775311734,
      1775311754,
      1775311796,
      1775311826,
      1775311832,
      1775311871,
      1775311904,
      1775311943,
      1775311962,
      1775311991,
      1775312023,
      1775312048,
      1775312092,
      1775312107,
      1775312147,
      1775312163,
      1775312198,
      1775312227,
      1775312278,
      1775312332,
      1775312366,
      1775312396,
      1775312404,
      1775312430,
      1775312467,
      1775312502,
      1775312536,
      1775312572,
      1775312586,
      1775312626,
      1775312655,
      1775312697,
      1775312722,
      1775312746,
      1775312763,
      1775312792,
      1775312826,
      1775312867
    ],
    "wof:geomhash": "53ad858b3acaaa05c682a5d74c88c41a",
    "wof:id": 2015203345,
    "wof:repo": "sfomuseum-data-flights-2026-04"
  },
  "bbox": [
    -122.76396,
    37.43826,
    -122.1179,
    38.49189
  ],
  "geometry": {"coordinates":[[-122.66657,38.49189],[-122.67598,38.46573],[-122.7047,38.39001],[-122.71729,38.35691],[-122.74436,38.28546],[-122.76218,38.23663],[-122.76396,38.22596],[-122.74818,38.16246],[-122.73313,38.10921],[-122.71574,38.04702],[-122.70675,38.01576],[-122.6935,37.97015],[-122.67908,37.9209],[-122.66069,37.88595],[-122.60418,37.83443],[-122.58497,37.81641],[-122.53574,37.76971],[-122.51744,37.75232],[-122.47828,37.71532],[-122.44897,37.68781],[-122.39979,37.64169],[-122.3521,37.59138],[-122.33386,37.55482],[-122.31663,37.52342],[-122.31142,37.51573],[-122.28362,37.49696],[-122.23888,37.47396],[-122.19846,37.4536],[-122.15722,37.43826],[-122.11896,37.46072],[-122.1179,37.4754],[-122.14695,37.51409],[-122.17484,37.53525],[-122.22094,37.55619],[-122.24626,37.56681],[-122.27004,37.57694],[-122.28483,37.58313],[-122.30691,37.59244],[-122.33139,37.60273],[-122.36023,37.61493]],"type":"LineString"}
}
