{
  "id": 2031134073,
  "type": "Feature",
  "properties": {
    "geom:area": 0,
    "geom:bbox": "-123.503810,36.965610,-122.140290,37.614590",
    "geom:latitude": 37.28510807925253,
    "geom:longitude": -122.72980857415749,
    "src:alt_label": "swim-approach",
    "src:geom": "swim",
    "swim:elevations": [
      3078,
      3048,
      3048,
      3048,
      3048,
      3048,
      3048,
      3048,
      3048,
      3048,
      3048,
      3048,
      3048,
      3048,
      3048,
      3048,
      3037,
      2998,
      2935,
      2686,
      2468,
      2438,
      2438,
      2438,
      2301,
      2069,
      1803,
      1772,
      1521,
      1437,
      1280,
      1083,
      914,
      914,
      753,
      638,
      556,
      458,
      309,
      176,
      55,
      0
    ],
    "swim:geom": "approach",
    "swim:timestamps": [
      1777412770,
      1777412806,
      1777412830,
      1777412862,
      1777412908,
      1777412917,
      1777412965,
      1777412974,
      1777413018,
      1777413041,
      1777413088,
      1777413091,
      1777413139,
      1777413158,
      1777413201,
      1777413225,
      1777413265,
      1777413284,
      1777413310,
      1777413349,
      1777413378,
      1777413403,
      1777413448,
      1777413465,
      1777413505,
      1777413535,
      1777413568,
      1777413574,
      1777413616,
      1777413640,
      1777413667,
      1777413694,
      1777413746,
      1777413766,
      1777413808,
      1777413836,
      1777413856,
      1777413879,
      1777413916,
      1777413954,
      1777413987,
      1777413996
    ],
    "wof:geomhash": "46cca84a1659935f0b1b58d94702cdec",
    "wof:id": 2031134073,
    "wof:repo": "sfomuseum-data-flights-2026-04"
  },
  "bbox": [
    -123.50381,
    36.96561,
    -122.14029,
    37.61459
  ],
  "geometry": {"coordinates":[[-123.50381,36.96561],[-123.44036,36.99417],[-123.39853,37.01253],[-123.34497,37.03775],[-123.26449,37.07459],[-123.24785,37.08228],[-123.16452,37.12052],[-123.14894,37.12771],[-123.07238,37.1628],[-123.03239,37.18088],[-122.94973,37.21838],[-122.94444,37.22079],[-122.85908,37.25699],[-122.82348,37.26672],[-122.73835,37.2868],[-122.69304,37.29734],[-122.62368,37.31364],[-122.5947,37.3204],[-122.55824,37.32901],[-122.50668,37.34068],[-122.46976,37.3493],[-122.43808,37.3566],[-122.37927,37.36997],[-122.35767,37.37499],[-122.30604,37.38676],[-122.26839,37.39534],[-122.22612,37.40499],[-122.21853,37.4067],[-122.17373,37.42658],[-122.16336,37.44691],[-122.15181,37.46837],[-122.14029,37.48989],[-122.16102,37.52937],[-122.17888,37.53852],[-122.21808,37.55507],[-122.24071,37.56454],[-122.25748,37.57169],[-122.2753,37.57914],[-122.30199,37.59034],[-122.32898,37.60174],[-122.3527,37.61166],[-122.35913,37.61459]],"type":"LineString"}
}
