{
  "id": 2015272615,
  "type": "Feature",
  "properties": {
    "geom:area": 0,
    "geom:bbox": "-122.576990,36.724930,-121.448870,37.664700",
    "geom:latitude": 37.225359660823116,
    "geom:longitude": -122.0822047986924,
    "src:alt_label": "swim-takeoff",
    "src:geom": "swim",
    "swim:elevations": [
      373,
      425,
      665,
      1088,
      1478,
      1844,
      2082,
      2740,
      3015,
      3532,
      3572,
      4199,
      4539,
      4829,
      5157,
      5457,
      5919,
      6103,
      6219,
      6581,
      6831,
      7243,
      7457,
      7554,
      7816,
      8065,
      8523,
      8847,
      9098,
      9144,
      9163,
      9277,
      9343,
      9448,
      9447
    ],
    "swim:geom": "takeoff",
    "swim:timestamps": [
      1775993063,
      1775993070,
      1775993102,
      1775993133,
      1775993161,
      1775993184,
      1775993203,
      1775993248,
      1775993267,
      1775993307,
      1775993311,
      1775993356,
      1775993387,
      1775993427,
      1775993449,
      1775993473,
      1775993516,
      1775993529,
      1775993539,
      1775993569,
      1775993590,
      1775993638,
      1775993665,
      1775993677,
      1775993704,
      1775993724,
      1775993757,
      1775993777,
      1775993805,
      1775993830,
      1775993844,
      1775993871,
      1775993881,
      1775993908,
      1775993912
    ],
    "wof:geomhash": "4855ae57dba00fc5199781cb4471128f",
    "wof:id": 2015272615,
    "wof:repo": "sfomuseum-data-flights-2026-04"
  },
  "bbox": [
    -122.57699,
    36.72493,
    -121.44887,
    37.6647
  ],
  "geometry": {"coordinates":[[-122.40384,37.63088],[-122.41104,37.63385],[-122.44387,37.64735],[-122.48031,37.66315],[-122.51726,37.6647],[-122.53804,37.64493],[-122.54707,37.62471],[-122.57017,37.57376],[-122.57699,37.55047],[-122.54586,37.50458],[-122.54058,37.50088],[-122.46918,37.46917],[-122.4134,37.45359],[-122.34199,37.41579],[-122.30638,37.39044],[-122.26785,37.36086],[-122.19548,37.30528],[-122.17277,37.28801],[-122.15596,37.27529],[-122.10289,37.23513],[-122.06515,37.20659],[-121.97589,37.13866],[-121.92453,37.09963],[-121.9006,37.08147],[-121.84826,37.04122],[-121.80943,37.01127],[-121.74361,36.9614],[-121.70541,36.93236],[-121.65466,36.89278],[-121.60706,36.85532],[-121.58106,36.83517],[-121.52701,36.79233],[-121.50785,36.77575],[-121.45654,36.73138],[-121.44887,36.72493]],"type":"LineString"}
}
