{
  "id": 2031100779,
  "type": "Feature",
  "properties": {
    "geom:area": 0,
    "geom:bbox": "-122.333333,31.680000,-116.530278,37.600000",
    "geom:latitude": 34.604249447996885,
    "geom:longitude": -119.56296257601403,
    "src:alt_label": "swim-path",
    "src:geom": "swim",
    "swim:altitudes": [
      "340C",
      "340C",
      "340C",
      "340C",
      "340C",
      "340C",
      "340C",
      "340C",
      "340C",
      "340C",
      "340C",
      "340C",
      "340C",
      "340C",
      "340C",
      "340C",
      "340C",
      "340C",
      "340C",
      "340C",
      "340C",
      "340C",
      "340C",
      "340C",
      "340C",
      "340C",
      "340C",
      "340C",
      "340C",
      "340C",
      "340C",
      "340C",
      "340C",
      "340C",
      "340C",
      "340C",
      "340C",
      "340C",
      "333",
      "333",
      "324",
      "324",
      "317",
      "317",
      "300C",
      "300C",
      "300C",
      "300C",
      "300C",
      "300C",
      "300C",
      "300C",
      "300C",
      "300C",
      "300C",
      "300C",
      "300C",
      "300C",
      "300",
      "300",
      "300",
      "300",
      "300",
      "300",
      "300",
      "300",
      "294",
      "294",
      "294",
      "255",
      "255",
      "255",
      "246",
      "226",
      "218",
      "207",
      "166",
      "147",
      "120",
      "109",
      "100",
      "089",
      "089",
      "061",
      "049",
      "035",
      "018",
      "007",
      "004"
    ],
    "swim:geom": "path",
    "swim:speeds": [
      416,
      416,
      416,
      409,
      409,
      412,
      412,
      413,
      413,
      416,
      413,
      413,
      413,
      412,
      412,
      411,
      411,
      403,
      403,
      399,
      399,
      398,
      398,
      399,
      399,
      399,
      401,
      401,
      402,
      406,
      406,
      408,
      408,
      409,
      409,
      409,
      409,
      409,
      409,
      409,
      410,
      410,
      411,
      411,
      402,
      402,
      403,
      403,
      403,
      404,
      404,
      404,
      404,
      406,
      406,
      414,
      414,
      376,
      374,
      374,
      373,
      373,
      373,
      373,
      377,
      386,
      387,
      387,
      387,
      373,
      373,
      373,
      365,
      373,
      369,
      364,
      352,
      337,
      331,
      289,
      252,
      238,
      238,
      224,
      204,
      185,
      149,
      146,
      143
    ],
    "swim:timestamps": [
      1777079717,
      1777079717,
      1777079717,
      1777080018,
      1777080018,
      1777080198,
      1777080198,
      1777080258,
      1777080258,
      1777080438,
      1777080558,
      1777080558,
      1777080558,
      1777080619,
      1777080619,
      1777080679,
      1777080679,
      1777080739,
      1777080739,
      1777080799,
      1777080799,
      1777080919,
      1777080919,
      1777080979,
      1777080979,
      1777081099,
      1777081219,
      1777081219,
      1777081280,
      1777081340,
      1777081340,
      1777081400,
      1777081400,
      1777081460,
      1777081460,
      1777081571,
      1777081571,
      1777081571,
      1777081631,
      1777081640,
      1777081700,
      1777081700,
      1777081760,
      1777081760,
      1777081872,
      1777081880,
      1777081941,
      1777081941,
      1777081941,
      1777082052,
      1777082061,
      1777082112,
      1777082112,
      1777082421,
      1777082421,
      1777082541,
      1777082541,
      1777082602,
      1777082653,
      1777082662,
      1777082722,
      1777082722,
      1777082773,
      1777082773,
      1777082893,
      1777083013,
      1777083027,
      1777083027,
      1777083027,
      1777083133,
      1777083133,
      1777083133,
      1777083153,
      1777083218,
      1777083253,
      1777083273,
      1777083393,
      1777083453,
      1777083554,
      1777083614,
      1777083674,
      1777083734,
      1777083734,
      1777083914,
      1777083987,
      1777084094,
      1777084233,
      1777084334,
      1777084348
    ],
    "wof:geomhash": "8fb636f121294f18f6020dc79d188608",
    "wof:id": 2031100779,
    "wof:repo": "sfomuseum-data-flights-2026-04"
  },
  "bbox": [
    -122.33333333333333,
    31.68,
    -116.53027777777778,
    37.6
  ],
  "geometry": {"coordinates":[[-116.53027777777778,31.68],[-116.53027777777778,31.68],[-116.53027777777778,31.68],[-116.93555555555555,32.13666666666666],[-116.93555555555555,32.13666666666666],[-117.1875,32.41777777777777],[-117.1875,32.41777777777777],[-117.27055555555556,32.51],[-117.27055555555556,32.51],[-117.50638888888889,32.785555555555554],[-117.67055555555557,32.97666666666667],[-117.67055555555557,32.97666666666667],[-117.67055555555557,32.97666666666667],[-117.74972222222222,33.06861111111112],[-117.74972222222222,33.06861111111112],[-117.83027777777778,33.16166666666666],[-117.83027777777778,33.16166666666666],[-117.91361111111112,33.25055555555556],[-117.91361111111112,33.25055555555556],[-118.00666666666666,33.327222222222225],[-118.00666666666666,33.327222222222225],[-118.19638888888889,33.483333333333334],[-118.19638888888889,33.483333333333334],[-118.2925,33.56194444444444],[-118.2925,33.56194444444444],[-118.48805555555556,33.72138888888889],[-118.66222222222223,33.86277777777778],[-118.66222222222223,33.86277777777778],[-118.75916666666667,33.941111111111105],[-118.85805555555555,34.020833333333336],[-118.85805555555555,34.020833333333336],[-118.95694444444445,34.10027777777778],[-118.95694444444445,34.10027777777778],[-119.05472222222222,34.17777777777778],[-119.05472222222222,34.17777777777778],[-119.25166666666667,34.32944444444445],[-119.25166666666667,34.32944444444445],[-119.25166666666667,34.32944444444445],[-119.35555555555555,34.404444444444444],[-119.36055555555555,34.40833333333333],[-119.46333333333334,34.48555555555556],[-119.46333333333334,34.48555555555556],[-119.56555555555555,34.5625],[-119.56555555555555,34.5625],[-119.76444444444445,34.71083333333333],[-119.78138888888888,34.723333333333336],[-119.88444444444445,34.8],[-119.88444444444445,34.8],[-119.88444444444445,34.8],[-120.06972222222223,34.93694444444444],[-120.08694444444444,34.94972222222222],[-120.17111111111112,35.01166666666666],[-120.17111111111112,35.01166666666666],[-120.69805555555556,35.396388888888886],[-120.69805555555556,35.396388888888886],[-120.89,35.56083333333333],[-120.89,35.56083333333333],[-120.96861111111112,35.64555555555555],[-121.02722222222222,35.708333333333336],[-121.0411111111111,35.723333333333336],[-121.11805555555554,35.80555555555555],[-121.11805555555554,35.80555555555555],[-121.1825,35.87444444444444],[-121.1825,35.87444444444444],[-121.33916666666666,36.04111111111111],[-121.48444444444445,36.221944444444446],[-121.51666666666667,36.25],[-121.51666666666667,36.25],[-121.51666666666667,36.25],[-121.62388888888889,36.39944444444444],[-121.62388888888889,36.39944444444444],[-121.62388888888889,36.39944444444444],[-121.65,36.45],[-121.73333333333333,36.53333333333333],[-121.75944444444444,36.57166666666667],[-121.8,36.61666666666667],[-121.9,36.78333333333333],[-121.93333333333334,36.88333333333333],[-121.98194444444445,37.026666666666664],[-122.01194444444444,37.10333333333333],[-122.03861111111111,37.171388888888885],[-122.0936111111111,37.218611111111116],[-122.0936111111111,37.218611111111116],[-122.14194444444445,37.36888888888889],[-122.1,37.43333333333333],[-122.12694444444443,37.515277777777776],[-122.25,37.56666666666667],[-122.32111111111111,37.596111111111114],[-122.33333333333333,37.6]],"type":"LineString"}
}
