{
  "id": 2015178001,
  "type": "Feature",
  "properties": {
    "geom:area": 0,
    "geom:bbox": "-122.361550,36.728010,-121.883720,37.613480",
    "geom:latitude": 37.25013926470422,
    "geom:longitude": -122.11533936530206,
    "src:alt_label": "swim-approach",
    "src:geom": "swim",
    "swim:elevations": [
      5724,
      5403,
      5372,
      5231,
      4901,
      4700,
      4549,
      4307,
      4198,
      4020,
      3897,
      3745,
      3585,
      3397,
      3201,
      2985,
      2838,
      2551,
      2507,
      2405,
      2285,
      1985,
      1827,
      1829,
      1829,
      1829,
      1781,
      1654,
      1464,
      1315,
      1221,
      1221,
      1216,
      1221,
      1219,
      1219,
      1150,
      1066,
      1006,
      910,
      846,
      759,
      630,
      551,
      401,
      244,
      216,
      40,
      126
    ],
    "swim:geom": "approach",
    "swim:timestamps": [
      1775081446,
      1775081488,
      1775081491,
      1775081507,
      1775081546,
      1775081573,
      1775081591,
      1775081624,
      1775081637,
      1775081661,
      1775081675,
      1775081698,
      1775081718,
      1775081749,
      1775081777,
      1775081812,
      1775081834,
      1775081875,
      1775081881,
      1775081898,
      1775081913,
      1775081958,
      1775081988,
      1775082024,
      1775082031,
      1775082053,
      1775082072,
      1775082107,
      1775082142,
      1775082170,
      1775082203,
      1775082236,
      1775082242,
      1775082248,
      1775082272,
      1775082307,
      1775082355,
      1775082373,
      1775082397,
      1775082420,
      1775082443,
      1775082467,
      1775082495,
      1775082523,
      1775082557,
      1775082597,
      1775082606,
      1775082652,
      1775082664
    ],
    "wof:geomhash": "81fb77c6be9b88d29ed68e674194eb88",
    "wof:id": 2015178001,
    "wof:repo": "sfomuseum-data-flights-2026-04"
  },
  "bbox": [
    -122.36155,
    36.72801,
    -121.88372,
    37.61348
  ],
  "geometry": {"coordinates":[[-121.88372,36.72801],[-121.90678,36.78603],[-121.90796,36.79025],[-121.91439,36.81279],[-121.92926,36.86664],[-121.93943,36.90365],[-121.94612,36.92799],[-121.96056,36.97141],[-121.96713,36.98821],[-121.97917,37.01925],[-121.98616,37.03711],[-121.99962,37.06451],[-122.01999,37.08459],[-122.05101,37.11391],[-122.07827,37.13919],[-122.11188,37.17155],[-122.13411,37.19272],[-122.17502,37.23095],[-122.181,37.23658],[-122.19789,37.25243],[-122.21283,37.26643],[-122.25692,37.30904],[-122.28611,37.33737],[-122.29091,37.37825],[-122.28307,37.38518],[-122.25272,37.39279],[-122.22671,37.3948],[-122.18328,37.39782],[-122.13793,37.40115],[-122.10316,37.40544],[-122.08383,37.43109],[-122.0714,37.45735],[-122.06913,37.46208],[-122.06689,37.4669],[-122.07222,37.48428],[-122.09722,37.50115],[-122.13341,37.51732],[-122.14732,37.52293],[-122.16476,37.53027],[-122.18138,37.5373],[-122.19765,37.54414],[-122.21526,37.5516],[-122.23649,37.56054],[-122.25756,37.5694],[-122.28225,37.57977],[-122.31116,37.59197],[-122.31785,37.59476],[-122.35265,37.60935],[-122.36155,37.61348]],"type":"LineString"}
}
