{
  "id": 2015245057,
  "type": "Feature",
  "properties": {
    "geom:area": 0,
    "geom:bbox": "-157.900000,21.216667,-122.116667,37.658333",
    "geom:latitude": 31.115809893870654,
    "geom:longitude": -140.45377067739244,
    "src:alt_label": "swim-path",
    "src:geom": "swim",
    "swim:altitudes": [
      "008C",
      "051C",
      "074C",
      "154C",
      "208C",
      "288C",
      "302C",
      "302C",
      "330",
      "330",
      "330",
      "330",
      "330",
      "330",
      "330",
      "350C",
      "350C",
      "350",
      "340",
      "330",
      "310",
      "310",
      "301",
      "261",
      "261",
      "240",
      "240",
      "230",
      "230",
      "230",
      "230",
      "230",
      "230",
      "230",
      "230",
      "212",
      "202",
      "202",
      "172",
      "162",
      "162",
      "112",
      "100",
      "100",
      "100",
      "100",
      "100",
      "100",
      "099C",
      "100",
      "094",
      "084",
      "084",
      "079",
      "066",
      "066",
      "060",
      "060",
      "057",
      "057",
      "052",
      "047",
      "044",
      "038",
      "032",
      "032",
      "026",
      "023",
      "009",
      "007",
      "007"
    ],
    "swim:geom": "path",
    "swim:speeds": [
      190,
      230,
      270,
      360,
      410,
      480,
      490,
      490,
      520,
      510,
      530,
      530,
      530,
      530,
      540,
      501,
      491,
      436,
      413,
      406,
      398,
      398,
      479,
      491,
      491,
      451,
      451,
      412,
      406,
      404,
      404,
      403,
      406,
      406,
      406,
      402,
      394,
      394,
      382,
      370,
      370,
      334,
      303,
      307,
      307,
      307,
      320,
      320,
      294,
      287,
      285,
      288,
      288,
      284,
      286,
      286,
      283,
      272,
      254,
      254,
      245,
      235,
      215,
      198,
      190,
      190,
      193,
      181,
      160,
      156,
      156
    ],
    "swim:timestamps": [
      1775727189,
      1775727309,
      1775727369,
      1775727610,
      1775727851,
      1775728332,
      1775728452,
      1775728452,
      1775728813,
      1775729107,
      1775729415,
      1775729415,
      1775729596,
      1775729596,
      1775729659,
      1775741189,
      1775741309,
      1775741369,
      1775741429,
      1775741489,
      1775741609,
      1775741609,
      1775741669,
      1775741909,
      1775741909,
      1775742029,
      1775742029,
      1775742090,
      1775742150,
      1775742210,
      1775742210,
      1775742270,
      1775742390,
      1775742450,
      1775742450,
      1775742570,
      1775742630,
      1775742630,
      1775742810,
      1775742870,
      1775742870,
      1775743171,
      1775743271,
      1775743314,
      1775743314,
      1775743374,
      1775743434,
      1775743434,
      1775743531,
      1775743554,
      1775743614,
      1775743651,
      1775743651,
      1775743674,
      1775743734,
      1775743734,
      1775743771,
      1775743831,
      1775743891,
      1775743891,
      1775743914,
      1775743951,
      1775743974,
      1775744028,
      1775744094,
      1775744094,
      1775744131,
      1775744154,
      1775744251,
      1775744268,
      1775744268
    ],
    "wof:geomhash": "353fded952f0802186594fc3d5c70b63",
    "wof:id": 2015245057,
    "wof:repo": "sfomuseum-data-flights-2026-04"
  },
  "bbox": [
    -157.9,
    21.216666666666665,
    -122.11666666666666,
    37.65833333333333
  ],
  "geometry": {"coordinates":[[-157.9,21.3],[-157.8,21.216666666666665],[-157.71666666666667,21.216666666666665],[-157.35,21.333333333333332],[-156.96666666666667,21.55],[-156.46666666666667,22.45],[-156.35,22.7],[-156.35,22.7],[-155.93333333333334,23.466666666666665],[-155.6,24.083333333333332],[-155.18333333333334,24.75],[-155.18333333333334,24.75],[-154.78333333333333,25.016666666666666],[-154.78333333333333,25.016666666666666],[-154.65,25.1],[-126.9786111111111,37.50138888888889],[-126.63777777777779,37.48277777777778],[-126.50694444444444,37.420833333333334],[-126.47055555555556,37.30916666666666],[-126.43361111111112,37.202222222222225],[-126.35222222222221,36.99055555555556],[-126.35222222222221,36.99055555555556],[-126.21416666666667,36.94472222222222],[-125.93277777777779,37.41916666666666],[-125.93277777777779,37.41916666666666],[-125.80027777777778,37.650555555555556],[-125.80027777777778,37.650555555555556],[-125.65722222222223,37.65833333333333],[-125.51888888888888,37.64083333333333],[-125.37916666666666,37.62277777777778],[-125.37916666666666,37.62277777777778],[-125.24,37.60388888888889],[-124.95972222222223,37.56583333333333],[-124.81916666666666,37.546388888888885],[-124.81916666666666,37.546388888888885],[-124.54472222222222,37.50805555555556],[-124.41000000000001,37.48888888888889],[-124.41000000000001,37.48888888888889],[-124.01527777777778,37.431666666666665],[-123.88861111111112,37.413333333333334],[-123.88861111111112,37.413333333333334],[-123.28861111111111,37.32333333333334],[-123.1,37.3],[-123.01666666666667,37.28333333333333],[-123.01666666666667,37.28333333333333],[-122.91666666666667,37.266666666666666],[-122.8,37.266666666666666],[-122.8,37.266666666666666],[-122.64333333333335,37.282777777777774],[-122.6,37.266666666666666],[-122.51666666666667,37.25],[-122.45444444444445,37.23277777777778],[-122.45444444444445,37.23277777777778],[-122.41666666666667,37.21666666666667],[-122.33333333333333,37.233333333333334],[-122.33333333333333,37.233333333333334],[-122.3175,37.27722222222222],[-122.26555555555555,37.33444444444444],[-122.1888888888889,37.36888888888889],[-122.1888888888889,37.36888888888889],[-122.16666666666667,37.38333333333333],[-122.14027777777778,37.41972222222222],[-122.13333333333334,37.45],[-122.11666666666666,37.483333333333334],[-122.16666666666667,37.53333333333333],[-122.16666666666667,37.53333333333333],[-122.20111111111112,37.54555555555555],[-122.21666666666667,37.55],[-122.30388888888889,37.58888888888889],[-122.31666666666666,37.6],[-122.31666666666666,37.6]],"type":"LineString"}
}
