{
  "id": 2031103273,
  "type": "Feature",
  "properties": {
    "geom:area": 0,
    "geom:bbox": "-123.474920,37.626140,-122.392530,37.682250",
    "geom:latitude": 37.670597519620934,
    "geom:longitude": -122.92945204886777,
    "src:alt_label": "swim-takeoff",
    "src:geom": "swim",
    "swim:elevations": [
      152,
      304,
      686,
      886,
      1182,
      1557,
      2004,
      2216,
      2504,
      2943,
      3227,
      3260,
      3440,
      3761,
      3945,
      4368,
      4579,
      5151,
      5349,
      5703,
      5823,
      6175
    ],
    "swim:geom": "takeoff",
    "swim:timestamps": [
      1777015107,
      1777015117,
      1777015165,
      1777015187,
      1777015219,
      1777015246,
      1777015275,
      1777015292,
      1777015314,
      1777015343,
      1777015375,
      1777015383,
      1777015413,
      1777015457,
      1777015472,
      1777015511,
      1777015532,
      1777015588,
      1777015608,
      1777015644,
      1777015657,
      1777015687
    ],
    "wof:geomhash": "9f8ebaf592e82648e29f09485d099d46",
    "wof:id": 2031103273,
    "wof:repo": "sfomuseum-data-flights-2026-04"
  },
  "bbox": [
    -123.47492,
    37.62614,
    -122.39253,
    37.68225
  ],
  "geometry": {"coordinates":[[-122.39253,37.62614],[-122.40167,37.63024],[-122.44725,37.6501],[-122.4735,37.66143],[-122.51626,37.67518],[-122.55911,37.67785],[-122.60509,37.68065],[-122.63098,37.68225],[-122.66714,37.68224],[-122.71419,37.68082],[-122.7673,37.6795],[-122.78112,37.67916],[-122.83796,37.6781],[-122.92991,37.67581],[-122.96301,37.67481],[-123.04912,37.67243],[-123.09872,37.67128],[-123.23003,37.6681],[-123.27854,37.66691],[-123.36937,37.66431],[-123.40138,37.66332],[-123.47492,37.66117]],"type":"LineString"}
}
