{
  "id": 2015239651,
  "type": "Feature",
  "properties": {
    "geom:area": 0,
    "geom:bbox": "-122.380000,37.620000,-73.780000,42.700000",
    "geom:latitude": 41.7143772204112,
    "geom:longitude": -98.06328493991239,
    "src:alt_label": "swim-route",
    "src:geom": "swim",
    "swim:geom": "route",
    "wof:geomhash": "d50c30e23ce24c34c1d43f7410551d0c",
    "wof:id": 2015239651,
    "wof:repo": "sfomuseum-data-flights-2026-04"
  },
  "bbox": [
    -122.38,
    37.62,
    -73.78,
    42.7
  ],
  "geometry": {"coordinates":[[-122.38,37.62],[-122.27,37.69],[-122.27,37.69],[-122.27,37.69],[-122.21,37.72],[-122.21,37.73],[-122.2,37.73],[-122.18,37.75],[-122.15,37.79],[-122.13,37.81],[-122.07,37.88],[-122.03,37.92],[-121.9,38.06],[-121.9,38.06],[-121.85,38.12],[-121.8,38.18],[-121.73,38.25],[-121.69,38.29],[-121.64,38.35],[-121.62,38.37],[-121.55,38.44],[-121.55,38.45],[-121.52,38.46],[-121.46,38.5],[-121.25,38.63],[-121.18,38.67],[-121.1,38.72],[-121.02,38.77],[-120.76,38.92],[-120.46,39.1],[-120.35,39.16],[-119.73,39.53],[-119.1,39.89],[-118.92,39.98],[-118.12,40.32],[-117.51,40.55],[-117.35,40.63],[-117.16,40.72],[-116.89,40.77],[-116.63,40.83],[-116.59,40.82],[-116.09,40.94],[-115.7,41.01],[-114.47,41.25],[-113.84,41.36],[-113.51,41.38],[-112.59,41.44],[-110.79,41.53],[-109.02,41.59],[-107.85,41.74],[-107.67,41.76],[-105.92,41.96],[-104.63,42.08],[-104.33,42.11],[-102.21,42.28],[-101.65,42.32],[-101.37,42.34],[-100.59,42.39],[-99.99,42.42],[-99.39,42.45],[-97.97,42.51],[-97.72,42.52],[-97.53,42.53],[-96.26,42.59],[-94.53,42.66],[-93.72,42.68],[-93.04,42.69],[-92.72,42.69],[-91.9,42.7],[-91.57,42.7],[-91.53,42.7],[-90.82,42.7],[-88.99,42.68],[-88.83,42.68],[-87,42.62],[-85,42.53],[-84.07,42.29],[-83.3,42.46],[-83.25,42.47],[-82.35,42.41],[-81.03,42.27],[-80.74,42.23],[-77.85,41.87],[-77.55,41.79],[-77.49,41.77],[-77.15,41.68],[-76.6,41.53],[-76.58,41.52],[-76.4,41.47],[-76.05,41.37],[-76.04,41.37],[-75.69,41.27],[-75.64,41.26],[-75.58,41.24],[-75.45,41.19],[-75.4,41.17],[-75.39,41.17],[-75.33,41.15],[-75.27,41.13],[-75.21,41.11],[-75.16,41.09],[-75.1,41.08],[-75.09,41.07],[-75.05,41.06],[-75.04,41.05],[-74.99,41.04],[-74.87,41],[-74.84,40.99],[-74.74,40.98],[-74.68,40.97],[-74.62,40.97],[-74.44,40.95],[-74.39,40.94],[-74.35,40.93],[-74.28,40.93],[-74.27,40.93],[-74.22,40.92],[-74.2,40.92],[-74.16,40.91],[-74.16,40.91],[-74.12,40.91],[-74.11,40.9],[-74.1,40.89],[-74.07,40.88],[-74.05,40.87],[-74.01,40.85],[-74,40.85],[-73.99,40.84],[-73.97,40.83],[-73.96,40.83],[-73.94,40.82],[-73.93,40.81],[-73.88,40.79],[-73.87,40.78],[-73.86,40.77],[-73.84,40.74],[-73.83,40.71],[-73.95,40.53],[-73.93,40.54],[-73.92,40.55],[-73.91,40.56],[-73.9,40.56],[-73.9,40.56],[-73.89,40.57],[-73.89,40.57],[-73.88,40.58],[-73.87,40.58],[-73.87,40.59],[-73.86,40.59],[-73.93,40.45],[-73.85,40.59],[-73.85,40.6],[-73.84,40.6],[-73.83,40.61],[-73.81,40.62],[-73.81,40.62],[-73.78,40.64]],"type":"LineString"}
}
