{
  "id": 2015270215,
  "type": "Feature",
  "properties": {
    "geom:area": 0,
    "geom:bbox": "-122.359860,37.491640,-121.243320,37.614570",
    "geom:latitude": 37.5433829035639,
    "geom:longitude": -121.80867101069316,
    "src:alt_label": "swim-approach",
    "src:geom": "swim",
    "swim:elevations": [
      5188,
      4957,
      4518,
      4322,
      4222,
      4113,
      3964,
      3907,
      3809,
      3559,
      3435,
      3230,
      3096,
      2837,
      2748,
      2599,
      2563,
      2313,
      2106,
      1831,
      1829,
      1829,
      1776,
      1639,
      1481,
      1276,
      1123,
      1067,
      959,
      753,
      579,
      488,
      378,
      317,
      158,
      144,
      79,
      178
    ],
    "swim:geom": "approach",
    "swim:timestamps": [
      1776003784,
      1776003812,
      1776003867,
      1776003894,
      1776003909,
      1776003936,
      1776003955,
      1776003963,
      1776003981,
      1776004011,
      1776004031,
      1776004065,
      1776004087,
      1776004128,
      1776004141,
      1776004167,
      1776004172,
      1776004209,
      1776004245,
      1776004287,
      1776004303,
      1776004322,
      1776004345,
      1776004356,
      1776004389,
      1776004432,
      1776004466,
      1776004485,
      1776004509,
      1776004552,
      1776004583,
      1776004601,
      1776004625,
      1776004641,
      1776004678,
      1776004687,
      1776004700,
      1776004716
    ],
    "wof:geomhash": "1cb006269ec5faff4d3f36e93a032c5b",
    "wof:id": 2015270215,
    "wof:repo": "sfomuseum-data-flights-2026-04"
  },
  "bbox": [
    -122.35986,
    37.49164,
    -121.24332,
    37.61457
  ],
  "geometry": {"coordinates":[[-121.24332,37.59545],[-121.28837,37.58951],[-121.37903,37.57953],[-121.42273,37.5743],[-121.44625,37.57161],[-121.48732,37.56684],[-121.5151,37.56372],[-121.52699,37.56236],[-121.55382,37.55916],[-121.59747,37.55394],[-121.62571,37.55044],[-121.67012,37.53977],[-121.69714,37.53353],[-121.74601,37.52209],[-121.76039,37.51857],[-121.79135,37.51098],[-121.79704,37.50958],[-121.84093,37.49887],[-121.88254,37.49164],[-121.93377,37.49418],[-121.953,37.49537],[-121.97612,37.49673],[-122.0032,37.49819],[-122.01547,37.49893],[-122.05541,37.50098],[-122.10539,37.50742],[-122.14145,37.52259],[-122.1595,37.53021],[-122.18266,37.54013],[-122.22351,37.55735],[-122.25217,37.56938],[-122.26877,37.57643],[-122.28873,37.58473],[-122.30138,37.5902],[-122.3302,37.60239],[-122.33714,37.60512],[-122.34699,37.60922],[-122.35986,37.61457]],"type":"LineString"}
}
