{
  "id": 2015337031,
  "type": "Feature",
  "properties": {
    "geom:area": 0,
    "geom:bbox": "-122.380000,33.640000,-84.280000,38.250000",
    "geom:latitude": 36.48224101395164,
    "geom:longitude": -103.27126477430684,
    "src:alt_label": "swim-route",
    "src:geom": "swim",
    "swim:geom": "route",
    "wof:geomhash": "64dc58be9c102a1937fd91e057b56cf0",
    "wof:id": 2015337031,
    "wof:repo": "sfomuseum-data-flights-2026-04"
  },
  "bbox": [
    -122.38,
    33.64,
    -84.28,
    38.25
  ],
  "geometry": {"coordinates":[[-84.43,33.64],[-84.28,33.68],[-84.37,33.69],[-84.49,33.71],[-84.57,33.72],[-84.77,33.74],[-84.99,33.77],[-85.08,33.78],[-85.08,33.78],[-85.2,33.81],[-85.3,33.84],[-85.53,33.9],[-85.56,33.91],[-85.75,33.96],[-85.77,33.97],[-85.88,34],[-86.27,34.1],[-86.55,34.17],[-86.69,34.21],[-86.84,34.25],[-87.06,34.31],[-89.59,34.92],[-89.68,34.95],[-89.98,35.02],[-91.19,35.36],[-91.9,35.56],[-92.23,35.62],[-93.08,35.75],[-94.99,36.02],[-95.14,36.05],[-95.39,36.11],[-95.79,36.2],[-96.91,36.33],[-97.74,36.34],[-99.62,36.35],[-99.88,36.34],[-100.2,36.36],[-100.52,36.37],[-101.52,36.42],[-102.13,36.44],[-104.87,36.49],[-105.36,36.54],[-106.36,36.62],[-106.47,36.63],[-108.1,36.75],[-108.64,36.88],[-109.18,37.01],[-111.23,37.47],[-111.55,37.55],[-112.75,37.85],[-114.06,38.17],[-114.13,38.19],[-114.39,38.25],[-117.23,38.04],[-118.76,37.9],[-119.1,37.86],[-119.78,37.78],[-119.89,37.76],[-119.99,37.75],[-120.09,37.74],[-120.19,37.73],[-120.4,37.7],[-120.47,37.69],[-120.56,37.68],[-120.69,37.67],[-120.74,37.66],[-120.75,37.66],[-120.96,37.63],[-120.96,37.63],[-120.97,37.63],[-121.18,37.67],[-121.22,37.68],[-121.23,37.68],[-121.33,37.7],[-121.5,37.73],[-121.55,37.74],[-121.56,37.74],[-121.7,37.77],[-121.71,37.77],[-121.77,37.78],[-121.98,37.82],[-122.01,37.83],[-122.02,37.83],[-122.04,37.83],[-122.16,37.85],[-122.18,37.85],[-122.21,37.86],[-122.23,37.84],[-122.28,37.77],[-122.28,37.76],[-122.33,37.69],[-122.38,37.62]],"type":"LineString"}
}
