{
  "id": 2015233121,
  "type": "Feature",
  "properties": {
    "geom:area": 0,
    "geom:bbox": "-126.162500,37.633333,-122.400000,38.329722",
    "geom:latitude": 37.99319247307429,
    "geom:longitude": -124.2778836787693,
    "src:alt_label": "swim-path",
    "src:geom": "swim",
    "swim:altitudes": [
      "006",
      "043",
      "043",
      "062",
      "062",
      "085",
      "117",
      "117",
      "132",
      "132",
      "202",
      "202",
      "202",
      "246",
      "246",
      "283",
      "283",
      "283",
      "318C",
      "318C",
      "318C",
      "320C",
      "320C",
      "320C",
      "320C",
      "320C"
    ],
    "swim:geom": "path",
    "swim:speeds": [
      180,
      223,
      223,
      256,
      256,
      264,
      329,
      329,
      366,
      366,
      413,
      413,
      413,
      435,
      435,
      446,
      446,
      446,
      447,
      447,
      447,
      446,
      446,
      447,
      447,
      447
    ],
    "swim:timestamps": [
      1775586267,
      1775586396,
      1775586396,
      1775586456,
      1775586456,
      1775586516,
      1775586637,
      1775586637,
      1775586697,
      1775586697,
      1775586937,
      1775586937,
      1775586937,
      1775587117,
      1775587117,
      1775587298,
      1775587298,
      1775587298,
      1775587478,
      1775587478,
      1775587478,
      1775587838,
      1775587838,
      1775587958,
      1775587958,
      1775587958
    ],
    "wof:geomhash": "a90372402b7b52217c6b8ccef43f82ee",
    "wof:id": 2015233121,
    "wof:repo": "sfomuseum-data-flights-2026-04"
  },
  "bbox": [
    -126.16250000000001,
    37.63333333333333,
    -122.4,
    38.32972222222222
  ],
  "geometry": {"coordinates":[[-122.4,37.63333333333333],[-122.5175,37.67611111111111],[-122.5175,37.67611111111111],[-122.6061111111111,37.68055555555555],[-122.6061111111111,37.68055555555555],[-122.6975,37.69472222222222],[-122.90166666666667,37.73555555555556],[-122.90166666666667,37.73555555555556],[-123.02416666666666,37.75944444444445],[-123.02416666666666,37.75944444444445],[-123.56722222222221,37.86472222222223],[-123.56722222222221,37.86472222222223],[-123.56722222222221,37.86472222222223],[-124.00944444444444,37.948611111111106],[-124.00944444444444,37.948611111111106],[-124.46722222222222,38.03333333333333],[-124.46722222222222,38.03333333333333],[-124.46722222222222,38.03333333333333],[-124.93277777777779,38.1175],[-124.93277777777779,38.1175],[-124.93277777777779,38.1175],[-125.85388888888889,38.27777777777778],[-125.85388888888889,38.27777777777778],[-126.16250000000001,38.32972222222222],[-126.16250000000001,38.32972222222222],[-126.16250000000001,38.32972222222222]],"type":"LineString"}
}
