{
  "id": 2015343071,
  "type": "Feature",
  "properties": {
    "geom:area": 0,
    "geom:bbox": "-122.380000,37.530000,-104.670000,40.850000",
    "geom:latitude": 40.13218416830243,
    "geom:longitude": -113.7067547163898,
    "src:alt_label": "swim-route",
    "src:geom": "swim",
    "swim:geom": "route",
    "wof:geomhash": "580b780871ced945e9867e550403bf5a",
    "wof:id": 2015343071,
    "wof:repo": "sfomuseum-data-flights-2026-04"
  },
  "bbox": [
    -122.38,
    37.53,
    -104.67,
    40.85
  ],
  "geometry": {"coordinates":[[-122.38,37.62],[-122.36,37.61],[-122.34,37.61],[-122.34,37.6],[-122.26,37.57],[-122.24,37.57],[-122.18,37.54],[-122.15,37.53],[-122.12,37.56],[-122.1,37.58],[-122.09,37.59],[-122.03,37.63],[-121.96,37.69],[-121.9,37.75],[-121.83,37.82],[-121.79,37.88],[-121.76,37.91],[-121.74,37.93],[-121.65,38.04],[-121.58,38.12],[-121.51,38.2],[-121.49,38.22],[-121.45,38.27],[-121.44,38.28],[-121.39,38.34],[-121.3,38.39],[-121.22,38.44],[-121.15,38.48],[-121.08,38.53],[-120.9,38.64],[-120.18,39.08],[-119.59,39.42],[-118.8,39.88],[-118.02,40.2],[-117.93,40.22],[-117.42,40.34],[-116.91,40.45],[-116.4,40.57],[-116.13,40.59],[-115.59,40.63],[-114.5,40.7],[-114.45,40.7],[-113.76,40.73],[-112.1,40.84],[-111.98,40.85],[-110.55,40.77],[-109.11,40.68],[-109.05,40.67],[-107.68,40.58],[-106.71,40.5],[-106.53,40.49],[-106.43,40.48],[-106.37,40.47],[-106.22,40.46],[-106.16,40.45],[-106.15,40.45],[-106.12,40.45],[-106.02,40.44],[-105.91,40.43],[-105.82,40.42],[-105.62,40.39],[-105.61,40.38],[-105.61,40.38],[-105.37,40.35],[-105.36,40.34],[-105.2,40.25],[-105.15,40.22],[-105.08,40.18],[-105.04,40.15],[-105.03,40.14],[-104.89,40.03],[-104.88,40.03],[-104.8,39.97],[-104.81,39.84],[-104.81,39.79],[-104.69,39.85],[-104.67,39.86]],"type":"LineString"}
}
