{
  "id": 2015177999,
  "type": "Feature",
  "properties": {
    "geom:area": 0,
    "geom:bbox": "-122.352150,36.723600,-121.879890,37.611390",
    "geom:latitude": 37.21100549064375,
    "geom:longitude": -122.06874654229809,
    "src:alt_label": "swim-approach",
    "src:geom": "swim",
    "swim:elevations": [
      5952,
      5696,
      5307,
      4862,
      4714,
      4362,
      3903,
      3653,
      3157,
      3107,
      3048,
      2870,
      2598,
      2471,
      2094,
      1875,
      1805,
      1526,
      1324,
      1171,
      964,
      766,
      601,
      503,
      375,
      275,
      182,
      43
    ],
    "swim:geom": "approach",
    "swim:timestamps": [
      1775026994,
      1775027017,
      1775027055,
      1775027094,
      1775027106,
      1775027138,
      1775027178,
      1775027202,
      1775027248,
      1775027276,
      1775027294,
      1775027322,
      1775027360,
      1775027378,
      1775027427,
      1775027455,
      1775027470,
      1775027509,
      1775027543,
      1775027567,
      1775027606,
      1775027635,
      1775027664,
      1775027682,
      1775027710,
      1775027738,
      1775027760,
      1775027797
    ],
    "wof:geomhash": "daf2a5a9346a3dc9325b39413f6f1ab8",
    "wof:id": 2015177999,
    "wof:repo": "sfomuseum-data-flights-2026-04"
  },
  "bbox": [
    -122.35215,
    36.7236,
    -121.87989,
    37.61139
  ],
  "geometry": {"coordinates":[[-121.87989,36.7236],[-121.8977,36.75652],[-121.91461,36.81483],[-121.93147,36.87557],[-121.93673,36.89438],[-121.9509,36.94445],[-121.9738,37.00515],[-121.98728,37.04044],[-122.01366,37.1072],[-122.02906,37.14641],[-122.038,37.16934],[-122.05182,37.20451],[-122.07013,37.25156],[-122.07875,37.27341],[-122.10234,37.33353],[-122.11587,37.36748],[-122.12241,37.38431],[-122.13827,37.43182],[-122.15178,37.47182],[-122.16096,37.5003],[-122.18179,37.54265],[-122.2175,37.55468],[-122.24827,37.56674],[-122.26502,37.57415],[-122.28807,37.5843],[-122.30878,37.59329],[-122.32475,37.60001],[-122.35215,37.61139]],"type":"LineString"}
}
