{
  "id": 2015360603,
  "type": "Feature",
  "properties": {
    "geom:area": 0,
    "geom:bbox": "-122.299722,32.767778,-97.050000,38.411667",
    "geom:latitude": 36.38114982733499,
    "geom:longitude": -109.660193667649,
    "src:alt_label": "swim-path",
    "src:geom": "swim",
    "swim:altitudes": [
      "012",
      "012",
      "069",
      "069",
      "069",
      "124",
      "124",
      "124",
      "160",
      "160",
      "190",
      "190",
      "202",
      "202",
      "202",
      "236",
      "252",
      "252",
      "252",
      "252",
      "265",
      "273",
      "283",
      "300C",
      "300C",
      "300C",
      "300C",
      "300C",
      "300C",
      "300C",
      "300C",
      "300C",
      "300C",
      "300C",
      "300C",
      "300C",
      "300C",
      "300C",
      "300C",
      "300C",
      "300C",
      "300C",
      "300C",
      "300C",
      "300C",
      "300C",
      "300C",
      "300C",
      "300C",
      "300C",
      "300C",
      "300C",
      "300C",
      "300C",
      "300C",
      "300C",
      "300C",
      "300C",
      "300C",
      "300C",
      "300C",
      "300C",
      "300C",
      "300C",
      "300C",
      "300C",
      "300C",
      "300C",
      "300C",
      "300C",
      "300C",
      "300C",
      "300C",
      "300C",
      "300C",
      "300C",
      "300C",
      "300C",
      "300C",
      "300C",
      "300C",
      "300C",
      "300C",
      "300C",
      "300C",
      "300C",
      "300C",
      "300C",
      "300C",
      "300C",
      "300C",
      "300C",
      "300C",
      "300C",
      "300C",
      "300C",
      "300C",
      "300C",
      "300C",
      "300C",
      "300C",
      "300C",
      "300C",
      "300C",
      "300C",
      "300C",
      "300C",
      "300C",
      "300C",
      "300C",
      "300C",
      "300C",
      "300C",
      "300C",
      "300C",
      "300C",
      "300C",
      "300C",
      "300C",
      "300",
      "292",
      "270",
      "270",
      "270",
      "244",
      "244",
      "240C",
      "240C",
      "240C",
      "240C",
      "240C",
      "240C",
      "240C",
      "240C",
      "240C",
      "240C",
      "240C",
      "240C",
      "240C",
      "240C",
      "240C",
      "240C",
      "240C",
      "240C",
      "240C",
      "240C",
      "240C",
      "240C",
      "240C",
      "240C",
      "240C",
      "240C",
      "240C",
      "240C",
      "240C",
      "240C",
      "240C",
      "240C",
      "240C",
      "240C",
      "240C",
      "240C",
      "240C",
      "240C",
      "240C",
      "240C",
      "240C",
      "240C",
      "240C",
      "240C",
      "240C",
      "240C",
      "240C",
      "240C",
      "240C",
      "240C",
      "240C",
      "240C",
      "240C",
      "240C",
      "240C",
      "240C",
      "240C",
      "240C",
      "240C",
      "240C",
      "240C",
      "240C",
      "240C",
      "240C",
      "240C",
      "240C",
      "245",
      "245",
      "245",
      "260C",
      "260C",
      "260C",
      "260C",
      "259C",
      "259C",
      "260C",
      "259C",
      "260C",
      "260C",
      "260C",
      "260C",
      "260C",
      "260C",
      "260C",
      "260C",
      "260C",
      "260C",
      "260C",
      "260C",
      "260C",
      "260C",
      "260C",
      "260C",
      "260C",
      "260C",
      "260C",
      "260C",
      "260C",
      "260C",
      "260C",
      "260C",
      "260C",
      "260C",
      "260C",
      "260C",
      "260C",
      "260C",
      "260C",
      "260C",
      "260C",
      "260C",
      "260C",
      "260C",
      "260C",
      "260C",
      "260C",
      "260C",
      "260C",
      "260C",
      "260C",
      "260C",
      "260C",
      "260C",
      "260C",
      "260C",
      "260C",
      "260C",
      "260C",
      "257",
      "252",
      "252",
      "231",
      "193",
      "193",
      "179",
      "149",
      "149",
      "131",
      "125",
      "125",
      "118",
      "116",
      "111",
      "109",
      "102",
      "102",
      "100",
      "100",
      "100",
      "096",
      "090",
      "090",
      "090",
      "090",
      "089",
      "089",
      "079",
      "059",
      "052",
      "039",
      "027",
      "027",
      "027",
      "016",
      "010",
      "010",
      "010"
    ],
    "swim:geom": "path",
    "swim:speeds": [
      169,
      169,
      258,
      258,
      258,
      365,
      365,
      365,
      373,
      373,
      390,
      390,
      395,
      395,
      395,
      411,
      415,
      415,
      415,
      415,
      425,
      431,
      428,
      407,
      407,
      407,
      407,
      406,
      406,
      404,
      404,
      402,
      402,
      402,
      403,
      403,
      403,
      403,
      403,
      403,
      404,
      404,
      399,
      400,
      400,
      400,
      400,
      398,
      397,
      397,
      397,
      395,
      395,
      394,
      394,
      394,
      394,
      394,
      393,
      393,
      392,
      392,
      391,
      392,
      392,
      393,
      393,
      393,
      394,
      397,
      397,
      396,
      396,
      396,
      396,
      398,
      399,
      399,
      399,
      399,
      399,
      400,
      399,
      399,
      399,
      399,
      399,
      400,
      402,
      402,
      410,
      410,
      410,
      406,
      406,
      409,
      409,
      409,
      400,
      400,
      387,
      387,
      387,
      388,
      388,
      390,
      390,
      383,
      383,
      383,
      383,
      383,
      382,
      382,
      382,
      382,
      374,
      382,
      382,
      374,
      375,
      376,
      376,
      364,
      357,
      357,
      364,
      386,
      386,
      368,
      402,
      402,
      392,
      402,
      397,
      402,
      401,
      401,
      401,
      406,
      407,
      407,
      408,
      408,
      408,
      410,
      410,
      412,
      413,
      416,
      416,
      415,
      415,
      417,
      417,
      418,
      418,
      420,
      420,
      421,
      421,
      422,
      422,
      422,
      421,
      421,
      422,
      421,
      421,
      421,
      421,
      421,
      421,
      421,
      426,
      426,
      427,
      427,
      427,
      427,
      427,
      427,
      427,
      429,
      429,
      429,
      429,
      428,
      430,
      430,
      431,
      431,
      431,
      431,
      431,
      433,
      433,
      432,
      432,
      431,
      431,
      431,
      431,
      431,
      431,
      431,
      431,
      431,
      431,
      432,
      432,
      432,
      432,
      432,
      432,
      433,
      434,
      434,
      434,
      434,
      434,
      434,
      435,
      444,
      444,
      445,
      445,
      446,
      446,
      447,
      447,
      447,
      447,
      447,
      447,
      447,
      447,
      447,
      446,
      446,
      446,
      445,
      439,
      439,
      418,
      418,
      416,
      416,
      416,
      416,
      416,
      415,
      415,
      395,
      382,
      386,
      386,
      382,
      373,
      373,
      369,
      353,
      353,
      353,
      346,
      346,
      313,
      300,
      269,
      252,
      242,
      242,
      234,
      239,
      239,
      251,
      248,
      248,
      248,
      248,
      255,
      255,
      243,
      225,
      211,
      209,
      192,
      192,
      192,
      159,
      154,
      154,
      154
    ],
    "swim:timestamps": [
      1776968458,
      1776968458,
      1776968645,
      1776968645,
      1776968645,
      1776968885,
      1776968885,
      1776968885,
      1776969006,
      1776969006,
      1776969126,
      1776969126,
      1776969186,
      1776969186,
      1776969186,
      1776969366,
      1776969486,
      1776969486,
      1776969486,
      1776969486,
      1776969606,
      1776969666,
      1776969727,
      1776969907,
      1776969907,
      1776970027,
      1776970027,
      1776970087,
      1776970087,
      1776970162,
      1776970162,
      1776970267,
      1776970267,
      1776970267,
      1776970388,
      1776970388,
      1776970402,
      1776970448,
      1776970448,
      1776970522,
      1776970582,
      1776970582,
      1776970702,
      1776970748,
      1776970748,
      1776970748,
      1776970762,
      1776970823,
      1776970883,
      1776970883,
      1776970928,
      1776970988,
      1776970988,
      1776971015,
      1776971015,
      1776971075,
      1776971135,
      1776971169,
      1776971195,
      1776971195,
      1776971229,
      1776971229,
      1776971315,
      1776971375,
      1776971375,
      1776971436,
      1776971436,
      1776971436,
      1776971496,
      1776971589,
      1776971589,
      1776971616,
      1776971649,
      1776971649,
      1776971649,
      1776971769,
      1776971796,
      1776971796,
      1776971796,
      1776971830,
      1776971856,
      1776972010,
      1776972036,
      1776972036,
      1776972036,
      1776972070,
      1776972070,
      1776972097,
      1776972217,
      1776972217,
      1776972397,
      1776972397,
      1776972397,
      1776972638,
      1776972638,
      1776972697,
      1776972697,
      1776972697,
      1776972818,
      1776972818,
      1776972998,
      1776972998,
      1776972998,
      1776973058,
      1776973058,
      1776973178,
      1776973178,
      1776973418,
      1776973479,
      1776973479,
      1776973479,
      1776973659,
      1776973719,
      1776973779,
      1776973779,
      1776973779,
      1776973831,
      1776973839,
      1776973839,
      1776973891,
      1776973960,
      1776974071,
      1776974071,
      1776974080,
      1776974140,
      1776974140,
      1776974191,
      1776974200,
      1776974200,
      1776974251,
      1776974260,
      1776974320,
      1776974372,
      1776974380,
      1776974432,
      1776974440,
      1776974492,
      1776974492,
      1776974492,
      1776974612,
      1776974672,
      1776974672,
      1776974681,
      1776974732,
      1776974732,
      1776974741,
      1776974741,
      1776974801,
      1776974852,
      1776974972,
      1776974972,
      1776974981,
      1776974981,
      1776975033,
      1776975033,
      1776975093,
      1776975093,
      1776975213,
      1776975213,
      1776975281,
      1776975281,
      1776975393,
      1776975393,
      1776975453,
      1776975522,
      1776975522,
      1776975573,
      1776975642,
      1776975693,
      1776975702,
      1776975762,
      1776975814,
      1776975814,
      1776975814,
      1776975882,
      1776975934,
      1776975994,
      1776975994,
      1776976054,
      1776976054,
      1776976174,
      1776976174,
      1776976174,
      1776976234,
      1776976294,
      1776976294,
      1776976294,
      1776976414,
      1776976474,
      1776976474,
      1776976595,
      1776976595,
      1776976715,
      1776976715,
      1776976715,
      1776976835,
      1776976895,
      1776977015,
      1776977015,
      1776977023,
      1776977023,
      1776977075,
      1776977083,
      1776977195,
      1776977195,
      1776977255,
      1776977255,
      1776977263,
      1776977323,
      1776977376,
      1776977376,
      1776977376,
      1776977443,
      1776977443,
      1776977443,
      1776977564,
      1776977616,
      1776977684,
      1776977684,
      1776977736,
      1776977804,
      1776977804,
      1776977856,
      1776977916,
      1776977916,
      1776977924,
      1776977924,
      1776977976,
      1776977984,
      1776978097,
      1776978104,
      1776978104,
      1776978157,
      1776978164,
      1776978164,
      1776978225,
      1776978345,
      1776978345,
      1776978465,
      1776978465,
      1776978465,
      1776978525,
      1776978705,
      1776978705,
      1776978765,
      1776978765,
      1776978886,
      1776978886,
      1776978946,
      1776978946,
      1776979006,
      1776979126,
      1776979126,
      1776979246,
      1776979289,
      1776979306,
      1776979306,
      1776979366,
      1776979495,
      1776979495,
      1776979546,
      1776979620,
      1776979620,
      1776979667,
      1776979680,
      1776979680,
      1776979727,
      1776979740,
      1776979787,
      1776979800,
      1776979847,
      1776979847,
      1776979855,
      1776979915,
      1776979915,
      1776979975,
      1776980027,
      1776980027,
      1776980035,
      1776980035,
      1776980095,
      1776980095,
      1776980147,
      1776980275,
      1776980328,
      1776980388,
      1776980448,
      1776980448,
      1776980448,
      1776980515,
      1776980568,
      1776980568,
      1776980568
    ],
    "wof:geomhash": "264babf96527731cd7a1e7f231a5a9fe",
    "wof:id": 2015360603,
    "wof:repo": "sfomuseum-data-flights-2026-04"
  },
  "bbox": [
    -122.29972222222221,
    32.76777777777777,
    -97.05,
    38.41166666666666
  ],
  "geometry": {"coordinates":[[-97.05,32.88333333333333],[-97.05,32.88333333333333],[-97.17805555555556,32.76777777777777],[-97.17805555555556,32.76777777777777],[-97.17805555555556,32.76777777777777],[-97.57638888888889,32.852222222222224],[-97.57638888888889,32.852222222222224],[-97.57638888888889,32.852222222222224],[-97.80638888888889,32.913888888888884],[-97.80638888888889,32.913888888888884],[-98.04777777777778,32.99277777777778],[-98.04777777777778,32.99277777777778],[-98.16972222222223,33.032222222222224],[-98.16972222222223,33.032222222222224],[-98.16972222222223,33.032222222222224],[-98.5375,33.151666666666664],[-98.79416666666667,33.23444444444444],[-98.79416666666667,33.23444444444444],[-98.79416666666667,33.23444444444444],[-98.79416666666667,33.23444444444444],[-99.05749999999999,33.318333333333335],[-99.19361111111111,33.361666666666665],[-99.32472222222222,33.403055555555554],[-99.71083333333334,33.51722222222222],[-99.71083333333334,33.51722222222222],[-99.98416666666667,33.59277777777778],[-99.98416666666667,33.59277777777778],[-100.11138888888888,33.62777777777778],[-100.11138888888888,33.62777777777778],[-100.26083333333334,33.67111111111111],[-100.26083333333334,33.67111111111111],[-100.48527777777778,33.74527777777778],[-100.48527777777778,33.74527777777778],[-100.48527777777778,33.74527777777778],[-100.73611111111111,33.82805555555556],[-100.73611111111111,33.82805555555556],[-100.76055555555556,33.836111111111116],[-100.86083333333333,33.869166666666665],[-100.86083333333333,33.869166666666665],[-101.01027777777777,33.91777777777777],[-101.13805555555557,33.95916666666667],[-101.13805555555557,33.95916666666667],[-101.3875,34.03972222222222],[-101.48722222222223,34.07166666666667],[-101.48722222222223,34.07166666666667],[-101.48722222222223,34.07166666666667],[-101.5125,34.080000000000005],[-101.635,34.11888888888889],[-101.76027777777777,34.15888888888889],[-101.76027777777777,34.15888888888889],[-101.8586111111111,34.19],[-101.98111111111112,34.228611111111114],[-101.98111111111112,34.228611111111114],[-102.0325,34.245],[-102.0325,34.245],[-102.15527777777778,34.28333333333333],[-102.28083333333333,34.32277777777778],[-102.3536111111111,34.345555555555556],[-102.40472222222223,34.36138888888889],[-102.40472222222223,34.36138888888889],[-102.47527777777778,34.38333333333333],[-102.47527777777778,34.38333333333333],[-102.65111111111112,34.437777777777775],[-102.77416666666666,34.47555555555556],[-102.77416666666666,34.47555555555556],[-102.89416666666668,34.520833333333336],[-102.89416666666668,34.520833333333336],[-102.89416666666668,34.520833333333336],[-103.00972222222222,34.57416666666667],[-103.19861111111112,34.66111111111111],[-103.19861111111112,34.66111111111111],[-103.24388888888889,34.681666666666665],[-103.31388888888888,34.71388888888889],[-103.31388888888888,34.71388888888889],[-103.31388888888888,34.71388888888889],[-103.55138888888888,34.82166666666667],[-103.59777777777778,34.8425],[-103.59777777777778,34.8425],[-103.59777777777778,34.8425],[-103.66916666666667,34.875],[-103.71638888888889,34.896388888888886],[-104.02583333333334,35.03527777777778],[-104.07249999999999,35.05611111111111],[-104.07249999999999,35.05611111111111],[-104.07249999999999,35.05611111111111],[-104.14527777777778,35.08833333333334],[-104.14527777777778,35.08833333333334],[-104.19500000000001,35.11055555555556],[-104.43,35.21472222222223],[-104.43,35.21472222222223],[-104.78444444444445,35.370555555555555],[-104.78444444444445,35.370555555555555],[-104.78444444444445,35.370555555555555],[-105.29944444444445,35.59388888888889],[-105.29944444444445,35.59388888888889],[-105.40083333333334,35.63722222222222],[-105.40083333333334,35.63722222222222],[-105.40083333333334,35.63722222222222],[-105.64361111111111,35.74111111111111],[-105.64361111111111,35.74111111111111],[-105.99805555555555,35.89138888888889],[-105.99805555555555,35.89138888888889],[-105.99805555555555,35.89138888888889],[-106.13361111111112,35.94833333333333],[-106.13361111111112,35.94833333333333],[-106.3761111111111,36.05],[-106.3761111111111,36.05],[-106.8386111111111,36.240833333333335],[-106.95583333333333,36.288888888888884],[-106.95583333333333,36.288888888888884],[-106.95583333333333,36.288888888888884],[-107.30694444444444,36.43194444444444],[-107.42500000000001,36.47944444444445],[-107.54166666666667,36.52638888888889],[-107.54166666666667,36.52638888888889],[-107.54166666666667,36.52638888888889],[-107.6363888888889,36.56194444444444],[-107.65861111111111,36.57333333333334],[-107.65861111111111,36.57333333333334],[-107.77333333333333,36.61944444444445],[-107.89250000000001,36.66694444444444],[-108.12472222222222,36.75333333333333],[-108.12472222222222,36.75333333333333],[-108.11444444444444,36.75361111111111],[-108.23083333333334,36.78944444444444],[-108.23083333333334,36.78944444444444],[-108.35416666666666,36.82694444444445],[-108.35472222222222,36.82777777777778],[-108.35472222222222,36.82777777777778],[-108.48,36.8675],[-108.48444444444445,36.867777777777775],[-108.61361111111111,36.907222222222224],[-108.74638888888889,36.948055555555555],[-108.74638888888889,36.9475],[-108.87666666666667,36.986666666666665],[-108.87666666666667,36.986666666666665],[-109.00833333333334,37.02638888888889],[-109.00833333333334,37.02638888888889],[-109.00833333333334,37.02638888888889],[-109.27555555555556,37.10527777777778],[-109.40916666666668,37.14555555555555],[-109.40916666666668,37.14555555555555],[-109.42527777777778,37.150555555555556],[-109.54388888888889,37.18472222222222],[-109.54388888888889,37.18472222222222],[-109.56416666666667,37.19166666666666],[-109.56416666666667,37.19166666666666],[-109.70055555555555,37.231388888888894],[-109.80083333333333,37.26083333333333],[-110.07416666666666,37.34],[-110.07416666666666,37.34],[-110.08555555555554,37.343333333333334],[-110.08555555555554,37.343333333333334],[-110.21222222222222,37.38],[-110.21222222222222,37.38],[-110.35027777777778,37.419444444444444],[-110.35027777777778,37.419444444444444],[-110.6261111111111,37.49777777777778],[-110.6261111111111,37.49777777777778],[-110.7925,37.54472222222222],[-110.7925,37.54472222222222],[-111.04638888888888,37.60861111111111],[-111.04638888888888,37.60861111111111],[-111.18666666666667,37.641666666666666],[-111.35666666666665,37.68138888888889],[-111.35666666666665,37.68138888888889],[-111.47,37.70777777777778],[-111.63972222222223,37.74666666666667],[-111.75361111111111,37.772777777777776],[-111.78277777777778,37.779444444444444],[-111.92361111111111,37.811388888888885],[-112.03555555555555,37.83527777777778],[-112.03555555555555,37.83527777777778],[-112.03555555555555,37.83527777777778],[-112.21305555555556,37.86805555555556],[-112.32666666666667,37.888888888888886],[-112.47361111111111,37.91583333333333],[-112.47361111111111,37.91583333333333],[-112.61805555555554,37.94222222222222],[-112.61805555555554,37.94222222222222],[-112.93722222222223,37.99916666666667],[-112.93722222222223,37.99916666666667],[-112.93722222222223,37.99916666666667],[-113.08388888888888,38.025277777777774],[-113.23055555555555,38.05083333333333],[-113.23055555555555,38.05083333333333],[-113.23055555555555,38.05083333333333],[-113.52444444444444,38.10194444444445],[-113.67166666666667,38.12722222222222],[-113.67166666666667,38.12722222222222],[-113.96611111111112,38.17722222222222],[-113.96611111111112,38.17722222222222],[-114.26444444444445,38.22694444444445],[-114.26444444444445,38.22694444444445],[-114.26444444444445,38.22694444444445],[-114.56722222222221,38.26888888888889],[-114.71888888888888,38.284166666666664],[-115.02,38.31361111111111],[-115.02,38.31361111111111],[-115.02527777777777,38.31444444444444],[-115.02527777777777,38.31444444444444],[-115.16972222222223,38.32777777777778],[-115.17694444444444,38.32944444444445],[-115.47833333333334,38.356944444444444],[-115.47833333333334,38.356944444444444],[-115.62944444444443,38.37083333333334],[-115.62944444444443,38.37083333333334],[-115.63194444444444,38.37083333333334],[-115.78361111111111,38.38444444444444],[-115.93333333333334,38.39805555555556],[-115.93333333333334,38.39805555555556],[-115.93333333333334,38.39805555555556],[-116.08805555555556,38.41166666666666],[-116.08805555555556,38.41166666666666],[-116.08805555555556,38.41166666666666],[-116.39,38.38388888888889],[-116.53666666666666,38.355555555555554],[-116.68611111111112,38.32611111111112],[-116.68611111111112,38.32611111111112],[-116.83555555555554,38.29666666666667],[-116.98583333333333,38.266666666666666],[-116.98583333333333,38.266666666666666],[-117.12972222222221,38.239444444444445],[-117.27888888888889,38.217222222222226],[-117.27888888888889,38.217222222222226],[-117.30555555555556,38.213055555555556],[-117.30555555555556,38.213055555555556],[-117.43166666666667,38.193888888888885],[-117.46472222222222,38.18888888888888],[-117.74083333333333,38.14611111111111],[-117.775,38.14083333333333],[-117.775,38.14083333333333],[-117.89472222222223,38.12222222222222],[-117.92861111111111,38.11694444444444],[-117.92861111111111,38.11694444444444],[-118.08277777777778,38.0925],[-118.39111111111112,38.043055555555554],[-118.39111111111112,38.043055555555554],[-118.69805555555556,37.99305555555556],[-118.69805555555556,37.99305555555556],[-118.69805555555556,37.99305555555556],[-118.85194444444444,37.9675],[-119.29222222222222,37.89361111111111],[-119.29222222222222,37.89361111111111],[-119.43805555555556,37.86888888888889],[-119.43805555555556,37.86888888888889],[-119.7238888888889,37.819722222222225],[-119.7238888888889,37.819722222222225],[-119.86638888888888,37.79472222222222],[-119.86638888888888,37.79472222222222],[-120.00972222222222,37.76972222222222],[-120.295,37.71888888888889],[-120.295,37.71888888888889],[-120.57694444444444,37.67944444444444],[-120.68333333333334,37.666666666666664],[-120.70944444444444,37.663888888888884],[-120.70944444444444,37.663888888888884],[-120.84194444444444,37.647777777777776],[-121.13333333333334,37.61666666666667],[-121.13333333333334,37.61666666666667],[-121.22555555555556,37.59805555555556],[-121.4,37.583333333333336],[-121.4,37.583333333333336],[-121.47277777777778,37.56861111111112],[-121.51666666666667,37.56666666666667],[-121.51666666666667,37.56666666666667],[-121.59861111111111,37.553888888888885],[-121.61666666666666,37.55],[-121.68222222222222,37.56583333333333],[-121.71666666666667,37.583333333333336],[-121.75638888888889,37.60055555555556],[-121.75638888888889,37.60055555555556],[-121.78333333333333,37.61666666666667],[-121.85,37.65],[-121.85,37.65],[-121.91666666666667,37.63333333333333],[-121.91250000000001,37.59277777777778],[-121.91250000000001,37.59277777777778],[-121.9,37.583333333333336],[-121.9,37.583333333333336],[-121.83333333333333,37.53333333333333],[-121.83333333333333,37.53333333333333],[-121.85333333333332,37.47416666666667],[-122.01666666666667,37.46666666666667],[-122.07166666666666,37.49333333333333],[-122.13694444444445,37.520833333333336],[-122.20472222222223,37.54944444444444],[-122.20472222222223,37.54944444444444],[-122.20472222222223,37.54944444444444],[-122.26666666666667,37.583333333333336],[-122.29972222222221,37.589444444444446],[-122.29972222222221,37.589444444444446],[-122.29972222222221,37.589444444444446]],"type":"LineString"}
}
