{
  "id": 2015212913,
  "type": "Feature",
  "properties": {
    "geom:area": 0,
    "geom:bbox": "-122.546260,36.726270,-121.305650,37.667780",
    "geom:latitude": 37.20850460066447,
    "geom:longitude": -122.00834644489187,
    "src:alt_label": "swim-takeoff",
    "src:geom": "swim",
    "swim:elevations": [
      183,
      469,
      569,
      693,
      1263,
      1656,
      2077,
      2513,
      2640,
      3067,
      3360,
      3567,
      4157,
      4566,
      4874,
      4932,
      5435,
      5755,
      6173,
      6386,
      6587,
      6672,
      7161,
      7247,
      7551,
      7670,
      7752,
      7807,
      7918,
      8125,
      8173,
      8503,
      8573,
      8645,
      8863,
      8885,
      9150
    ],
    "swim:geom": "takeoff",
    "swim:timestamps": [
      1775382149,
      1775382178,
      1775382195,
      1775382222,
      1775382261,
      1775382284,
      1775382307,
      1775382332,
      1775382341,
      1775382369,
      1775382394,
      1775382423,
      1775382474,
      1775382507,
      1775382535,
      1775382540,
      1775382582,
      1775382607,
      1775382646,
      1775382667,
      1775382686,
      1775382693,
      1775382740,
      1775382752,
      1775382796,
      1775382807,
      1775382823,
      1775382835,
      1775382859,
      1775382897,
      1775382903,
      1775382958,
      1775382970,
      1775382986,
      1775383018,
      1775383023,
      1775383070
    ],
    "wof:geomhash": "4ca6b0ce51fdc195f27bd5c29e402b7f",
    "wof:id": 2015212913,
    "wof:repo": "sfomuseum-data-flights-2026-04"
  },
  "bbox": [
    -122.54626,
    36.72627,
    -121.30565,
    37.66778
  ],
  "geometry": {"coordinates":[[-122.38744,37.62394],[-122.41187,37.63445],[-122.4285,37.642],[-122.45869,37.6555],[-122.51408,37.66778],[-122.54155,37.65063],[-122.54626,37.62443],[-122.53141,37.59515],[-122.52584,37.58498],[-122.50842,37.55252],[-122.49224,37.52248],[-122.4664,37.48562],[-122.3884,37.43429],[-122.33554,37.40027],[-122.28981,37.37074],[-122.28142,37.36535],[-122.2102,37.31935],[-122.16748,37.29172],[-122.10069,37.24835],[-122.06441,37.22477],[-122.03244,37.20395],[-122.01884,37.19511],[-121.93733,37.14207],[-121.91722,37.12897],[-121.83949,37.07819],[-121.82001,37.06539],[-121.79088,37.04617],[-121.76938,37.03204],[-121.72312,37.00215],[-121.65145,36.95504],[-121.63996,36.94624],[-121.53252,36.8771],[-121.50768,36.86037],[-121.47546,36.83917],[-121.4115,36.79634],[-121.40237,36.79031],[-121.30565,36.72627]],"type":"LineString"}
}
