{
  "id": 2015359577,
  "type": "Feature",
  "properties": {
    "geom:area": 0,
    "geom:bbox": "-122.410080,37.644300,-121.244560,37.991200",
    "geom:latitude": 37.94003456958542,
    "geom:longitude": -121.93346111714877,
    "src:alt_label": "swim-takeoff",
    "src:geom": "swim",
    "swim:elevations": [
      473,
      628,
      1099,
      1208,
      1442,
      2128,
      3387,
      3642,
      3905,
      4293,
      4792,
      5171,
      5293,
      5462,
      5714,
      5796,
      5991,
      6370,
      6527,
      6742,
      6902,
      7015,
      7210,
      7471,
      7532,
      7734
    ],
    "swim:geom": "takeoff",
    "swim:timestamps": [
      1776899638,
      1776899653,
      1776899693,
      1776899708,
      1776899732,
      1776899788,
      1776899876,
      1776899906,
      1776899927,
      1776899966,
      1776900027,
      1776900057,
      1776900066,
      1776900084,
      1776900118,
      1776900130,
      1776900158,
      1776900207,
      1776900225,
      1776900258,
      1776900278,
      1776900293,
      1776900317,
      1776900356,
      1776900362,
      1776900395
    ],
    "wof:geomhash": "441a885546a2aed273309866f47187ce",
    "wof:id": 2015359577,
    "wof:repo": "sfomuseum-data-flights-2026-04"
  },
  "bbox": [
    -122.41008,
    37.6443,
    -121.24456,
    37.9912
  ],
  "geometry": {"coordinates":[[-122.41008,37.6443],[-122.40264,37.65555],[-122.37504,37.68164],[-122.36472,37.69354],[-122.34711,37.71444],[-122.35267,37.77656],[-122.38572,37.88473],[-122.37358,37.92523],[-122.34673,37.94516],[-122.27372,37.96293],[-122.15017,37.98619],[-122.08422,37.98842],[-122.06433,37.98859],[-122.0247,37.98896],[-121.94872,37.98949],[-121.92137,37.98966],[-121.85559,37.98996],[-121.73732,37.99037],[-121.69268,37.99051],[-121.60915,37.99084],[-121.55701,37.991],[-121.51812,37.99106],[-121.45577,37.99104],[-121.35211,37.9912],[-121.33554,37.9912],[-121.24456,37.99118]],"type":"LineString"}
}
