{
  "id": 2031092501,
  "type": "Feature",
  "properties": {
    "geom:area": 0,
    "geom:bbox": "-122.337222,35.364167,-87.023056,37.700000",
    "geom:latitude": 36.08896046676833,
    "geom:longitude": -104.80850981918755,
    "src:alt_label": "swim-path",
    "src:geom": "swim",
    "swim:altitudes": [
      "112",
      "112",
      "189",
      "203",
      "248",
      "248",
      "300C",
      "300C",
      "300C",
      "300C",
      "300C",
      "300C",
      "300C",
      "300C",
      "300C",
      "300C",
      "300C",
      "300C",
      "300C",
      "300C",
      "300C",
      "300C",
      "300C",
      "300C",
      "300C",
      "300C",
      "300C",
      "300C",
      "300C",
      "300C",
      "300C",
      "300C",
      "300C",
      "300C",
      "300C",
      "300C",
      "300C",
      "300C",
      "300C",
      "300C",
      "300C",
      "300C",
      "300C",
      "300C",
      "300C",
      "300C",
      "300C",
      "300C",
      "300C",
      "300C",
      "300C",
      "300C",
      "300C",
      "300C",
      "300C",
      "300C",
      "300C",
      "300C",
      "300C",
      "300C",
      "300C",
      "300C",
      "300C",
      "300C",
      "300C",
      "300C",
      "300C",
      "300C",
      "300C",
      "300C",
      "300C",
      "300C",
      "300C",
      "300C",
      "300C",
      "300C",
      "300C",
      "300C",
      "300C",
      "300C",
      "300C",
      "300C",
      "300C",
      "300C",
      "300C",
      "300C",
      "300C",
      "300",
      "300",
      "298",
      "296",
      "288",
      "288",
      "280C",
      "280C",
      "280C",
      "280C",
      "280C",
      "280C",
      "280C",
      "280C",
      "280C",
      "280C",
      "280C",
      "280C",
      "280C",
      "280C",
      "280C",
      "280C",
      "280C",
      "280C",
      "280C",
      "280C",
      "280C",
      "280C",
      "280C",
      "280C",
      "280C",
      "280C",
      "280C",
      "280C",
      "280C",
      "280C",
      "280C",
      "280C",
      "280C",
      "280C",
      "280C",
      "280C",
      "280C",
      "280C",
      "280C",
      "280C",
      "280C",
      "280C",
      "280C",
      "280C",
      "280C",
      "280C",
      "280C",
      "280C",
      "280C",
      "280C",
      "280C",
      "280C",
      "280C",
      "280C",
      "280C",
      "280C",
      "280C",
      "280C",
      "280C",
      "280C",
      "280C",
      "280C",
      "280C",
      "280C",
      "280C",
      "280",
      "280",
      "280",
      "280",
      "279",
      "268",
      "254",
      "184",
      "154",
      "143",
      "135",
      "124",
      "116",
      "107",
      "100",
      "086",
      "070",
      "062",
      "052",
      "026",
      "017",
      "004"
    ],
    "swim:geom": "path",
    "swim:speeds": [
      303,
      303,
      406,
      420,
      442,
      442,
      448,
      447,
      447,
      450,
      450,
      450,
      450,
      449,
      448,
      448,
      447,
      447,
      446,
      446,
      447,
      447,
      445,
      445,
      445,
      446,
      447,
      447,
      445,
      441,
      429,
      428,
      428,
      426,
      426,
      426,
      427,
      431,
      436,
      437,
      437,
      439,
      440,
      442,
      442,
      442,
      445,
      444,
      442,
      442,
      440,
      430,
      423,
      416,
      416,
      414,
      413,
      413,
      411,
      411,
      409,
      405,
      402,
      402,
      400,
      400,
      394,
      392,
      392,
      400,
      402,
      402,
      402,
      399,
      402,
      400,
      399,
      398,
      396,
      396,
      396,
      395,
      395,
      396,
      396,
      396,
      398,
      399,
      399,
      388,
      388,
      392,
      392,
      394,
      394,
      395,
      396,
      396,
      397,
      398,
      398,
      396,
      396,
      396,
      396,
      393,
      393,
      394,
      393,
      392,
      408,
      409,
      411,
      412,
      399,
      409,
      410,
      407,
      411,
      409,
      409,
      414,
      417,
      415,
      416,
      417,
      418,
      419,
      419,
      421,
      421,
      421,
      421,
      420,
      419,
      418,
      418,
      418,
      419,
      420,
      421,
      420,
      421,
      421,
      424,
      424,
      424,
      423,
      426,
      426,
      420,
      418,
      418,
      419,
      420,
      423,
      424,
      424,
      424,
      424,
      425,
      400,
      397,
      389,
      388,
      372,
      356,
      351,
      344,
      344,
      336,
      336,
      303,
      295,
      278,
      276,
      256,
      207,
      163,
      143
    ],
    "swim:timestamps": [
      1776992112,
      1776992112,
      1776992352,
      1776992412,
      1776992592,
      1776992592,
      1776992893,
      1776993013,
      1776993013,
      1776993193,
      1776993253,
      1776993253,
      1776993313,
      1776993433,
      1776993494,
      1776993494,
      1776993674,
      1776993674,
      1776993854,
      1776993854,
      1776994034,
      1776994034,
      1776994215,
      1776994215,
      1776994275,
      1776994395,
      1776994445,
      1776994445,
      1776994455,
      1776994505,
      1776994565,
      1776994625,
      1776994625,
      1776994686,
      1776994686,
      1776994695,
      1776994755,
      1776994876,
      1776994936,
      1776994996,
      1776994996,
      1776995056,
      1776995116,
      1776995176,
      1776995176,
      1776995226,
      1776995296,
      1776995356,
      1776995407,
      1776995407,
      1776995467,
      1776995527,
      1776995536,
      1776995707,
      1776995707,
      1776995767,
      1776995887,
      1776995887,
      1776996007,
      1776996007,
      1776996127,
      1776996188,
      1776996248,
      1776996248,
      1776996368,
      1776996368,
      1776996488,
      1776996608,
      1776996608,
      1776996909,
      1776996969,
      1776997029,
      1776997029,
      1776997043,
      1776997089,
      1776997103,
      1776997163,
      1776997223,
      1776997269,
      1776997269,
      1776997283,
      1776997329,
      1776997343,
      1776997389,
      1776997389,
      1776997403,
      1776997463,
      1776997523,
      1776997523,
      1776997630,
      1776997644,
      1776997690,
      1776997690,
      1776997750,
      1776997764,
      1776997824,
      1776997884,
      1776997884,
      1776997944,
      1776998004,
      1776998050,
      1776998110,
      1776998110,
      1776998305,
      1776998305,
      1776998365,
      1776998425,
      1776998485,
      1776998545,
      1776998605,
      1776998845,
      1776999506,
      1776999687,
      1776999867,
      1777000167,
      1777000407,
      1777000527,
      1777000828,
      1777000948,
      1777001308,
      1777001428,
      1777001789,
      1777002209,
      1777002414,
      1777002522,
      1777002594,
      1777002654,
      1777002714,
      1777002774,
      1777002895,
      1777002955,
      1777003015,
      1777003136,
      1777003255,
      1777003315,
      1777003375,
      1777003496,
      1777003556,
      1777003616,
      1777003676,
      1777003856,
      1777003976,
      1777004036,
      1777004096,
      1777004337,
      1777004397,
      1777004457,
      1777004757,
      1777004996,
      1777005056,
      1777005176,
      1777005298,
      1777005356,
      1777005416,
      1777005479,
      1777005839,
      1777005896,
      1777005956,
      1777006257,
      1777006317,
      1777006377,
      1777006454,
      1777006497,
      1777006514,
      1777006557,
      1777006737,
      1777006814,
      1777006857,
      1777006874,
      1777006917,
      1777006934,
      1777006978,
      1777007038,
      1777007098,
      1777007175,
      1777007218,
      1777007278,
      1777007415,
      1777007475,
      1777007578
    ],
    "wof:geomhash": "aa25807686aaeee938670e811b008d01",
    "wof:id": 2031092501,
    "wof:repo": "sfomuseum-data-flights-2026-04"
  },
  "bbox": [
    -122.33722222222222,
    35.36416666666667,
    -87.02305555555556,
    37.7
  ],
  "geometry": {"coordinates":[[-87.02305555555556,36.16416666666667],[-87.02305555555556,36.16416666666667],[-87.51166666666667,36.31388888888888],[-87.65444444444445,36.308611111111105],[-88.10583333333332,36.285],[-88.10583333333332,36.285],[-88.8875,36.243611111111115],[-89.16611111111112,36.227222222222224],[-89.16611111111112,36.227222222222224],[-89.60722222222222,36.20111111111111],[-89.79416666666667,36.189166666666665],[-89.79416666666667,36.189166666666665],[-89.94666666666667,36.17944444444444],[-90.25666666666666,36.159166666666664],[-90.41083333333334,36.14861111111111],[-90.41083333333334,36.14861111111111],[-90.86999999999999,36.11611111111111],[-90.86999999999999,36.11611111111111],[-91.33361111111111,36.077222222222225],[-91.33361111111111,36.077222222222225],[-91.78972222222222,36.03666666666666],[-91.78972222222222,36.03666666666666],[-92.24361111111111,35.994166666666665],[-92.24361111111111,35.994166666666665],[-92.39694444444446,35.97944444444445],[-92.69722222222222,35.95],[-92.81777777777778,35.93805555555555],[-92.81777777777778,35.93805555555555],[-92.84777777777778,35.934999999999995],[-92.96444444444445,35.924166666666665],[-93.10666666666665,35.90888888888889],[-93.25055555555555,35.89416666666666],[-93.25055555555555,35.89416666666666],[-93.41916666666667,35.876111111111115],[-93.41916666666667,35.876111111111115],[-93.42166666666667,35.87583333333333],[-93.56638888888888,35.86055555555556],[-93.85694444444444,35.82916666666667],[-94.00472222222223,35.81305555555555],[-94.15277777777779,35.796388888888885],[-94.15277777777779,35.796388888888885],[-94.30305555555556,35.77972222222222],[-94.46388888888889,35.76138888888889],[-94.61472222222221,35.74388888888889],[-94.61472222222221,35.74388888888889],[-94.7363888888889,35.72972222222222],[-94.91944444444445,35.708333333333336],[-95.06972222222223,35.690555555555555],[-95.19111111111111,35.67583333333333],[-95.19111111111111,35.67583333333333],[-95.33833333333332,35.658055555555556],[-95.4875,35.63972222222222],[-95.51444444444445,35.63638888888889],[-95.89777777777779,35.58861111111111],[-95.89777777777779,35.58861111111111],[-96.03527777777778,35.57083333333334],[-96.31305555555555,35.535],[-96.31305555555555,35.535],[-96.58749999999999,35.49888888888889],[-96.58749999999999,35.49888888888889],[-96.86277777777777,35.46194444444445],[-96.99777777777778,35.44361111111111],[-97.13277777777778,35.42527777777777],[-97.13277777777778,35.42527777777777],[-97.41861111111112,35.38527777777778],[-97.41861111111112,35.38527777777778],[-97.67750000000001,35.36416666666667],[-97.94416666666667,35.38583333333333],[-97.94416666666667,35.38583333333333],[-98.61583333333333,35.43805555555555],[-98.7525,35.44833333333333],[-98.88861111111112,35.458333333333336],[-98.88861111111112,35.458333333333336],[-98.90944444444445,35.459722222222226],[-99.02555555555556,35.46805555555556],[-99.04527777777777,35.46944444444445],[-99.18027777777779,35.47916666666667],[-99.31472222222222,35.48861111111111],[-99.42750000000001,35.49611111111111],[-99.42750000000001,35.49611111111111],[-99.44777777777779,35.4975],[-99.55361111111111,35.504444444444445],[-99.57972222222222,35.506388888888885],[-99.6875,35.51361111111111],[-99.6875,35.51361111111111],[-99.715,35.515277777777776],[-99.85111111111111,35.524166666666666],[-99.98694444444445,35.533055555555556],[-99.98694444444445,35.533055555555556],[-100.22444444444444,35.547777777777775],[-100.25194444444445,35.549166666666665],[-100.35749999999999,35.55583333333333],[-100.35749999999999,35.55583333333333],[-100.49166666666667,35.56388888888888],[-100.51916666666666,35.56527777777777],[-100.65444444444445,35.57333333333334],[-100.78861111111111,35.58111111111111],[-100.78861111111111,35.58111111111111],[-100.92361111111111,35.58833333333334],[-101.0586111111111,35.59583333333334],[-101.16583333333334,35.60166666666667],[-101.29833333333333,35.60861111111111],[-101.29833333333333,35.60861111111111],[-101.75305555555556,35.63138888888889],[-101.75305555555556,35.63138888888889],[-101.88527777777779,35.63805555555555],[-102.01833333333333,35.644444444444446],[-102.1538888888889,35.650277777777774],[-102.28555555555555,35.656388888888884],[-102.4175,35.661944444444444],[-102.95916666666668,35.68416666666666],[-104.48472222222222,35.73305555555556],[-104.93277777777779,35.743611111111115],[-105.345,35.75083333333333],[-106.0363888888889,35.76416666666667],[-106.58277777777778,35.76916666666666],[-106.86055555555555,35.771388888888886],[-107.55833333333334,35.774166666666666],[-107.84055555555555,35.771388888888886],[-108.68694444444445,35.7675],[-108.97638888888889,35.764722222222225],[-109.81888888888888,35.75194444444445],[-110.8175,35.72916666666667],[-111.30083333333333,35.71527777777778],[-111.55277777777778,35.706944444444446],[-111.72666666666667,35.70111111111111],[-111.87166666666666,35.69611111111111],[-112.01444444444445,35.691111111111105],[-112.15611111111112,35.68583333333333],[-112.44361111111111,35.674166666666665],[-112.58361111111111,35.66861111111111],[-112.72333333333333,35.66277777777778],[-113.00805555555556,35.650277777777774],[-113.29194444444444,35.636944444444445],[-113.43416666666667,35.63027777777778],[-113.5736111111111,35.63388888888889],[-113.84305555555555,35.71027777777778],[-113.98444444444445,35.75055555555556],[-114.11999999999999,35.78861111111111],[-114.25638888888889,35.82694444444445],[-114.66472222222222,35.94083333333333],[-114.9325,36.02611111111111],[-115.05916666666667,36.081388888888895],[-115.18722222222223,36.13722222222222],[-115.71361111111112,36.364444444444445],[-115.84222222222222,36.419444444444444],[-115.96638888888889,36.472500000000004],[-116.61694444444444,36.74611111111111],[-117.02694444444444,37.049166666666665],[-117.1261111111111,37.13666666666666],[-117.33749999999999,37.29972222222222],[-117.65361111111112,37.346944444444446],[-117.76972222222223,37.363055555555555],[-117.91555555555556,37.38333333333333],[-118.06138888888889,37.40333333333333],[-118.93555555555555,37.519444444444446],[-119.08944444444444,37.53916666666667],[-119.23333333333333,37.55722222222222],[-119.95166666666667,37.645833333333336],[-120.09944444444444,37.663333333333334],[-120.24916666666667,37.68111111111111],[-120.45,37.7],[-120.52944444444444,37.68444444444444],[-120.58333333333333,37.68333333333333],[-120.66222222222223,37.66888888888889],[-121.05361111111111,37.62083333333334],[-121.23333333333333,37.6],[-121.30694444444444,37.58722222222222],[-121.35,37.583333333333336],[-121.42583333333334,37.57416666666667],[-121.46666666666667,37.56666666666667],[-121.54166666666667,37.56055555555555],[-121.64888888888889,37.544999999999995],[-121.7475,37.52166666666667],[-121.88333333333334,37.483333333333334],[-121.94055555555556,37.49444444444445],[-122.03027777777778,37.5],[-122.21666666666667,37.55],[-122.26666666666667,37.583333333333336],[-122.33722222222222,37.60527777777778]],"type":"LineString"}
}
