{
  "id": 2015281429,
  "type": "Feature",
  "properties": {
    "geom:area": 0,
    "geom:bbox": "-122.399540,37.628420,-122.096520,38.507840",
    "geom:latitude": 38.03049380030577,
    "geom:longitude": -122.20060022737681,
    "src:alt_label": "swim-takeoff",
    "src:geom": "swim",
    "swim:elevations": [
      183,
      213,
      522,
      682,
      1022,
      1395,
      1903,
      2033,
      2485,
      3070,
      3245,
      3346,
      3766,
      4232,
      4725,
      5415,
      5691,
      6158,
      6434,
      6813,
      7105,
      7321,
      7606
    ],
    "swim:geom": "takeoff",
    "swim:timestamps": [
      1776078299,
      1776078301,
      1776078340,
      1776078367,
      1776078408,
      1776078437,
      1776078477,
      1776078488,
      1776078523,
      1776078564,
      1776078583,
      1776078603,
      1776078645,
      1776078677,
      1776078715,
      1776078764,
      1776078789,
      1776078830,
      1776078856,
      1776078891,
      1776078921,
      1776078943,
      1776078975
    ],
    "wof:geomhash": "620a4b61d8fef3066cd638bea7ffc3e8",
    "wof:id": 2015281429,
    "wof:repo": "sfomuseum-data-flights-2026-04"
  },
  "bbox": [
    -122.39954,
    37.62842,
    -122.09652,
    38.50784
  ],
  "geometry": {"coordinates":[[-122.39292,37.62842],[-122.39489,37.62922],[-122.39954,37.65534],[-122.36839,37.66517],[-122.31493,37.68339],[-122.27568,37.69819],[-122.254,37.74234],[-122.25135,37.75508],[-122.24137,37.79744],[-122.22925,37.84812],[-122.22368,37.87229],[-122.21699,37.89993],[-122.20237,37.96106],[-122.19068,38.01078],[-122.1765,38.07019],[-122.158,38.14834],[-122.14818,38.18839],[-122.13226,38.25591],[-122.12186,38.29926],[-122.11082,38.35941],[-122.10572,38.41156],[-122.10185,38.45137],[-122.09652,38.50784]],"type":"LineString"}
}
