{
  "id": 2015288399,
  "type": "Feature",
  "properties": {
    "geom:area": 0,
    "geom:bbox": "-122.551010,37.167680,-121.295400,37.668080",
    "geom:latitude": 37.35316247760737,
    "geom:longitude": -122.03998502472508,
    "src:alt_label": "swim-takeoff",
    "src:geom": "swim",
    "swim:elevations": [
      213,
      400,
      693,
      819,
      1161,
      1448,
      1843,
      2024,
      2397,
      2643,
      2920,
      3491,
      3805,
      4123,
      4263,
      4392,
      4481,
      4575,
      4850,
      5094,
      5436,
      5612,
      5888,
      6133,
      6346,
      6455,
      6694,
      6802,
      7002,
      7206,
      7249
    ],
    "swim:geom": "takeoff",
    "swim:timestamps": [
      1776169671,
      1776169680,
      1776169733,
      1776169745,
      1776169785,
      1776169828,
      1776169857,
      1776169872,
      1776169907,
      1776169931,
      1776169958,
      1776170008,
      1776170033,
      1776170069,
      1776170098,
      1776170127,
      1776170148,
      1776170164,
      1776170199,
      1776170228,
      1776170265,
      1776170297,
      1776170329,
      1776170359,
      1776170388,
      1776170404,
      1776170439,
      1776170456,
      1776170484,
      1776170514,
      1776170524
    ],
    "wof:geomhash": "6508697f7b231bda0f81646af7d43b4d",
    "wof:id": 2015288399,
    "wof:repo": "sfomuseum-data-flights-2026-04"
  },
  "bbox": [
    -122.55101,
    37.16768,
    -121.2954,
    37.66808
  ],
  "geometry": {"coordinates":[[-122.38953,37.62489],[-122.39667,37.628],[-122.44428,37.64874],[-122.4569,37.65432],[-122.50203,37.66808],[-122.53772,37.63424],[-122.54502,37.59923],[-122.55101,37.58089],[-122.54328,37.53838],[-122.52042,37.51254],[-122.49299,37.48263],[-122.44123,37.42408],[-122.41443,37.39488],[-122.36814,37.36064],[-122.31228,37.35042],[-122.2542,37.34016],[-122.20735,37.33181],[-122.17242,37.32564],[-122.09239,37.31142],[-122.02482,37.29949],[-121.93734,37.28398],[-121.86014,37.27021],[-121.78265,37.2563],[-121.7103,37.24329],[-121.63805,37.23014],[-121.59986,37.22324],[-121.51132,37.20718],[-121.46787,37.19925],[-121.39767,37.18644],[-121.32266,37.1727],[-121.2954,37.16768]],"type":"LineString"}
}
