{
  "id": 2015356523,
  "type": "Feature",
  "properties": {
    "geom:area": 0,
    "geom:bbox": "-122.520556,32.902222,-97.050000,38.513889",
    "geom:latitude": 36.92974341990797,
    "geom:longitude": -109.53058015643836,
    "src:alt_label": "swim-path",
    "src:geom": "swim",
    "swim:altitudes": [
      "008",
      "008",
      "008",
      "008",
      "023",
      "037",
      "037",
      "091",
      "091",
      "091",
      "108",
      "108",
      "108",
      "108",
      "155",
      "155",
      "155",
      "182",
      "182",
      "210",
      "210",
      "210",
      "224",
      "224",
      "224",
      "235",
      "235",
      "255",
      "255",
      "255",
      "255",
      "255",
      "280",
      "280",
      "282",
      "282",
      "282",
      "289",
      "296",
      "296",
      "296",
      "310",
      "310",
      "312",
      "312",
      "312",
      "316",
      "327",
      "327",
      "327",
      "327",
      "330C",
      "330C",
      "330C",
      "330C",
      "330C",
      "330C",
      "330C",
      "330C",
      "330C",
      "331C",
      "331C",
      "331C",
      "331C",
      "330C",
      "330C",
      "330C",
      "330C",
      "330C",
      "330C",
      "330C",
      "330C",
      "330C",
      "330C",
      "330C",
      "330C",
      "330C",
      "330C",
      "330C",
      "330C",
      "330C",
      "330C",
      "330C",
      "330C",
      "330C",
      "330C",
      "330C",
      "330C",
      "330C",
      "330C",
      "330C",
      "330C",
      "330C",
      "330C",
      "330C",
      "330C",
      "330C",
      "330C",
      "330C",
      "330C",
      "330C",
      "330C",
      "331C",
      "331C",
      "331C",
      "330C",
      "330C",
      "330C",
      "330C",
      "330C",
      "330C",
      "330C",
      "330C",
      "330C",
      "330C",
      "330C",
      "330C",
      "330C",
      "330C",
      "330C",
      "330C",
      "330C",
      "330C",
      "330C",
      "330C",
      "330C",
      "330C",
      "330C",
      "331C",
      "331C",
      "330C",
      "330C",
      "330C",
      "330C",
      "330C",
      "330C",
      "330C",
      "330C",
      "330C",
      "330C",
      "330C",
      "330C",
      "330C",
      "330C",
      "330C",
      "330C",
      "330C",
      "330C",
      "330C",
      "330C",
      "330C",
      "330C",
      "330C",
      "330C",
      "330C",
      "330C",
      "330C",
      "330C",
      "330C",
      "330C",
      "330C",
      "330C",
      "330C",
      "330C",
      "330C",
      "330C",
      "330C",
      "330C",
      "330C",
      "330C",
      "330C",
      "330C",
      "330C",
      "330C",
      "330C",
      "330C",
      "330C",
      "330C",
      "330C",
      "330C",
      "331C",
      "331C",
      "331C",
      "331C",
      "330C",
      "330C",
      "330C",
      "330C",
      "330C",
      "331C",
      "330C",
      "330C",
      "330C",
      "330C",
      "330C",
      "330C",
      "330C",
      "330C",
      "330C",
      "331C",
      "331C",
      "331C",
      "330C",
      "330C",
      "330C",
      "330C",
      "330C",
      "330C",
      "330C",
      "330C",
      "330C",
      "330C",
      "330C",
      "330C",
      "330C",
      "330C",
      "330C",
      "330C",
      "330C",
      "330C",
      "330C",
      "330C",
      "330C",
      "330C",
      "330C",
      "330C",
      "330C",
      "330C",
      "330C",
      "330C",
      "330C",
      "330C",
      "330C",
      "330C",
      "330C",
      "330C",
      "330C",
      "330C",
      "330C",
      "329C",
      "329C",
      "329C",
      "330C",
      "330C",
      "330C",
      "330C",
      "330C",
      "330C",
      "330C",
      "330C",
      "330C",
      "330C",
      "330",
      "323",
      "323",
      "323",
      "323",
      "283",
      "283",
      "263",
      "263",
      "254",
      "254",
      "226",
      "226",
      "208",
      "128",
      "111",
      "111",
      "111",
      "104",
      "104",
      "040",
      "040",
      "040",
      "040",
      "041",
      "040",
      "040",
      "040",
      "025",
      "025",
      "011",
      "011",
      "006"
    ],
    "swim:geom": "path",
    "swim:speeds": [
      175,
      175,
      175,
      175,
      202,
      264,
      264,
      280,
      280,
      280,
      308,
      308,
      308,
      308,
      397,
      397,
      397,
      434,
      434,
      459,
      459,
      459,
      463,
      463,
      463,
      478,
      478,
      499,
      499,
      499,
      499,
      499,
      523,
      523,
      526,
      526,
      526,
      528,
      537,
      537,
      537,
      541,
      541,
      541,
      541,
      541,
      542,
      542,
      542,
      542,
      542,
      539,
      539,
      538,
      538,
      538,
      538,
      538,
      539,
      539,
      540,
      540,
      540,
      540,
      537,
      536,
      536,
      536,
      536,
      536,
      536,
      535,
      535,
      535,
      535,
      532,
      532,
      531,
      531,
      530,
      530,
      530,
      529,
      529,
      529,
      529,
      529,
      529,
      530,
      527,
      527,
      527,
      527,
      527,
      527,
      527,
      529,
      529,
      529,
      533,
      533,
      533,
      535,
      535,
      535,
      536,
      536,
      536,
      534,
      534,
      533,
      533,
      533,
      533,
      532,
      532,
      532,
      531,
      531,
      531,
      531,
      526,
      526,
      526,
      526,
      525,
      525,
      525,
      524,
      524,
      514,
      514,
      514,
      514,
      514,
      514,
      514,
      516,
      516,
      516,
      519,
      519,
      519,
      521,
      521,
      512,
      512,
      512,
      507,
      507,
      507,
      507,
      505,
      505,
      504,
      504,
      504,
      506,
      506,
      506,
      507,
      507,
      507,
      508,
      508,
      508,
      508,
      506,
      506,
      504,
      504,
      500,
      500,
      500,
      500,
      500,
      499,
      499,
      497,
      497,
      489,
      489,
      489,
      489,
      489,
      489,
      490,
      490,
      490,
      495,
      492,
      492,
      492,
      490,
      490,
      490,
      490,
      490,
      490,
      492,
      492,
      492,
      492,
      492,
      492,
      491,
      489,
      489,
      489,
      489,
      487,
      487,
      490,
      488,
      488,
      488,
      487,
      487,
      486,
      486,
      486,
      486,
      486,
      485,
      485,
      485,
      488,
      488,
      490,
      490,
      490,
      490,
      492,
      493,
      493,
      493,
      491,
      491,
      491,
      488,
      488,
      488,
      481,
      481,
      481,
      474,
      474,
      474,
      474,
      463,
      463,
      464,
      466,
      466,
      466,
      466,
      466,
      448,
      448,
      431,
      431,
      430,
      430,
      431,
      431,
      418,
      381,
      369,
      369,
      369,
      315,
      315,
      226,
      226,
      226,
      226,
      157,
      154,
      154,
      154,
      153,
      153,
      145,
      145,
      135
    ],
    "swim:timestamps": [
      1776894781,
      1776894781,
      1776894781,
      1776894781,
      1776894841,
      1776894901,
      1776894901,
      1776895021,
      1776895021,
      1776895021,
      1776895081,
      1776895081,
      1776895081,
      1776895081,
      1776895261,
      1776895261,
      1776895261,
      1776895381,
      1776895381,
      1776895502,
      1776895502,
      1776895502,
      1776895562,
      1776895562,
      1776895562,
      1776895622,
      1776895622,
      1776895742,
      1776895742,
      1776895742,
      1776895742,
      1776895742,
      1776895922,
      1776895922,
      1776895934,
      1776895934,
      1776895934,
      1776895994,
      1776896054,
      1776896054,
      1776896054,
      1776896174,
      1776896174,
      1776896234,
      1776896234,
      1776896234,
      1776896283,
      1776896343,
      1776896343,
      1776896343,
      1776896343,
      1776896415,
      1776896415,
      1776896463,
      1776896463,
      1776896463,
      1776896583,
      1776896583,
      1776896595,
      1776896595,
      1776896715,
      1776896715,
      1776896715,
      1776896715,
      1776896823,
      1776896883,
      1776896883,
      1776896883,
      1776896895,
      1776896895,
      1776896895,
      1776896955,
      1776896955,
      1776896955,
      1776896955,
      1776897124,
      1776897124,
      1776897136,
      1776897136,
      1776897256,
      1776897256,
      1776897256,
      1776897316,
      1776897316,
      1776897316,
      1776897376,
      1776897376,
      1776897376,
      1776897496,
      1776897556,
      1776897556,
      1776897556,
      1776897556,
      1776897616,
      1776897616,
      1776897616,
      1776897736,
      1776897736,
      1776897736,
      1776897857,
      1776897857,
      1776897857,
      1776897917,
      1776897917,
      1776897917,
      1776897977,
      1776897977,
      1776897977,
      1776898097,
      1776898097,
      1776898157,
      1776898157,
      1776898157,
      1776898157,
      1776898452,
      1776898452,
      1776898452,
      1776898518,
      1776898518,
      1776898518,
      1776898518,
      1776898698,
      1776898698,
      1776898698,
      1776898698,
      1776898752,
      1776898752,
      1776898752,
      1776898813,
      1776898813,
      1776899178,
      1776899178,
      1776899178,
      1776899178,
      1776899178,
      1776899293,
      1776899293,
      1776899353,
      1776899359,
      1776899359,
      1776899473,
      1776899479,
      1776899479,
      1776899534,
      1776899534,
      1776899654,
      1776899654,
      1776899654,
      1776899774,
      1776899774,
      1776899774,
      1776899774,
      1776899834,
      1776899834,
      1776899894,
      1776899894,
      1776899894,
      1776900014,
      1776900014,
      1776900014,
      1776900074,
      1776900074,
      1776900074,
      1776900194,
      1776900194,
      1776900194,
      1776900194,
      1776900227,
      1776900227,
      1776900315,
      1776900315,
      1776900375,
      1776900375,
      1776900375,
      1776900407,
      1776900407,
      1776900467,
      1776900467,
      1776900495,
      1776900495,
      1776900555,
      1776900555,
      1776900555,
      1776900555,
      1776900647,
      1776900647,
      1776900708,
      1776900708,
      1776900708,
      1776900768,
      1776900976,
      1776900976,
      1776900976,
      1776901068,
      1776901068,
      1776901068,
      1776901128,
      1776901128,
      1776901128,
      1776901248,
      1776901248,
      1776901248,
      1776901308,
      1776901308,
      1776901308,
      1776901369,
      1776901549,
      1776901549,
      1776901549,
      1776901549,
      1776901789,
      1776901789,
      1776901843,
      1776901849,
      1776901849,
      1776901849,
      1776901903,
      1776901903,
      1776901963,
      1776901963,
      1776901963,
      1776901963,
      1776901963,
      1776902024,
      1776902024,
      1776902024,
      1776902144,
      1776902144,
      1776902210,
      1776902210,
      1776902210,
      1776902210,
      1776902270,
      1776902384,
      1776902384,
      1776902390,
      1776902510,
      1776902510,
      1776902510,
      1776902576,
      1776902576,
      1776902576,
      1776902817,
      1776902817,
      1776902817,
      1776902877,
      1776902877,
      1776902877,
      1776902877,
      1776903111,
      1776903111,
      1776903117,
      1776903177,
      1776903237,
      1776903237,
      1776903237,
      1776903237,
      1776903478,
      1776903478,
      1776903598,
      1776903598,
      1776903658,
      1776903658,
      1776903778,
      1776903778,
      1776903838,
      1776904078,
      1776904139,
      1776904139,
      1776904139,
      1776904190,
      1776904190,
      1776904559,
      1776904559,
      1776904559,
      1776904559,
      1776904679,
      1776904739,
      1776904739,
      1776904739,
      1776904860,
      1776904860,
      1776904973,
      1776904973,
      1776905040
    ],
    "wof:geomhash": "ca4921072ab032c2fa1d0dc187f218f9",
    "wof:id": 2015356523,
    "wof:repo": "sfomuseum-data-flights-2026-04"
  },
  "bbox": [
    -122.52055555555556,
    32.90222222222222,
    -97.05,
    38.513888888888886
  ],
  "geometry": {"coordinates":[[-122.39305555555556,37.62861111111111],[-122.39305555555556,37.62861111111111],[-122.39305555555556,37.62861111111111],[-122.39305555555556,37.62861111111111],[-122.45083333333334,37.65222222222222],[-122.52055555555556,37.69027777777777],[-122.52055555555556,37.69027777777777],[-122.45861111111111,37.80638888888888],[-122.45861111111111,37.80638888888888],[-122.45861111111111,37.80638888888888],[-122.35666666666665,37.82083333333334],[-122.35666666666665,37.82083333333334],[-122.35666666666665,37.82083333333334],[-122.35666666666665,37.82083333333334],[-121.97277777777778,37.87416666666667],[-121.97277777777778,37.87416666666667],[-121.97277777777778,37.87416666666667],[-121.6725,37.92861111111111],[-121.6725,37.92861111111111],[-121.37249999999999,38.01361111111111],[-121.37249999999999,38.01361111111111],[-121.37249999999999,38.01361111111111],[-121.22,38.05583333333333],[-121.22,38.05583333333333],[-121.22,38.05583333333333],[-121.06027777777777,38.095555555555556],[-121.06027777777777,38.095555555555556],[-120.71777777777778,38.13944444444444],[-120.71777777777778,38.13944444444444],[-120.71777777777778,38.13944444444444],[-120.71777777777778,38.13944444444444],[-120.71777777777778,38.13944444444444],[-120.18055555555556,38.20611111111111],[-120.18055555555556,38.20611111111111],[-120.12305555555555,38.211666666666666],[-120.12305555555555,38.211666666666666],[-120.12305555555555,38.211666666666666],[-119.93777777777778,38.23416666666667],[-119.74888888888889,38.25694444444444],[-119.74888888888889,38.25694444444444],[-119.74888888888889,38.25694444444444],[-119.3711111111111,38.301111111111105],[-119.3711111111111,38.301111111111105],[-119.18277777777779,38.32194444444445],[-119.18277777777779,38.32194444444445],[-119.18277777777779,38.32194444444445],[-119.03027777777778,38.33972222222222],[-118.84166666666667,38.36083333333333],[-118.84166666666667,38.36083333333333],[-118.84166666666667,38.36083333333333],[-118.84166666666667,38.36083333333333],[-118.61916666666666,38.384166666666665],[-118.61916666666666,38.384166666666665],[-118.46833333333333,38.40083333333333],[-118.46833333333333,38.40083333333333],[-118.46833333333333,38.40083333333333],[-118.09277777777777,38.44027777777777],[-118.09277777777777,38.44027777777777],[-118.06611111111111,38.44305555555555],[-118.06611111111111,38.44305555555555],[-117.68527777777778,38.48166666666667],[-117.68527777777778,38.48166666666667],[-117.68527777777778,38.48166666666667],[-117.68527777777778,38.48166666666667],[-117.33749999999999,38.513888888888886],[-117.14611111111111,38.50805555555556],[-117.14611111111111,38.50805555555556],[-117.14611111111111,38.50805555555556],[-117.11277777777777,38.50527777777778],[-117.11277777777777,38.50527777777778],[-117.11277777777777,38.50527777777778],[-116.92111111111112,38.488055555555555],[-116.92111111111112,38.488055555555555],[-116.92111111111112,38.488055555555555],[-116.92111111111112,38.488055555555555],[-116.39250000000001,38.439722222222215],[-116.39250000000001,38.439722222222215],[-116.35749999999999,38.43611111111111],[-116.35749999999999,38.43611111111111],[-115.98361111111112,38.409444444444446],[-115.98361111111112,38.409444444444446],[-115.98361111111112,38.409444444444446],[-115.79555555555555,38.39888888888889],[-115.79555555555555,38.39888888888889],[-115.79555555555555,38.39888888888889],[-115.60972222222222,38.388333333333335],[-115.60972222222222,38.388333333333335],[-115.60972222222222,38.388333333333335],[-115.23972222222223,38.36638888888889],[-115.05416666666666,38.35472222222222],[-115.05416666666666,38.35472222222222],[-115.05416666666666,38.35472222222222],[-115.05416666666666,38.35472222222222],[-114.86861111111111,38.34305555555556],[-114.86861111111111,38.34305555555556],[-114.86861111111111,38.34305555555556],[-114.49694444444445,38.31861111111112],[-114.49694444444445,38.31861111111112],[-114.49694444444445,38.31861111111112],[-114.1211111111111,38.2925],[-114.1211111111111,38.2925],[-114.1211111111111,38.2925],[-113.93305555555555,38.278888888888886],[-113.93305555555555,38.278888888888886],[-113.93305555555555,38.278888888888886],[-113.74194444444444,38.265],[-113.74194444444444,38.265],[-113.74194444444444,38.265],[-113.36611111111111,38.236666666666665],[-113.36611111111111,38.236666666666665],[-113.17694444444444,38.221944444444446],[-113.17694444444444,38.221944444444446],[-113.17694444444444,38.221944444444446],[-113.17694444444444,38.221944444444446],[-112.23944444444444,38.14388888888889],[-112.23944444444444,38.14388888888889],[-112.23944444444444,38.14388888888889],[-112.05083333333333,38.12722222222222],[-112.05083333333333,38.12722222222222],[-112.05083333333333,38.12722222222222],[-112.05083333333333,38.12722222222222],[-111.49888888888889,38.077222222222225],[-111.49888888888889,38.077222222222225],[-111.49888888888889,38.077222222222225],[-111.49888888888889,38.077222222222225],[-111.3536111111111,38.06361111111111],[-111.3536111111111,38.06361111111111],[-111.3536111111111,38.06361111111111],[-111.16916666666667,38.045833333333334],[-111.16916666666667,38.045833333333334],[-110.07222222222222,37.93527777777778],[-110.07222222222222,37.93527777777778],[-110.07222222222222,37.93527777777778],[-110.07222222222222,37.93527777777778],[-110.07222222222222,37.93527777777778],[-109.72444444444444,37.897777777777776],[-109.72444444444444,37.897777777777776],[-109.54333333333334,37.878055555555555],[-109.53666666666666,37.87722222222222],[-109.53666666666666,37.87722222222222],[-109.18138888888889,37.83722222222222],[-109.13722222222223,37.83222222222223],[-109.13722222222223,37.83222222222223],[-108.99833333333333,37.81583333333333],[-108.99833333333333,37.81583333333333],[-108.65916666666668,37.725833333333334],[-108.65916666666668,37.725833333333334],[-108.65916666666668,37.725833333333334],[-108.32805555555555,37.62444444444444],[-108.32805555555555,37.62444444444444],[-108.32805555555555,37.62444444444444],[-108.32805555555555,37.62444444444444],[-108.16222222222223,37.573055555555555],[-108.16222222222223,37.573055555555555],[-107.99777777777778,37.52194444444444],[-107.99777777777778,37.52194444444444],[-107.99777777777778,37.52194444444444],[-107.66722222222222,37.418055555555554],[-107.66722222222222,37.418055555555554],[-107.66722222222222,37.418055555555554],[-107.50361111111111,37.36638888888889],[-107.50361111111111,37.36638888888889],[-107.50361111111111,37.36638888888889],[-107.17527777777778,37.26138888888889],[-107.17527777777778,37.26138888888889],[-107.17527777777778,37.26138888888889],[-107.17527777777778,37.26138888888889],[-107.07583333333334,37.22944444444445],[-107.07583333333334,37.22944444444445],[-106.85027777777778,37.156666666666666],[-106.85027777777778,37.156666666666666],[-106.69,37.10416666666667],[-106.69,37.10416666666667],[-106.69,37.10416666666667],[-106.595,37.07333333333334],[-106.595,37.07333333333334],[-106.43583333333333,37.020833333333336],[-106.43583333333333,37.020833333333336],[-106.36888888888888,36.99861111111111],[-106.36888888888888,36.99861111111111],[-106.21333333333334,36.947222222222216],[-106.21333333333334,36.947222222222216],[-106.21333333333334,36.947222222222216],[-106.21333333333334,36.947222222222216],[-105.9625,36.86333333333334],[-105.9625,36.86333333333334],[-105.80111111111111,36.80888888888889],[-105.80111111111111,36.80888888888889],[-105.80111111111111,36.80888888888889],[-105.65055555555556,36.75805555555556],[-105.10388888888889,36.57138888888889],[-105.10388888888889,36.57138888888889],[-105.10388888888889,36.57138888888889],[-104.875,36.49194444444444],[-104.875,36.49194444444444],[-104.875,36.49194444444444],[-104.7225,36.43472222222222],[-104.7225,36.43472222222222],[-104.7225,36.43472222222222],[-104.41416666666667,36.31722222222223],[-104.41416666666667,36.31722222222223],[-104.41416666666667,36.31722222222223],[-104.25972222222222,36.25833333333333],[-104.25972222222222,36.25833333333333],[-104.25972222222222,36.25833333333333],[-104.10805555555555,36.2],[-103.65083333333334,36.02222222222222],[-103.65083333333334,36.02222222222222],[-103.65083333333334,36.02222222222222],[-103.65083333333334,36.02222222222222],[-103.05222222222221,35.78583333333333],[-103.05222222222221,35.78583333333333],[-102.91833333333334,35.731944444444444],[-102.88916666666667,35.720555555555556],[-102.88916666666667,35.720555555555556],[-102.88916666666667,35.720555555555556],[-102.77166666666666,35.67333333333333],[-102.77166666666666,35.67333333333333],[-102.62388888888889,35.61388888888889],[-102.62388888888889,35.61388888888889],[-102.62388888888889,35.61388888888889],[-102.62388888888889,35.61388888888889],[-102.62388888888889,35.61388888888889],[-102.47472222222223,35.55333333333333],[-102.47472222222223,35.55333333333333],[-102.47472222222223,35.55333333333333],[-102.17833333333334,35.4325],[-102.17833333333334,35.4325],[-101.9975,35.35805555555556],[-101.9975,35.35805555555556],[-101.9975,35.35805555555556],[-101.9975,35.35805555555556],[-101.85833333333333,35.30083333333333],[-101.59222222222222,35.19027777777777],[-101.59222222222222,35.19027777777777],[-101.55805555555555,35.17611111111111],[-101.26805555555555,35.055],[-101.26805555555555,35.055],[-101.26805555555555,35.055],[-101.09416666666667,34.981944444444444],[-101.09416666666667,34.981944444444444],[-101.09416666666667,34.981944444444444],[-100.51583333333333,34.736111111111114],[-100.51583333333333,34.736111111111114],[-100.51583333333333,34.736111111111114],[-100.3761111111111,34.67611111111111],[-100.3761111111111,34.67611111111111],[-100.3761111111111,34.67611111111111],[-100.3761111111111,34.67611111111111],[-99.85305555555556,34.44916666666666],[-99.85305555555556,34.44916666666666],[-99.82527777777777,34.43694444444444],[-99.68416666666667,34.375],[-99.5475,34.31444444444444],[-99.5475,34.31444444444444],[-99.5475,34.31444444444444],[-99.5475,34.31444444444444],[-99.01861111111111,34.06083333333333],[-99.01861111111111,34.06083333333333],[-98.765,33.93861111111111],[-98.765,33.93861111111111],[-98.63916666666667,33.87722222222222],[-98.63916666666667,33.87722222222222],[-98.38527777777779,33.75277777777778],[-98.38527777777779,33.75277777777778],[-98.26944444444445,33.69611111111111],[-97.81416666666667,33.47027777777778],[-97.70722222222223,33.416666666666664],[-97.70722222222223,33.416666666666664],[-97.70722222222223,33.416666666666664],[-97.63333333333334,33.36666666666667],[-97.63333333333334,33.36666666666667],[-97.11138888888888,33.225],[-97.11138888888888,33.225],[-97.11138888888888,33.225],[-97.11138888888888,33.225],[-97.05361111111111,33.1425],[-97.05361111111111,33.10027777777778],[-97.05361111111111,33.10027777777778],[-97.05361111111111,33.10027777777778],[-97.05416666666666,33.015277777777776],[-97.05416666666666,33.015277777777776],[-97.05,32.93333333333333],[-97.05,32.93333333333333],[-97.05472222222222,32.90222222222222]],"type":"LineString"}
}
