{
  "id": 2015295473,
  "type": "Feature",
  "properties": {
    "geom:area": 0,
    "geom:bbox": "-122.359060,37.491910,-121.277360,37.614050",
    "geom:latitude": 37.54169781127655,
    "geom:longitude": -121.82518190252252,
    "src:alt_label": "swim-approach",
    "src:geom": "swim",
    "swim:elevations": [
      4845,
      4715,
      4504,
      4405,
      4044,
      3889,
      3780,
      3767,
      3582,
      3430,
      3266,
      3034,
      2948,
      2808,
      2645,
      2551,
      2253,
      2133,
      2133,
      2134,
      2120,
      1990,
      1917,
      1854,
      1830,
      1829,
      1682,
      1559,
      1308,
      1225,
      1187,
      1092,
      1033,
      835,
      734,
      549,
      420,
      327,
      279,
      61,
      146
    ],
    "swim:geom": "approach",
    "swim:timestamps": [
      1776287514,
      1776287545,
      1776287572,
      1776287584,
      1776287627,
      1776287649,
      1776287667,
      1776287670,
      1776287696,
      1776287721,
      1776287748,
      1776287784,
      1776287800,
      1776287839,
      1776287870,
      1776287883,
      1776287924,
      1776287955,
      1776287966,
      1776287975,
      1776287989,
      1776288004,
      1776288020,
      1776288032,
      1776288042,
      1776288074,
      1776288108,
      1776288136,
      1776288173,
      1776288198,
      1776288223,
      1776288236,
      1776288247,
      1776288291,
      1776288312,
      1776288354,
      1776288385,
      1776288408,
      1776288421,
      1776288478,
      1776288493
    ],
    "wof:geomhash": "f759941e97f709a778a612e68ac1b3e2",
    "wof:id": 2015295473,
    "wof:repo": "sfomuseum-data-flights-2026-04"
  },
  "bbox": [
    -122.35906,
    37.49191,
    -121.27736,
    37.61405
  ],
  "geometry": {"coordinates":[[-121.27736,37.59077],[-121.32905,37.58511],[-121.37047,37.58038],[-121.38811,37.57836],[-121.44716,37.57156],[-121.47695,37.56827],[-121.50106,37.56556],[-121.50509,37.56509],[-121.53987,37.56078],[-121.57347,37.55656],[-121.60721,37.55275],[-121.65174,37.5443],[-121.6708,37.53978],[-121.71668,37.5289],[-121.75318,37.52014],[-121.76855,37.51646],[-121.81774,37.50471],[-121.85347,37.49607],[-121.86631,37.49324],[-121.87709,37.49205],[-121.89446,37.49191],[-121.91281,37.49303],[-121.93223,37.49402],[-121.94654,37.49475],[-121.95725,37.49531],[-121.99194,37.4974],[-122.02772,37.49977],[-122.05833,37.50134],[-122.09796,37.50498],[-122.12092,37.51397],[-122.14347,37.52358],[-122.15619,37.52896],[-122.16662,37.53336],[-122.20673,37.55023],[-122.22587,37.5583],[-122.26067,37.57298],[-122.28302,37.58238],[-122.29853,37.58868],[-122.30726,37.59256],[-122.34884,37.61],[-122.35906,37.61405]],"type":"LineString"}
}
