{
  "id": 2031150037,
  "type": "Feature",
  "properties": {
    "geom:area": 0,
    "geom:bbox": "-122.321944,37.500000,-104.700000,39.892222",
    "geom:latitude": 38.853975192334026,
    "geom:longitude": -113.58704387908568,
    "src:alt_label": "swim-path",
    "src:geom": "swim",
    "swim:altitudes": [
      "062",
      "062",
      "080",
      "080",
      "080",
      "080",
      "112",
      "112",
      "112",
      "150",
      "150",
      "180",
      "180",
      "180",
      "212",
      "212",
      "212",
      "239",
      "239",
      "255",
      "255",
      "269",
      "269",
      "284",
      "284",
      "284",
      "299",
      "299",
      "299",
      "299",
      "315",
      "315",
      "315",
      "320C",
      "320C",
      "320C",
      "320C",
      "320C",
      "320C",
      "320C",
      "320C",
      "320C",
      "320C",
      "320C",
      "321C",
      "321C",
      "321C",
      "320C",
      "320C",
      "320C",
      "320C",
      "320C",
      "320C",
      "320C",
      "320C",
      "320C",
      "320C",
      "320C",
      "320C",
      "320C",
      "320C",
      "320C",
      "320C",
      "320C",
      "320C",
      "320C",
      "320C",
      "320C",
      "320C",
      "320C",
      "320C",
      "320C",
      "320C",
      "320C",
      "320C",
      "320C",
      "320C",
      "320C",
      "320C",
      "320C",
      "320C",
      "321C",
      "321C",
      "320C",
      "320C",
      "320C",
      "320C",
      "320C",
      "320C",
      "320C",
      "320C",
      "320C",
      "320C",
      "320C",
      "320C",
      "320C",
      "320C",
      "320C",
      "320C",
      "320C",
      "320C",
      "320C",
      "320C",
      "320C",
      "320C",
      "320C",
      "320C",
      "320C",
      "320C",
      "320C",
      "320C",
      "320C",
      "320C",
      "320C",
      "320C",
      "320C",
      "320C",
      "320C",
      "320C",
      "320C",
      "320C",
      "320C",
      "320C",
      "320C",
      "320C",
      "320C",
      "320C",
      "320C",
      "319C",
      "319C",
      "319C",
      "320C",
      "320C",
      "320C",
      "320C",
      "320C",
      "320C",
      "320C",
      "320C",
      "320C",
      "320C",
      "320C",
      "320C",
      "320C",
      "320C",
      "320C",
      "320C",
      "320C",
      "320C",
      "320C",
      "320C",
      "320C",
      "320C",
      "320C",
      "320C",
      "320C",
      "320C",
      "320C",
      "320C",
      "320C",
      "320C",
      "320C",
      "320C",
      "320C",
      "320C",
      "320C",
      "305",
      "305",
      "300C",
      "300C",
      "300C",
      "300C",
      "300C",
      "300C",
      "300C",
      "300C",
      "300C",
      "300C",
      "300",
      "300",
      "300",
      "300",
      "300",
      "294",
      "258",
      "258",
      "258",
      "200",
      "200",
      "201",
      "146",
      "133",
      "133",
      "102",
      "092",
      "091",
      "073",
      "073",
      "062",
      "062",
      "059",
      "045",
      "045",
      "024",
      "008",
      "008",
      "007"
    ],
    "swim:geom": "path",
    "swim:speeds": [
      183,
      183,
      241,
      241,
      241,
      241,
      290,
      290,
      290,
      308,
      308,
      305,
      305,
      305,
      328,
      328,
      328,
      368,
      368,
      374,
      374,
      381,
      381,
      408,
      408,
      408,
      407,
      407,
      407,
      407,
      407,
      407,
      407,
      408,
      408,
      408,
      408,
      408,
      407,
      407,
      407,
      407,
      407,
      407,
      411,
      411,
      411,
      412,
      412,
      412,
      412,
      412,
      411,
      409,
      409,
      409,
      409,
      407,
      407,
      407,
      406,
      406,
      406,
      406,
      406,
      406,
      405,
      405,
      404,
      404,
      404,
      399,
      399,
      399,
      399,
      395,
      395,
      395,
      395,
      396,
      396,
      397,
      397,
      398,
      398,
      398,
      398,
      398,
      398,
      398,
      398,
      398,
      398,
      398,
      400,
      400,
      400,
      400,
      400,
      400,
      400,
      400,
      400,
      403,
      403,
      403,
      406,
      406,
      406,
      402,
      402,
      402,
      402,
      400,
      398,
      398,
      398,
      398,
      398,
      399,
      399,
      399,
      399,
      399,
      399,
      417,
      417,
      417,
      413,
      413,
      413,
      413,
      413,
      413,
      418,
      418,
      418,
      419,
      419,
      419,
      419,
      419,
      419,
      418,
      418,
      418,
      418,
      418,
      418,
      418,
      412,
      412,
      409,
      409,
      408,
      408,
      408,
      408,
      408,
      409,
      409,
      409,
      409,
      434,
      434,
      434,
      379,
      379,
      375,
      375,
      375,
      375,
      375,
      375,
      375,
      375,
      378,
      378,
      379,
      379,
      379,
      381,
      381,
      382,
      388,
      388,
      388,
      367,
      367,
      372,
      323,
      292,
      292,
      264,
      251,
      254,
      239,
      239,
      231,
      231,
      232,
      217,
      217,
      184,
      131,
      131,
      134
    ],
    "swim:timestamps": [
      1777586926,
      1777586926,
      1777587007,
      1777587007,
      1777587007,
      1777587007,
      1777587127,
      1777587127,
      1777587127,
      1777587223,
      1777587223,
      1777587307,
      1777587307,
      1777587307,
      1777587427,
      1777587427,
      1777587427,
      1777587548,
      1777587548,
      1777587608,
      1777587608,
      1777587668,
      1777587668,
      1777587788,
      1777587788,
      1777587788,
      1777587848,
      1777587848,
      1777587848,
      1777587848,
      1777587968,
      1777587968,
      1777587968,
      1777588028,
      1777588028,
      1777588209,
      1777588209,
      1777588209,
      1777588269,
      1777588330,
      1777588330,
      1777588330,
      1777588330,
      1777588391,
      1777588509,
      1777588509,
      1777588509,
      1777588569,
      1777588569,
      1777588569,
      1777588629,
      1777588629,
      1777588749,
      1777588811,
      1777588811,
      1777588811,
      1777588811,
      1777588930,
      1777588990,
      1777588990,
      1777589050,
      1777589050,
      1777589050,
      1777589110,
      1777589110,
      1777589110,
      1777589170,
      1777589170,
      1777589290,
      1777589290,
      1777589290,
      1777589470,
      1777589470,
      1777589470,
      1777589470,
      1777589651,
      1777589651,
      1777589712,
      1777589712,
      1777589772,
      1777589772,
      1777589832,
      1777589832,
      1777589893,
      1777589893,
      1777589953,
      1777589953,
      1777589953,
      1777590013,
      1777590013,
      1777590013,
      1777590013,
      1777590193,
      1777590193,
      1777590313,
      1777590313,
      1777590313,
      1777590313,
      1777590373,
      1777590373,
      1777590433,
      1777590433,
      1777590433,
      1777590674,
      1777590674,
      1777590674,
      1777590734,
      1777590734,
      1777590734,
      1777590974,
      1777590974,
      1777590974,
      1777590974,
      1777591034,
      1777591154,
      1777591154,
      1777591154,
      1777591214,
      1777591214,
      1777591274,
      1777591274,
      1777591274,
      1777591274,
      1777591395,
      1777591395,
      1777591455,
      1777591575,
      1777591575,
      1777591634,
      1777591634,
      1777591634,
      1777591694,
      1777591694,
      1777591694,
      1777591815,
      1777591815,
      1777591815,
      1777591935,
      1777591935,
      1777591935,
      1777591995,
      1777592055,
      1777592055,
      1777592115,
      1777592115,
      1777592115,
      1777592236,
      1777592236,
      1777592236,
      1777592236,
      1777592476,
      1777592476,
      1777592536,
      1777592536,
      1777592596,
      1777592596,
      1777592596,
      1777592596,
      1777592716,
      1777592776,
      1777592776,
      1777592776,
      1777592776,
      1777592896,
      1777592896,
      1777592896,
      1777593077,
      1777593077,
      1777593257,
      1777593257,
      1777593257,
      1777593257,
      1777593377,
      1777593377,
      1777593377,
      1777593377,
      1777593497,
      1777593497,
      1777593677,
      1777593677,
      1777593677,
      1777593918,
      1777593918,
      1777593978,
      1777594088,
      1777594088,
      1777594088,
      1777594268,
      1777594268,
      1777594278,
      1777594458,
      1777594518,
      1777594518,
      1777594639,
      1777594688,
      1777594699,
      1777594808,
      1777594808,
      1777594868,
      1777594868,
      1777594928,
      1777594999,
      1777594999,
      1777595108,
      1777595228,
      1777595228,
      1777595239
    ],
    "wof:geomhash": "c14d4e6eb8f3d957214669dfa047f5bc",
    "wof:id": 2031150037,
    "wof:repo": "sfomuseum-data-flights-2026-04"
  },
  "bbox": [
    -122.32194444444444,
    37.5,
    -104.7,
    39.89222222222222
  ],
  "geometry": {"coordinates":[[-104.7,39.88333333333333],[-104.7,39.88333333333333],[-104.77722222222222,39.89222222222222],[-104.77722222222222,39.89222222222222],[-104.77722222222222,39.89222222222222],[-104.77722222222222,39.89222222222222],[-104.96861111111112,39.84527777777778],[-104.96861111111112,39.84527777777778],[-104.96861111111112,39.84527777777778],[-105.13333333333334,39.85],[-105.13333333333334,39.85],[-105.29555555555555,39.852222222222224],[-105.29555555555555,39.852222222222224],[-105.29555555555555,39.852222222222224],[-105.52416666666666,39.856944444444444],[-105.52416666666666,39.856944444444444],[-105.52416666666666,39.856944444444444],[-105.78277777777778,39.85527777777778],[-105.78277777777778,39.85527777777778],[-105.91666666666667,39.843611111111116],[-105.91666666666667,39.843611111111116],[-106.05361111111111,39.83166666666667],[-106.05361111111111,39.83166666666667],[-106.33916666666666,39.80611111111111],[-106.33916666666666,39.80611111111111],[-106.33916666666666,39.80611111111111],[-106.48527777777778,39.793055555555554],[-106.48527777777778,39.793055555555554],[-106.48527777777778,39.793055555555554],[-106.48527777777778,39.793055555555554],[-106.775,39.76222222222222],[-106.775,39.76222222222222],[-106.775,39.76222222222222],[-106.91916666666667,39.74638888888889],[-106.91916666666667,39.74638888888889],[-107.35194444444444,39.6975],[-107.35194444444444,39.6975],[-107.35194444444444,39.6975],[-107.49666666666667,39.68055555555555],[-107.64305555555556,39.66305555555555],[-107.64305555555556,39.66305555555555],[-107.64305555555556,39.66305555555555],[-107.64305555555556,39.66305555555555],[-107.78805555555556,39.646388888888886],[-108.08888888888889,39.61027777777778],[-108.08888888888889,39.61027777777778],[-108.08888888888889,39.61027777777778],[-108.23694444444445,39.592222222222226],[-108.23694444444445,39.592222222222226],[-108.23694444444445,39.592222222222226],[-108.38361111111112,39.57416666666667],[-108.38361111111112,39.57416666666667],[-108.6388888888889,39.54194444444444],[-108.8175,39.51916666666666],[-108.8175,39.51916666666666],[-108.8175,39.51916666666666],[-108.8175,39.51916666666666],[-109.10888888888888,39.48166666666667],[-109.2525,39.462500000000006],[-109.2525,39.462500000000006],[-109.39472222222223,39.443888888888885],[-109.39472222222223,39.443888888888885],[-109.39472222222223,39.443888888888885],[-109.53777777777778,39.42472222222222],[-109.53777777777778,39.42472222222222],[-109.53777777777778,39.42472222222222],[-109.68055555555556,39.405277777777776],[-109.68055555555556,39.405277777777776],[-109.965,39.36638888888889],[-109.965,39.36638888888889],[-109.965,39.36638888888889],[-110.38777777777779,39.30916666666666],[-110.38777777777779,39.30916666666666],[-110.38777777777779,39.30916666666666],[-110.38777777777779,39.30916666666666],[-110.80555555555556,39.25138888888889],[-110.80555555555556,39.25138888888889],[-110.94333333333334,39.231944444444444],[-110.94333333333334,39.231944444444444],[-111.085,39.211666666666666],[-111.085,39.211666666666666],[-111.22527777777778,39.19166666666666],[-111.22527777777778,39.19166666666666],[-111.36027777777777,39.17222222222222],[-111.36027777777777,39.17222222222222],[-111.50027777777778,39.151666666666664],[-111.50027777777778,39.151666666666664],[-111.50027777777778,39.151666666666664],[-111.63944444444445,39.13111111111111],[-111.63944444444445,39.13111111111111],[-111.63944444444445,39.13111111111111],[-111.63944444444445,39.13111111111111],[-112.05666666666666,39.068333333333335],[-112.05666666666666,39.068333333333335],[-112.33777777777777,39.025277777777774],[-112.33777777777777,39.025277777777774],[-112.33777777777777,39.025277777777774],[-112.33777777777777,39.025277777777774],[-112.47694444444444,39.00388888888889],[-112.47694444444444,39.00388888888889],[-112.61611111111111,38.981944444444444],[-112.61611111111111,38.981944444444444],[-112.61611111111111,38.981944444444444],[-113.17777777777778,38.89222222222222],[-113.17777777777778,38.89222222222222],[-113.17777777777778,38.89222222222222],[-113.32,38.869166666666665],[-113.32,38.869166666666665],[-113.32,38.869166666666665],[-113.86722222222221,38.88166666666667],[-113.86722222222221,38.88166666666667],[-113.86722222222221,38.88166666666667],[-113.86722222222221,38.88166666666667],[-113.98833333333333,38.940555555555555],[-114.2275,39.05583333333333],[-114.2275,39.05583333333333],[-114.2275,39.05583333333333],[-114.34805555555555,39.11388888888889],[-114.34805555555555,39.11388888888889],[-114.47055555555556,39.17305555555555],[-114.47055555555556,39.17305555555555],[-114.47055555555556,39.17305555555555],[-114.47055555555556,39.17305555555555],[-114.71638888888889,39.282222222222224],[-114.71638888888889,39.282222222222224],[-114.85944444444443,39.26611111111111],[-115.13527777777779,39.17583333333333],[-115.13527777777779,39.17583333333333],[-115.28472222222221,39.12694444444445],[-115.28472222222221,39.12694444444445],[-115.28472222222221,39.12694444444445],[-115.42194444444445,39.08111111111111],[-115.42194444444445,39.08111111111111],[-115.42194444444445,39.08111111111111],[-115.69444444444444,38.98888888888889],[-115.69444444444444,38.98888888888889],[-115.69444444444444,38.98888888888889],[-115.96916666666667,38.89555555555555],[-115.96916666666667,38.89555555555555],[-115.96916666666667,38.89555555555555],[-116.10527777777777,38.84916666666667],[-116.24277777777777,38.801944444444445],[-116.24277777777777,38.801944444444445],[-116.37944444444443,38.75472222222222],[-116.37944444444443,38.75472222222222],[-116.37944444444443,38.75472222222222],[-116.64944444444446,38.66083333333333],[-116.64944444444446,38.66083333333333],[-116.64944444444446,38.66083333333333],[-116.64944444444446,38.66083333333333],[-117.18333333333334,38.47277777777778],[-117.18333333333334,38.47277777777778],[-117.31333333333333,38.42638888888889],[-117.31333333333333,38.42638888888889],[-117.44111111111111,38.380833333333335],[-117.44111111111111,38.380833333333335],[-117.44111111111111,38.380833333333335],[-117.44111111111111,38.380833333333335],[-117.70333333333333,38.28638888888889],[-117.8325,38.239444444444445],[-117.8325,38.239444444444445],[-117.8325,38.239444444444445],[-117.8325,38.239444444444445],[-118.0363888888889,38.07777777777778],[-118.0363888888889,38.07777777777778],[-118.0363888888889,38.07777777777778],[-118.30833333333334,37.83305555555556],[-118.30833333333334,37.83305555555556],[-118.705,37.81027777777778],[-118.705,37.81027777777778],[-118.705,37.81027777777778],[-118.705,37.81027777777778],[-118.98305555555555,37.79388888888889],[-118.98305555555555,37.79388888888889],[-118.98305555555555,37.79388888888889],[-118.98305555555555,37.79388888888889],[-119.24694444444445,37.777499999999996],[-119.24694444444445,37.777499999999996],[-119.64722222222223,37.751666666666665],[-119.64722222222223,37.751666666666665],[-119.64722222222223,37.751666666666665],[-120.18138888888889,37.71527777777778],[-120.18138888888889,37.71527777777778],[-120.31361111111111,37.70583333333334],[-120.56666666666666,37.68333333333333],[-120.56666666666666,37.68333333333333],[-120.56666666666666,37.68333333333333],[-120.95,37.63333333333333],[-120.95,37.63333333333333],[-120.94472222222223,37.635],[-121.32249999999999,37.58555555555556],[-121.42416666666666,37.57416666666667],[-121.42416666666666,37.57416666666667],[-121.61555555555555,37.551944444444445],[-121.7,37.53333333333333],[-121.70055555555555,37.532222222222224],[-121.85,37.5],[-121.85,37.5],[-121.93333333333334,37.5],[-121.93333333333334,37.5],[-122.01666666666667,37.5],[-122.10249999999999,37.50666666666667],[-122.10249999999999,37.50666666666667],[-122.21666666666667,37.55],[-122.31666666666666,37.6],[-122.31666666666666,37.6],[-122.32194444444444,37.59861111111111]],"type":"LineString"}
}
