{
  "id": 2031138619,
  "type": "Feature",
  "properties": {
    "geom:area": 0,
    "geom:bbox": "-122.334167,32.900000,-97.050000,38.334167",
    "geom:latitude": 36.45035606806175,
    "geom:longitude": -109.55591727036065,
    "src:alt_label": "swim-path",
    "src:geom": "swim",
    "swim:altitudes": [
      "009",
      "009",
      "009",
      "009",
      "009",
      "009",
      "026",
      "026",
      "026",
      "026",
      "028",
      "028",
      "028",
      "028",
      "043",
      "043",
      "043",
      "043",
      "043",
      "072",
      "072",
      "072",
      "072",
      "072",
      "083",
      "083",
      "083",
      "083",
      "109",
      "109",
      "109",
      "109",
      "155",
      "155",
      "155",
      "169",
      "169",
      "169",
      "169",
      "169",
      "169",
      "202",
      "202",
      "202",
      "202",
      "202",
      "226",
      "226",
      "226",
      "236",
      "236",
      "236",
      "236",
      "236",
      "236",
      "257",
      "257",
      "257",
      "257",
      "268",
      "268",
      "268",
      "268",
      "284",
      "284",
      "284",
      "284",
      "284",
      "284",
      "290",
      "290",
      "290",
      "290",
      "300C",
      "300C",
      "300C",
      "300C",
      "300C",
      "300C",
      "300C",
      "300C",
      "300C",
      "300C",
      "300C",
      "300C",
      "300C",
      "300C",
      "300C",
      "300C",
      "300C",
      "300C",
      "300C",
      "300C",
      "300C",
      "300C",
      "300C",
      "300C",
      "300C",
      "300C",
      "300C",
      "300C",
      "300C",
      "300C",
      "300C",
      "300C",
      "300C",
      "300C",
      "300C",
      "300C",
      "300C",
      "300C",
      "300C",
      "300C",
      "300C",
      "300C",
      "300C",
      "300C",
      "300C",
      "300C",
      "300C",
      "300C",
      "300C",
      "300C",
      "300C",
      "300C",
      "300C",
      "300C",
      "300C",
      "300C",
      "300C",
      "300C",
      "300C",
      "300C",
      "300C",
      "300C",
      "300C",
      "300C",
      "300C",
      "300",
      "300",
      "300",
      "300",
      "300",
      "300",
      "300",
      "300",
      "300",
      "300",
      "295",
      "295",
      "295",
      "295",
      "285",
      "285",
      "285",
      "285",
      "269",
      "269",
      "269",
      "269",
      "269",
      "260C",
      "260C",
      "260C",
      "260C",
      "260C",
      "260C",
      "260C",
      "260C",
      "260C",
      "260C",
      "260C",
      "260C",
      "260C",
      "260C",
      "260C",
      "260C",
      "260C",
      "260C",
      "260C",
      "260C",
      "260C",
      "260C",
      "260C",
      "260C",
      "260C",
      "260C",
      "260C",
      "260C",
      "260C",
      "260C",
      "260C",
      "260C",
      "260C",
      "260C",
      "260C",
      "260C",
      "260C",
      "260C",
      "260C",
      "260C",
      "260C",
      "260C",
      "260C",
      "260C",
      "260C",
      "260C",
      "260C",
      "260C",
      "260C",
      "260C",
      "260C",
      "260C",
      "260C",
      "260C",
      "260C",
      "260C",
      "260C",
      "260C",
      "260C",
      "260C",
      "260C",
      "260C",
      "259C",
      "259C",
      "260C",
      "260C",
      "260C",
      "260C",
      "260C",
      "260C",
      "260C",
      "260C",
      "260C",
      "261C",
      "261C",
      "261C",
      "261C",
      "261C",
      "260C",
      "260C",
      "260C",
      "260C",
      "260C",
      "259C",
      "259C",
      "259C",
      "260C",
      "260C",
      "260C",
      "260C",
      "260C",
      "260C",
      "260C",
      "260C",
      "269",
      "269",
      "269",
      "269",
      "272",
      "272",
      "282",
      "282",
      "290",
      "290",
      "290",
      "299C",
      "300C",
      "300C",
      "300",
      "300",
      "300",
      "301",
      "301",
      "307",
      "317",
      "317",
      "317",
      "317",
      "320C",
      "320C",
      "320C",
      "320C",
      "320C",
      "320C",
      "320C",
      "320C",
      "320C",
      "320C",
      "320C",
      "320C",
      "320C",
      "320C",
      "320C",
      "320C",
      "320C",
      "320C",
      "320C",
      "320C",
      "320C",
      "320C",
      "320C",
      "320C",
      "320C",
      "320C",
      "320C",
      "320C",
      "320C",
      "320C",
      "320C",
      "320C",
      "320C",
      "320C",
      "320C",
      "320C",
      "320C",
      "320C",
      "320C",
      "320C",
      "320C",
      "320C",
      "320C",
      "320C",
      "320C",
      "320C",
      "320C",
      "320C",
      "320C",
      "320C",
      "320C",
      "320C",
      "320C",
      "320C",
      "320C",
      "320C",
      "320C",
      "320C",
      "320C",
      "320C",
      "320C",
      "320C",
      "320C",
      "321C",
      "321C",
      "321C",
      "321C",
      "321C",
      "321C",
      "321C",
      "320C",
      "320C",
      "320C",
      "320C",
      "320C",
      "320C",
      "320C",
      "320C",
      "320C",
      "320C",
      "320C",
      "320C",
      "320C",
      "320C",
      "320C",
      "320C",
      "320C",
      "320C",
      "320C",
      "320C",
      "320C",
      "320C",
      "320C",
      "320C",
      "320C",
      "320C",
      "320C",
      "320C",
      "320C",
      "320C",
      "320C",
      "320C",
      "320C",
      "320C",
      "320C",
      "320C",
      "320C",
      "320C",
      "320C",
      "320C",
      "320C",
      "320C",
      "320C",
      "320C",
      "320C",
      "320C",
      "320C",
      "320C",
      "320C",
      "320C",
      "320C",
      "320C",
      "320C",
      "320C",
      "320C",
      "320C",
      "320C",
      "320C",
      "320C",
      "320C",
      "320C",
      "320C",
      "320C",
      "320C",
      "320C",
      "320C",
      "320C",
      "320C",
      "320C",
      "320C",
      "320C",
      "320C",
      "320C",
      "320C",
      "320C",
      "320C",
      "320C",
      "320C",
      "320C",
      "320C",
      "320C",
      "320C",
      "320C",
      "320C",
      "320C",
      "320C",
      "320C",
      "320C",
      "320C",
      "320C",
      "320C",
      "320C",
      "320C",
      "320C",
      "320C",
      "320C",
      "320C",
      "320C",
      "320C",
      "320C",
      "320C",
      "320C",
      "320C",
      "320",
      "320",
      "320",
      "320",
      "320",
      "320",
      "320",
      "320",
      "320",
      "295",
      "295",
      "295",
      "295",
      "295",
      "295",
      "295",
      "262",
      "262",
      "262",
      "262",
      "262",
      "262",
      "226",
      "207",
      "207",
      "207",
      "207",
      "207",
      "207",
      "177",
      "177",
      "172",
      "172",
      "172",
      "172",
      "154",
      "154",
      "154",
      "154",
      "154",
      "118",
      "118",
      "118",
      "118",
      "116",
      "116",
      "116",
      "116",
      "113",
      "113",
      "113",
      "103",
      "103",
      "103",
      "097",
      "097",
      "097",
      "097",
      "092",
      "074",
      "074",
      "074",
      "070",
      "070",
      "070",
      "070",
      "070",
      "070",
      "054",
      "054",
      "054",
      "054",
      "054",
      "029",
      "029",
      "029",
      "029",
      "029",
      "029",
      "019",
      "019",
      "019",
      "007",
      "007",
      "007",
      "007",
      "007",
      "005"
    ],
    "swim:geom": "path",
    "swim:speeds": [
      164,
      164,
      164,
      164,
      164,
      164,
      189,
      189,
      189,
      189,
      209,
      209,
      209,
      209,
      270,
      270,
      270,
      270,
      270,
      256,
      256,
      256,
      256,
      256,
      262,
      262,
      262,
      262,
      269,
      269,
      269,
      269,
      333,
      333,
      333,
      348,
      348,
      348,
      348,
      348,
      348,
      352,
      352,
      352,
      352,
      352,
      375,
      375,
      375,
      379,
      379,
      379,
      379,
      379,
      379,
      387,
      387,
      387,
      387,
      387,
      387,
      387,
      387,
      386,
      386,
      386,
      386,
      386,
      386,
      386,
      386,
      386,
      386,
      381,
      381,
      381,
      381,
      381,
      377,
      377,
      377,
      377,
      377,
      377,
      377,
      377,
      375,
      375,
      375,
      375,
      375,
      375,
      376,
      376,
      376,
      376,
      376,
      378,
      378,
      378,
      378,
      379,
      379,
      379,
      379,
      380,
      380,
      381,
      381,
      381,
      382,
      382,
      382,
      384,
      384,
      385,
      385,
      385,
      385,
      388,
      388,
      390,
      390,
      390,
      390,
      390,
      390,
      390,
      390,
      391,
      391,
      391,
      389,
      389,
      388,
      388,
      388,
      388,
      383,
      383,
      383,
      383,
      383,
      383,
      383,
      382,
      382,
      382,
      375,
      375,
      375,
      375,
      371,
      371,
      371,
      371,
      363,
      363,
      363,
      363,
      363,
      361,
      361,
      361,
      361,
      361,
      361,
      361,
      361,
      361,
      359,
      359,
      358,
      358,
      358,
      358,
      358,
      358,
      358,
      358,
      358,
      358,
      357,
      357,
      357,
      357,
      376,
      376,
      376,
      382,
      382,
      382,
      382,
      388,
      388,
      390,
      390,
      390,
      390,
      390,
      390,
      390,
      390,
      390,
      390,
      390,
      390,
      390,
      390,
      390,
      385,
      385,
      385,
      385,
      385,
      385,
      385,
      385,
      388,
      390,
      391,
      391,
      391,
      387,
      387,
      380,
      380,
      380,
      379,
      379,
      380,
      380,
      387,
      387,
      388,
      388,
      391,
      391,
      391,
      389,
      391,
      388,
      389,
      389,
      381,
      381,
      381,
      386,
      386,
      386,
      390,
      388,
      388,
      388,
      388,
      393,
      393,
      393,
      393,
      394,
      394,
      394,
      394,
      393,
      393,
      393,
      392,
      449,
      449,
      390,
      390,
      390,
      381,
      381,
      381,
      380,
      380,
      380,
      380,
      380,
      380,
      373,
      373,
      373,
      373,
      373,
      372,
      372,
      372,
      375,
      375,
      375,
      375,
      377,
      377,
      377,
      377,
      377,
      377,
      379,
      379,
      379,
      379,
      379,
      379,
      383,
      383,
      383,
      383,
      383,
      383,
      383,
      384,
      384,
      407,
      407,
      407,
      415,
      415,
      407,
      407,
      407,
      385,
      385,
      385,
      385,
      386,
      386,
      386,
      386,
      386,
      388,
      388,
      388,
      388,
      386,
      386,
      384,
      384,
      384,
      384,
      384,
      384,
      384,
      384,
      384,
      384,
      384,
      384,
      385,
      385,
      385,
      385,
      385,
      385,
      390,
      390,
      390,
      390,
      390,
      390,
      390,
      394,
      394,
      394,
      394,
      396,
      396,
      396,
      397,
      397,
      397,
      397,
      399,
      399,
      399,
      399,
      399,
      403,
      403,
      403,
      403,
      403,
      404,
      404,
      404,
      404,
      406,
      406,
      406,
      408,
      408,
      408,
      408,
      408,
      409,
      409,
      409,
      409,
      414,
      414,
      414,
      414,
      414,
      412,
      412,
      412,
      412,
      416,
      416,
      416,
      416,
      416,
      417,
      417,
      417,
      417,
      417,
      428,
      428,
      428,
      428,
      428,
      430,
      430,
      430,
      432,
      432,
      432,
      432,
      432,
      432,
      432,
      432,
      432,
      432,
      434,
      434,
      434,
      434,
      434,
      434,
      434,
      431,
      431,
      431,
      431,
      431,
      433,
      433,
      433,
      433,
      435,
      435,
      435,
      435,
      435,
      435,
      435,
      435,
      435,
      438,
      438,
      438,
      438,
      438,
      438,
      438,
      426,
      426,
      426,
      426,
      426,
      426,
      401,
      390,
      390,
      390,
      390,
      390,
      390,
      374,
      374,
      374,
      374,
      374,
      374,
      355,
      355,
      355,
      355,
      355,
      280,
      280,
      280,
      280,
      245,
      245,
      245,
      245,
      245,
      245,
      245,
      239,
      239,
      239,
      249,
      249,
      249,
      249,
      248,
      246,
      246,
      246,
      240,
      240,
      243,
      243,
      243,
      243,
      226,
      226,
      226,
      226,
      226,
      198,
      198,
      198,
      198,
      198,
      198,
      168,
      168,
      168,
      138,
      138,
      138,
      138,
      138,
      140
    ],
    "swim:timestamps": [
      1777488637,
      1777488637,
      1777488637,
      1777488637,
      1777488637,
      1777488637,
      1777488710,
      1777488710,
      1777488710,
      1777488710,
      1777488728,
      1777488728,
      1777488728,
      1777488728,
      1777488788,
      1777488788,
      1777488788,
      1777488788,
      1777488788,
      1777488848,
      1777488848,
      1777488848,
      1777488848,
      1777488848,
      1777488884,
      1777488884,
      1777488884,
      1777488884,
      1777488968,
      1777488968,
      1777488968,
      1777488968,
      1777489148,
      1777489148,
      1777489148,
      1777489208,
      1777489208,
      1777489208,
      1777489208,
      1777489208,
      1777489208,
      1777489328,
      1777489328,
      1777489328,
      1777489328,
      1777489328,
      1777489449,
      1777489449,
      1777489449,
      1777489509,
      1777489509,
      1777489509,
      1777489509,
      1777489509,
      1777489509,
      1777489629,
      1777489629,
      1777489629,
      1777489629,
      1777489689,
      1777489689,
      1777489689,
      1777489689,
      1777489821,
      1777489821,
      1777489821,
      1777489821,
      1777489821,
      1777489821,
      1777489881,
      1777489881,
      1777489881,
      1777489881,
      1777489941,
      1777489941,
      1777489941,
      1777489941,
      1777489941,
      1777490061,
      1777490061,
      1777490061,
      1777490061,
      1777490061,
      1777490061,
      1777490061,
      1777490061,
      1777490339,
      1777490339,
      1777490339,
      1777490339,
      1777490339,
      1777490339,
      1777490399,
      1777490399,
      1777490399,
      1777490399,
      1777490399,
      1777490482,
      1777490482,
      1777490482,
      1777490482,
      1777490519,
      1777490519,
      1777490519,
      1777490519,
      1777490602,
      1777490602,
      1777490639,
      1777490639,
      1777490639,
      1777490699,
      1777490699,
      1777490699,
      1777490759,
      1777490759,
      1777490782,
      1777490782,
      1777490782,
      1777490782,
      1777490842,
      1777490842,
      1777490880,
      1777490880,
      1777490903,
      1777490903,
      1777490903,
      1777490903,
      1777490903,
      1777490903,
      1777490963,
      1777490963,
      1777490963,
      1777491023,
      1777491023,
      1777491060,
      1777491060,
      1777491060,
      1777491060,
      1777491120,
      1777491120,
      1777491120,
      1777491120,
      1777491120,
      1777491120,
      1777491120,
      1777491143,
      1777491143,
      1777491143,
      1777491203,
      1777491203,
      1777491203,
      1777491203,
      1777491263,
      1777491263,
      1777491263,
      1777491263,
      1777491360,
      1777491360,
      1777491360,
      1777491360,
      1777491360,
      1777491541,
      1777491541,
      1777491541,
      1777491541,
      1777491541,
      1777491541,
      1777491601,
      1777491601,
      1777491601,
      1777491661,
      1777491661,
      1777491684,
      1777491684,
      1777491721,
      1777491721,
      1777491721,
      1777491744,
      1777491744,
      1777491744,
      1777491781,
      1777491781,
      1777491901,
      1777491901,
      1777491901,
      1777491901,
      1777491961,
      1777491961,
      1777491961,
      1777491984,
      1777491984,
      1777491984,
      1777491984,
      1777492142,
      1777492142,
      1777492382,
      1777492382,
      1777492382,
      1777492382,
      1777492382,
      1777492382,
      1777492382,
      1777492382,
      1777492562,
      1777492562,
      1777492562,
      1777492562,
      1777492562,
      1777492562,
      1777492562,
      1777492742,
      1777492742,
      1777492742,
      1777492742,
      1777492803,
      1777492803,
      1777492803,
      1777492803,
      1777492845,
      1777492905,
      1777492923,
      1777492923,
      1777492923,
      1777492966,
      1777492966,
      1777493026,
      1777493043,
      1777493043,
      1777493086,
      1777493086,
      1777493103,
      1777493103,
      1777493206,
      1777493206,
      1777493266,
      1777493266,
      1777493283,
      1777493283,
      1777493283,
      1777493326,
      1777493343,
      1777493386,
      1777493403,
      1777493403,
      1777493446,
      1777493446,
      1777493446,
      1777493463,
      1777493463,
      1777493524,
      1777493626,
      1777493644,
      1777493644,
      1777493644,
      1777493644,
      1777493927,
      1777493927,
      1777493927,
      1777493927,
      1777493944,
      1777493944,
      1777493987,
      1777493987,
      1777494047,
      1777494047,
      1777494047,
      1777494107,
      1777494165,
      1777494165,
      1777494225,
      1777494225,
      1777494225,
      1777494242,
      1777494242,
      1777494287,
      1777494345,
      1777494345,
      1777494345,
      1777494345,
      1777494465,
      1777494465,
      1777494528,
      1777494528,
      1777494528,
      1777494528,
      1777494528,
      1777494708,
      1777494708,
      1777494708,
      1777494768,
      1777494768,
      1777494768,
      1777494768,
      1777494888,
      1777494888,
      1777494888,
      1777494888,
      1777494888,
      1777494888,
      1777495069,
      1777495069,
      1777495069,
      1777495069,
      1777495069,
      1777495069,
      1777495249,
      1777495249,
      1777495249,
      1777495249,
      1777495249,
      1777495249,
      1777495249,
      1777495366,
      1777495366,
      1777495549,
      1777495549,
      1777495549,
      1777495609,
      1777495609,
      1777495667,
      1777495667,
      1777495667,
      1777495727,
      1777495727,
      1777495727,
      1777495727,
      1777495847,
      1777495847,
      1777495847,
      1777495847,
      1777495847,
      1777496087,
      1777496087,
      1777496087,
      1777496087,
      1777496150,
      1777496150,
      1777496208,
      1777496208,
      1777496208,
      1777496208,
      1777496208,
      1777496448,
      1777496448,
      1777496448,
      1777496448,
      1777496448,
      1777496448,
      1777496448,
      1777496508,
      1777496508,
      1777496508,
      1777496508,
      1777496508,
      1777496508,
      1777496868,
      1777496868,
      1777496868,
      1777496868,
      1777496868,
      1777496868,
      1777496868,
      1777496989,
      1777496989,
      1777496989,
      1777496989,
      1777497049,
      1777497049,
      1777497049,
      1777497109,
      1777497109,
      1777497109,
      1777497109,
      1777497169,
      1777497169,
      1777497169,
      1777497169,
      1777497169,
      1777497289,
      1777497289,
      1777497289,
      1777497289,
      1777497289,
      1777497409,
      1777497409,
      1777497409,
      1777497409,
      1777497529,
      1777497529,
      1777497529,
      1777497589,
      1777497589,
      1777497589,
      1777497589,
      1777497589,
      1777497649,
      1777497649,
      1777497649,
      1777497649,
      1777497950,
      1777497950,
      1777497950,
      1777497950,
      1777497950,
      1777498012,
      1777498012,
      1777498012,
      1777498012,
      1777498130,
      1777498130,
      1777498130,
      1777498130,
      1777498130,
      1777498192,
      1777498192,
      1777498192,
      1777498192,
      1777498192,
      1777498432,
      1777498432,
      1777498432,
      1777498432,
      1777498432,
      1777498492,
      1777498492,
      1777498492,
      1777498611,
      1777498611,
      1777498611,
      1777498611,
      1777498611,
      1777498671,
      1777498671,
      1777498671,
      1777498671,
      1777498671,
      1777498853,
      1777498853,
      1777498853,
      1777498853,
      1777498853,
      1777498853,
      1777498853,
      1777499031,
      1777499031,
      1777499031,
      1777499031,
      1777499031,
      1777499394,
      1777499394,
      1777499394,
      1777499394,
      1777499514,
      1777499514,
      1777499514,
      1777499514,
      1777499514,
      1777499514,
      1777499574,
      1777499574,
      1777499574,
      1777499754,
      1777499754,
      1777499754,
      1777499754,
      1777499754,
      1777499754,
      1777499754,
      1777499874,
      1777499874,
      1777499874,
      1777499874,
      1777499874,
      1777499874,
      1777499994,
      1777500054,
      1777500054,
      1777500054,
      1777500054,
      1777500054,
      1777500054,
      1777500146,
      1777500146,
      1777500175,
      1777500175,
      1777500175,
      1777500175,
      1777500235,
      1777500235,
      1777500235,
      1777500235,
      1777500235,
      1777500415,
      1777500415,
      1777500415,
      1777500415,
      1777500446,
      1777500446,
      1777500446,
      1777500446,
      1777500475,
      1777500475,
      1777500475,
      1777500511,
      1777500511,
      1777500511,
      1777500571,
      1777500571,
      1777500571,
      1777500571,
      1777500595,
      1777500655,
      1777500655,
      1777500655,
      1777500691,
      1777500691,
      1777500715,
      1777500715,
      1777500715,
      1777500715,
      1777500835,
      1777500835,
      1777500835,
      1777500835,
      1777500835,
      1777500956,
      1777500956,
      1777500956,
      1777500956,
      1777500956,
      1777500956,
      1777501016,
      1777501016,
      1777501016,
      1777501106,
      1777501106,
      1777501106,
      1777501106,
      1777501106,
      1777501136
    ],
    "wof:geomhash": "ac75d72502a49168227d26420ab67c86",
    "wof:id": 2031138619,
    "wof:repo": "sfomuseum-data-flights-2026-04"
  },
  "bbox": [
    -122.33416666666666,
    32.9,
    -97.05,
    38.33416666666667
  ],
  "geometry": {"coordinates":[[-97.05,32.9],[-97.05,32.9],[-97.05,32.9],[-97.05,32.9],[-97.05,32.9],[-97.05,32.9],[-97.06666666666666,32.96666666666667],[-97.06666666666666,32.96666666666667],[-97.06666666666666,32.96666666666667],[-97.06666666666666,32.96666666666667],[-97.07083333333333,32.975833333333334],[-97.07083333333333,32.975833333333334],[-97.07083333333333,32.975833333333334],[-97.07083333333333,32.975833333333334],[-97.13361111111112,33.01444444444444],[-97.13361111111112,33.01444444444444],[-97.13361111111112,33.01444444444444],[-97.13361111111112,33.01444444444444],[-97.13361111111112,33.01444444444444],[-97.21944444444445,33.02027777777778],[-97.21944444444445,33.02027777777778],[-97.21944444444445,33.02027777777778],[-97.21944444444445,33.02027777777778],[-97.21944444444445,33.02027777777778],[-97.26666666666667,33.016666666666666],[-97.26666666666667,33.016666666666666],[-97.26666666666667,33.016666666666666],[-97.26666666666667,33.016666666666666],[-97.3938888888889,33.026666666666664],[-97.3938888888889,33.026666666666664],[-97.3938888888889,33.026666666666664],[-97.3938888888889,33.026666666666664],[-97.7213888888889,33.0375],[-97.7213888888889,33.0375],[-97.7213888888889,33.0375],[-97.835,33.04111111111111],[-97.835,33.04111111111111],[-97.835,33.04111111111111],[-97.835,33.04111111111111],[-97.835,33.04111111111111],[-97.835,33.04111111111111],[-98.06666666666666,33.047777777777775],[-98.06666666666666,33.047777777777775],[-98.06666666666666,33.047777777777775],[-98.06666666666666,33.047777777777775],[-98.06666666666666,33.047777777777775],[-98.29444444444444,33.11555555555556],[-98.29444444444444,33.11555555555556],[-98.29444444444444,33.11555555555556],[-98.39277777777778,33.15555555555555],[-98.39277777777778,33.15555555555555],[-98.39277777777778,33.15555555555555],[-98.39277777777778,33.15555555555555],[-98.39277777777778,33.15555555555555],[-98.39277777777778,33.15555555555555],[-98.6236111111111,33.25],[-98.6236111111111,33.25],[-98.6236111111111,33.25],[-98.6236111111111,33.25],[-98.73972222222223,33.2975],[-98.73972222222223,33.2975],[-98.73972222222223,33.2975],[-98.73972222222223,33.2975],[-98.99305555555556,33.39972222222222],[-98.99305555555556,33.39972222222222],[-98.99305555555556,33.39972222222222],[-98.99305555555556,33.39972222222222],[-98.99305555555556,33.39972222222222],[-98.99305555555556,33.39972222222222],[-99.10916666666667,33.44638888888888],[-99.10916666666667,33.44638888888888],[-99.10916666666667,33.44638888888888],[-99.10916666666667,33.44638888888888],[-99.22277777777778,33.49194444444444],[-99.22277777777778,33.49194444444444],[-99.22277777777778,33.49194444444444],[-99.22277777777778,33.49194444444444],[-99.22277777777778,33.49194444444444],[-99.44861111111112,33.581944444444446],[-99.44861111111112,33.581944444444446],[-99.44861111111112,33.581944444444446],[-99.44861111111112,33.581944444444446],[-99.44861111111112,33.581944444444446],[-99.44861111111112,33.581944444444446],[-99.44861111111112,33.581944444444446],[-99.44861111111112,33.581944444444446],[-99.96111111111111,33.784166666666664],[-99.96111111111111,33.784166666666664],[-99.96111111111111,33.784166666666664],[-99.96111111111111,33.784166666666664],[-99.96111111111111,33.784166666666664],[-99.96111111111111,33.784166666666664],[-100.07583333333334,33.82888888888889],[-100.07583333333334,33.82888888888889],[-100.07583333333334,33.82888888888889],[-100.07583333333334,33.82888888888889],[-100.07583333333334,33.82888888888889],[-100.25694444444444,33.89944444444444],[-100.25694444444444,33.89944444444444],[-100.25694444444444,33.89944444444444],[-100.25694444444444,33.89944444444444],[-100.31277777777777,33.92111111111111],[-100.31277777777777,33.92111111111111],[-100.31277777777777,33.92111111111111],[-100.31277777777777,33.92111111111111],[-100.48694444444445,33.98861111111111],[-100.48694444444445,33.98861111111111],[-100.54472222222222,34.01083333333333],[-100.54472222222222,34.01083333333333],[-100.54472222222222,34.01083333333333],[-100.66027777777778,34.055277777777775],[-100.66027777777778,34.055277777777775],[-100.66027777777778,34.055277777777775],[-100.77916666666667,34.100833333333334],[-100.77916666666667,34.100833333333334],[-100.82472222222222,34.11805555555556],[-100.82472222222222,34.11805555555556],[-100.82472222222222,34.11805555555556],[-100.82472222222222,34.11805555555556],[-100.94305555555556,34.163333333333334],[-100.94305555555556,34.163333333333334],[-101.01666666666667,34.191111111111105],[-101.01666666666667,34.191111111111105],[-101.06444444444445,34.20916666666667],[-101.06444444444445,34.20916666666667],[-101.06444444444445,34.20916666666667],[-101.06444444444445,34.20916666666667],[-101.06444444444445,34.20916666666667],[-101.06444444444445,34.20916666666667],[-101.18222222222222,34.25388888888889],[-101.18222222222222,34.25388888888889],[-101.18222222222222,34.25388888888889],[-101.3025,34.299166666666665],[-101.3025,34.299166666666665],[-101.37472222222222,34.32611111111112],[-101.37472222222222,34.32611111111112],[-101.37472222222222,34.32611111111112],[-101.37472222222222,34.32611111111112],[-101.49083333333333,34.36972222222222],[-101.49083333333333,34.36972222222222],[-101.49083333333333,34.36972222222222],[-101.49083333333333,34.36972222222222],[-101.49083333333333,34.36972222222222],[-101.49083333333333,34.36972222222222],[-101.49083333333333,34.36972222222222],[-101.53611111111111,34.38666666666666],[-101.53611111111111,34.38666666666666],[-101.53611111111111,34.38666666666666],[-101.65,34.42916666666667],[-101.65,34.42916666666667],[-101.65,34.42916666666667],[-101.65,34.42916666666667],[-101.76444444444445,34.47166666666667],[-101.76444444444445,34.47166666666667],[-101.76444444444445,34.47166666666667],[-101.76444444444445,34.47166666666667],[-101.94333333333334,34.53777777777778],[-101.94333333333334,34.53777777777778],[-101.94333333333334,34.53777777777778],[-101.94333333333334,34.53777777777778],[-101.94333333333334,34.53777777777778],[-102.27833333333334,34.66083333333333],[-102.27833333333334,34.66083333333333],[-102.27833333333334,34.66083333333333],[-102.27833333333334,34.66083333333333],[-102.27833333333334,34.66083333333333],[-102.27833333333334,34.66083333333333],[-102.38861111111112,34.70111111111111],[-102.38861111111112,34.70111111111111],[-102.38861111111112,34.70111111111111],[-102.5,34.74138888888889],[-102.5,34.74138888888889],[-102.54277777777777,34.75694444444444],[-102.54277777777777,34.75694444444444],[-102.60944444444443,34.78111111111111],[-102.60944444444443,34.78111111111111],[-102.60944444444443,34.78111111111111],[-102.65416666666667,34.79722222222222],[-102.65416666666667,34.79722222222222],[-102.65416666666667,34.79722222222222],[-102.72166666666666,34.82138888888889],[-102.72166666666666,34.82138888888889],[-102.94111111111111,34.900277777777774],[-102.94111111111111,34.900277777777774],[-102.94111111111111,34.900277777777774],[-102.94111111111111,34.900277777777774],[-103.05444444444444,34.940555555555555],[-103.05444444444444,34.940555555555555],[-103.05444444444444,34.940555555555555],[-103.10527777777777,34.95861111111111],[-103.10527777777777,34.95861111111111],[-103.10527777777777,34.95861111111111],[-103.10527777777777,34.95861111111111],[-103.41305555555556,35.06805555555556],[-103.41305555555556,35.06805555555556],[-103.89888888888889,35.24],[-103.89888888888889,35.24],[-103.89888888888889,35.24],[-103.89888888888889,35.24],[-103.89888888888889,35.24],[-103.89888888888889,35.24],[-103.89888888888889,35.24],[-103.89888888888889,35.24],[-104.28194444444445,35.37111111111111],[-104.28194444444445,35.37111111111111],[-104.28194444444445,35.37111111111111],[-104.28194444444445,35.37111111111111],[-104.28194444444445,35.37111111111111],[-104.28194444444445,35.37111111111111],[-104.28194444444445,35.37111111111111],[-104.64472222222223,35.48583333333333],[-104.64472222222223,35.48583333333333],[-104.64472222222223,35.48583333333333],[-104.64472222222223,35.48583333333333],[-104.76638888888888,35.52638888888889],[-104.76638888888888,35.52638888888889],[-104.76638888888888,35.52638888888889],[-104.76638888888888,35.52638888888889],[-104.85777777777777,35.56444444444444],[-104.9786111111111,35.61416666666667],[-105.00444444444445,35.624722222222225],[-105.00444444444445,35.624722222222225],[-105.00444444444445,35.624722222222225],[-105.10444444444444,35.650277777777774],[-105.10444444444444,35.650277777777774],[-105.22083333333333,35.68111111111111],[-105.25111111111111,35.689166666666665],[-105.25111111111111,35.689166666666665],[-105.34416666666667,35.71277777777778],[-105.34416666666667,35.71277777777778],[-105.37472222222222,35.721111111111114],[-105.37472222222222,35.721111111111114],[-105.58777777777777,35.79222222222222],[-105.58777777777777,35.79222222222222],[-105.70944444444444,35.836111111111116],[-105.70944444444444,35.836111111111116],[-105.73416666666667,35.844166666666666],[-105.73416666666667,35.844166666666666],[-105.73416666666667,35.844166666666666],[-105.83194444444445,35.87833333333333],[-105.85722222222222,35.88638888888889],[-105.95305555555557,35.92166666666667],[-105.985,35.93333333333333],[-105.985,35.93333333333333],[-106.07833333333333,35.96527777777778],[-106.07833333333333,35.96527777777778],[-106.07833333333333,35.96527777777778],[-106.10722222222222,35.97527777777778],[-106.10722222222222,35.97527777777778],[-106.23055555555555,36.0175],[-106.43805555555556,36.088055555555556],[-106.4725,36.099722222222226],[-106.4725,36.099722222222226],[-106.4725,36.099722222222226],[-106.4725,36.099722222222226],[-107.05305555555556,36.30611111111111],[-107.05305555555556,36.30611111111111],[-107.05305555555556,36.30611111111111],[-107.05305555555556,36.30611111111111],[-107.07777777777777,36.315],[-107.07777777777777,36.315],[-107.17666666666668,36.35111111111111],[-107.17666666666668,36.35111111111111],[-107.29777777777778,36.39861111111111],[-107.29777777777778,36.39861111111111],[-107.29777777777778,36.39861111111111],[-107.41861111111112,36.44499999999999],[-107.53611111111111,36.48777777777778],[-107.53611111111111,36.48777777777778],[-107.6563888888889,36.53194444444444],[-107.6563888888889,36.53194444444444],[-107.6563888888889,36.53194444444444],[-107.68083333333334,36.54333333333333],[-107.68083333333334,36.54333333333333],[-107.775,36.578611111111115],[-107.89083333333333,36.62111111111111],[-107.89083333333333,36.62111111111111],[-107.89083333333333,36.62111111111111],[-107.89083333333333,36.62111111111111],[-108.12805555555555,36.70638888888889],[-108.12805555555555,36.70638888888889],[-108.2425,36.75],[-108.2425,36.75],[-108.2425,36.75],[-108.2425,36.75],[-108.2425,36.75],[-108.5925,36.87638888888889],[-108.5925,36.87638888888889],[-108.5925,36.87638888888889],[-108.71194444444444,36.919444444444444],[-108.71194444444444,36.919444444444444],[-108.71194444444444,36.919444444444444],[-108.71194444444444,36.919444444444444],[-108.97444444444444,37.013333333333335],[-108.97444444444444,37.013333333333335],[-108.97444444444444,37.013333333333335],[-108.97444444444444,37.013333333333335],[-108.97444444444444,37.013333333333335],[-108.97444444444444,37.013333333333335],[-109.33472222222221,37.14083333333333],[-109.33472222222221,37.14083333333333],[-109.33472222222221,37.14083333333333],[-109.33472222222221,37.14083333333333],[-109.33472222222221,37.14083333333333],[-109.33472222222221,37.14083333333333],[-109.69944444444445,37.26861111111111],[-109.69944444444445,37.26861111111111],[-109.69944444444445,37.26861111111111],[-109.69944444444445,37.26861111111111],[-109.69944444444445,37.26861111111111],[-109.69944444444445,37.26861111111111],[-109.69944444444445,37.26861111111111],[-109.94,37.352222222222224],[-109.94,37.352222222222224],[-110.27472222222222,37.552499999999995],[-110.27472222222222,37.552499999999995],[-110.27472222222222,37.552499999999995],[-110.37055555555555,37.63722222222222],[-110.37055555555555,37.63722222222222],[-110.44638888888889,37.71472222222223],[-110.44638888888889,37.71472222222223],[-110.44638888888889,37.71472222222223],[-110.57305555555556,37.751666666666665],[-110.57305555555556,37.751666666666665],[-110.57305555555556,37.751666666666665],[-110.57305555555556,37.751666666666665],[-110.85111111111111,37.79361111111111],[-110.85111111111111,37.79361111111111],[-110.85111111111111,37.79361111111111],[-110.85111111111111,37.79361111111111],[-110.85111111111111,37.79361111111111],[-111.3863888888889,37.87222222222222],[-111.3863888888889,37.87222222222222],[-111.3863888888889,37.87222222222222],[-111.3863888888889,37.87222222222222],[-111.52472222222222,37.89194444444444],[-111.52472222222222,37.89194444444444],[-111.64972222222222,37.91],[-111.64972222222222,37.91],[-111.64972222222222,37.91],[-111.64972222222222,37.91],[-111.64972222222222,37.91],[-112.17888888888889,37.983333333333334],[-112.17888888888889,37.983333333333334],[-112.17888888888889,37.983333333333334],[-112.17888888888889,37.983333333333334],[-112.17888888888889,37.983333333333334],[-112.17888888888889,37.983333333333334],[-112.17888888888889,37.983333333333334],[-112.31222222222222,38.001666666666665],[-112.31222222222222,38.001666666666665],[-112.31222222222222,38.001666666666665],[-112.31222222222222,38.001666666666665],[-112.31222222222222,38.001666666666665],[-112.31222222222222,38.001666666666665],[-113.11666666666666,38.1075],[-113.11666666666666,38.1075],[-113.11666666666666,38.1075],[-113.11666666666666,38.1075],[-113.11666666666666,38.1075],[-113.11666666666666,38.1075],[-113.11666666666666,38.1075],[-113.39027777777778,38.14222222222222],[-113.39027777777778,38.14222222222222],[-113.39027777777778,38.14222222222222],[-113.39027777777778,38.14222222222222],[-113.52805555555555,38.159444444444446],[-113.52805555555555,38.159444444444446],[-113.52805555555555,38.159444444444446],[-113.66611111111112,38.17666666666666],[-113.66611111111112,38.17666666666666],[-113.66611111111112,38.17666666666666],[-113.66611111111112,38.17666666666666],[-113.80527777777777,38.19361111111111],[-113.80527777777777,38.19361111111111],[-113.80527777777777,38.19361111111111],[-113.80527777777777,38.19361111111111],[-113.80527777777777,38.19361111111111],[-114.08805555555556,38.22805555555556],[-114.08805555555556,38.22805555555556],[-114.08805555555556,38.22805555555556],[-114.08805555555556,38.22805555555556],[-114.08805555555556,38.22805555555556],[-114.36999999999999,38.26166666666666],[-114.36999999999999,38.26166666666666],[-114.36999999999999,38.26166666666666],[-114.36999999999999,38.26166666666666],[-114.6525,38.29416666666666],[-114.6525,38.29416666666666],[-114.6525,38.29416666666666],[-114.79527777777777,38.31055555555555],[-114.79527777777777,38.31055555555555],[-114.79527777777777,38.31055555555555],[-114.79527777777777,38.31055555555555],[-114.79527777777777,38.31055555555555],[-114.94027777777778,38.32666666666667],[-114.94027777777778,38.32666666666667],[-114.94027777777778,38.32666666666667],[-114.94027777777778,38.32666666666667],[-115.67916666666667,38.33361111111111],[-115.67916666666667,38.33361111111111],[-115.67916666666667,38.33361111111111],[-115.67916666666667,38.33361111111111],[-115.67916666666667,38.33361111111111],[-115.82972222222222,38.33416666666667],[-115.82972222222222,38.33416666666667],[-115.82972222222222,38.33416666666667],[-115.82972222222222,38.33416666666667],[-116.1211111111111,38.33388888888889],[-116.1211111111111,38.33388888888889],[-116.1211111111111,38.33388888888889],[-116.1211111111111,38.33388888888889],[-116.1211111111111,38.33388888888889],[-116.2725,38.333333333333336],[-116.2725,38.333333333333336],[-116.2725,38.333333333333336],[-116.2725,38.333333333333336],[-116.2725,38.333333333333336],[-116.85638888888889,38.215833333333336],[-116.85638888888889,38.215833333333336],[-116.85638888888889,38.215833333333336],[-116.85638888888889,38.215833333333336],[-116.85638888888889,38.215833333333336],[-117.00555555555556,38.181666666666665],[-117.00555555555556,38.181666666666665],[-117.00555555555556,38.181666666666665],[-117.27916666666667,38.118611111111115],[-117.27916666666667,38.118611111111115],[-117.27916666666667,38.118611111111115],[-117.27916666666667,38.118611111111115],[-117.27916666666667,38.118611111111115],[-117.42694444444444,38.08416666666667],[-117.42694444444444,38.08416666666667],[-117.42694444444444,38.08416666666667],[-117.42694444444444,38.08416666666667],[-117.42694444444444,38.08416666666667],[-117.87416666666665,37.99277777777778],[-117.87416666666665,37.99277777777778],[-117.87416666666665,37.99277777777778],[-117.87416666666665,37.99277777777778],[-117.87416666666665,37.99277777777778],[-117.87416666666665,37.99277777777778],[-117.87416666666665,37.99277777777778],[-118.32166666666666,37.94472222222222],[-118.32166666666666,37.94472222222222],[-118.32166666666666,37.94472222222222],[-118.32166666666666,37.94472222222222],[-118.32166666666666,37.94472222222222],[-119.25111111111111,37.84],[-119.25111111111111,37.84],[-119.25111111111111,37.84],[-119.25111111111111,37.84],[-119.55277777777778,37.80444444444444],[-119.55277777777778,37.80444444444444],[-119.55277777777778,37.80444444444444],[-119.55277777777778,37.80444444444444],[-119.55277777777778,37.80444444444444],[-119.55277777777778,37.80444444444444],[-119.70472222222223,37.78611111111111],[-119.70472222222223,37.78611111111111],[-119.70472222222223,37.78611111111111],[-120.16250000000001,37.730000000000004],[-120.16250000000001,37.730000000000004],[-120.16250000000001,37.730000000000004],[-120.16250000000001,37.730000000000004],[-120.16250000000001,37.730000000000004],[-120.16250000000001,37.730000000000004],[-120.16250000000001,37.730000000000004],[-120.46222222222222,37.692499999999995],[-120.46222222222222,37.692499999999995],[-120.46222222222222,37.692499999999995],[-120.46222222222222,37.692499999999995],[-120.46222222222222,37.692499999999995],[-120.46222222222222,37.692499999999995],[-120.71611111111112,37.66305555555555],[-120.85083333333333,37.64666666666667],[-120.85083333333333,37.64666666666667],[-120.85083333333333,37.64666666666667],[-120.85083333333333,37.64666666666667],[-120.85083333333333,37.64666666666667],[-120.85083333333333,37.64666666666667],[-121.08333333333333,37.61666666666667],[-121.08333333333333,37.61666666666667],[-121.11749999999999,37.612500000000004],[-121.11749999999999,37.612500000000004],[-121.11749999999999,37.612500000000004],[-121.11749999999999,37.612500000000004],[-121.24416666666667,37.595555555555556],[-121.24416666666667,37.595555555555556],[-121.24416666666667,37.595555555555556],[-121.24416666666667,37.595555555555556],[-121.24416666666667,37.595555555555556],[-121.58277777777778,37.55583333333333],[-121.58277777777778,37.55583333333333],[-121.58277777777778,37.55583333333333],[-121.58277777777778,37.55583333333333],[-121.63333333333334,37.56666666666667],[-121.63333333333334,37.56666666666667],[-121.63333333333334,37.56666666666667],[-121.63333333333334,37.56666666666667],[-121.66333333333334,37.57805555555556],[-121.66333333333334,37.57805555555556],[-121.66333333333334,37.57805555555556],[-121.71666666666667,37.6],[-121.71666666666667,37.6],[-121.71666666666667,37.6],[-121.78333333333333,37.55],[-121.78333333333333,37.55],[-121.78333333333333,37.55],[-121.78333333333333,37.55],[-121.78472222222221,37.53333333333333],[-121.8275,37.48305555555556],[-121.8275,37.48305555555556],[-121.8275,37.48305555555556],[-121.88333333333334,37.483333333333334],[-121.88333333333334,37.483333333333334],[-121.91055555555556,37.47666666666667],[-121.91055555555556,37.47666666666667],[-121.91055555555556,37.47666666666667],[-121.91055555555556,37.47666666666667],[-122.06305555555555,37.489444444444445],[-122.06305555555555,37.489444444444445],[-122.06305555555555,37.489444444444445],[-122.06305555555555,37.489444444444445],[-122.06305555555555,37.489444444444445],[-122.19222222222223,37.54416666666666],[-122.19222222222223,37.54416666666666],[-122.19222222222223,37.54416666666666],[-122.19222222222223,37.54416666666666],[-122.19222222222223,37.54416666666666],[-122.19222222222223,37.54416666666666],[-122.2475,37.56722222222223],[-122.2475,37.56722222222223],[-122.2475,37.56722222222223],[-122.31666666666666,37.6],[-122.31666666666666,37.6],[-122.31666666666666,37.6],[-122.31666666666666,37.6],[-122.31666666666666,37.6],[-122.33416666666666,37.60388888888889]],"type":"LineString"}
}
