{
  "id": 2031149909,
  "type": "Feature",
  "properties": {
    "geom:area": 0,
    "geom:bbox": "-127.438056,37.150000,-122.327778,38.665000",
    "geom:latitude": 37.736374462040544,
    "geom:longitude": -124.43697480019135,
    "src:alt_label": "swim-path",
    "src:geom": "swim",
    "swim:altitudes": [
      "390C",
      "390C",
      "390C",
      "390C",
      "390",
      "390",
      "390",
      "390C",
      "390",
      "389",
      "390",
      "387",
      "372",
      "347",
      "322",
      "301",
      "261",
      "220",
      "204",
      "187",
      "171",
      "153",
      "128",
      "105",
      "100C",
      "100C",
      "100C",
      "100C",
      "100C",
      "100C",
      "100C",
      "100C",
      "100C",
      "100",
      "100",
      "100C",
      "100C",
      "081",
      "080",
      "080",
      "080",
      "080",
      "080",
      "080",
      "077",
      "072",
      "065",
      "061",
      "060",
      "060",
      "060",
      "060"
    ],
    "swim:geom": "path",
    "swim:speeds": [
      511,
      510,
      516,
      517,
      520,
      520,
      520,
      518,
      518,
      519,
      519,
      518,
      512,
      514,
      522,
      517,
      484,
      454,
      431,
      364,
      324,
      315,
      302,
      293,
      267,
      265,
      264,
      264,
      264,
      264,
      264,
      264,
      264,
      266,
      264,
      264,
      284,
      252,
      244,
      248,
      244,
      250,
      253,
      251,
      253,
      252,
      250,
      249,
      238,
      238,
      235,
      237
    ],
    "swim:timestamps": [
      1777648549,
      1777648609,
      1777648729,
      1777648789,
      1777648845,
      1777648904,
      1777648965,
      1777649029,
      1777649090,
      1777649150,
      1777649210,
      1777649390,
      1777649450,
      1777649510,
      1777649570,
      1777649630,
      1777649750,
      1777649871,
      1777649931,
      1777650051,
      1777650171,
      1777650231,
      1777650291,
      1777650351,
      1777650411,
      1777650471,
      1777650592,
      1777650652,
      1777650772,
      1777650952,
      1777651012,
      1777651132,
      1777651192,
      1777651208,
      1777651221,
      1777651252,
      1777651312,
      1777651493,
      1777651527,
      1777651553,
      1777651587,
      1777651641,
      1777651701,
      1777651733,
      1777651761,
      1777651793,
      1777651827,
      1777651853,
      1777651881,
      1777651913,
      1777651941,
      1777651973
    ],
    "wof:geomhash": "22f7981794119c189948e8856eb3fa14",
    "wof:id": 2031149909,
    "wof:repo": "sfomuseum-data-flights-2026-04"
  },
  "bbox": [
    -127.43805555555556,
    37.15,
    -122.32777777777777,
    38.665
  ],
  "geometry": {"coordinates":[[-127.43805555555556,38.665],[-127.28722222222223,38.58527777777778],[-126.97361111111111,38.44777777777777],[-126.765,38.39083333333333],[-126.61666666666666,38.35],[-126.43333333333334,38.3],[-126.26666666666667,38.25],[-126.09472222222222,38.20805555555556],[-125.92222222222223,38.16],[-125.75027777777778,38.11194444444445],[-125.5761111111111,38.06305555555555],[-125.06305555555555,37.916666666666664],[-124.89416666666668,37.86805555555556],[-124.72472222222223,37.81888888888889],[-124.55361111111111,37.76861111111111],[-124.38194444444444,37.718333333333334],[-124.06138888888889,37.623333333333335],[-123.76055555555556,37.532777777777774],[-123.61666666666666,37.48916666666667],[-123.36638888888888,37.41305555555555],[-123.14972222222222,37.34638888888889],[-123.04916666666666,37.31527777777777],[-122.95055555555555,37.28472222222222],[-122.85416666666666,37.26083333333333],[-122.80194444444444,37.31361111111111],[-122.86583333333333,37.35527777777778],[-123.04305555555555,37.312777777777775],[-123.12555555555555,37.28472222222222],[-123.03305555555555,37.21611111111111],[-122.84583333333333,37.32027777777778],[-122.9325,37.31805555555556],[-123.10749999999999,37.27166666666667],[-123.09638888888888,37.21027777777778],[-123.05,37.21666666666667],[-123.03333333333333,37.21666666666667],[-122.99111111111111,37.22638888888889],[-122.90027777777779,37.24861111111111],[-122.65,37.23027777777778],[-122.61666666666666,37.2],[-122.58805555555556,37.18388888888889],[-122.55,37.15],[-122.5,37.18333333333333],[-122.5,37.25],[-122.51083333333334,37.28972222222222],[-122.51666666666667,37.333333333333336],[-122.51583333333333,37.35944444444445],[-122.5,37.4],[-122.48222222222222,37.42333333333333],[-122.45,37.43333333333333],[-122.40611111111112,37.419999999999995],[-122.36666666666666,37.4],[-122.32777777777777,37.4]],"type":"LineString"}
}
