{
  "id": 2031148531,
  "type": "Feature",
  "properties": {
    "geom:area": 0,
    "geom:bbox": "-122.328056,37.478889,-70.799167,44.633056",
    "geom:latitude": 42.18332105579138,
    "geom:longitude": -96.68800101837256,
    "src:alt_label": "swim-path",
    "src:geom": "swim",
    "swim:altitudes": [
      "007",
      "007",
      "007",
      "070",
      "070",
      "070",
      "070",
      "105",
      "105",
      "154",
      "154",
      "154",
      "172",
      "172",
      "172",
      "205",
      "205",
      "218",
      "239",
      "239",
      "239",
      "239",
      "249",
      "249",
      "257",
      "257",
      "257",
      "300",
      "300",
      "300",
      "306",
      "315",
      "315",
      "320C",
      "320C",
      "320C",
      "320C",
      "320C",
      "320C",
      "320C",
      "320C",
      "320C",
      "320C",
      "320C",
      "320C",
      "320C",
      "320C",
      "320C",
      "320C",
      "320C",
      "320C",
      "320C",
      "320C",
      "320C",
      "320C",
      "320C",
      "320C",
      "320C",
      "320C",
      "320C",
      "320C",
      "320C",
      "320C",
      "320C",
      "320C",
      "320C",
      "320C",
      "320C",
      "320C",
      "320C",
      "320C",
      "320C",
      "320C",
      "320C",
      "320C",
      "320C",
      "320C",
      "320C",
      "320C",
      "320C",
      "320C",
      "320C",
      "320C",
      "320C",
      "320C",
      "320C",
      "320C",
      "320C",
      "320C",
      "320C",
      "320C",
      "320C",
      "320C",
      "320C",
      "320C",
      "320C",
      "320C",
      "320C",
      "320C",
      "320C",
      "320C",
      "320C",
      "320C",
      "320C",
      "320C",
      "320C",
      "320C",
      "320C",
      "320C",
      "320C",
      "320C",
      "320C",
      "320C",
      "320C",
      "320C",
      "320C",
      "320C",
      "320C",
      "320C",
      "320C",
      "320C",
      "320C",
      "319C",
      "319C",
      "319C",
      "319C",
      "320C",
      "320C",
      "320C",
      "320C",
      "320C",
      "320C",
      "320C",
      "320C",
      "320C",
      "320C",
      "320C",
      "320C",
      "320C",
      "320C",
      "320C",
      "320C",
      "320C",
      "320C",
      "320C",
      "320C",
      "320C",
      "320C",
      "320C",
      "320C",
      "320C",
      "320C",
      "320C",
      "320C",
      "320C",
      "320C",
      "320C",
      "320C",
      "320C",
      "320C",
      "320C",
      "320C",
      "320C",
      "320C",
      "320C",
      "320C",
      "320C",
      "320C",
      "320C",
      "320C",
      "320C",
      "320C",
      "320C",
      "320C",
      "320C",
      "320C",
      "320C",
      "320C",
      "320C",
      "320C",
      "320C",
      "320C",
      "320C",
      "320C",
      "320C",
      "320C",
      "320C",
      "320C",
      "320C",
      "320C",
      "320C",
      "320C",
      "320C",
      "320C",
      "320C",
      "320C",
      "320",
      "320",
      "320",
      "320",
      "320",
      "323",
      "327",
      "327",
      "331",
      "331",
      "331",
      "340C",
      "340C",
      "340C",
      "340C",
      "340C",
      "340C",
      "340C",
      "340C",
      "339C",
      "340C",
      "340C",
      "340C",
      "340C",
      "340C",
      "340C",
      "340C",
      "340C",
      "340C",
      "340C",
      "340C",
      "340C",
      "339C",
      "340C",
      "340C",
      "340C",
      "340C",
      "340C",
      "340C",
      "340C",
      "340C",
      "340C",
      "340C",
      "340C",
      "340C",
      "340C",
      "340C",
      "340C",
      "340C",
      "340C",
      "340C",
      "340C",
      "340C",
      "340C",
      "340C",
      "340C",
      "340C",
      "340C",
      "340C",
      "340C",
      "340C",
      "340C",
      "340C",
      "340C",
      "340C",
      "340C",
      "340C",
      "340C",
      "340C",
      "340C",
      "340C",
      "340C",
      "340C",
      "340C",
      "340C",
      "340C",
      "340C",
      "340C",
      "340C",
      "340C",
      "340C",
      "340C",
      "340C",
      "340C",
      "340C",
      "340C",
      "340C",
      "340C",
      "340C",
      "340C",
      "340C",
      "340C",
      "340C",
      "340C",
      "340C",
      "340C",
      "340C",
      "340C",
      "340C",
      "340C",
      "340C",
      "340C",
      "340C",
      "340C",
      "340C",
      "340C",
      "340C",
      "340C",
      "340C",
      "340C",
      "340C",
      "340C",
      "340C",
      "340C",
      "340C",
      "340C",
      "340C",
      "340C",
      "340C",
      "340C",
      "340C",
      "340C",
      "339C",
      "339C",
      "339C",
      "340C",
      "339C",
      "339C",
      "339C",
      "339C",
      "339C",
      "340C",
      "340C",
      "340C",
      "340C",
      "340C",
      "340C",
      "340C",
      "340C",
      "340C",
      "340C",
      "340C",
      "340C",
      "340C",
      "340C",
      "340C",
      "340C",
      "340C",
      "340C",
      "340C",
      "340C",
      "340C",
      "340C",
      "340C",
      "340C",
      "340C",
      "340C",
      "340C",
      "340C",
      "340C",
      "340C",
      "340C",
      "340C",
      "340C",
      "340C",
      "340C",
      "340C",
      "340C",
      "340C",
      "340C",
      "340C",
      "340C",
      "340C",
      "340C",
      "340C",
      "340C",
      "340C",
      "340C",
      "340C",
      "340C",
      "340C",
      "338",
      "338",
      "338",
      "303",
      "303",
      "275",
      "251",
      "251",
      "236",
      "236",
      "236",
      "211",
      "124",
      "123",
      "116",
      "116",
      "116",
      "104",
      "104",
      "078",
      "078",
      "069",
      "069",
      "059",
      "042",
      "042",
      "042",
      "034",
      "030",
      "030",
      "030",
      "015",
      "012",
      "006"
    ],
    "swim:geom": "path",
    "swim:speeds": [
      174,
      174,
      174,
      285,
      285,
      285,
      285,
      302,
      302,
      365,
      365,
      365,
      366,
      366,
      366,
      382,
      382,
      384,
      395,
      395,
      395,
      395,
      402,
      402,
      404,
      404,
      404,
      419,
      419,
      419,
      420,
      422,
      422,
      418,
      418,
      418,
      415,
      415,
      415,
      415,
      415,
      415,
      415,
      416,
      416,
      416,
      416,
      416,
      415,
      415,
      415,
      415,
      415,
      415,
      415,
      416,
      416,
      416,
      417,
      417,
      418,
      418,
      418,
      419,
      419,
      422,
      423,
      423,
      423,
      423,
      427,
      427,
      427,
      427,
      427,
      427,
      409,
      407,
      407,
      407,
      407,
      405,
      405,
      405,
      405,
      404,
      404,
      404,
      404,
      404,
      404,
      404,
      403,
      403,
      403,
      403,
      403,
      405,
      405,
      404,
      404,
      404,
      404,
      405,
      405,
      405,
      406,
      406,
      404,
      404,
      404,
      404,
      404,
      404,
      404,
      407,
      408,
      408,
      408,
      408,
      405,
      405,
      405,
      405,
      405,
      405,
      405,
      406,
      406,
      407,
      407,
      407,
      407,
      411,
      411,
      411,
      410,
      410,
      413,
      414,
      414,
      414,
      414,
      414,
      414,
      413,
      413,
      413,
      414,
      414,
      414,
      412,
      412,
      412,
      413,
      413,
      413,
      415,
      417,
      417,
      417,
      420,
      420,
      421,
      421,
      422,
      421,
      421,
      421,
      421,
      421,
      421,
      421,
      421,
      421,
      418,
      418,
      417,
      416,
      416,
      416,
      416,
      416,
      417,
      417,
      415,
      415,
      411,
      411,
      410,
      410,
      406,
      414,
      414,
      400,
      408,
      401,
      401,
      406,
      406,
      411,
      403,
      402,
      402,
      404,
      404,
      404,
      410,
      410,
      411,
      411,
      411,
      411,
      411,
      411,
      405,
      404,
      404,
      404,
      404,
      403,
      403,
      403,
      403,
      403,
      405,
      405,
      405,
      403,
      404,
      404,
      404,
      406,
      406,
      409,
      409,
      411,
      411,
      411,
      408,
      409,
      409,
      409,
      413,
      413,
      413,
      413,
      414,
      414,
      414,
      415,
      414,
      414,
      414,
      417,
      417,
      420,
      420,
      421,
      421,
      424,
      424,
      424,
      425,
      425,
      425,
      425,
      423,
      423,
      423,
      423,
      423,
      421,
      421,
      421,
      416,
      416,
      416,
      416,
      417,
      417,
      413,
      413,
      410,
      410,
      408,
      408,
      406,
      403,
      403,
      403,
      409,
      409,
      409,
      408,
      405,
      404,
      404,
      404,
      404,
      404,
      403,
      403,
      403,
      403,
      404,
      404,
      406,
      409,
      409,
      411,
      411,
      411,
      412,
      414,
      414,
      414,
      415,
      413,
      413,
      413,
      413,
      418,
      427,
      427,
      429,
      429,
      426,
      426,
      426,
      426,
      428,
      428,
      430,
      430,
      431,
      431,
      431,
      431,
      430,
      429,
      429,
      429,
      427,
      418,
      418,
      403,
      403,
      402,
      402,
      409,
      409,
      409,
      430,
      438,
      438,
      439,
      439,
      440,
      440,
      440,
      440,
      440,
      408,
      408,
      403,
      386,
      383,
      383,
      382,
      382,
      382,
      387,
      387,
      384,
      384,
      384,
      384,
      384,
      384,
      396,
      396,
      410,
      410,
      410,
      387,
      387,
      387,
      380,
      335,
      332,
      284,
      284,
      284,
      251,
      251,
      243,
      243,
      236,
      236,
      236,
      187,
      187,
      187,
      185,
      187,
      187,
      187,
      178,
      165,
      136
    ],
    "swim:timestamps": [
      1777586545,
      1777586545,
      1777586545,
      1777586765,
      1777586765,
      1777586765,
      1777586765,
      1777586885,
      1777586885,
      1777587065,
      1777587065,
      1777587065,
      1777587125,
      1777587125,
      1777587125,
      1777587245,
      1777587245,
      1777587306,
      1777587426,
      1777587426,
      1777587426,
      1777587426,
      1777587486,
      1777587486,
      1777587546,
      1777587546,
      1777587546,
      1777587846,
      1777587846,
      1777587846,
      1777587906,
      1777587967,
      1777587967,
      1777588027,
      1777588027,
      1777588027,
      1777588327,
      1777588327,
      1777588381,
      1777588381,
      1777588381,
      1777588441,
      1777588441,
      1777588447,
      1777588447,
      1777588688,
      1777588688,
      1777588688,
      1777588748,
      1777588748,
      1777588862,
      1777588862,
      1777588928,
      1777588928,
      1777588928,
      1777589000,
      1777589000,
      1777589000,
      1777589060,
      1777589060,
      1777589120,
      1777589120,
      1777589120,
      1777589163,
      1777589163,
      1777589241,
      1777589283,
      1777589283,
      1777589283,
      1777589283,
      1777589523,
      1777589523,
      1777589523,
      1777589583,
      1777589583,
      1777589583,
      1777590943,
      1777591003,
      1777591003,
      1777591003,
      1777591003,
      1777591123,
      1777591123,
      1777591123,
      1777591123,
      1777591243,
      1777591243,
      1777591243,
      1777591243,
      1777591303,
      1777591423,
      1777591423,
      1777591483,
      1777591483,
      1777591483,
      1777591543,
      1777591543,
      1777591724,
      1777591724,
      1777591904,
      1777591904,
      1777591904,
      1777591904,
      1777592144,
      1777592144,
      1777592144,
      1777592204,
      1777592204,
      1777592445,
      1777592445,
      1777592445,
      1777592505,
      1777592505,
      1777592505,
      1777592505,
      1777592685,
      1777592745,
      1777592745,
      1777592745,
      1777592745,
      1777592986,
      1777592986,
      1777593046,
      1777593046,
      1777593046,
      1777593046,
      1777593406,
      1777593466,
      1777593466,
      1777593526,
      1777593526,
      1777593526,
      1777593526,
      1777593767,
      1777593767,
      1777593767,
      1777593947,
      1777593947,
      1777594067,
      1777594127,
      1777594127,
      1777594127,
      1777594187,
      1777594248,
      1777594248,
      1777594488,
      1777594488,
      1777594608,
      1777594788,
      1777594788,
      1777594788,
      1777595029,
      1777595029,
      1777595029,
      1777595329,
      1777595329,
      1777595329,
      1777595509,
      1777595630,
      1777595630,
      1777595630,
      1777595810,
      1777595810,
      1777595930,
      1777595930,
      1777596110,
      1777596230,
      1777596230,
      1777596230,
      1777596471,
      1777596471,
      1777596651,
      1777596651,
      1777596651,
      1777596831,
      1777596952,
      1777596952,
      1777597012,
      1777597072,
      1777597072,
      1777597072,
      1777597192,
      1777597192,
      1777597252,
      1777597252,
      1777597492,
      1777597492,
      1777597613,
      1777597613,
      1777597822,
      1777597822,
      1777597853,
      1777597883,
      1777597883,
      1777597913,
      1777597943,
      1777597973,
      1777597973,
      1777598063,
      1777598063,
      1777598183,
      1777598243,
      1777598273,
      1777598273,
      1777598304,
      1777598304,
      1777598304,
      1777598574,
      1777598574,
      1777598634,
      1777598634,
      1777598694,
      1777598754,
      1777598754,
      1777598754,
      1777598904,
      1777598964,
      1777598964,
      1777598964,
      1777599024,
      1777599084,
      1777599084,
      1777599204,
      1777599265,
      1777599265,
      1777599385,
      1777599385,
      1777599385,
      1777599565,
      1777599625,
      1777599625,
      1777599625,
      1777599685,
      1777599685,
      1777599805,
      1777599805,
      1777599865,
      1777599865,
      1777599865,
      1777600226,
      1777600286,
      1777600286,
      1777600286,
      1777600406,
      1777600406,
      1777600406,
      1777600467,
      1777600527,
      1777600527,
      1777600527,
      1777600586,
      1777600707,
      1777600707,
      1777600707,
      1777600947,
      1777600947,
      1777601067,
      1777601067,
      1777601127,
      1777601127,
      1777601248,
      1777601248,
      1777601248,
      1777601307,
      1777601307,
      1777601428,
      1777601428,
      1777601548,
      1777601608,
      1777601608,
      1777601908,
      1777601908,
      1777601968,
      1777601968,
      1777601968,
      1777602149,
      1777602149,
      1777602209,
      1777602209,
      1777602269,
      1777602269,
      1777602449,
      1777602449,
      1777602569,
      1777602569,
      1777602629,
      1777602629,
      1777602690,
      1777602810,
      1777602810,
      1777602810,
      1777603050,
      1777603050,
      1777603050,
      1777603170,
      1777603290,
      1777603350,
      1777603350,
      1777603410,
      1777603410,
      1777603471,
      1777603531,
      1777603531,
      1777603531,
      1777603591,
      1777603651,
      1777603651,
      1777603771,
      1777603891,
      1777603891,
      1777604011,
      1777604011,
      1777604011,
      1777604071,
      1777604192,
      1777604192,
      1777604192,
      1777604312,
      1777604372,
      1777604372,
      1777604372,
      1777604552,
      1777604659,
      1777604719,
      1777604719,
      1777604779,
      1777604779,
      1777604912,
      1777604912,
      1777604973,
      1777604973,
      1777605019,
      1777605019,
      1777605093,
      1777605093,
      1777605153,
      1777605213,
      1777605213,
      1777605273,
      1777605320,
      1777605333,
      1777605333,
      1777605333,
      1777605380,
      1777605440,
      1777605440,
      1777605500,
      1777605500,
      1777605513,
      1777605560,
      1777605573,
      1777605573,
      1777605573,
      1777605693,
      1777605740,
      1777605740,
      1777605800,
      1777605800,
      1777605814,
      1777605874,
      1777605874,
      1777605934,
      1777605934,
      1777605980,
      1777605980,
      1777605994,
      1777606114,
      1777606221,
      1777606221,
      1777606281,
      1777606281,
      1777606281,
      1777606641,
      1777606641,
      1777606761,
      1777606761,
      1777606761,
      1777606882,
      1777606882,
      1777606882,
      1777607002,
      1777607002,
      1777607062,
      1777607122,
      1777607122,
      1777607164,
      1777607164,
      1777607164,
      1777607242,
      1777607525,
      1777607542,
      1777607584,
      1777607584,
      1777607584,
      1777607639,
      1777607639,
      1777607783,
      1777607783,
      1777607819,
      1777607819,
      1777607903,
      1777607999,
      1777607999,
      1777607999,
      1777608053,
      1777608083,
      1777608083,
      1777608083,
      1777608179,
      1777608203,
      1777608263
    ],
    "wof:geomhash": "7ec6cb336a168dc71b550a42bef7ec52",
    "wof:id": 2031148531,
    "wof:repo": "sfomuseum-data-flights-2026-04"
  },
  "bbox": [
    -122.32805555555555,
    37.47888888888889,
    -70.79916666666666,
    44.63305555555556
  ],
  "geometry": {"coordinates":[[-71,42.38333333333333],[-71,42.38333333333333],[-71,42.38333333333333],[-70.79916666666666,42.54944444444444],[-70.79916666666666,42.54944444444444],[-70.79916666666666,42.54944444444444],[-70.79916666666666,42.54944444444444],[-70.97083333333333,42.64111111111111],[-70.97083333333333,42.64111111111111],[-71.31944444444444,42.78916666666667],[-71.31944444444444,42.78916666666667],[-71.31944444444444,42.78916666666667],[-71.45583333333333,42.81527777777777],[-71.45583333333333,42.81527777777777],[-71.45583333333333,42.81527777777777],[-71.73222222222222,42.86666666666667],[-71.73222222222222,42.86666666666667],[-71.8761111111111,42.89333333333333],[-72.14888888888889,42.94305555555555],[-72.14888888888889,42.94305555555555],[-72.14888888888889,42.94305555555555],[-72.14888888888889,42.94305555555555],[-72.3086111111111,42.97166666666667],[-72.3086111111111,42.97166666666667],[-72.42750000000001,42.99305555555556],[-72.42750000000001,42.99305555555556],[-72.42750000000001,42.99305555555556],[-73.24055555555556,43.13527777777778],[-73.24055555555556,43.13527777777778],[-73.24055555555556,43.13527777777778],[-73.39083333333333,43.16083333333333],[-73.54694444444445,43.18722222222222],[-73.54694444444445,43.18722222222222],[-73.70416666666667,43.20472222222222],[-73.70416666666667,43.20472222222222],[-73.70416666666667,43.20472222222222],[-74.48944444444444,43.25416666666667],[-74.48944444444444,43.25416666666667],[-74.61666666666666,43.2575],[-74.61666666666666,43.2575],[-74.61666666666666,43.2575],[-74.77583333333334,43.26138888888889],[-74.77583333333334,43.26138888888889],[-74.80611111111111,43.261944444444445],[-74.80611111111111,43.261944444444445],[-75.42055555555557,43.275],[-75.42055555555557,43.275],[-75.42055555555557,43.275],[-75.57944444444443,43.27777777777778],[-75.57944444444443,43.27777777777778],[-75.89305555555556,43.2825],[-75.89305555555556,43.2825],[-76.05111111111111,43.28472222222222],[-76.05111111111111,43.28472222222222],[-76.05111111111111,43.28472222222222],[-76.24277777777777,43.286944444444444],[-76.24277777777777,43.286944444444444],[-76.24277777777777,43.286944444444444],[-76.4038888888889,43.288333333333334],[-76.4038888888889,43.288333333333334],[-76.56222222222222,43.29],[-76.56222222222222,43.29],[-76.56222222222222,43.29],[-76.69083333333333,43.29722222222222],[-76.69083333333333,43.29722222222222],[-76.88916666666667,43.328611111111115],[-77.0075,43.34916666666667],[-77.0075,43.34916666666667],[-77.0075,43.34916666666667],[-77.0075,43.34916666666667],[-77.64972222222222,43.45],[-77.64972222222222,43.45],[-77.64972222222222,43.45],[-77.80583333333333,43.47361111111111],[-77.80583333333333,43.47361111111111],[-77.80583333333333,43.47361111111111],[-81.33416666666666,43.95138888888889],[-81.48777777777778,43.969722222222224],[-81.48777777777778,43.969722222222224],[-81.48777777777778,43.969722222222224],[-81.48777777777778,43.969722222222224],[-81.79527777777777,44.00527777777778],[-81.79527777777777,44.00527777777778],[-81.79527777777777,44.00527777777778],[-81.79527777777777,44.00527777777778],[-82.10416666666666,44.04055555555556],[-82.10416666666666,44.04055555555556],[-82.10416666666666,44.04055555555556],[-82.10416666666666,44.04055555555556],[-82.25416666666666,44.05722222222222],[-82.5611111111111,44.090833333333336],[-82.5611111111111,44.090833333333336],[-82.71666666666667,44.1075],[-82.71666666666667,44.1075],[-82.71666666666667,44.1075],[-82.87083333333332,44.12388888888889],[-82.87083333333332,44.12388888888889],[-83.33333333333333,44.171388888888885],[-83.33333333333333,44.171388888888885],[-83.79972222222221,44.217222222222226],[-83.79972222222221,44.217222222222226],[-83.79972222222221,44.217222222222226],[-83.79972222222221,44.217222222222226],[-84.41944444444445,44.275],[-84.41944444444445,44.275],[-84.41944444444445,44.275],[-84.57444444444444,44.28944444444444],[-84.57444444444444,44.28944444444444],[-85.19805555555556,44.343611111111116],[-85.19805555555556,44.343611111111116],[-85.19805555555556,44.343611111111116],[-85.35333333333332,44.35666666666667],[-85.35333333333332,44.35666666666667],[-85.35333333333332,44.35666666666667],[-85.35333333333332,44.35666666666667],[-85.8236111111111,44.394444444444446],[-85.98277777777778,44.40694444444444],[-85.98277777777778,44.40694444444444],[-85.98277777777778,44.40694444444444],[-85.98277777777778,44.40694444444444],[-86.61416666666666,44.45333333333333],[-86.61416666666666,44.45333333333333],[-86.76944444444445,44.46416666666667],[-86.76944444444445,44.46416666666667],[-86.76944444444445,44.46416666666667],[-86.76944444444445,44.46416666666667],[-87.68416666666667,44.525],[-87.87055555555555,44.53611111111111],[-87.87055555555555,44.53611111111111],[-88.0025,44.54416666666666],[-88.0025,44.54416666666666],[-88.0025,44.54416666666666],[-88.0025,44.54416666666666],[-88.6388888888889,44.57083333333334],[-88.6388888888889,44.57083333333334],[-88.6388888888889,44.57083333333334],[-89.11749999999999,44.58583333333333],[-89.11749999999999,44.58583333333333],[-89.46666666666667,44.595],[-89.62916666666666,44.59916666666667],[-89.62916666666666,44.59916666666667],[-89.62916666666666,44.59916666666667],[-89.78944444444444,44.60333333333333],[-89.95,44.606944444444444],[-89.95,44.606944444444444],[-90.57333333333332,44.618611111111115],[-90.57333333333332,44.618611111111115],[-90.89277777777778,44.623333333333335],[-91.37777777777777,44.62861111111111],[-91.37777777777777,44.62861111111111],[-91.37777777777777,44.62861111111111],[-92.01944444444445,44.632777777777775],[-92.01944444444445,44.632777777777775],[-92.01944444444445,44.632777777777775],[-92.8236111111111,44.63305555555556],[-92.8236111111111,44.63305555555556],[-92.8236111111111,44.63305555555556],[-93.30944444444444,44.59861111111111],[-93.61888888888888,44.51972222222222],[-93.61888888888888,44.51972222222222],[-93.61888888888888,44.51972222222222],[-94.0786111111111,44.400277777777774],[-94.0786111111111,44.400277777777774],[-94.38555555555556,44.31888888888889],[-94.38555555555556,44.31888888888889],[-94.85666666666665,44.19222222222222],[-95.16000000000001,44.109722222222224],[-95.16000000000001,44.109722222222224],[-95.16000000000001,44.109722222222224],[-95.76694444444445,43.94083333333333],[-95.76694444444445,43.94083333333333],[-96.19388888888889,43.819722222222225],[-96.19388888888889,43.819722222222225],[-96.19388888888889,43.819722222222225],[-96.64611111111111,43.689166666666665],[-96.9538888888889,43.62361111111111],[-96.9538888888889,43.62361111111111],[-97.1086111111111,43.599722222222226],[-97.26472222222222,43.57555555555556],[-97.26472222222222,43.57555555555556],[-97.26472222222222,43.57555555555556],[-97.57833333333333,43.526666666666664],[-97.57833333333333,43.526666666666664],[-97.73277777777778,43.50194444444445],[-97.73277777777778,43.50194444444445],[-98.35249999999999,43.40138888888889],[-98.35249999999999,43.40138888888889],[-98.655,43.350833333333334],[-98.655,43.350833333333334],[-99.185,43.26027777777778],[-99.185,43.26027777777778],[-99.27333333333333,43.24472222222222],[-99.33333333333333,43.23361111111111],[-99.33333333333333,43.23361111111111],[-99.42194444444445,43.21888888888889],[-99.47916666666667,43.20805555555556],[-99.57027777777778,43.192499999999995],[-99.57027777777778,43.192499999999995],[-99.78166666666667,43.15472222222222],[-99.78166666666667,43.15472222222222],[-100.08638888888889,43.099722222222226],[-100.23472222222222,43.072500000000005],[-100.32111111111111,43.056666666666665],[-100.32111111111111,43.056666666666665],[-100.39277777777778,43.0425],[-100.39277777777778,43.0425],[-100.39277777777778,43.0425],[-101.075,42.914722222222224],[-101.075,42.914722222222224],[-101.2238888888889,42.88611111111111],[-101.2238888888889,42.88611111111111],[-101.375,42.85666666666667],[-101.52583333333334,42.827222222222225],[-101.52583333333334,42.827222222222225],[-101.52583333333334,42.827222222222225],[-101.88972222222223,42.755],[-102.03611111111111,42.72527777777778],[-102.03611111111111,42.72527777777778],[-102.03611111111111,42.72527777777778],[-102.18111111111112,42.69611111111111],[-102.32944444444443,42.66611111111111],[-102.32944444444443,42.66611111111111],[-102.62083333333332,42.60611111111111],[-102.76861111111111,42.57555555555556],[-102.76861111111111,42.57555555555556],[-103.06055555555555,42.51361111111111],[-103.06055555555555,42.51361111111111],[-103.06055555555555,42.51361111111111],[-103.49722222222222,42.42027777777778],[-103.64500000000001,42.38805555555555],[-103.64500000000001,42.38805555555555],[-103.64500000000001,42.38805555555555],[-103.7911111111111,42.35638888888889],[-103.7911111111111,42.35638888888889],[-104.0886111111111,42.29055555555556],[-104.0886111111111,42.29055555555556],[-104.23611111111111,42.2575],[-104.23611111111111,42.2575],[-104.23611111111111,42.2575],[-105.11888888888888,42.05611111111111],[-105.26472222222222,42.02166666666667],[-105.26472222222222,42.02166666666667],[-105.26472222222222,42.02166666666667],[-105.55055555555555,41.934999999999995],[-105.55055555555555,41.934999999999995],[-105.55055555555555,41.934999999999995],[-105.69083333333333,41.886944444444445],[-105.83166666666666,41.839444444444446],[-105.83166666666666,41.839444444444446],[-105.83166666666666,41.839444444444446],[-105.97194444444445,41.793055555555554],[-106.2538888888889,41.696666666666665],[-106.2538888888889,41.696666666666665],[-106.2538888888889,41.696666666666665],[-106.80472222222222,41.505833333333335],[-106.80472222222222,41.505833333333335],[-107.08722222222222,41.406388888888884],[-107.08722222222222,41.406388888888884],[-107.22805555555556,41.35638888888889],[-107.22805555555556,41.35638888888889],[-107.51388888888889,41.25472222222222],[-107.51388888888889,41.25472222222222],[-107.51388888888889,41.25472222222222],[-107.65361111111112,41.20444444444445],[-107.65361111111112,41.20444444444445],[-107.93527777777778,41.1025],[-107.93527777777778,41.1025],[-108.21777777777778,40.99888888888889],[-108.35694444444444,40.94777777777777],[-108.35694444444444,40.94777777777777],[-109.05472222222222,40.68694444444444],[-109.05472222222222,40.68694444444444],[-109.19194444444445,40.63472222222222],[-109.19194444444445,40.63472222222222],[-109.19194444444445,40.63472222222222],[-109.59527777777777,40.480555555555554],[-109.59527777777777,40.480555555555554],[-109.72972222222222,40.42833333333333],[-109.72972222222222,40.42833333333333],[-109.86472222222221,40.376111111111115],[-109.86472222222221,40.376111111111115],[-110.26388888888889,40.219722222222224],[-110.26388888888889,40.219722222222224],[-110.52805555555555,40.115],[-110.52805555555555,40.115],[-110.6575,40.06333333333333],[-110.6575,40.06333333333333],[-110.78694444444444,40.01166666666666],[-111.04472222222222,39.907777777777774],[-111.04472222222222,39.907777777777774],[-111.04472222222222,39.907777777777774],[-111.57777777777777,39.69],[-111.57777777777777,39.69],[-111.57777777777777,39.69],[-111.83611111111111,39.58305555555556],[-112.09194444444444,39.47666666666667],[-112.21888888888888,39.42333333333333],[-112.21888888888888,39.42333333333333],[-112.34694444444445,39.369166666666665],[-112.34694444444445,39.369166666666665],[-112.4738888888889,39.316111111111105],[-112.61083333333333,39.27916666666667],[-112.61083333333333,39.27916666666667],[-112.61083333333333,39.27916666666667],[-112.75777777777778,39.24638888888889],[-112.89611111111111,39.21555555555556],[-112.89611111111111,39.21555555555556],[-113.17722222222223,39.15222222222222],[-113.45666666666666,39.08833333333334],[-113.45666666666666,39.08833333333334],[-113.73722222222223,39.02361111111111],[-113.73722222222223,39.02361111111111],[-113.73722222222223,39.02361111111111],[-113.87972222222221,38.99027777777778],[-114.15972222222223,38.92444444444444],[-114.15972222222223,38.92444444444444],[-114.15972222222223,38.92444444444444],[-114.44333333333334,38.85777777777778],[-114.58472222222221,38.82944444444445],[-114.58472222222221,38.82944444444445],[-114.58472222222221,38.82944444444445],[-115.00916666666667,38.7425],[-115.26833333333333,38.68833333333333],[-115.41777777777779,38.657222222222224],[-115.41777777777779,38.657222222222224],[-115.56527777777778,38.626666666666665],[-115.56527777777778,38.626666666666665],[-115.88361111111112,38.55777777777777],[-115.88361111111112,38.55777777777777],[-116.02888888888889,38.52611111111111],[-116.02888888888889,38.52611111111111],[-116.14888888888889,38.500277777777775],[-116.14888888888889,38.500277777777775],[-116.32527777777777,38.461666666666666],[-116.32527777777777,38.461666666666666],[-116.47055555555556,38.42944444444444],[-116.61972222222222,38.396388888888886],[-116.61972222222222,38.396388888888886],[-116.76388888888889,38.36416666666667],[-116.88166666666666,38.33777777777778],[-116.91000000000001,38.33111111111111],[-116.91000000000001,38.33111111111111],[-116.91000000000001,38.33111111111111],[-117.02555555555556,38.305277777777775],[-117.16194444444444,38.274166666666666],[-117.16194444444444,38.274166666666666],[-117.29722222222222,38.24333333333333],[-117.29722222222222,38.24333333333333],[-117.3236111111111,38.23722222222222],[-117.42944444444444,38.20611111111111],[-117.45194444444445,38.19305555555555],[-117.45194444444445,38.19305555555555],[-117.45194444444445,38.19305555555555],[-117.62722222222222,38.00138888888889],[-117.69777777777779,37.91916666666666],[-117.69777777777779,37.91916666666666],[-117.78416666666666,37.81666666666667],[-117.78416666666666,37.81666666666667],[-117.79944444444445,37.79888888888889],[-117.88722222222223,37.69638888888888],[-117.88722222222223,37.69638888888888],[-117.97444444444444,37.59638888888889],[-117.97444444444444,37.59638888888889],[-118.0736111111111,37.544999999999995],[-118.0736111111111,37.544999999999995],[-118.09666666666666,37.54083333333333],[-118.36888888888888,37.55555555555555],[-118.60833333333333,37.57416666666667],[-118.60833333333333,37.57416666666667],[-118.74055555555556,37.58416666666667],[-118.74055555555556,37.58416666666667],[-118.74055555555556,37.58416666666667],[-119.54805555555555,37.643055555555556],[-119.54805555555555,37.643055555555556],[-119.81472222222222,37.66111111111111],[-119.81472222222222,37.66111111111111],[-119.81472222222222,37.66111111111111],[-120.08333333333333,37.678888888888885],[-120.08333333333333,37.678888888888885],[-120.08333333333333,37.678888888888885],[-120.35972222222222,37.69611111111111],[-120.35972222222222,37.69611111111111],[-120.5025,37.6875],[-120.64500000000001,37.670833333333334],[-120.64500000000001,37.670833333333334],[-120.76666666666667,37.65],[-120.76666666666667,37.65],[-120.76666666666667,37.65],[-120.91388888888889,37.638888888888886],[-121.5,37.56666666666667],[-121.52333333333333,37.5625],[-121.61666666666666,37.55],[-121.61666666666666,37.55],[-121.61666666666666,37.55],[-121.68333333333334,37.56666666666667],[-121.68333333333334,37.56666666666667],[-121.8236111111111,37.494166666666665],[-121.8236111111111,37.494166666666665],[-121.88333333333334,37.483333333333334],[-121.88333333333334,37.483333333333334],[-121.98722222222223,37.47888888888889],[-122.1,37.5],[-122.1,37.5],[-122.1,37.5],[-122.15,37.53333333333333],[-122.17472222222223,37.53444444444444],[-122.17472222222223,37.53444444444444],[-122.17472222222223,37.53444444444444],[-122.26666666666667,37.583333333333336],[-122.28583333333333,37.581388888888895],[-122.32805555555555,37.598888888888894]],"type":"LineString"}
}
