{
  "id": 2031105515,
  "type": "Feature",
  "properties": {
    "geom:area": 0,
    "geom:bbox": "-122.393889,37.629167,-86.099167,39.800000",
    "geom:latitude": 38.68844445958432,
    "geom:longitude": -104.1739676587191,
    "src:alt_label": "swim-path",
    "src:geom": "swim",
    "swim:altitudes": [
      "007",
      "087",
      "087",
      "116",
      "266",
      "266",
      "320",
      "350",
      "350",
      "360",
      "370C",
      "370C",
      "370C",
      "370C",
      "370C",
      "370C",
      "370C",
      "370C",
      "370C",
      "370C",
      "370C",
      "370C",
      "370C",
      "370C",
      "370C",
      "370C",
      "370C",
      "370C",
      "370C",
      "370C",
      "370C",
      "370C",
      "370C",
      "370C",
      "370C",
      "370C",
      "370C",
      "370C",
      "370C",
      "370C",
      "370C",
      "370C",
      "370C",
      "370C",
      "370C",
      "370C",
      "370C",
      "370C",
      "370C",
      "370C",
      "370C",
      "370C",
      "370C",
      "370C",
      "370C",
      "370C",
      "370C",
      "370C",
      "370C",
      "370C",
      "370C",
      "370C",
      "370C",
      "370C",
      "370C",
      "370C",
      "370C",
      "370C",
      "370C",
      "370C",
      "370C",
      "370C",
      "370C",
      "370C",
      "370C",
      "370C",
      "370C",
      "370C",
      "370C",
      "370C",
      "370C",
      "370C",
      "370C",
      "370C",
      "370C",
      "370C",
      "370C",
      "370C",
      "370C",
      "370C",
      "370C",
      "370C",
      "370C",
      "370C",
      "370C",
      "370C",
      "370C",
      "370C",
      "370C",
      "370C",
      "370C",
      "370C",
      "370C",
      "370C",
      "370C",
      "370C",
      "370C",
      "370C",
      "370C",
      "370C",
      "370C",
      "370C",
      "370C",
      "370C",
      "370C",
      "370C",
      "370C",
      "370C",
      "370C",
      "370C",
      "370C",
      "370C",
      "370C",
      "370C",
      "370C",
      "370C",
      "370C",
      "370C",
      "370C",
      "370C",
      "370C",
      "370C",
      "370C",
      "370C",
      "370C",
      "370C",
      "370C",
      "370C",
      "370C",
      "370C",
      "370C",
      "370C",
      "370C",
      "370C",
      "370C",
      "370C",
      "370C",
      "370",
      "370",
      "370",
      "370",
      "370",
      "370",
      "370",
      "289",
      "251C",
      "250",
      "248",
      "247",
      "238",
      "231",
      "228",
      "211",
      "211",
      "192",
      "190",
      "160",
      "146",
      "134",
      "111",
      "108",
      "100",
      "074",
      "070",
      "070",
      "061",
      "061",
      "047",
      "039",
      "032",
      "027",
      "022",
      "018",
      "018"
    ],
    "swim:geom": "path",
    "swim:speeds": [
      169,
      282,
      282,
      308,
      452,
      452,
      508,
      514,
      514,
      511,
      506,
      507,
      506,
      506,
      506,
      506,
      506,
      515,
      510,
      518,
      519,
      517,
      519,
      517,
      517,
      517,
      517,
      514,
      514,
      510,
      509,
      509,
      510,
      511,
      512,
      519,
      518,
      518,
      517,
      515,
      515,
      514,
      513,
      513,
      512,
      511,
      510,
      511,
      511,
      510,
      510,
      509,
      509,
      509,
      509,
      509,
      509,
      510,
      510,
      511,
      510,
      510,
      510,
      509,
      509,
      511,
      512,
      513,
      523,
      523,
      524,
      519,
      517,
      514,
      513,
      512,
      512,
      512,
      513,
      513,
      513,
      513,
      515,
      514,
      515,
      515,
      515,
      514,
      509,
      512,
      510,
      510,
      504,
      508,
      502,
      502,
      500,
      500,
      499,
      499,
      498,
      497,
      502,
      503,
      509,
      509,
      510,
      510,
      511,
      512,
      512,
      512,
      513,
      513,
      514,
      514,
      511,
      511,
      503,
      502,
      501,
      502,
      502,
      503,
      502,
      501,
      502,
      503,
      503,
      501,
      500,
      500,
      500,
      500,
      500,
      505,
      505,
      511,
      511,
      513,
      514,
      516,
      520,
      520,
      521,
      522,
      523,
      521,
      522,
      522,
      523,
      525,
      527,
      530,
      501,
      508,
      496,
      495,
      495,
      475,
      466,
      457,
      449,
      449,
      435,
      421,
      398,
      383,
      378,
      361,
      324,
      278,
      267,
      266,
      266,
      241,
      241,
      226,
      214,
      216,
      192,
      180,
      161,
      161
    ],
    "swim:timestamps": [
      1777098663,
      1777098844,
      1777098844,
      1777098904,
      1777099324,
      1777099324,
      1777099572,
      1777099692,
      1777099692,
      1777099744,
      1777099812,
      1777099864,
      1777099872,
      1777099932,
      1777099984,
      1777099984,
      1777099992,
      1777100044,
      1777100052,
      1777100104,
      1777100164,
      1777100172,
      1777100224,
      1777100232,
      1777100344,
      1777100352,
      1777100352,
      1777100464,
      1777100473,
      1777100653,
      1777100885,
      1777100885,
      1777100945,
      1777101005,
      1777101065,
      1777101493,
      1777101553,
      1777101553,
      1777101673,
      1777101793,
      1777101853,
      1777101913,
      1777101973,
      1777101973,
      1777102033,
      1777102214,
      1777102334,
      1777102514,
      1777102514,
      1777102634,
      1777102694,
      1777102726,
      1777102786,
      1777102814,
      1777102814,
      1777102874,
      1777102906,
      1777103086,
      1777103114,
      1777103174,
      1777103267,
      1777103267,
      1777103294,
      1777103387,
      1777103387,
      1777103567,
      1777103594,
      1777103627,
      1777103807,
      1777103807,
      1777103987,
      1777104227,
      1777104407,
      1777104527,
      1777104587,
      1777104647,
      1777104767,
      1777104767,
      1777104947,
      1777105007,
      1777105007,
      1777105128,
      1777105144,
      1777105248,
      1777105267,
      1777105368,
      1777105447,
      1777105488,
      1777105548,
      1777105567,
      1777105625,
      1777105625,
      1777105668,
      1777105687,
      1777105728,
      1777105745,
      1777105848,
      1777105865,
      1777105908,
      1777105908,
      1777105925,
      1777105968,
      1777106148,
      1777106165,
      1777106268,
      1777106285,
      1777106328,
      1777106388,
      1777106448,
      1777106466,
      1777106508,
      1777106508,
      1777106527,
      1777106568,
      1777106646,
      1777106688,
      1777106886,
      1777106886,
      1777107067,
      1777107127,
      1777107186,
      1777107247,
      1777107247,
      1777107308,
      1777107546,
      1777107606,
      1777107906,
      1777108089,
      1777108089,
      1777108207,
      1777108269,
      1777108326,
      1777108387,
      1777108447,
      1777108447,
      1777108686,
      1777108686,
      1777108867,
      1777108928,
      1777109049,
      1777109106,
      1777109289,
      1777109589,
      1777109589,
      1777109650,
      1777109768,
      1777109787,
      1777109887,
      1777109910,
      1777109910,
      1777109970,
      1777110027,
      1777110087,
      1777110129,
      1777110307,
      1777110389,
      1777110428,
      1777110442,
      1777110448,
      1777110504,
      1777110548,
      1777110564,
      1777110667,
      1777110667,
      1777110747,
      1777110868,
      1777110990,
      1777111008,
      1777111049,
      1777111109,
      1777111128,
      1777111188,
      1777111308,
      1777111350,
      1777111350,
      1777111410,
      1777111410,
      1777111470,
      1777111488,
      1777111531,
      1777111608,
      1777111708,
      1777111728,
      1777111728
    ],
    "wof:geomhash": "7cbbdc666d8209aa4f16f727516b72fe",
    "wof:id": 2031105515,
    "wof:repo": "sfomuseum-data-flights-2026-04"
  },
  "bbox": [
    -122.3938888888889,
    37.62916666666667,
    -86.09916666666666,
    39.8
  ],
  "geometry": {"coordinates":[[-122.3938888888889,37.62916666666667],[-122.36277777777777,37.797777777777775],[-122.36277777777777,37.797777777777775],[-122.38666666666667,37.87694444444445],[-121.47833333333334,37.99111111111111],[-121.47833333333334,37.99111111111111],[-120.75472222222223,38.04222222222222],[-120.39916666666667,38.09777777777778],[-120.39916666666667,38.09777777777778],[-120.2611111111111,38.11944444444445],[-120.04944444444445,38.14944444444444],[-119.91055555555556,38.170833333333334],[-119.875,38.175555555555555],[-119.69916666666667,38.198055555555555],[-119.56027777777777,38.22027777777778],[-119.56027777777777,38.22027777777778],[-119.52444444444444,38.224722222222226],[-119.37944444444443,38.24611111111111],[-119.34527777777777,38.249722222222225],[-119.20138888888889,38.271388888888886],[-119.02055555555556,38.296388888888885],[-118.98527777777778,38.30027777777777],[-118.84166666666667,38.32083333333334],[-118.80499999999999,38.32527777777778],[-118.48444444444445,38.36888888888889],[-118.44805555555556,38.37361111111111],[-118.44805555555556,38.37361111111111],[-118.12694444444443,38.415277777777774],[-118.09444444444443,38.419444444444444],[-117.55499999999999,38.48583333333333],[-116.86416666666666,38.544999999999995],[-116.86416666666666,38.544999999999995],[-116.68277777777779,38.559999999999995],[-116.5,38.575],[-116.31916666666666,38.58972222222222],[-115.01527777777778,38.68583333333333],[-114.82972222222222,38.698611111111106],[-114.82972222222222,38.698611111111106],[-114.46416666666667,38.721944444444446],[-114.10027777777778,38.745],[-113.91666666666667,38.75555555555555],[-113.735,38.76611111111111],[-113.55333333333333,38.77638888888889],[-113.55333333333333,38.77638888888889],[-113.37249999999999,38.78638888888889],[-112.82527777777777,38.814166666666665],[-112.46416666666667,38.831944444444446],[-111.91666666666667,38.85583333333334],[-111.91666666666667,38.85583333333334],[-111.55305555555556,38.870555555555555],[-111.3736111111111,38.87722222222222],[-111.30055555555555,38.88],[-111.09444444444443,38.886944444444445],[-111.00944444444444,38.88972222222222],[-111.00944444444444,38.88972222222222],[-110.84277777777777,38.89527777777778],[-110.73305555555555,38.89861111111111],[-110.19027777777778,38.91444444444444],[-110.11555555555555,38.91638888888889],[-109.93555555555555,38.92111111111111],[-109.64611111111111,38.92777777777778],[-109.64611111111111,38.92777777777778],[-109.575,38.92944444444444],[-109.28611111111111,38.934999999999995],[-109.28611111111111,38.934999999999995],[-108.74444444444444,38.943888888888885],[-108.67472222222223,38.94499999999999],[-108.56305555555555,38.94638888888888],[-108.00611111111111,38.952222222222225],[-108.00611111111111,38.952222222222225],[-107.44888888888889,38.95527777777778],[-106.70722222222223,38.95527777777778],[-106.14277777777778,38.95194444444445],[-105.77777777777777,38.948611111111106],[-105.59638888888888,38.946666666666665],[-105.41444444444446,38.943888888888885],[-105.05222222222221,38.9375],[-105.05222222222221,38.9375],[-104.50555555555556,38.927499999999995],[-104.32583333333334,38.92333333333333],[-104.32583333333334,38.92333333333333],[-103.96138888888889,38.913888888888884],[-103.90055555555556,38.909444444444446],[-103.59694444444445,38.90361111111111],[-103.53527777777778,38.89972222222222],[-103.23,38.89222222222222],[-102.98388888888888,38.882777777777775],[-102.86472222222221,38.87916666666667],[-102.69083333333333,38.87277777777778],[-102.62194444444444,38.86888888888889],[-102.44333333333334,38.86222222222222],[-102.44333333333334,38.86222222222222],[-102.33444444444444,38.85888888888889],[-102.26472222222222,38.855555555555554],[-102.15583333333333,38.85166666666667],[-102.08777777777777,38.84861111111111],[-101.80055555555555,38.836111111111116],[-101.73305555555555,38.83305555555556],[-101.62555555555555,38.82777777777778],[-101.62555555555555,38.82777777777778],[-101.55472222222222,38.82472222222223],[-101.44944444444445,38.819722222222225],[-100.91416666666667,38.79194444444444],[-100.84472222222222,38.78805555555555],[-100.55166666666666,38.772777777777776],[-100.47972222222222,38.76861111111111],[-100.37138888888889,38.76222222222222],[-100.18694444444445,38.75138888888889],[-100.00722222222223,38.740833333333335],[-99.9363888888889,38.73638888888889],[-99.82388888888889,38.72944444444445],[-99.82388888888889,38.72944444444445],[-99.75333333333333,38.725],[-99.64083333333333,38.717777777777776],[-99.38277777777778,38.700833333333335],[-99.27583333333334,38.693888888888885],[-98.69361111111111,38.65333333333333],[-98.69361111111111,38.65333333333333],[-98.1563888888889,38.61333333333334],[-97.97916666666667,38.599444444444444],[-97.80305555555556,38.58555555555556],[-97.62527777777777,38.571111111111115],[-97.62527777777777,38.571111111111115],[-97.44500000000001,38.55611111111111],[-96.72527777777778,38.494166666666665],[-96.54861111111111,38.47805555555556],[-95.67305555555556,38.39527777777778],[-95.14666666666668,38.342222222222226],[-95.14666666666668,38.342222222222226],[-94.79944444444445,38.30555555555555],[-94.62444444444444,38.286944444444444],[-94.44944444444445,38.27861111111111],[-94.27527777777777,38.300555555555555],[-94.10305555555556,38.323055555555555],[-94.10305555555556,38.323055555555555],[-93.37944444444443,38.41583333333333],[-93.37944444444443,38.41583333333333],[-92.84083333333332,38.481944444444444],[-92.66083333333334,38.50333333333333],[-92.29638888888888,38.545833333333334],[-92.14972222222222,38.5625],[-91.60555555555555,38.62277777777778],[-90.68305555555555,38.72],[-90.68305555555555,38.72],[-90.5025,38.738055555555555],[-90.12972222222221,38.774166666666666],[-90.07777777777777,38.77972222222222],[-89.74694444444445,38.81083333333333],[-89.70972222222223,38.81444444444444],[-89.70972222222223,38.81444444444444],[-89.52583333333334,38.83083333333334],[-89.33999999999999,38.846944444444446],[-89.1525,38.86361111111111],[-89.00027777777778,38.87694444444445],[-88.46833333333333,38.921388888888885],[-88.21472222222222,38.95388888888889],[-88.10972222222222,38.966944444444444],[-88.04861111111111,38.97361111111111],[-88.03944444444444,38.97555555555556],[-87.87833333333333,38.99583333333334],[-87.76777777777778,39.009166666666665],[-87.71055555555556,39.015277777777776],[-87.44666666666667,39.047777777777775],[-87.44666666666667,39.047777777777775],[-87.22611111111111,39.07361111111111],[-86.92972222222222,39.11055555555556],[-86.77305555555556,39.269444444444446],[-86.73333333333333,39.31666666666667],[-86.69388888888889,39.35666666666667],[-86.60249999999999,39.42861111111111],[-86.55,39.45],[-86.46666666666667,39.5],[-86.31666666666666,39.6],[-86.28305555555555,39.619166666666665],[-86.28305555555555,39.619166666666665],[-86.21138888888889,39.66305555555555],[-86.21138888888889,39.66305555555555],[-86.15361111111112,39.706944444444446],[-86.11666666666666,39.733333333333334],[-86.09916666666666,39.749722222222225],[-86.13333333333334,39.8],[-86.21000000000001,39.774166666666666],[-86.23333333333333,39.75],[-86.23333333333333,39.75]],"type":"LineString"}
}
