{
  "id": 2015325103,
  "type": "Feature",
  "properties": {
    "geom:area": 0,
    "geom:bbox": "-122.396150,37.624470,-122.114950,38.497820",
    "geom:latitude": 38.04237980184302,
    "geom:longitude": -122.2204812698121,
    "src:alt_label": "swim-takeoff",
    "src:geom": "swim",
    "swim:elevations": [
      183,
      421,
      696,
      814,
      1235,
      1484,
      1868,
      1903,
      2136,
      2320,
      2642,
      3273,
      3659,
      4019,
      4378,
      4676,
      4776,
      4962,
      5082,
      5485,
      5725,
      6063,
      6200,
      6377,
      6736,
      6927,
      7039
    ],
    "swim:geom": "takeoff",
    "swim:timestamps": [
      1776549454,
      1776549476,
      1776549505,
      1776549514,
      1776549556,
      1776549590,
      1776549620,
      1776549623,
      1776549638,
      1776549650,
      1776549666,
      1776549697,
      1776549743,
      1776549776,
      1776549800,
      1776549825,
      1776549832,
      1776549845,
      1776549854,
      1776549892,
      1776549913,
      1776549948,
      1776549960,
      1776549979,
      1776550018,
      1776550043,
      1776550058
    ],
    "wof:geomhash": "5e6346d333d03890382e0fe09d6467b9",
    "wof:id": 2015325103,
    "wof:repo": "sfomuseum-data-flights-2026-04"
  },
  "bbox": [
    -122.39615,
    37.62447,
    -122.11495,
    38.49782
  ],
  "geometry": {"coordinates":[[-122.38322,37.62447],[-122.39615,37.63546],[-122.38306,37.65267],[-122.37502,37.65545],[-122.34102,37.67266],[-122.32527,37.7052],[-122.31387,37.74081],[-122.31258,37.74468],[-122.30585,37.76484],[-122.30049,37.78108],[-122.29322,37.80305],[-122.27952,37.84395],[-122.25688,37.91099],[-122.23804,37.96637],[-122.22422,38.00735],[-122.21009,38.04897],[-122.20588,38.06132],[-122.19778,38.08513],[-122.19232,38.10103],[-122.16865,38.17014],[-122.15534,38.20906],[-122.13284,38.27456],[-122.12494,38.29769],[-122.11495,38.33627],[-122.11758,38.41563],[-122.12085,38.46612],[-122.12302,38.49782]],"type":"LineString"}
}
