{
  "id": 2031137755,
  "type": "Feature",
  "properties": {
    "geom:area": 0,
    "geom:bbox": "-122.560170,36.737690,-122.173720,37.666640",
    "geom:latitude": 37.22858934600643,
    "geom:longitude": -122.45556376383139,
    "src:alt_label": "swim-takeoff",
    "src:geom": "swim",
    "swim:elevations": [
      213,
      567,
      1056,
      1711,
      2075,
      2198,
      2439,
      2874,
      3184,
      3875,
      4069,
      4480,
      5186,
      5443,
      5707,
      6209,
      6349,
      6865,
      7725,
      8025,
      8207,
      8541,
      8751,
      8839,
      8839,
      8839,
      8839,
      8839,
      8839
    ],
    "swim:geom": "takeoff",
    "swim:timestamps": [
      1777416645,
      1777416668,
      1777416705,
      1777416746,
      1777416772,
      1777416778,
      1777416787,
      1777416808,
      1777416826,
      1777416869,
      1777416881,
      1777416903,
      1777416945,
      1777416964,
      1777416983,
      1777417015,
      1777417024,
      1777417059,
      1777417107,
      1777417125,
      1777417140,
      1777417166,
      1777417184,
      1777417228,
      1777417250,
      1777417282,
      1777417312,
      1777417342,
      1777417369
    ],
    "wof:geomhash": "0d4474dd54bb89dd2ebc348f1d0ba32d",
    "wof:id": 2031137755,
    "wof:repo": "sfomuseum-data-flights-2026-04"
  },
  "bbox": [
    -122.56017,
    36.73769,
    -122.17372,
    37.66664
  ],
  "geometry": {"coordinates":[[-122.38556,37.62319],[-122.40355,37.63101],[-122.43748,37.64558],[-122.48667,37.66664],[-122.5267,37.66442],[-122.53482,37.65972],[-122.54432,37.65045],[-122.55204,37.62311],[-122.55233,37.59819],[-122.55385,37.53429],[-122.55443,37.51429],[-122.555,37.47845],[-122.55653,37.40795],[-122.55738,37.37606],[-122.5584,37.34292],[-122.55902,37.28537],[-122.55918,37.26898],[-122.56017,37.20394],[-122.52965,37.12114],[-122.5048,37.09548],[-122.48425,37.07349],[-122.44931,37.03563],[-122.42472,37.00887],[-122.36511,36.94452],[-122.33439,36.91146],[-122.29066,36.86415],[-122.25059,36.82094],[-122.21026,36.77722],[-122.17372,36.73769]],"type":"LineString"}
}
