{
  "id": 2015336373,
  "type": "Feature",
  "properties": {
    "geom:area": 0,
    "geom:bbox": "-122.750556,37.426667,-73.800000,40.650000",
    "geom:latitude": 39.69985041651946,
    "geom:longitude": -99.01056544469103,
    "src:alt_label": "swim-path",
    "src:geom": "swim",
    "swim:altitudes": [
      "006",
      "024",
      "043",
      "059",
      "059",
      "084",
      "107",
      "107",
      "107",
      "179",
      "189",
      "189",
      "189",
      "190",
      "190",
      "201",
      "201",
      "201",
      "235",
      "235",
      "235",
      "246",
      "246",
      "273",
      "273",
      "292",
      "292",
      "333",
      "333",
      "339C",
      "339C",
      "340C",
      "340C",
      "340C",
      "340C",
      "340C",
      "340C",
      "340C",
      "340C",
      "340C",
      "340C",
      "340C",
      "340C",
      "340C",
      "340C",
      "340C",
      "340C",
      "340C",
      "340C",
      "340C",
      "340C",
      "340C",
      "340C",
      "340C",
      "340C",
      "340C",
      "340C",
      "340C",
      "340C",
      "340C",
      "340C",
      "340C",
      "340C",
      "340C",
      "340C",
      "340C",
      "340C",
      "340C",
      "340C",
      "340C",
      "340C",
      "340C",
      "340C",
      "340C",
      "340C",
      "340C",
      "340C",
      "340C",
      "340C",
      "340C",
      "340C",
      "340C",
      "340C",
      "340C",
      "340C",
      "340C",
      "340C",
      "340C",
      "340C",
      "340C",
      "340C",
      "340C",
      "340C",
      "340C",
      "340C",
      "340C",
      "340C",
      "340C",
      "340C",
      "340C",
      "340C",
      "340C",
      "340C",
      "340C",
      "340C",
      "340C",
      "340C",
      "340C",
      "340C",
      "340C",
      "340C",
      "340C",
      "340C",
      "340C",
      "340C",
      "340C",
      "340C",
      "340C",
      "340C",
      "340C",
      "340C",
      "340C",
      "340C",
      "340C",
      "340C",
      "340C",
      "340C",
      "340C",
      "340C",
      "340C",
      "340C",
      "340C",
      "340C",
      "340C",
      "340C",
      "340C",
      "340C",
      "340C",
      "340C",
      "340C",
      "340C",
      "340C",
      "340C",
      "340C",
      "340C",
      "340C",
      "340C",
      "340C",
      "340C",
      "340C",
      "340C",
      "340C",
      "340C",
      "340C",
      "340C",
      "340C",
      "340C",
      "340C",
      "340C",
      "340C",
      "340C",
      "340C",
      "340C",
      "340C",
      "340C",
      "340C",
      "340C",
      "340C",
      "340C",
      "340C",
      "340C",
      "340C",
      "340C",
      "340C",
      "340C",
      "340C",
      "340C",
      "340C",
      "340C",
      "340C",
      "340C",
      "340C",
      "340C",
      "340C",
      "340C",
      "340C",
      "340C",
      "340C",
      "340C",
      "340C",
      "340C",
      "340C",
      "340C",
      "340C",
      "340C",
      "340C",
      "340C",
      "340C",
      "340C",
      "340C",
      "360C",
      "360C",
      "360C",
      "360C",
      "360C",
      "360C",
      "360C",
      "360C",
      "360C",
      "360C",
      "360C",
      "360C",
      "360C",
      "360C",
      "360C",
      "360C",
      "360C",
      "360C",
      "360C",
      "360C",
      "360C",
      "360C",
      "360C",
      "360C",
      "360C",
      "360C",
      "360C",
      "360C",
      "360C",
      "360C",
      "360C",
      "360C",
      "360C",
      "360C",
      "360C",
      "360C",
      "360C",
      "360C",
      "360C",
      "360C",
      "360C",
      "360C",
      "360C",
      "360C",
      "360C",
      "360C",
      "360C",
      "360C",
      "360C",
      "360C",
      "360C",
      "360C",
      "360C",
      "360C",
      "360C",
      "360C",
      "360C",
      "360C",
      "360C",
      "360C",
      "360C",
      "360C",
      "360C",
      "360C",
      "360C",
      "360C",
      "360C",
      "360C",
      "360C",
      "360C",
      "360C",
      "360C",
      "360C",
      "360C",
      "360C",
      "360C",
      "360C",
      "360C",
      "360C",
      "360C",
      "360C",
      "360C",
      "360C",
      "360C",
      "360C",
      "360C",
      "360C",
      "360C",
      "360C",
      "360C",
      "360C",
      "360C",
      "360C",
      "360C",
      "360C",
      "360C",
      "360C",
      "360C",
      "360C",
      "360C",
      "360C",
      "360C",
      "350C",
      "350C",
      "350C",
      "350C",
      "350C",
      "350",
      "350",
      "350",
      "340",
      "340",
      "331",
      "331",
      "321",
      "270",
      "246",
      "230",
      "230",
      "197",
      "197",
      "127",
      "127",
      "119",
      "110C",
      "110C",
      "106",
      "100",
      "093",
      "077",
      "070",
      "063",
      "050",
      "050",
      "044",
      "039",
      "033",
      "030",
      "027",
      "025",
      "025",
      "021",
      "017",
      "004",
      "004"
    ],
    "swim:geom": "path",
    "swim:speeds": [
      171,
      214,
      240,
      263,
      263,
      261,
      279,
      279,
      279,
      357,
      370,
      370,
      370,
      380,
      380,
      381,
      381,
      381,
      409,
      409,
      409,
      423,
      423,
      432,
      432,
      436,
      436,
      415,
      415,
      424,
      424,
      416,
      416,
      416,
      413,
      408,
      408,
      406,
      404,
      404,
      404,
      403,
      403,
      403,
      403,
      403,
      403,
      403,
      405,
      407,
      407,
      407,
      408,
      410,
      411,
      411,
      411,
      412,
      413,
      413,
      413,
      414,
      415,
      415,
      415,
      411,
      410,
      409,
      409,
      408,
      408,
      408,
      407,
      407,
      408,
      408,
      408,
      407,
      406,
      410,
      410,
      410,
      410,
      410,
      410,
      408,
      409,
      411,
      411,
      409,
      409,
      409,
      411,
      411,
      411,
      411,
      412,
      412,
      412,
      412,
      412,
      411,
      410,
      409,
      409,
      410,
      410,
      410,
      412,
      413,
      413,
      413,
      413,
      413,
      413,
      412,
      412,
      408,
      408,
      410,
      410,
      412,
      412,
      412,
      411,
      411,
      411,
      411,
      411,
      414,
      414,
      414,
      415,
      418,
      418,
      421,
      421,
      421,
      421,
      419,
      418,
      418,
      418,
      419,
      419,
      419,
      421,
      422,
      423,
      424,
      424,
      424,
      423,
      423,
      422,
      421,
      421,
      421,
      422,
      423,
      423,
      424,
      426,
      426,
      426,
      429,
      429,
      429,
      431,
      431,
      431,
      431,
      431,
      431,
      431,
      432,
      432,
      433,
      433,
      435,
      435,
      437,
      438,
      438,
      437,
      439,
      439,
      439,
      440,
      439,
      440,
      441,
      439,
      439,
      438,
      433,
      433,
      434,
      434,
      433,
      423,
      423,
      425,
      432,
      432,
      437,
      442,
      446,
      446,
      446,
      448,
      448,
      446,
      448,
      447,
      449,
      450,
      450,
      450,
      451,
      451,
      448,
      449,
      451,
      449,
      455,
      455,
      455,
      450,
      450,
      450,
      449,
      447,
      446,
      445,
      445,
      446,
      446,
      446,
      446,
      446,
      446,
      450,
      450,
      450,
      451,
      452,
      452,
      452,
      450,
      450,
      450,
      450,
      450,
      452,
      455,
      457,
      457,
      457,
      457,
      454,
      454,
      454,
      455,
      455,
      443,
      443,
      443,
      440,
      440,
      442,
      447,
      447,
      447,
      447,
      446,
      445,
      445,
      443,
      443,
      443,
      443,
      443,
      440,
      436,
      436,
      432,
      430,
      429,
      429,
      429,
      429,
      429,
      429,
      429,
      429,
      430,
      429,
      426,
      426,
      431,
      431,
      395,
      394,
      389,
      387,
      387,
      383,
      379,
      375,
      374,
      374,
      374,
      374,
      374,
      371,
      367,
      341,
      341,
      320,
      320,
      313,
      313,
      298,
      224,
      210,
      210,
      204,
      206,
      203,
      211,
      209,
      212,
      212,
      213,
      201,
      173,
      160,
      161,
      164,
      164,
      165,
      168,
      160,
      160
    ],
    "swim:timestamps": [
      1776726244,
      1776726306,
      1776726366,
      1776726395,
      1776726395,
      1776726449,
      1776726514,
      1776726514,
      1776726514,
      1776726787,
      1776726847,
      1776726847,
      1776726847,
      1776727027,
      1776727027,
      1776727207,
      1776727207,
      1776727207,
      1776727387,
      1776727387,
      1776727387,
      1776727568,
      1776727568,
      1776727743,
      1776727743,
      1776727863,
      1776727863,
      1776728169,
      1776728169,
      1776728284,
      1776728284,
      1776728404,
      1776728404,
      1776728404,
      1776728464,
      1776728524,
      1776728524,
      1776728559,
      1776728619,
      1776728679,
      1776728739,
      1776728764,
      1776728764,
      1776728764,
      1776728825,
      1776728860,
      1776728860,
      1776728860,
      1776729005,
      1776729065,
      1776729065,
      1776729065,
      1776729100,
      1776729160,
      1776729185,
      1776729185,
      1776729220,
      1776729245,
      1776729280,
      1776729280,
      1776729305,
      1776729340,
      1776729400,
      1776729400,
      1776729400,
      1776729641,
      1776729666,
      1776729906,
      1776729941,
      1776730027,
      1776730362,
      1776730387,
      1776730662,
      1776730662,
      1776730723,
      1776730783,
      1776730875,
      1776730963,
      1776730995,
      1776731203,
      1776731203,
      1776731263,
      1776731263,
      1776731323,
      1776731383,
      1776731415,
      1776731536,
      1776731564,
      1776731564,
      1776731596,
      1776731656,
      1776731656,
      1776731684,
      1776731716,
      1776731836,
      1776731836,
      1776731984,
      1776731984,
      1776732076,
      1776732104,
      1776732104,
      1776732165,
      1776732285,
      1776732405,
      1776732405,
      1776732437,
      1776732465,
      1776732465,
      1776732557,
      1776732617,
      1776732617,
      1776732677,
      1776732677,
      1776732737,
      1776732737,
      1776732918,
      1776732918,
      1776733218,
      1776733218,
      1776733398,
      1776733398,
      1776733579,
      1776733639,
      1776733639,
      1776733759,
      1776733759,
      1776733819,
      1776733879,
      1776733879,
      1776733999,
      1776734120,
      1776734120,
      1776734240,
      1776734360,
      1776734360,
      1776734540,
      1776734540,
      1776734580,
      1776734600,
      1776734700,
      1776734761,
      1776734761,
      1776734941,
      1776735001,
      1776735021,
      1776735021,
      1776735081,
      1776735121,
      1776735202,
      1776735241,
      1776735262,
      1776735262,
      1776735361,
      1776735361,
      1776735422,
      1776735442,
      1776735442,
      1776735662,
      1776735682,
      1776735743,
      1776735743,
      1776735782,
      1776735842,
      1776735842,
      1776735860,
      1776735962,
      1776736154,
      1776736154,
      1776736203,
      1776736263,
      1776736323,
      1776736323,
      1776736401,
      1776736455,
      1776736455,
      1776736521,
      1776736581,
      1776736641,
      1776736641,
      1776736695,
      1776736695,
      1776736755,
      1776736815,
      1776736815,
      1776736822,
      1776736935,
      1776736942,
      1776736942,
      1776736995,
      1776737002,
      1776737055,
      1776737236,
      1776737296,
      1776737296,
      1776737416,
      1776737957,
      1776737957,
      1776738137,
      1776738137,
      1776738197,
      1776738437,
      1776738437,
      1776738579,
      1776738618,
      1776738618,
      1776738678,
      1776738738,
      1776738798,
      1776738798,
      1776738940,
      1776738978,
      1776738978,
      1776739060,
      1776739098,
      1776739120,
      1776739158,
      1776739218,
      1776739278,
      1776739278,
      1776739399,
      1776739399,
      1776739420,
      1776739481,
      1776739519,
      1776739661,
      1776739699,
      1776739699,
      1776739781,
      1776739999,
      1776740081,
      1776740081,
      1776740180,
      1776740300,
      1776740322,
      1776740360,
      1776740360,
      1776740442,
      1776740480,
      1776740502,
      1776740562,
      1776740562,
      1776740600,
      1776740841,
      1776740862,
      1776740862,
      1776740961,
      1776741021,
      1776741043,
      1776741043,
      1776741223,
      1776741223,
      1776741283,
      1776741343,
      1776741343,
      1776741463,
      1776741583,
      1776741643,
      1776741643,
      1776741824,
      1776741824,
      1776742184,
      1776742184,
      1776742244,
      1776742424,
      1776742424,
      1776742605,
      1776742605,
      1776742925,
      1776742965,
      1776742965,
      1776743085,
      1776743165,
      1776743225,
      1776743225,
      1776743285,
      1776743326,
      1776743405,
      1776743405,
      1776743506,
      1776743506,
      1776743525,
      1776743566,
      1776743566,
      1776743686,
      1776743765,
      1776743765,
      1776743866,
      1776743926,
      1776743946,
      1776743946,
      1776744006,
      1776744046,
      1776744046,
      1776744066,
      1776744106,
      1776744106,
      1776744126,
      1776744306,
      1776744366,
      1776744366,
      1776744666,
      1776744666,
      1776745027,
      1776745087,
      1776745207,
      1776745267,
      1776745267,
      1776745327,
      1776745387,
      1776745507,
      1776745567,
      1776745567,
      1776745627,
      1776745627,
      1776745687,
      1776745868,
      1776745928,
      1776745988,
      1776745988,
      1776746081,
      1776746081,
      1776746288,
      1776746288,
      1776746304,
      1776746408,
      1776746468,
      1776746528,
      1776746544,
      1776746588,
      1776746648,
      1776746664,
      1776746708,
      1776746829,
      1776746829,
      1776746889,
      1776746904,
      1776746949,
      1776746964,
      1776747009,
      1776747024,
      1776747024,
      1776747069,
      1776747084,
      1776747189,
      1776747189
    ],
    "wof:geomhash": "0060cea2c20715082ac9fcc465dc9e9e",
    "wof:id": 2015336373,
    "wof:repo": "sfomuseum-data-flights-2026-04"
  },
  "bbox": [
    -122.75055555555555,
    37.42666666666666,
    -73.8,
    40.65
  ],
  "geometry": {"coordinates":[[-73.8,40.65],[-73.85944444444443,40.62111111111111],[-73.91972222222223,40.57472222222223],[-73.95,40.55],[-73.95,40.55],[-74,40.483333333333334],[-74.05,40.416666666666664],[-74.05,40.416666666666664],[-74.05,40.416666666666664],[-74.5175,40.20055555555556],[-74.64527777777778,40.19],[-74.64527777777778,40.19],[-74.64527777777778,40.19],[-75.05611111111111,40.1575],[-75.05611111111111,40.1575],[-75.47472222222223,40.12222222222222],[-75.47472222222223,40.12222222222222],[-75.47472222222223,40.12222222222222],[-75.90527777777778,40.08444444444444],[-75.90527777777778,40.08444444444444],[-75.90527777777778,40.08444444444444],[-76.3611111111111,40.0425],[-76.3611111111111,40.0425],[-76.79555555555555,40.00083333333333],[-76.79555555555555,40.00083333333333],[-77.10805555555555,39.97],[-77.10805555555555,39.97],[-77.88666666666667,39.969166666666666],[-77.88666666666667,39.969166666666666],[-78.16083333333334,39.97694444444445],[-78.16083333333334,39.97694444444445],[-78.49111111111111,39.985],[-78.49111111111111,39.985],[-78.49111111111111,39.985],[-78.63833333333334,39.98861111111111],[-78.78805555555556,39.99166666666667],[-78.78805555555556,39.99166666666667],[-78.87222222222222,39.99333333333333],[-79.01722222222222,39.99638888888889],[-79.16027777777778,39.99888888888889],[-79.30972222222222,40.001666666666665],[-79.37222222222222,40.00277777777778],[-79.37222222222222,40.00277777777778],[-79.37222222222222,40.00277777777778],[-79.51916666666666,40.005],[-79.60194444444444,40.00611111111111],[-79.60194444444444,40.00611111111111],[-79.60194444444444,40.00611111111111],[-79.93027777777779,40.010555555555555],[-80.07972222222222,40.011944444444445],[-80.07972222222222,40.011944444444445],[-80.07972222222222,40.011944444444445],[-80.16333333333334,40.01277777777778],[-80.31138888888889,40.01416666666667],[-80.38083333333333,40.014722222222225],[-80.38083333333333,40.014722222222225],[-80.47222222222223,40.015277777777776],[-80.53194444444445,40.01555555555556],[-80.62138888888889,40.01611111111111],[-80.62138888888889,40.01611111111111],[-80.68083333333334,40.01638888888889],[-80.77277777777778,40.01694444444444],[-80.92222222222223,40.01583333333333],[-80.92222222222223,40.01583333333333],[-80.92222222222223,40.01583333333333],[-81.51888888888888,40.006388888888885],[-81.58972222222222,40.005],[-82.17944444444444,39.99194444444444],[-82.27194444444444,39.98972222222222],[-82.47527777777778,39.98444444444444],[-83.30805555555555,39.95916666666667],[-83.35083333333333,39.9575],[-84.0213888888889,39.93277777777777],[-84.0213888888889,39.93277777777777],[-84.17027777777778,39.92666666666666],[-84.31694444444445,39.920833333333334],[-84.53777777777778,39.92333333333333],[-84.7575,39.92361111111111],[-84.8325,39.924166666666665],[-85.34972222222221,39.92472222222222],[-85.34972222222221,39.92472222222222],[-85.49666666666667,39.924166666666665],[-85.49666666666667,39.924166666666665],[-85.64472222222223,39.92388888888889],[-85.79305555555555,39.92333333333333],[-85.89055555555557,39.922777777777775],[-86.16888888888889,39.921388888888885],[-86.2375,39.92027777777778],[-86.2375,39.92027777777778],[-86.3175,39.92027777777778],[-86.46583333333334,39.91861111111111],[-86.46583333333334,39.91861111111111],[-86.535,39.9175],[-86.61527777777778,39.916666666666664],[-86.91027777777778,39.9125],[-86.91027777777778,39.9125],[-87.28611111111111,39.906666666666666],[-87.28611111111111,39.906666666666666],[-87.50833333333334,39.902499999999996],[-87.58416666666666,39.901111111111106],[-87.58416666666666,39.901111111111106],[-87.73166666666667,39.897777777777776],[-88.02777777777777,39.89111111111111],[-88.32277777777777,39.88361111111111],[-88.32277777777777,39.88361111111111],[-88.41333333333334,39.88111111111111],[-88.48805555555556,39.87916666666667],[-88.48805555555556,39.87916666666667],[-88.71194444444444,39.87277777777778],[-88.86027777777777,39.86805555555556],[-88.86027777777777,39.86805555555556],[-89.0111111111111,39.86333333333334],[-89.0111111111111,39.86333333333334],[-89.15916666666668,39.858333333333334],[-89.15916666666668,39.858333333333334],[-89.60555555555555,39.8425],[-89.60555555555555,39.8425],[-90.34277777777777,39.83444444444444],[-90.34277777777777,39.83444444444444],[-90.78861111111111,39.82888888888889],[-90.78861111111111,39.82888888888889],[-91.23444444444445,39.82166666666667],[-91.38444444444445,39.81888888888889],[-91.38444444444445,39.81888888888889],[-91.67972222222222,39.812777777777775],[-91.67972222222222,39.812777777777775],[-91.8286111111111,39.809444444444445],[-91.97722222222222,39.80583333333333],[-91.97722222222222,39.80583333333333],[-92.27555555555556,39.79805555555556],[-92.5775,39.78944444444444],[-92.5775,39.78944444444444],[-92.87972222222221,39.78],[-93.18166666666667,39.76972222222222],[-93.18166666666667,39.76972222222222],[-93.6375,39.75277777777778],[-93.6375,39.75277777777778],[-93.72833333333334,39.74944444444444],[-93.76,39.74805555555556],[-94.03027777777778,39.73694444444445],[-94.18027777777779,39.73027777777778],[-94.18027777777779,39.73027777777778],[-94.63138888888888,39.709722222222226],[-94.78194444444445,39.7025],[-94.81722222222221,39.700833333333335],[-94.81722222222221,39.700833333333335],[-94.96805555555555,39.69333333333333],[-95.08611111111111,39.68722222222222],[-95.30055555555555,39.67583333333333],[-95.3938888888889,39.67111111111111],[-95.45138888888889,39.66777777777777],[-95.45138888888889,39.66777777777777],[-95.70027777777779,39.653888888888886],[-95.70027777777779,39.653888888888886],[-95.85055555555554,39.64527777777778],[-95.90305555555557,39.64222222222222],[-95.90305555555557,39.64222222222222],[-96.4525,39.60861111111111],[-96.50333333333333,39.605555555555554],[-96.65583333333333,39.595555555555556],[-96.65583333333333,39.595555555555556],[-96.75805555555556,39.58888888888889],[-96.91333333333334,39.57833333333333],[-96.91333333333334,39.57833333333333],[-96.94638888888889,39.57611111111112],[-97.22222222222223,39.55722222222222],[-97.70138888888889,39.522777777777776],[-97.70138888888889,39.522777777777776],[-97.82638888888889,39.513333333333335],[-97.98111111111112,39.50138888888889],[-98.13555555555556,39.49611111111111],[-98.13555555555556,39.49611111111111],[-98.33027777777778,39.49027777777778],[-98.44361111111111,39.486666666666665],[-98.44361111111111,39.486666666666665],[-98.65944444444445,39.47972222222222],[-98.81361111111111,39.474444444444444],[-98.9725,39.46888888888889],[-98.9725,39.46888888888889],[-99.09972222222221,39.46416666666667],[-99.09972222222221,39.46416666666667],[-99.25638888888889,39.458333333333336],[-99.42861111111111,39.45166666666667],[-99.42861111111111,39.45166666666667],[-99.44611111111111,39.450833333333335],[-99.74472222222222,39.43833333333333],[-99.76166666666667,39.437777777777775],[-99.76166666666667,39.437777777777775],[-99.90166666666667,39.43138888888889],[-99.9175,39.43083333333333],[-100.0611111111111,39.424166666666665],[-100.535,39.401666666666664],[-100.6913888888889,39.39388888888889],[-100.6913888888889,39.39388888888889],[-101.00416666666666,39.3775],[-102.40277777777779,39.4575],[-102.40277777777779,39.4575],[-102.845,39.489444444444445],[-102.845,39.489444444444445],[-103.03222222222222,39.5025],[-103.64055555555557,39.543055555555554],[-103.64055555555557,39.543055555555554],[-104.00888888888889,39.56444444444444],[-104.10416666666666,39.57138888888889],[-104.10416666666666,39.57138888888889],[-104.26055555555556,39.58083333333334],[-104.41916666666667,39.59],[-104.58222222222221,39.598888888888894],[-104.58222222222221,39.598888888888894],[-104.93611111111112,39.617222222222225],[-105.04944444444445,39.62388888888889],[-105.04944444444445,39.62388888888889],[-105.25611111111111,39.63361111111111],[-105.36888888888888,39.64],[-105.41777777777779,39.64222222222222],[-105.52944444444444,39.6475],[-105.69333333333334,39.655277777777776],[-105.85472222222222,39.6625],[-105.85472222222222,39.6625],[-106.17916666666667,39.67666666666666],[-106.17916666666667,39.67666666666666],[-106.22694444444444,39.67777777777778],[-106.3888888888889,39.68472222222222],[-106.50055555555555,39.689722222222215],[-106.87527777777777,39.7025],[-107.01277777777777,39.708333333333336],[-107.01277777777777,39.708333333333336],[-107.19972222222222,39.73416666666667],[-107.8025,39.84277777777778],[-108.01944444444445,39.88333333333333],[-108.01944444444445,39.88333333333333],[-108.26916666666666,39.93111111111111],[-108.57805555555555,39.9925],[-108.63944444444445,40.004444444444445],[-108.73361111111112,40.01111111111111],[-108.73361111111112,40.01111111111111],[-108.95944444444444,40.010555555555555],[-109.05333333333333,40.01027777777778],[-109.11722222222221,40.01],[-109.28,40.00944444444445],[-109.28,40.00944444444445],[-109.37305555555555,40.00861111111111],[-110.02361111111111,40.00277777777778],[-110.08888888888889,40.00194444444445],[-110.08888888888889,40.00194444444445],[-110.34861111111111,39.998333333333335],[-110.51194444444444,39.99583333333334],[-110.57944444444443,39.99472222222222],[-110.57944444444443,39.99472222222222],[-111.06555555555555,39.98555555555556],[-111.06555555555555,39.98555555555556],[-111.22916666666667,39.981944444444444],[-111.39055555555557,39.97805555555556],[-111.39055555555557,39.97805555555556],[-111.70944444444444,39.97027777777778],[-112.04055555555556,39.96083333333333],[-112.20416666666667,39.95583333333334],[-112.20416666666667,39.95583333333334],[-112.70222222222222,39.93944444444444],[-112.70222222222222,39.93944444444444],[-113.68916666666667,39.900555555555556],[-113.68916666666667,39.900555555555556],[-113.85138888888888,39.89333333333333],[-114.34333333333333,39.87],[-114.34333333333333,39.87],[-114.82333333333332,39.84527777777778],[-114.82333333333332,39.84527777777778],[-115.67944444444444,39.79555555555555],[-115.77305555555556,39.79055555555556],[-115.77305555555556,39.79055555555556],[-116.09222222222222,39.77027777777778],[-116.32222222222222,39.75527777777778],[-116.48222222222222,39.74444444444445],[-116.48222222222222,39.74444444444445],[-116.64333333333335,39.733333333333334],[-116.7388888888889,39.72666666666667],[-116.96361111111112,39.71055555555556],[-116.96361111111112,39.71055555555556],[-117.21666666666667,39.69194444444444],[-117.21666666666667,39.69194444444444],[-117.28444444444445,39.68694444444444],[-117.37694444444443,39.68],[-117.37694444444443,39.68],[-117.69333333333334,39.65555555555555],[-117.89916666666667,39.638888888888886],[-117.89916666666667,39.638888888888886],[-118.15861111111111,39.617777777777775],[-118.31083333333333,39.605000000000004],[-118.37416666666665,39.599722222222226],[-118.37416666666665,39.599722222222226],[-118.52666666666667,39.58694444444445],[-118.61555555555555,39.57916666666667],[-118.61555555555555,39.57916666666667],[-118.67916666666667,39.57361111111111],[-118.77055555555556,39.565555555555555],[-118.77055555555556,39.565555555555555],[-118.83444444444444,39.559999999999995],[-119.29527777777777,39.51833333333333],[-119.44555555555556,39.50416666666667],[-119.44555555555556,39.50416666666667],[-120.20305555555557,39.430277777777775],[-120.20305555555557,39.430277777777775],[-121.07,39.26416666666667],[-121.18083333333334,39.198055555555555],[-121.40138888888889,39.065555555555555],[-121.50916666666667,39.00055555555556],[-121.50916666666667,39.00055555555556],[-121.61416666666666,38.93694444444444],[-121.72055555555556,38.87222222222222],[-121.92750000000001,38.74583333333334],[-122.03166666666667,38.68222222222222],[-122.03166666666667,38.68222222222222],[-122.13611111111112,38.617777777777775],[-122.13611111111112,38.617777777777775],[-122.24722222222222,38.549166666666665],[-122.56083333333333,38.35416666666667],[-122.65944444444445,38.2925],[-122.75055555555555,38.22638888888889],[-122.75055555555555,38.22638888888889],[-122.73333333333333,38.083333333333336],[-122.73333333333333,38.083333333333336],[-122.59027777777777,37.82083333333334],[-122.59027777777777,37.82083333333334],[-122.56666666666666,37.8],[-122.47027777777778,37.70805555555556],[-122.4238888888889,37.66416666666667],[-122.37638888888888,37.61972222222222],[-122.36666666666666,37.6],[-122.34472222222222,37.56888888888889],[-122.31416666666667,37.51916666666666],[-122.3,37.5],[-122.27805555555555,37.46055555555556],[-122.18138888888889,37.42666666666666],[-122.18138888888889,37.42666666666666],[-122.13444444444445,37.47083333333334],[-122.11666666666666,37.5],[-122.14166666666668,37.51833333333333],[-122.16666666666667,37.53333333333333],[-122.18916666666667,37.54055555555556],[-122.21666666666667,37.55],[-122.21666666666667,37.55],[-122.24,37.56194444444444],[-122.26666666666667,37.56666666666667],[-122.34027777777777,37.60388888888889],[-122.34027777777777,37.60388888888889]],"type":"LineString"}
}
