{
  "id": 2015240919,
  "type": "Feature",
  "properties": {
    "geom:area": 0,
    "geom:bbox": "-122.544970,36.723900,-121.302050,37.667410",
    "geom:latitude": 37.19631784906514,
    "geom:longitude": -121.99528677069844,
    "src:alt_label": "swim-takeoff",
    "src:geom": "swim",
    "swim:elevations": [
      487,
      768,
      879,
      1122,
      1568,
      1877,
      2356,
      2691,
      2865,
      3278,
      3520,
      3616,
      3759,
      3918,
      4409,
      4764,
      5028,
      5270,
      5456,
      5695,
      5998,
      6172,
      6543,
      6577,
      6689,
      6903,
      6990,
      7336,
      7505,
      7712,
      7761,
      7905,
      8076,
      8206
    ],
    "swim:geom": "takeoff",
    "swim:timestamps": [
      1775639786,
      1775639810,
      1775639821,
      1775639854,
      1775639907,
      1775639929,
      1775639964,
      1775639988,
      1775640005,
      1775640041,
      1775640085,
      1775640095,
      1775640112,
      1775640124,
      1775640173,
      1775640207,
      1775640236,
      1775640264,
      1775640286,
      1775640312,
      1775640349,
      1775640369,
      1775640417,
      1775640421,
      1775640437,
      1775640470,
      1775640484,
      1775640532,
      1775640560,
      1775640598,
      1775640608,
      1775640634,
      1775640666,
      1775640698
    ],
    "wof:geomhash": "884d597efcfe324f9bf6e86ce330cb4d",
    "wof:id": 2015240919,
    "wof:repo": "sfomuseum-data-flights-2026-04"
  },
  "bbox": [
    -122.54497,
    36.7239,
    -121.30205,
    37.66741
  ],
  "geometry": {"coordinates":[[-122.41916,37.63825],[-122.44342,37.64814],[-122.4543,37.65276],[-122.48882,37.66741],[-122.54497,37.63642],[-122.53746,37.60894],[-122.51459,37.56878],[-122.49927,37.53915],[-122.4894,37.51944],[-122.45604,37.478],[-122.39145,37.43606],[-122.37538,37.42579],[-122.34886,37.40877],[-122.3291,37.39621],[-122.25113,37.34618],[-122.19424,37.30913],[-122.14583,37.27769],[-122.09832,37.24693],[-122.06007,37.22208],[-122.01691,37.19407],[-121.95119,37.15139],[-121.91654,37.12866],[-121.83116,37.07295],[-121.82354,37.06799],[-121.79535,37.04965],[-121.73484,37.00989],[-121.71035,36.99383],[-121.62042,36.93478],[-121.56841,36.90047],[-121.4969,36.85355],[-121.47787,36.84088],[-121.42748,36.80736],[-121.36507,36.7657],[-121.30205,36.7239]],"type":"LineString"}
}
