{
  "id": 2031103637,
  "type": "Feature",
  "properties": {
    "geom:area": 0,
    "geom:bbox": "-122.480000,30.190000,-97.670000,37.660000",
    "geom:latitude": 33.20742356798138,
    "geom:longitude": -110.40392098832797,
    "src:alt_label": "swim-route",
    "src:geom": "swim",
    "swim:geom": "route",
    "wof:geomhash": "e49bd6171aa2168b33d50a751071100c",
    "wof:id": 2031103637,
    "wof:repo": "sfomuseum-data-flights-2026-04"
  },
  "bbox": [
    -122.48,
    30.19,
    -97.67,
    37.66
  ],
  "geometry": {"coordinates":[[-122.38,37.62],[-122.48,37.66],[-122.48,37.62],[-122.48,37.62],[-122.48,37.55],[-122.48,37.55],[-122.48,37.53],[-122.47,37.49],[-122.47,37.49],[-122.46,37.48],[-122.43,37.46],[-122.33,37.4],[-122.17,37.29],[-122.14,37.27],[-122.1,37.25],[-122.03,37.21],[-121.91,37.12],[-121.9,37.12],[-121.88,37.1],[-121.75,37.02],[-121.61,36.93],[-121.54,36.88],[-121.45,36.82],[-121.38,36.78],[-121.3,36.72],[-121.22,36.67],[-121.06,36.57],[-120.95,36.49],[-120.78,36.38],[-120.44,36.15],[-120,35.85],[-119.95,35.82],[-119.43,35.5],[-118.06,34.63],[-117.96,34.61],[-117.14,34.43],[-117.06,34.41],[-116.45,34.27],[-115.77,34.11],[-115.23,34],[-114.69,33.88],[-114.66,33.87],[-114,33.73],[-112.82,33.45],[-112.46,33.38],[-111.95,33.27],[-111.29,33.13],[-110.5,32.96],[-110.04,32.86],[-108.9,32.59],[-108.18,32.42],[-108.03,32.38],[-107.61,32.28],[-107.38,32.22],[-106.72,32.06],[-106.4,31.98],[-106.27,31.95],[-106.23,31.95],[-104.43,31.69],[-102.17,31.32],[-101.75,31.25],[-101.63,31.23],[-101.52,31.21],[-101.33,31.18],[-101.11,31.15],[-100.89,31.12],[-100.46,31.06],[-99.95,30.98],[-99.95,30.98],[-99.82,30.96],[-99.66,30.94],[-99.41,30.9],[-99.07,30.83],[-98.65,30.75],[-98.31,30.68],[-98.29,30.68],[-98.29,30.67],[-98.15,30.65],[-98.12,30.64],[-98.1,30.63],[-97.94,30.57],[-97.93,30.56],[-97.88,30.52],[-97.84,30.49],[-97.75,30.43],[-97.75,30.41],[-97.74,30.39],[-97.74,30.39],[-97.72,30.33],[-97.69,30.25],[-97.67,30.19]],"type":"LineString"}
}
