{
  "id": 2031154219,
  "type": "Feature",
  "properties": {
    "geom:area": 0,
    "geom:bbox": "-122.519950,36.869030,-121.520920,37.660620",
    "geom:latitude": 37.26454955804193,
    "geom:longitude": -122.0920813766743,
    "src:alt_label": "swim-takeoff",
    "src:geom": "swim",
    "swim:elevations": [
      335,
      664,
      744,
      1006,
      1009,
      1917,
      2160,
      2526,
      2865,
      3236,
      3303,
      3662,
      4141,
      4410,
      4602,
      4807,
      5012,
      5089,
      5714,
      5785,
      6186,
      6285,
      6628,
      6975,
      7077,
      7304,
      7463,
      7595,
      7619,
      7620
    ],
    "swim:geom": "takeoff",
    "swim:timestamps": [
      1777552584,
      1777552618,
      1777552628,
      1777552677,
      1777552680,
      1777552765,
      1777552780,
      1777552808,
      1777552833,
      1777552881,
      1777552895,
      1777552928,
      1777552964,
      1777552988,
      1777553010,
      1777553028,
      1777553049,
      1777553059,
      1777553124,
      1777553133,
      1777553183,
      1777553193,
      1777553232,
      1777553278,
      1777553297,
      1777553326,
      1777553353,
      1777553385,
      1777553410,
      1777553433
    ],
    "wof:geomhash": "dab775f1de186108c7858ccb64aa732c",
    "wof:id": 2031154219,
    "wof:repo": "sfomuseum-data-flights-2026-04"
  },
  "bbox": [
    -122.51995,
    36.86903,
    -121.52092,
    37.66062
  ],
  "geometry": {"coordinates":[[-122.38978,37.62508],[-122.4169,37.63643],[-122.42531,37.63996],[-122.4697,37.65917],[-122.47301,37.66062],[-122.51995,37.60522],[-122.51038,37.58835],[-122.49647,37.55479],[-122.48567,37.52232],[-122.43956,37.46811],[-122.41818,37.45444],[-122.36569,37.42079],[-122.30867,37.38316],[-122.27153,37.3587],[-122.23383,37.33469],[-122.2053,37.31668],[-122.16992,37.29378],[-122.15203,37.28228],[-122.0402,37.20962],[-122.02397,37.19862],[-121.93508,37.14119],[-121.91792,37.1293],[-121.84477,37.0815],[-121.76001,37.02633],[-121.7236,37.00289],[-121.66801,36.96646],[-121.61714,36.93265],[-121.55437,36.89105],[-121.52093,36.86903],[-121.52092,36.86903]],"type":"LineString"}
}
