{
  "id": 2015253345,
  "type": "Feature",
  "properties": {
    "geom:area": 0,
    "geom:bbox": "-122.357860,37.410350,-121.252090,37.611640",
    "geom:latitude": 37.51578044362642,
    "geom:longitude": -121.67505442636042,
    "src:alt_label": "swim-approach",
    "src:geom": "swim",
    "swim:elevations": [
      5018,
      4691,
      4449,
      4403,
      4268,
      4267,
      4288,
      4267,
      4267,
      4267,
      4267,
      4267,
      4267,
      4267,
      4269,
      4267,
      4265,
      4267,
      4267,
      4262,
      4267,
      4205,
      4110,
      3986,
      3717,
      3602,
      3554,
      3474,
      3243,
      2986,
      2893,
      2747,
      2639,
      2537,
      2347,
      2257,
      2061,
      1948,
      1798,
      1674,
      1588,
      1371,
      1275,
      973,
      762,
      683,
      545,
      469,
      384,
      239,
      128,
      0
    ],
    "swim:geom": "approach",
    "swim:timestamps": [
      1775861890,
      1775861931,
      1775861967,
      1775861976,
      1775862012,
      1775862027,
      1775862050,
      1775862076,
      1775862097,
      1775862121,
      1775862154,
      1775862166,
      1775862193,
      1775862231,
      1775862265,
      1775862288,
      1775862304,
      1775862335,
      1775862377,
      1775862392,
      1775862410,
      1775862443,
      1775862464,
      1775862482,
      1775862536,
      1775862557,
      1775862567,
      1775862582,
      1775862625,
      1775862658,
      1775862682,
      1775862708,
      1775862723,
      1775862741,
      1775862774,
      1775862792,
      1775862833,
      1775862854,
      1775862895,
      1775862922,
      1775862944,
      1775862975,
      1775862991,
      1775863046,
      1775863079,
      1775863094,
      1775863122,
      1775863140,
      1775863161,
      1775863194,
      1775863223,
      1775863250
    ],
    "wof:geomhash": "9c33dc633c99bdee3e66b88705dec41c",
    "wof:id": 2015253345,
    "wof:repo": "sfomuseum-data-flights-2026-04"
  },
  "bbox": [
    -122.35786,
    37.41035,
    -121.25209,
    37.61164
  ],
  "geometry": {"coordinates":[[-121.25209,37.59413],[-121.32285,37.58578],[-121.38017,37.57942],[-121.39409,37.57779],[-121.44777,37.57138],[-121.46904,37.56889],[-121.49828,37.55956],[-121.51428,37.53347],[-121.52166,37.50933],[-121.52916,37.48313],[-121.53975,37.44644],[-121.54185,37.43317],[-121.5186,37.41035],[-121.46144,37.4129],[-121.41138,37.41856],[-121.37708,37.42264],[-121.35164,37.42571],[-121.31283,37.44401],[-121.3023,37.49558],[-121.31634,37.50961],[-121.34062,37.51804],[-121.38836,37.52467],[-121.41878,37.5282],[-121.44479,37.5309],[-121.52408,37.53956],[-121.55388,37.54301],[-121.56763,37.54456],[-121.58854,37.54681],[-121.64582,37.54561],[-121.68956,37.53519],[-121.72042,37.52796],[-121.75411,37.52003],[-121.77362,37.51527],[-121.79597,37.50984],[-121.83598,37.50033],[-121.859,37.49475],[-121.90867,37.48208],[-121.93515,37.47987],[-121.98714,37.48786],[-122.02162,37.4932],[-122.04994,37.49747],[-122.08958,37.5035],[-122.1103,37.50753],[-122.17362,37.53424],[-122.21092,37.54976],[-122.22735,37.55671],[-122.25536,37.56842],[-122.2714,37.57527],[-122.28744,37.58213],[-122.31325,37.59275],[-122.33624,37.60247],[-122.35786,37.61164]],"type":"LineString"}
}
