{
  "id": 2015253345,
  "type": "Feature",
  "properties": {
    "date:cessation_lower": "2026-04-10",
    "date:cessation_upper": "2026-04-10",
    "date:inception_lower": "2026-04-10",
    "date:inception_upper": "2026-04-10",
    "edtf:cessation": "2026-04-10T16:20:50-07:00",
    "edtf:inception": "2026-04-10T00:30:00Z",
    "flysfo:actual_timestamp": -1,
    "flysfo:airline": "WN",
    "flysfo:date": "2026-04-10",
    "flysfo:estimated_timestamp": 1775888820,
    "flysfo:event": "A",
    "flysfo:flight_number": "WN3693",
    "flysfo:gate": "D1",
    "flysfo:journey": "BWI-SFO",
    "flysfo:scheduled_timestamp": 1775888400,
    "flysfo:timestamp": 1775888820,
    "geom:area": 0,
    "geom:bbox": "-122.370943,37.617990,-76.671070,39.181319",
    "geom:latitude": 38.3996545,
    "geom:longitude": -99.5210065,
    "iata:airline": "WN",
    "icao:aircraft": "B38M",
    "icao:airline": "SWA",
    "lbl:latitude": 37.616987,
    "lbl:longitude": -122.382479,
    "sfomuseum:aircraft_id": 1528104575,
    "sfomuseum:airline_id": 1159285591,
    "sfomuseum:arrival_id": 102527513,
    "sfomuseum:departure_id": 102532047,
    "sfomuseum:flight_id": "20260410-A-SWA-3693",
    "sfomuseum:flight_number": [
      "SWA3693",
      "WN3693"
    ],
    "sfomuseum:placetype": "flight",
    "src:geom": "flysfo",
    "src:geom_alt": [
      "swim-approach"
    ],
    "swim:tail_number": "N8889Q",
    "wof:belongsto": [
      1947304067,
      102527513,
      1947304595,
      102191575,
      85633793,
      102087579,
      85922583,
      554784711,
      85688637,
      1947304625,
      1947304591,
      102085387
    ],
    "wof:concordances": {
      "swim:flight_ref": "143770691",
      "swim:gufi": "KW8073158x"
    },
    "wof:country": "US",
    "wof:created": 1775923640,
    "wof:geomhash": "10c01f207ef95eecc919066d165ec5eb",
    "wof:hierarchy": [
      {
        "building_id": 1947304067,
        "campus_id": 102527513,
        "concourse_id": 1947304595,
        "continent_id": 102191575,
        "country_id": 85633793,
        "county_id": 102087579,
        "custom_id": 2015253345,
        "flight_id": 2015253345,
        "locality_id": 85922583,
        "postalcode_id": 554784711,
        "region_id": 85688637,
        "venue_id": 1947304625,
        "wing_id": 1947304591
      },
      {
        "building_id": 1947304067,
        "campus_id": 102527513,
        "concourse_id": 1947304595,
        "continent_id": 102191575,
        "country_id": 85633793,
        "county_id": 102085387,
        "custom_id": 2015253345,
        "flight_id": 2015253345,
        "region_id": 85688637,
        "venue_id": 1947304625,
        "wing_id": 1947304591
      }
    ],
    "wof:id": 2015253345,
    "wof:involves": [
      1528104575,
      102527513,
      102532047,
      1159285591,
      1947304625
    ],
    "wof:lastmodified": 1775924311,
    "wof:name": "WN3693 (BWI-SFO)",
    "wof:parent_id": 1947304625,
    "wof:placetype": "custom",
    "wof:placetype_alt": [
      "flight"
    ],
    "wof:repo": "sfomuseum-data-flights-2026-04",
    "wof:superseded_by": [],
    "wof:supersedes": []
  },
  "bbox": [
    -122.370943,
    37.61799,
    -76.67107,
    39.181319
  ],
  "geometry": {"coordinates":[[-76.67107,39.181319],[-122.370943,37.61799]],"type":"MultiPoint"}
}
