{
  "id": 2015321359,
  "type": "Feature",
  "properties": {
    "geom:area": 0,
    "geom:bbox": "-122.362100,36.720620,-121.877730,37.614150",
    "geom:latitude": 37.22074342436809,
    "geom:longitude": -122.06803624168195,
    "src:alt_label": "swim-approach",
    "src:geom": "swim",
    "swim:elevations": [
      5379,
      5152,
      4995,
      4733,
      4424,
      4230,
      3972,
      3800,
      3697,
      3408,
      3264,
      3115,
      3013,
      2882,
      2653,
      2511,
      2435,
      2132,
      1996,
      1704,
      1561,
      1410,
      1277,
      1094,
      975,
      827,
      787,
      645,
      460,
      329,
      304,
      154,
      0,
      0
    ],
    "swim:geom": "approach",
    "swim:timestamps": [
      1776520975,
      1776521004,
      1776521026,
      1776521057,
      1776521098,
      1776521121,
      1776521153,
      1776521177,
      1776521192,
      1776521231,
      1776521260,
      1776521297,
      1776521321,
      1776521342,
      1776521392,
      1776521424,
      1776521434,
      1776521482,
      1776521501,
      1776521543,
      1776521566,
      1776521599,
      1776521629,
      1776521668,
      1776521690,
      1776521725,
      1776521736,
      1776521765,
      1776521814,
      1776521848,
      1776521855,
      1776521899,
      1776521938,
      1776521941
    ],
    "wof:geomhash": "3a0c984edb7a2d348cff248dc10bb955",
    "wof:id": 2015321359,
    "wof:repo": "sfomuseum-data-flights-2026-04"
  },
  "bbox": [
    -122.3621,
    36.72062,
    -121.87773,
    37.61415
  ],
  "geometry": {"coordinates":[[-121.87773,36.72062],[-121.89963,36.76204],[-121.90916,36.79575],[-121.92226,36.84236],[-121.93941,36.90309],[-121.94888,36.93729],[-121.96514,36.98291],[-121.97779,37.01539],[-121.9862,37.03686],[-122.00695,37.09031],[-122.02183,37.12844],[-122.03907,37.17256],[-122.04951,37.19899],[-122.05885,37.22272],[-122.08023,37.27668],[-122.09305,37.30936],[-122.09669,37.31868],[-122.11449,37.36451],[-122.11384,37.38258],[-122.10282,37.42288],[-122.09666,37.44501],[-122.10205,37.47461],[-122.12054,37.49535],[-122.14615,37.52108],[-122.16446,37.53016],[-122.19404,37.5426],[-122.20376,37.54654],[-122.22859,37.55711],[-122.26892,37.57408],[-122.29443,37.58487],[-122.2997,37.587],[-122.33131,37.6005],[-122.36032,37.6126],[-122.3621,37.61415]],"type":"LineString"}
}
