{
  "id": 2015348039,
  "type": "Feature",
  "properties": {
    "geom:area": 0,
    "geom:bbox": "-122.733333,37.416667,-107.209444,50.621944",
    "geom:latitude": 44.10964049127634,
    "geom:longitude": -115.83592619337549,
    "src:alt_label": "swim-path",
    "src:geom": "swim",
    "swim:altitudes": [
      "400C",
      "400C",
      "400C",
      "400C",
      "400C",
      "400C",
      "400C",
      "400C",
      "400C",
      "400C",
      "400C",
      "400C",
      "400C",
      "400C",
      "400C",
      "400C",
      "400C",
      "400C",
      "400C",
      "400C",
      "400C",
      "400C",
      "400C",
      "400C",
      "400C",
      "400C",
      "400C",
      "400C",
      "400C",
      "400C",
      "400C",
      "400C",
      "400C",
      "400C",
      "400C",
      "400C",
      "400C",
      "400C",
      "400C",
      "400C",
      "400C",
      "400C",
      "400C",
      "400C",
      "400C",
      "400C",
      "400C",
      "400C",
      "400C",
      "400C",
      "400C",
      "400C",
      "400C",
      "400C",
      "400C",
      "400C",
      "400C",
      "400C",
      "400C",
      "400C",
      "400C",
      "400C",
      "400C",
      "400C",
      "400C",
      "400C",
      "400C",
      "400C",
      "400C",
      "400C",
      "400C",
      "400C",
      "400C",
      "400C",
      "400C",
      "400C",
      "400C",
      "400C",
      "400C",
      "400C",
      "400C",
      "400C",
      "400C",
      "400C",
      "400C",
      "400C",
      "400C",
      "400C",
      "400C",
      "400C",
      "400C",
      "400C",
      "400C",
      "400C",
      "400C",
      "400C",
      "400C",
      "400C",
      "400C",
      "400C",
      "400C",
      "400C",
      "400C",
      "400C",
      "400C",
      "400C",
      "400C",
      "400C",
      "400C",
      "400C",
      "400C",
      "400C",
      "400C",
      "400C",
      "400C",
      "400C",
      "400C",
      "400C",
      "400C",
      "400C",
      "400C",
      "400C",
      "400C",
      "400",
      "400",
      "400",
      "400",
      "400",
      "400",
      "400",
      "400",
      "400",
      "400",
      "400",
      "322",
      "322",
      "243",
      "243",
      "243",
      "224",
      "183",
      "183",
      "183",
      "164",
      "164",
      "155",
      "146",
      "138",
      "138",
      "118",
      "113",
      "113",
      "110C",
      "110C",
      "110C",
      "110",
      "110C",
      "110",
      "110",
      "093",
      "093",
      "088",
      "076",
      "067",
      "067",
      "060",
      "057",
      "050",
      "047",
      "047",
      "037",
      "031",
      "031",
      "030",
      "030",
      "024",
      "020",
      "020",
      "014",
      "004",
      "110"
    ],
    "swim:geom": "path",
    "swim:speeds": [
      435,
      435,
      435,
      425,
      425,
      422,
      422,
      422,
      422,
      422,
      422,
      422,
      422,
      422,
      422,
      423,
      423,
      423,
      424,
      424,
      424,
      422,
      422,
      422,
      422,
      422,
      423,
      423,
      423,
      423,
      423,
      423,
      424,
      424,
      428,
      429,
      429,
      428,
      428,
      426,
      419,
      419,
      416,
      416,
      414,
      414,
      414,
      418,
      418,
      421,
      421,
      422,
      422,
      420,
      423,
      423,
      424,
      427,
      427,
      427,
      428,
      428,
      428,
      420,
      431,
      431,
      431,
      432,
      434,
      434,
      434,
      433,
      433,
      433,
      433,
      432,
      432,
      433,
      434,
      434,
      445,
      444,
      444,
      444,
      449,
      454,
      454,
      455,
      458,
      459,
      459,
      459,
      462,
      462,
      462,
      463,
      463,
      463,
      463,
      463,
      463,
      465,
      465,
      465,
      465,
      465,
      464,
      464,
      463,
      461,
      461,
      461,
      460,
      460,
      459,
      459,
      460,
      460,
      459,
      459,
      458,
      458,
      458,
      465,
      465,
      469,
      470,
      470,
      471,
      475,
      475,
      475,
      475,
      475,
      443,
      443,
      387,
      387,
      387,
      374,
      337,
      337,
      337,
      346,
      346,
      342,
      336,
      339,
      339,
      340,
      329,
      329,
      294,
      270,
      270,
      268,
      269,
      263,
      263,
      261,
      261,
      254,
      262,
      251,
      251,
      232,
      216,
      194,
      188,
      188,
      177,
      178,
      178,
      175,
      175,
      177,
      174,
      174,
      175,
      132,
      133
    ],
    "swim:timestamps": [
      1776814158,
      1776814158,
      1776814158,
      1776814278,
      1776814278,
      1776814338,
      1776814338,
      1776814398,
      1776814398,
      1776814398,
      1776814459,
      1776814459,
      1776814519,
      1776814519,
      1776814519,
      1776814651,
      1776814651,
      1776814651,
      1776814711,
      1776814711,
      1776814711,
      1776814831,
      1776814831,
      1776814891,
      1776814891,
      1776814891,
      1776815672,
      1776815672,
      1776815672,
      1776815672,
      1776816033,
      1776816033,
      1776816093,
      1776816093,
      1776816213,
      1776816333,
      1776816333,
      1776816393,
      1776816393,
      1776816453,
      1776816754,
      1776816754,
      1776816874,
      1776816874,
      1776817174,
      1776817174,
      1776817234,
      1776817414,
      1776817414,
      1776817535,
      1776817535,
      1776817596,
      1776817596,
      1776817656,
      1776817715,
      1776817836,
      1776817896,
      1776818016,
      1776818016,
      1776818016,
      1776818256,
      1776818256,
      1776818256,
      1776818497,
      1776818616,
      1776818616,
      1776818616,
      1776818977,
      1776819037,
      1776819037,
      1776819037,
      1776819278,
      1776819278,
      1776819278,
      1776819397,
      1776819458,
      1776819458,
      1776819518,
      1776819638,
      1776819638,
      1776819818,
      1776819826,
      1776819998,
      1776819998,
      1776820066,
      1776820238,
      1776820238,
      1776820246,
      1776820367,
      1776820419,
      1776820419,
      1776820419,
      1776820479,
      1776820479,
      1776820487,
      1776820539,
      1776820539,
      1776820547,
      1776820599,
      1776820607,
      1776820607,
      1776820667,
      1776820719,
      1776820719,
      1776820847,
      1776820847,
      1776820907,
      1776820907,
      1776820923,
      1776821019,
      1776821019,
      1776821027,
      1776821139,
      1776821139,
      1776821207,
      1776821207,
      1776821319,
      1776821319,
      1776821439,
      1776821439,
      1776821500,
      1776821500,
      1776821500,
      1776821688,
      1776821688,
      1776821740,
      1776821748,
      1776821748,
      1776821808,
      1776821928,
      1776821928,
      1776821928,
      1776821988,
      1776821988,
      1776822228,
      1776822228,
      1776822469,
      1776822469,
      1776822469,
      1776822529,
      1776822663,
      1776822663,
      1776822663,
      1776822730,
      1776822730,
      1776822769,
      1776822790,
      1776822829,
      1776822829,
      1776822889,
      1776822910,
      1776822910,
      1776822949,
      1776823009,
      1776823009,
      1776823030,
      1776823069,
      1776823090,
      1776823090,
      1776823189,
      1776823189,
      1776823210,
      1776823270,
      1776823324,
      1776823324,
      1776823370,
      1776823384,
      1776823430,
      1776823444,
      1776823444,
      1776823504,
      1776823550,
      1776823550,
      1776823564,
      1776823564,
      1776823610,
      1776823630,
      1776823630,
      1776823670,
      1776823744,
      1776823790
    ],
    "wof:geomhash": "ef20cd815a129de4285a8e9068eed559",
    "wof:id": 2015348039,
    "wof:repo": "sfomuseum-data-flights-2026-04"
  },
  "bbox": [
    -122.73333333333333,
    37.416666666666664,
    -107.20944444444444,
    50.621944444444445
  ],
  "geometry": {"coordinates":[[-107.20944444444444,50.621944444444445],[-107.20944444444444,50.621944444444445],[-107.20944444444444,50.621944444444445],[-107.46333333333334,50.44916666666666],[-107.46333333333334,50.44916666666666],[-107.59333333333333,50.36222222222222],[-107.59333333333333,50.36222222222222],[-107.715,50.278888888888886],[-107.715,50.278888888888886],[-107.715,50.278888888888886],[-107.83361111111111,50.19499999999999],[-107.83361111111111,50.19499999999999],[-107.9588888888889,50.1075],[-107.9588888888889,50.1075],[-107.9588888888889,50.1075],[-108.22555555555556,49.914722222222224],[-108.22555555555556,49.914722222222224],[-108.22555555555556,49.914722222222224],[-108.3475,49.82666666666667],[-108.3475,49.82666666666667],[-108.3475,49.82666666666667],[-108.58722222222222,49.65138888888889],[-108.58722222222222,49.65138888888889],[-108.7063888888889,49.56361111111111],[-108.7063888888889,49.56361111111111],[-108.7063888888889,49.56361111111111],[-110.22111111111111,48.41027777777778],[-110.22111111111111,48.41027777777778],[-110.22111111111111,48.41027777777778],[-110.22111111111111,48.41027777777778],[-110.89722222222223,47.87083333333334],[-110.89722222222223,47.87083333333334],[-111.00944444444444,47.78],[-111.00944444444444,47.78],[-111.23833333333333,47.59305555555556],[-111.47166666666666,47.405833333333334],[-111.47166666666666,47.405833333333334],[-111.58999999999999,47.31805555555556],[-111.58999999999999,47.31805555555556],[-111.70472222222223,47.23222222222223],[-112.27527777777777,46.8],[-112.27527777777777,46.8],[-112.49861111111112,46.62833333333333],[-112.49861111111112,46.62833333333333],[-113.0475,46.19944444444444],[-113.0475,46.19944444444444],[-113.1588888888889,46.11083333333333],[-113.48611111111111,45.849722222222226],[-113.48611111111111,45.849722222222226],[-113.69166666666668,45.683611111111105],[-113.69166666666668,45.683611111111105],[-113.80333333333333,45.593333333333334],[-113.80333333333333,45.593333333333334],[-113.91027777777778,45.50555555555555],[-114.01777777777778,45.418055555555554],[-114.23694444444445,45.23694444444445],[-114.34388888888888,45.14833333333333],[-114.56194444444444,44.96638888888889],[-114.56194444444444,44.96638888888889],[-114.56194444444444,44.96638888888889],[-114.99388888888889,44.60027777777778],[-114.99388888888889,44.60027777777778],[-114.99388888888889,44.60027777777778],[-115.41555555555556,44.23555555555556],[-115.63138888888888,44.049166666666665],[-115.63138888888888,44.049166666666665],[-115.63138888888888,44.049166666666665],[-116.28,43.5075],[-116.41361111111112,43.43722222222222],[-116.41361111111112,43.43722222222222],[-116.41361111111112,43.43722222222222],[-116.94611111111111,43.1575],[-116.94611111111111,43.1575],[-116.94611111111111,43.1575],[-117.21138888888889,43.01777777777777],[-117.3436111111111,42.94444444444444],[-117.3436111111111,42.94444444444444],[-117.47638888888889,42.873333333333335],[-117.7425,42.731944444444444],[-117.7425,42.731944444444444],[-118.14694444444446,42.51083333333333],[-118.16666666666667,42.500277777777775],[-118.53861111111111,42.29361111111111],[-118.53861111111111,42.29361111111111],[-118.70111111111112,42.20333333333333],[-119.0786111111111,41.989444444444445],[-119.0786111111111,41.989444444444445],[-119.11861111111111,41.966944444444444],[-119.36555555555555,41.825833333333335],[-119.50194444444445,41.74722222222222],[-119.50194444444445,41.74722222222222],[-119.50194444444445,41.74722222222222],[-119.64361111111111,41.66555555555556],[-119.64361111111111,41.66555555555556],[-119.6375,41.66888888888889],[-119.77555555555556,41.58888888888889],[-119.77555555555556,41.58888888888889],[-119.77555555555556,41.58888888888889],[-119.91166666666668,41.50944444444445],[-119.91166666666668,41.50972222222222],[-119.91166666666668,41.50972222222222],[-120.04694444444445,41.43055555555555],[-120.185,41.349444444444444],[-120.185,41.349444444444444],[-120.45305555555557,41.190555555555555],[-120.45305555555557,41.190555555555555],[-120.58638888888889,41.111111111111114],[-120.58638888888889,41.111111111111114],[-120.63972222222223,41.07944444444445],[-120.85277777777777,40.95138888888889],[-120.85277777777777,40.95138888888889],[-120.85277777777777,40.95138888888889],[-121.11555555555555,40.7925],[-121.11555555555555,40.7925],[-121.24916666666667,40.711111111111116],[-121.24916666666667,40.711111111111116],[-121.51,40.55138888888889],[-121.51,40.55138888888889],[-121.76972222222223,40.39083333333333],[-121.76972222222223,40.39083333333333],[-121.89888888888889,40.31027777777778],[-121.89888888888889,40.31027777777778],[-121.89888888888889,40.31027777777778],[-122.2538888888889,40.03805555555555],[-122.2538888888889,40.03805555555555],[-122.28444444444445,39.93416666666666],[-122.29194444444444,39.907777777777774],[-122.29194444444444,39.907777777777774],[-122.3286111111111,39.77833333333333],[-122.40222222222222,39.52166666666667],[-122.40222222222222,39.52166666666667],[-122.40222222222222,39.52166666666667],[-122.43916666666667,39.39138888888889],[-122.43916666666667,39.39138888888889],[-122.58055555555555,38.89],[-122.58055555555555,38.89],[-122.70444444444445,38.45111111111111],[-122.70444444444445,38.45111111111111],[-122.70444444444445,38.45111111111111],[-122.73277777777778,38.34916666666667],[-122.73333333333333,38.13333333333333],[-122.73333333333333,38.13333333333333],[-122.73333333333333,38.13333333333333],[-122.71666666666667,38.016666666666666],[-122.71666666666667,38.016666666666666],[-122.69472222222223,37.974444444444444],[-122.68333333333334,37.93333333333333],[-122.66166666666668,37.89],[-122.66166666666668,37.89],[-122.57277777777777,37.80444444444444],[-122.55,37.78333333333333],[-122.55,37.78333333333333],[-122.50305555555556,37.73916666666667],[-122.44166666666668,37.68111111111111],[-122.44166666666668,37.68111111111111],[-122.41666666666667,37.666666666666664],[-122.38222222222221,37.625],[-122.36666666666666,37.6],[-122.36666666666666,37.6],[-122.30111111111111,37.495555555555555],[-122.30111111111111,37.495555555555555],[-122.28333333333333,37.46666666666667],[-122.23333333333333,37.416666666666664],[-122.15,37.416666666666664],[-122.15,37.416666666666664],[-122.0925,37.43111111111111],[-122.08333333333333,37.45],[-122.07916666666667,37.4825],[-122.08333333333333,37.5],[-122.08333333333333,37.5],[-122.13333333333334,37.516666666666666],[-122.17666666666668,37.5375],[-122.17666666666668,37.5375],[-122.18333333333334,37.55],[-122.18333333333334,37.55],[-122.23083333333334,37.56027777777778],[-122.25,37.56666666666667],[-122.25,37.56666666666667],[-122.28416666666666,37.58277777777778],[-122.33333333333333,37.6],[-122.36833333333333,37.61805555555556]],"type":"LineString"}
}
