{
  "id": 2031092915,
  "type": "Feature",
  "properties": {
    "geom:area": 0,
    "geom:bbox": "-123.155320,37.391660,-122.106840,38.425640",
    "geom:latitude": 37.84366333020093,
    "geom:longitude": -122.54789621228515,
    "src:alt_label": "swim-approach",
    "src:geom": "swim",
    "swim:elevations": [
      7360,
      7110,
      7043,
      6722,
      6496,
      6069,
      5952,
      5720,
      5453,
      5262,
      5073,
      4880,
      4576,
      4295,
      4101,
      3756,
      3476,
      3442,
      3415,
      3353,
      3353,
      3353,
      3353,
      3353,
      3353,
      3266,
      3057,
      2926,
      2809,
      2519,
      2343,
      2200,
      1825,
      1598,
      1486,
      1221,
      1219,
      1157,
      1124,
      1053,
      994,
      860,
      733,
      656,
      450,
      340,
      212,
      150,
      123,
      379
    ],
    "swim:geom": "approach",
    "swim:timestamps": [
      1777011657,
      1777011687,
      1777011692,
      1777011734,
      1777011760,
      1777011807,
      1777011822,
      1777011865,
      1777011898,
      1777011921,
      1777011943,
      1777011966,
      1777012004,
      1777012039,
      1777012059,
      1777012095,
      1777012131,
      1777012143,
      1777012158,
      1777012181,
      1777012198,
      1777012207,
      1777012250,
      1777012288,
      1777012316,
      1777012338,
      1777012377,
      1777012396,
      1777012416,
      1777012468,
      1777012494,
      1777012514,
      1777012558,
      1777012582,
      1777012597,
      1777012640,
      1777012665,
      1777012704,
      1777012711,
      1777012728,
      1777012740,
      1777012765,
      1777012788,
      1777012807,
      1777012854,
      1777012885,
      1777012915,
      1777012927,
      1777012936,
      1777012970
    ],
    "wof:geomhash": "98f80040c626d69a48bb86883a81f647",
    "wof:id": 2031092915,
    "wof:repo": "sfomuseum-data-flights-2026-04"
  },
  "bbox": [
    -123.15532,
    37.39166,
    -122.10684,
    38.42564
  ],
  "geometry": {"coordinates":[[-123.15532,38.42564],[-123.09069,38.39256],[-123.07929,38.38668],[-122.9903,38.34042],[-122.93644,38.31257],[-122.84216,38.26351],[-122.81098,38.24709],[-122.75703,38.18659],[-122.73964,38.13061],[-122.7291,38.09393],[-122.71869,38.05679],[-122.7083,38.0207],[-122.69057,37.95923],[-122.67161,37.90528],[-122.65007,37.87765],[-122.60354,37.83319],[-122.55508,37.78798],[-122.54047,37.77424],[-122.52189,37.75678],[-122.49358,37.7301],[-122.47409,37.71178],[-122.46392,37.70213],[-122.41779,37.65859],[-122.38161,37.62449],[-122.3574,37.59713],[-122.3464,37.57358],[-122.32325,37.5313],[-122.31094,37.51133],[-122.29779,37.49057],[-122.25713,37.4419],[-122.22671,37.42603],[-122.20318,37.41357],[-122.15165,37.39166],[-122.1234,37.40061],[-122.11345,37.41395],[-122.10684,37.45649],[-122.12186,37.47992],[-122.14672,37.51475],[-122.1507,37.51994],[-122.16462,37.53171],[-122.17703,37.53797],[-122.20129,37.54739],[-122.22249,37.55672],[-122.2389,37.56379],[-122.27593,37.57938],[-122.29933,37.58926],[-122.32229,37.5988],[-122.33143,37.60268],[-122.33828,37.6056],[-122.36126,37.61697]],"type":"LineString"}
}
