{
  "id": 2031145747,
  "type": "Feature",
  "properties": {
    "geom:area": 0,
    "geom:bbox": "-122.414690,37.631400,-121.408100,37.921260",
    "geom:latitude": 37.79428423324681,
    "geom:longitude": -121.92808356550734,
    "src:alt_label": "swim-takeoff",
    "src:geom": "swim",
    "swim:elevations": [
      340,
      528,
      789,
      1062,
      1192,
      1619,
      1899,
      2223,
      2754,
      3021,
      3337,
      3425,
      3709,
      4048,
      4214,
      4385,
      4859,
      5156,
      5232,
      5413,
      5484,
      5930,
      6397
    ],
    "swim:geom": "takeoff",
    "swim:timestamps": [
      1777451778,
      1777451790,
      1777451817,
      1777451841,
      1777451866,
      1777451908,
      1777451927,
      1777451950,
      1777451991,
      1777452011,
      1777452054,
      1777452071,
      1777452106,
      1777452134,
      1777452148,
      1777452164,
      1777452203,
      1777452235,
      1777452245,
      1777452266,
      1777452273,
      1777452319,
      1777452365
    ],
    "wof:geomhash": "0f0e0d77b704810adcf10d350ed98fac",
    "wof:id": 2031145747,
    "wof:repo": "sfomuseum-data-flights-2026-04"
  },
  "bbox": [
    -122.41469,
    37.6314,
    -121.4081,
    37.92126
  ],
  "geometry": {"coordinates":[[-122.4054,37.6314],[-122.41469,37.63891],[-122.41218,37.66001],[-122.38832,37.66846],[-122.3585,37.67615],[-122.30173,37.69228],[-122.27314,37.70045],[-122.23903,37.71034],[-122.18086,37.7346],[-122.15122,37.74652],[-122.07982,37.76423],[-122.04819,37.77181],[-121.97728,37.78862],[-121.919,37.80229],[-121.88993,37.8091],[-121.8568,37.81687],[-121.77437,37.83619],[-121.70463,37.85253],[-121.68219,37.85777],[-121.63539,37.86864],[-121.619,37.87248],[-121.51656,37.89624],[-121.4081,37.92126]],"type":"LineString"}
}
