{
  "id": 2015342785,
  "type": "Feature",
  "properties": {
    "geom:area": 0,
    "geom:bbox": "-122.390000,37.620000,-79.390000,43.980000",
    "geom:latitude": 42.197914511692446,
    "geom:longitude": -101.06124470428408,
    "src:alt_label": "swim-route",
    "src:geom": "swim",
    "swim:geom": "route",
    "wof:geomhash": "89e0726a56e195ba24e9360ffa799782",
    "wof:id": 2015342785,
    "wof:repo": "sfomuseum-data-flights-2026-04"
  },
  "bbox": [
    -122.39,
    37.62,
    -79.39,
    43.98
  ],
  "geometry": {"coordinates":[[-122.38,37.62],[-122.3,37.68],[-122.31,37.7],[-122.31,37.7],[-122.34,37.75],[-122.34,37.76],[-122.35,37.76],[-122.36,37.79],[-122.38,37.83],[-122.39,37.85],[-122.39,37.85],[-122.38,37.94],[-122.32,37.97],[-122.13,38.04],[-122.06,38.07],[-121.99,38.1],[-121.96,38.11],[-121.85,38.15],[-121.75,38.19],[-121.64,38.24],[-121.61,38.25],[-121.54,38.28],[-121.39,38.34],[-121.31,38.38],[-121.24,38.43],[-121.16,38.48],[-121.11,38.51],[-121.08,38.53],[-120.91,38.63],[-120.9,38.64],[-120.73,38.74],[-120.5,38.88],[-120.19,39.03],[-120.14,39.05],[-120.11,39.06],[-119.92,39.14],[-119.34,39.36],[-117.66,40.02],[-117.58,40.04],[-117.4,40.11],[-117.16,40.19],[-116.95,40.24],[-115.6,40.57],[-114.44,40.84],[-114.25,40.88],[-114.04,40.93],[-113.73,41],[-112.8,41.19],[-112.73,41.21],[-112.38,41.28],[-111.86,41.39],[-110.81,41.59],[-109.36,41.85],[-109.07,41.9],[-107.32,42.19],[-106,42.39],[-104.67,42.57],[-102.44,42.84],[-101.17,42.97],[-100.12,43.07],[-99.93,43.09],[-99.66,43.11],[-99.57,43.12],[-99.33,43.14],[-98.99,43.16],[-98.65,43.19],[-98.31,43.22],[-98.12,43.23],[-96.96,43.31],[-95.83,43.37],[-93.86,43.45],[-92,43.5],[-91.18,43.43],[-91.04,43.41],[-90.67,43.38],[-90.3,43.34],[-88.11,43.32],[-87,43.43],[-86.81,43.3],[-85.05,43.26],[-85,43.26],[-84.63,43.25],[-84.46,43.24],[-84.26,43.26],[-84.03,43.28],[-83.7,43.32],[-83.34,43.36],[-82.98,43.4],[-82.9,43.41],[-82.54,43.43],[-82.2,43.45],[-82.19,43.45],[-81.72,43.47],[-81.49,43.5],[-81.37,43.51],[-81.27,43.51],[-81.06,43.53],[-80.85,43.54],[-80.77,43.54],[-80.46,43.56],[-80.22,43.58],[-80.18,43.58],[-79.87,43.59],[-79.8,43.66],[-79.8,43.67],[-79.72,43.75],[-79.67,43.78],[-79.66,43.79],[-79.54,43.87],[-79.49,43.91],[-79.44,43.94],[-79.39,43.98],[-79.47,43.87],[-79.51,43.83],[-79.53,43.8],[-79.59,43.73],[-79.63,43.68]],"type":"LineString"}
}
