{
  "id": 2015207693,
  "type": "Feature",
  "properties": {
    "geom:area": 0,
    "geom:bbox": "-122.396310,37.624440,-121.244710,38.165890",
    "geom:latitude": 37.990723114978785,
    "geom:longitude": -121.93798962807455,
    "src:alt_label": "swim-takeoff",
    "src:geom": "swim",
    "swim:elevations": [
      183,
      734,
      932,
      1152,
      1403,
      1544,
      1727,
      2049,
      2469,
      2760,
      3127,
      3197,
      3507,
      3651,
      3806,
      4077,
      4471,
      4695,
      4894,
      5052,
      5307,
      5603,
      5732,
      5971,
      6080,
      6338,
      6528,
      6769,
      6915,
      6997,
      7037
    ],
    "swim:geom": "takeoff",
    "swim:timestamps": [
      1775343909,
      1775343950,
      1775343970,
      1775343996,
      1775344044,
      1775344070,
      1775344089,
      1775344115,
      1775344145,
      1775344166,
      1775344196,
      1775344205,
      1775344246,
      1775344267,
      1775344296,
      1775344322,
      1775344359,
      1775344382,
      1775344416,
      1775344442,
      1775344471,
      1775344510,
      1775344522,
      1775344550,
      1775344565,
      1775344602,
      1775344630,
      1775344666,
      1775344691,
      1775344706,
      1775344712
    ],
    "wof:geomhash": "49e77b1137f1e6752228923473c0a1ca",
    "wof:id": 2015207693,
    "wof:repo": "sfomuseum-data-flights-2026-04"
  },
  "bbox": [
    -122.39631,
    37.62444,
    -121.24471,
    38.16589
  ],
  "geometry": {"coordinates":[[-122.38878,37.62444],[-122.39631,37.65107],[-122.38684,37.66336],[-122.37177,37.68119],[-122.3404,37.72055],[-122.3404,37.75069],[-122.35177,37.77423],[-122.36746,37.80611],[-122.38575,37.84529],[-122.38621,37.87284],[-122.3822,37.9146],[-122.37661,37.92631],[-122.31689,37.95561],[-122.27702,37.96308],[-122.21958,37.97402],[-122.1652,37.98504],[-122.0878,38.0004],[-122.04027,38.00983],[-121.96483,38.02484],[-121.90449,38.03684],[-121.83616,38.05046],[-121.7431,38.06886],[-121.7147,38.07441],[-121.64899,38.08736],[-121.6118,38.09462],[-121.52058,38.11243],[-121.45316,38.12561],[-121.36296,38.14308],[-121.29869,38.1555],[-121.26002,38.16296],[-121.24471,38.16589]],"type":"LineString"}
}
