{
  "id": 2015187027,
  "type": "Feature",
  "properties": {
    "geom:area": 0,
    "geom:bbox": "-122.358220,37.412190,-121.268630,37.614480",
    "geom:latitude": 37.51527220154055,
    "geom:longitude": -121.78711677359097,
    "src:alt_label": "swim-approach",
    "src:geom": "swim",
    "swim:elevations": [
      4486,
      4148,
      4054,
      4022,
      3951,
      3748,
      3518,
      3352,
      3354,
      3353,
      3353,
      3353,
      3353,
      3353,
      3176,
      3146,
      3048,
      3048,
      3048,
      3048,
      3048,
      2774,
      2742,
      2743,
      2743,
      2581,
      2438,
      2377,
      2131,
      2104,
      1837,
      1829,
      1809,
      1553,
      1503,
      1460,
      1374,
      1100,
      1094,
      885,
      715,
      625,
      426,
      331,
      244,
      89,
      56,
      102
    ],
    "swim:geom": "approach",
    "swim:timestamps": [
      1775161697,
      1775161738,
      1775161756,
      1775161763,
      1775161783,
      1775161820,
      1775161852,
      1775161887,
      1775161891,
      1775161923,
      1775161943,
      1775161954,
      1775161996,
      1775162023,
      1775162066,
      1775162071,
      1775162102,
      1775162126,
      1775162153,
      1775162161,
      1775162192,
      1775162247,
      1775162259,
      1775162287,
      1775162317,
      1775162367,
      1775162391,
      1775162402,
      1775162454,
      1775162471,
      1775162517,
      1775162526,
      1775162560,
      1775162607,
      1775162616,
      1775162625,
      1775162647,
      1775162697,
      1775162703,
      1775162748,
      1775162785,
      1775162804,
      1775162843,
      1775162871,
      1775162896,
      1775162937,
      1775162946,
      1775162958
    ],
    "wof:geomhash": "18bda2a9f040a79954f0361d604f9e50",
    "wof:id": 2015187027,
    "wof:repo": "sfomuseum-data-flights-2026-04"
  },
  "bbox": [
    -122.35822,
    37.41219,
    -121.26863,
    37.61448
  ],
  "geometry": {"coordinates":[[-121.26863,37.59202],[-121.33207,37.57007],[-121.34548,37.54641],[-121.34815,37.5357],[-121.35397,37.50575],[-121.37092,37.45339],[-121.41624,37.43204],[-121.46084,37.44842],[-121.46505,37.45114],[-121.50012,37.47452],[-121.52024,37.48853],[-121.53223,37.49684],[-121.58016,37.52257],[-121.61679,37.53311],[-121.67432,37.5488],[-121.68013,37.55043],[-121.71703,37.56837],[-121.74233,37.58461],[-121.77148,37.60371],[-121.7809,37.609],[-121.82406,37.60863],[-121.84052,37.54794],[-121.83278,37.53447],[-121.81403,37.50297],[-121.79701,37.47225],[-121.81548,37.42509],[-121.84066,37.41258],[-121.85282,37.41219],[-121.90786,37.43119],[-121.92497,37.43784],[-121.97147,37.45579],[-121.98057,37.45927],[-122.01411,37.47223],[-122.06205,37.49044],[-122.07142,37.49395],[-122.07981,37.49721],[-122.10116,37.5055],[-122.14854,37.52567],[-122.15421,37.52803],[-122.19466,37.54519],[-122.22871,37.55949],[-122.2456,37.5666],[-122.27866,37.5805],[-122.2986,37.58889],[-122.31646,37.59651],[-122.34423,37.60815],[-122.3503,37.61067],[-122.35822,37.61448]],"type":"LineString"}
}
