{
  "id": 2015235715,
  "type": "Feature",
  "properties": {
    "geom:area": 0,
    "geom:bbox": "-122.283333,37.466667,-83.428333,42.833611",
    "geom:latitude": 41.01595606284802,
    "geom:longitude": -102.98138492824648,
    "src:alt_label": "swim-path",
    "src:geom": "swim",
    "swim:altitudes": [
      "042",
      "062",
      "062",
      "092",
      "092",
      "092",
      "126",
      "197",
      "197",
      "214",
      "220",
      "245",
      "258",
      "279",
      "301",
      "301",
      "301",
      "319",
      "319",
      "340C",
      "340C",
      "340C",
      "340C",
      "340C",
      "340C",
      "340C",
      "340C",
      "340C",
      "340C",
      "340C",
      "340C",
      "340C",
      "340C",
      "340C",
      "340C",
      "340C",
      "340C",
      "340C",
      "340C",
      "340C",
      "340C",
      "340C",
      "340C",
      "340C",
      "340C",
      "340C",
      "340C",
      "340C",
      "340C",
      "340C",
      "340C",
      "340C",
      "340C",
      "340C",
      "340C",
      "340C",
      "340C",
      "340C",
      "340C",
      "340C",
      "340C",
      "340C",
      "340C",
      "340C",
      "340C",
      "340C",
      "340C",
      "340C",
      "340C",
      "340C",
      "340C",
      "340C",
      "340C",
      "340C",
      "340C",
      "340C",
      "340C",
      "340C",
      "340C",
      "340C",
      "340C",
      "340C",
      "340C",
      "340C",
      "340C",
      "340C",
      "340C",
      "340C",
      "340C",
      "340C",
      "340C",
      "340C",
      "340C",
      "340C",
      "340C",
      "340C",
      "340C",
      "340C",
      "340C",
      "340C",
      "340C",
      "340C",
      "340C",
      "340C",
      "340C",
      "340C",
      "340C",
      "340C",
      "340C",
      "340C",
      "340C",
      "340C",
      "340C",
      "340C",
      "340C",
      "340C",
      "340C",
      "340C",
      "340C",
      "340C",
      "340C",
      "340C",
      "340C",
      "340C",
      "340C",
      "340C",
      "340C",
      "340C",
      "340C",
      "340C",
      "340C",
      "340C",
      "340C",
      "340C",
      "340C",
      "340C",
      "340C",
      "340C",
      "340C",
      "340C",
      "340C",
      "340C",
      "340C",
      "340C",
      "340C",
      "340C",
      "340C",
      "340C",
      "340C",
      "340C",
      "340C",
      "340C",
      "340C",
      "340C",
      "340C",
      "340C",
      "340C",
      "340C",
      "340C",
      "340C",
      "340C",
      "340C",
      "340C",
      "340C",
      "340C",
      "340C",
      "340C",
      "340C",
      "340C",
      "340C",
      "340C",
      "340C",
      "340C",
      "340C",
      "340C",
      "340C",
      "340C",
      "340C",
      "340C",
      "340C",
      "340C",
      "340C",
      "340C",
      "340C",
      "340C",
      "340C",
      "340C",
      "340C",
      "340C",
      "340C",
      "340C",
      "340C",
      "340C",
      "340C",
      "340C",
      "340C",
      "340C",
      "340C",
      "340C",
      "340C",
      "340C",
      "340C",
      "340C",
      "340C",
      "340C",
      "340C",
      "340C",
      "340C",
      "340C",
      "340C",
      "340C",
      "340",
      "320",
      "320",
      "283",
      "259",
      "259",
      "240",
      "240",
      "229",
      "212",
      "158",
      "147",
      "129",
      "108",
      "106",
      "090",
      "090",
      "090",
      "059",
      "047",
      "028",
      "013",
      "013"
    ],
    "swim:geom": "path",
    "swim:speeds": [
      211,
      260,
      260,
      262,
      262,
      262,
      304,
      378,
      378,
      386,
      387,
      400,
      406,
      424,
      424,
      424,
      424,
      420,
      420,
      420,
      416,
      414,
      413,
      412,
      412,
      412,
      410,
      410,
      410,
      410,
      424,
      424,
      424,
      409,
      409,
      407,
      406,
      407,
      407,
      399,
      394,
      394,
      391,
      391,
      391,
      391,
      391,
      390,
      389,
      389,
      389,
      389,
      389,
      388,
      387,
      387,
      387,
      385,
      384,
      384,
      381,
      379,
      378,
      374,
      373,
      373,
      372,
      371,
      371,
      371,
      371,
      373,
      373,
      373,
      373,
      375,
      375,
      375,
      375,
      381,
      381,
      381,
      383,
      383,
      382,
      382,
      382,
      382,
      383,
      382,
      382,
      381,
      381,
      378,
      376,
      382,
      374,
      372,
      372,
      373,
      373,
      375,
      375,
      378,
      379,
      379,
      379,
      380,
      380,
      382,
      382,
      381,
      381,
      381,
      381,
      381,
      381,
      381,
      380,
      380,
      379,
      381,
      380,
      381,
      381,
      381,
      381,
      382,
      384,
      384,
      382,
      382,
      383,
      384,
      384,
      382,
      382,
      385,
      385,
      385,
      384,
      385,
      385,
      390,
      393,
      394,
      394,
      395,
      395,
      397,
      398,
      398,
      399,
      402,
      403,
      403,
      402,
      402,
      401,
      400,
      399,
      399,
      401,
      401,
      401,
      401,
      401,
      401,
      407,
      407,
      409,
      409,
      409,
      410,
      410,
      410,
      407,
      408,
      409,
      409,
      409,
      416,
      416,
      413,
      413,
      413,
      402,
      402,
      401,
      400,
      400,
      401,
      400,
      401,
      400,
      397,
      395,
      395,
      402,
      404,
      404,
      406,
      406,
      402,
      401,
      401,
      399,
      395,
      395,
      395,
      393,
      389,
      397,
      397,
      363,
      345,
      345,
      330,
      330,
      328,
      321,
      297,
      298,
      289,
      251,
      250,
      231,
      231,
      231,
      207,
      198,
      160,
      139,
      139
    ],
    "swim:timestamps": [
      1775695195,
      1775695256,
      1775695256,
      1775695316,
      1775695316,
      1775695316,
      1775695407,
      1775695647,
      1775695647,
      1775695707,
      1775695736,
      1775695827,
      1775695888,
      1775696008,
      1775696097,
      1775696097,
      1775696097,
      1775696217,
      1775696217,
      1775696337,
      1775696457,
      1775696489,
      1775696549,
      1775696609,
      1775696609,
      1775696609,
      1775696789,
      1775696849,
      1775696849,
      1775696849,
      1775697150,
      1775697150,
      1775697150,
      1775697570,
      1775697570,
      1775697691,
      1775697751,
      1775697852,
      1775697852,
      1775697912,
      1775698051,
      1775698051,
      1775698231,
      1775698273,
      1775698292,
      1775698333,
      1775698352,
      1775698453,
      1775698592,
      1775698592,
      1775698712,
      1775698712,
      1775698754,
      1775698874,
      1775698977,
      1775698977,
      1775699037,
      1775699157,
      1775699198,
      1775699198,
      1775699277,
      1775699337,
      1775699378,
      1775699578,
      1775699619,
      1775699619,
      1775699739,
      1775699799,
      1775699919,
      1775699919,
      1775699919,
      1775700159,
      1775700159,
      1775700219,
      1775700219,
      1775700400,
      1775700460,
      1775700520,
      1775700520,
      1775700700,
      1775700700,
      1775700700,
      1775701000,
      1775701000,
      1775701120,
      1775701120,
      1775701120,
      1775701180,
      1775701187,
      1775701541,
      1775701541,
      1775701661,
      1775701661,
      1775701781,
      1775701841,
      1775701876,
      1775702056,
      1775702116,
      1775702116,
      1775702208,
      1775702208,
      1775702322,
      1775702322,
      1775702442,
      1775702449,
      1775702449,
      1775702549,
      1775702609,
      1775702609,
      1775702749,
      1775702749,
      1775702849,
      1775702849,
      1775702849,
      1775703090,
      1775703090,
      1775703090,
      1775703210,
      1775703290,
      1775703290,
      1775703350,
      1775703390,
      1775703530,
      1775703570,
      1775703811,
      1775703811,
      1775703811,
      1775703991,
      1775704131,
      1775704131,
      1775704171,
      1775704231,
      1775704251,
      1775704371,
      1775704371,
      1775704411,
      1775704411,
      1775704592,
      1775704592,
      1775704592,
      1775704792,
      1775704832,
      1775704832,
      1775705132,
      1775705152,
      1775705192,
      1775705192,
      1775705252,
      1775705252,
      1775705272,
      1775705493,
      1775705493,
      1775705513,
      1775705613,
      1775705693,
      1775705693,
      1775705853,
      1775705853,
      1775705913,
      1775705933,
      1775706033,
      1775706053,
      1775706234,
      1775706234,
      1775706354,
      1775706354,
      1775706414,
      1775706414,
      1775706634,
      1775706654,
      1775706774,
      1775706774,
      1775706774,
      1775706995,
      1775706995,
      1775706995,
      1775707235,
      1775707475,
      1775707715,
      1775707715,
      1775707715,
      1775707956,
      1775707956,
      1775708316,
      1775708316,
      1775708316,
      1775708556,
      1775708556,
      1775708616,
      1775708736,
      1775708736,
      1775709026,
      1775709037,
      1775709146,
      1775709206,
      1775709266,
      1775709397,
      1775709397,
      1775709627,
      1775709757,
      1775709757,
      1775709927,
      1775709997,
      1775710117,
      1775710227,
      1775710227,
      1775710287,
      1775710467,
      1775710467,
      1775710467,
      1775710528,
      1775710648,
      1775710768,
      1775710768,
      1775711128,
      1775711205,
      1775711205,
      1775711265,
      1775711265,
      1775711308,
      1775711368,
      1775711565,
      1775711608,
      1775711680,
      1775711849,
      1775711860,
      1775712029,
      1775712029,
      1775712029,
      1775712269,
      1775712340,
      1775712466,
      1775712580,
      1775712580
    ],
    "wof:geomhash": "b3d82b4c575fa9553e0869a93a035d35",
    "wof:id": 2015235715,
    "wof:repo": "sfomuseum-data-flights-2026-04"
  },
  "bbox": [
    -122.28333333333333,
    37.46666666666667,
    -83.42833333333334,
    42.83361111111111
  ],
  "geometry": {"coordinates":[[-83.42833333333334,42.158055555555556],[-83.50138888888888,42.16916666666666],[-83.50138888888888,42.16916666666666],[-83.5911111111111,42.198055555555555],[-83.5911111111111,42.198055555555555],[-83.5911111111111,42.198055555555555],[-83.75027777777778,42.24916666666667],[-84.23583333333333,42.401666666666664],[-84.23583333333333,42.401666666666664],[-84.37333333333332,42.43222222222222],[-84.4388888888889,42.43388888888889],[-84.67305555555556,42.44],[-84.82472222222222,42.44361111111111],[-85.14166666666668,42.45027777777778],[-85.36527777777778,42.45472222222222],[-85.36527777777778,42.45472222222222],[-85.36527777777778,42.45472222222222],[-85.68305555555555,42.458333333333336],[-85.68305555555555,42.458333333333336],[-86.00111111111111,42.461666666666666],[-86.3125,42.46361111111111],[-86.40944444444445,42.46416666666667],[-86.56361111111111,42.46472222222223],[-86.70722222222223,42.465],[-86.70722222222223,42.465],[-86.70722222222223,42.465],[-87.1675,42.46472222222223],[-87.32388888888889,42.464444444444446],[-87.32388888888889,42.464444444444446],[-87.32388888888889,42.464444444444446],[-88.11138888888888,42.486111111111114],[-88.11138888888888,42.486111111111114],[-88.11138888888888,42.486111111111114],[-89.19777777777779,42.52972222222222],[-89.19777777777779,42.52972222222222],[-89.4888888888889,42.59861111111111],[-89.62944444444443,42.64055555555556],[-89.88305555555554,42.72138888888889],[-89.88305555555554,42.72138888888889],[-90.01777777777778,42.76583333333333],[-90.33277777777778,42.83361111111111],[-90.33277777777778,42.83361111111111],[-90.77361111111111,42.82611111111112],[-90.89333333333335,42.824444444444445],[-90.92166666666667,42.823888888888895],[-91.03999999999999,42.82194444444445],[-91.06888888888888,42.821111111111115],[-91.33388888888888,42.815555555555555],[-91.67472222222223,42.8075],[-91.67472222222223,42.8075],[-91.96638888888889,42.8],[-91.96638888888889,42.8],[-92.05388888888889,42.79722222222222],[-92.34555555555555,42.78861111111111],[-92.60805555555555,42.780277777777776],[-92.60805555555555,42.780277777777776],[-92.75305555555556,42.775555555555556],[-93.0436111111111,42.765],[-93.12944444444443,42.761944444444445],[-93.12944444444443,42.761944444444445],[-93.3275,42.75416666666667],[-93.47111111111111,42.748333333333335],[-93.55583333333333,42.74472222222222],[-94.03361111111111,42.72416666666667],[-94.11694444444444,42.72],[-94.11694444444444,42.72],[-94.39666666666668,42.70666666666667],[-94.53527777777778,42.7],[-94.83361111111111,42.68472222222222],[-94.83361111111111,42.68472222222222],[-94.83361111111111,42.68472222222222],[-95.39277777777778,42.65361111111111],[-95.39277777777778,42.65361111111111],[-95.53305555555555,42.64555555555555],[-95.53305555555555,42.64555555555555],[-95.95305555555557,42.62027777777778],[-96.09333333333333,42.611111111111114],[-96.23555555555555,42.60194444444445],[-96.23555555555555,42.60194444444445],[-96.66222222222223,42.57333333333334],[-96.66222222222223,42.57333333333334],[-96.66222222222223,42.57333333333334],[-97.37694444444443,42.52166666666667],[-97.37694444444443,42.52166666666667],[-97.66194444444444,42.5],[-97.66194444444444,42.5],[-97.66194444444444,42.5],[-97.80388888888889,42.48861111111111],[-97.83416666666666,42.48638888888889],[-98.66888888888889,42.41694444444444],[-98.66888888888889,42.41694444444444],[-98.95277777777778,42.39194444444444],[-98.95277777777778,42.39194444444444],[-99.23222222222222,42.36666666666667],[-99.37277777777777,42.353611111111114],[-99.46055555555556,42.34444444444445],[-99.87333333333332,42.30638888888888],[-100.00972222222222,42.29194444444444],[-100.00972222222222,42.29194444444444],[-100.20361111111112,42.27305555555555],[-100.20361111111112,42.27305555555555],[-100.47611111111111,42.24527777777778],[-100.47611111111111,42.24527777777778],[-100.75722222222223,42.21611111111111],[-100.76333333333334,42.21527777777778],[-100.76333333333334,42.21527777777778],[-101.00277777777778,42.187777777777775],[-101.14472222222223,42.17305555555555],[-101.14472222222223,42.17305555555555],[-101.4675,42.13861111111111],[-101.4675,42.13861111111111],[-101.70805555555556,42.109722222222224],[-101.70805555555556,42.109722222222224],[-101.70805555555556,42.109722222222224],[-102.26944444444445,42.044444444444444],[-102.26944444444445,42.044444444444444],[-102.26944444444445,42.044444444444444],[-102.54944444444445,42.01],[-102.74444444444444,41.988055555555555],[-102.74444444444444,41.988055555555555],[-102.88416666666667,41.970555555555556],[-102.93972222222223,41.96277777777778],[-103.30388888888889,41.91722222222222],[-103.38777777777779,41.906666666666666],[-103.93583333333333,41.784166666666664],[-103.93583333333333,41.784166666666664],[-103.93583333333333,41.784166666666664],[-104.345,41.68583333333333],[-104.66944444444445,41.60583333333334],[-104.66944444444445,41.60583333333334],[-104.74944444444445,41.585],[-104.88333333333334,41.551111111111105],[-104.9388888888889,41.53805555555555],[-105.20833333333334,41.47],[-105.20833333333334,41.47],[-105.28444444444445,41.45111111111111],[-105.28444444444445,41.45111111111111],[-105.68916666666667,41.34666666666667],[-105.68916666666667,41.34666666666667],[-105.68916666666667,41.34666666666667],[-106.15138888888889,41.23083333333334],[-106.22833333333334,41.21055555555556],[-106.22833333333334,41.21055555555556],[-106.90861111111111,41.03805555555555],[-106.96472222222222,41.02361111111111],[-107.04444444444444,41.00277777777778],[-107.04444444444444,41.00277777777778],[-107.19083333333333,40.964444444444446],[-107.19083333333333,40.964444444444446],[-107.24083333333333,40.95138888888889],[-107.73777777777778,40.819722222222225],[-107.73777777777778,40.819722222222225],[-107.79277777777777,40.805277777777775],[-108.01666666666667,40.74472222222222],[-108.20527777777778,40.69333333333333],[-108.20527777777778,40.69333333333333],[-108.57222222222222,40.5925],[-108.57222222222222,40.5925],[-108.70777777777778,40.555],[-108.76722222222222,40.53861111111111],[-108.97361111111111,40.480555555555554],[-109.02888888888889,40.46527777777778],[-109.43666666666667,40.349444444444444],[-109.43666666666667,40.349444444444444],[-109.71083333333334,40.27055555555555],[-109.71083333333334,40.27055555555555],[-109.84583333333333,40.23111111111111],[-109.84583333333333,40.23111111111111],[-110.36138888888888,40.06861111111112],[-110.38777777777779,40.05972222222222],[-110.65944444444445,39.96555555555556],[-110.65944444444445,39.96555555555556],[-110.65944444444445,39.96555555555556],[-111.16916666666667,39.78666666666666],[-111.16916666666667,39.78666666666666],[-111.16916666666667,39.78666666666666],[-111.69388888888889,39.59861111111111],[-112.22583333333334,39.40555555555555],[-112.78222222222222,39.240833333333335],[-112.78222222222222,39.240833333333335],[-112.78222222222222,39.240833333333335],[-113.35305555555556,39.11222222222222],[-113.35305555555556,39.11222222222222],[-114.1575,39.202222222222225],[-114.1575,39.202222222222225],[-114.1575,39.202222222222225],[-114.70333333333333,39.059999999999995],[-114.70333333333333,39.059999999999995],[-114.83833333333332,39.02388888888889],[-115.10944444444443,38.95138888888889],[-115.10944444444443,38.95138888888889],[-115.7538888888889,38.775277777777774],[-115.78111111111112,38.768055555555556],[-116.02416666666666,38.70055555555556],[-116.15694444444445,38.663333333333334],[-116.28861111111111,38.626666666666665],[-116.57666666666667,38.544999999999995],[-116.57666666666667,38.544999999999995],[-117.08416666666666,38.39888888888889],[-117.37249999999999,38.31472222222222],[-117.37249999999999,38.31472222222222],[-117.74694444444445,38.20416666666667],[-117.905,38.15694444444444],[-118.17666666666668,38.09527777777778],[-118.4263888888889,38.05305555555555],[-118.4263888888889,38.05305555555555],[-118.56305555555555,38.02972222222222],[-118.97111111111111,37.95916666666667],[-118.97111111111111,37.95916666666667],[-118.97111111111111,37.95916666666667],[-119.10416666666666,37.93583333333333],[-119.37916666666666,37.88722222222222],[-119.625,37.790277777777774],[-119.625,37.790277777777774],[-120.44166666666668,37.69499999999999],[-120.6,37.68333333333333],[-120.6,37.68333333333333],[-120.71666666666667,37.666666666666664],[-120.71666666666667,37.666666666666664],[-120.79638888888888,37.65277777777778],[-120.90722222222223,37.63944444444444],[-121.26666666666667,37.6],[-121.33138888888888,37.585],[-121.45,37.56666666666667],[-121.69472222222223,37.59],[-121.7,37.6],[-121.81805555555555,37.56055555555555],[-121.81805555555555,37.56055555555555],[-121.81805555555555,37.56055555555555],[-122.00916666666667,37.46666666666667],[-122.08333333333333,37.5],[-122.2,37.55],[-122.28333333333333,37.583333333333336],[-122.28333333333333,37.583333333333336]],"type":"LineString"}
}
