{
  "id": 2031119661,
  "type": "Feature",
  "properties": {
    "geom:area": 0,
    "geom:bbox": "-122.556944,32.624722,-117.062222,37.650000",
    "geom:latitude": 34.98053549332411,
    "geom:longitude": -120.10148779084888,
    "src:alt_label": "swim-path",
    "src:geom": "swim",
    "swim:altitudes": [
      "022",
      "022",
      "022",
      "022",
      "022",
      "022",
      "052",
      "052",
      "052",
      "052",
      "052",
      "052",
      "070",
      "070",
      "070",
      "070",
      "070",
      "095",
      "095",
      "095",
      "116",
      "116",
      "116",
      "116",
      "140",
      "140",
      "140",
      "140",
      "140",
      "140",
      "140",
      "167",
      "167",
      "167",
      "167",
      "167",
      "217",
      "217",
      "217",
      "217",
      "217",
      "217",
      "217",
      "234",
      "234",
      "234",
      "234",
      "234",
      "234",
      "272",
      "272",
      "272",
      "272",
      "272",
      "272",
      "272",
      "272",
      "287",
      "287",
      "287",
      "287",
      "287",
      "287",
      "315",
      "315",
      "315",
      "315",
      "331",
      "331",
      "331",
      "331",
      "331",
      "331",
      "331",
      "331",
      "331",
      "350C",
      "350C",
      "350C",
      "350C",
      "350C",
      "350C",
      "350C",
      "350C",
      "350C",
      "350C",
      "350C",
      "350C",
      "350C",
      "350C",
      "350C",
      "350C",
      "350C",
      "350C",
      "350C",
      "350C",
      "350C",
      "350C",
      "350C",
      "350C",
      "350C",
      "350C",
      "350C",
      "350C",
      "350C",
      "350C",
      "350C",
      "350C",
      "350C",
      "350C",
      "350C",
      "350C",
      "350C",
      "350C",
      "350C",
      "350C",
      "350C",
      "350C",
      "350C",
      "350C",
      "350C",
      "350C",
      "350C",
      "350C",
      "350C",
      "350C",
      "350C",
      "350C",
      "350C",
      "350C",
      "350C",
      "350C",
      "350C",
      "350C",
      "350C",
      "350C",
      "350C",
      "350C",
      "350C",
      "350C",
      "350C",
      "350C",
      "350C",
      "350C",
      "350C",
      "350C",
      "350C",
      "350C",
      "350C",
      "350C",
      "350C",
      "350C",
      "350C",
      "350C",
      "350C",
      "350C",
      "350C",
      "350C",
      "350C",
      "350C",
      "350C",
      "350C",
      "350C",
      "350C",
      "350C",
      "350C",
      "350C",
      "350C",
      "350C",
      "350C",
      "350C",
      "350C",
      "350C",
      "350C",
      "350C",
      "350C",
      "350C",
      "350C",
      "350C",
      "350C",
      "350C",
      "350C",
      "350C",
      "350C",
      "350C",
      "350C",
      "350C",
      "350C",
      "350C",
      "350C",
      "350C",
      "350C",
      "350C",
      "350C",
      "350C",
      "350C",
      "350C",
      "350C",
      "350C",
      "350C",
      "350C",
      "350C",
      "350C",
      "350C",
      "350C",
      "350C",
      "350C",
      "350C",
      "350C",
      "350C",
      "350C",
      "350C",
      "350C",
      "350C",
      "350C",
      "350C",
      "350C",
      "350C",
      "350C",
      "350C",
      "350C",
      "350C",
      "350C",
      "350C",
      "350C",
      "350C",
      "350C",
      "350C",
      "350C",
      "350C"
    ],
    "swim:geom": "path",
    "swim:speeds": [
      194,
      194,
      194,
      194,
      194,
      194,
      235,
      235,
      235,
      235,
      235,
      235,
      274,
      274,
      274,
      274,
      274,
      289,
      289,
      289,
      320,
      320,
      320,
      320,
      361,
      361,
      361,
      361,
      361,
      361,
      361,
      374,
      374,
      374,
      374,
      374,
      409,
      409,
      409,
      409,
      409,
      409,
      409,
      429,
      429,
      429,
      429,
      429,
      429,
      447,
      447,
      447,
      447,
      447,
      447,
      447,
      447,
      449,
      449,
      449,
      449,
      449,
      449,
      471,
      471,
      471,
      471,
      471,
      471,
      471,
      471,
      471,
      471,
      471,
      471,
      471,
      462,
      462,
      462,
      462,
      462,
      462,
      462,
      462,
      460,
      460,
      460,
      460,
      460,
      458,
      458,
      458,
      458,
      458,
      458,
      458,
      456,
      456,
      456,
      456,
      456,
      456,
      456,
      462,
      462,
      462,
      462,
      462,
      462,
      462,
      462,
      467,
      467,
      467,
      467,
      467,
      467,
      468,
      468,
      468,
      468,
      468,
      468,
      468,
      468,
      468,
      469,
      469,
      469,
      469,
      469,
      471,
      471,
      471,
      471,
      471,
      471,
      471,
      471,
      472,
      472,
      472,
      472,
      472,
      472,
      472,
      472,
      473,
      473,
      473,
      473,
      473,
      473,
      473,
      473,
      474,
      474,
      474,
      474,
      474,
      474,
      474,
      474,
      474,
      474,
      474,
      474,
      479,
      479,
      479,
      479,
      479,
      479,
      479,
      479,
      479,
      480,
      480,
      480,
      481,
      481,
      481,
      481,
      481,
      481,
      481,
      483,
      483,
      483,
      483,
      482,
      482,
      482,
      482,
      482,
      478,
      478,
      478,
      478,
      478,
      478,
      478,
      472,
      472,
      472,
      472,
      472,
      472,
      471,
      471,
      471,
      471,
      471,
      472,
      472,
      472,
      472,
      473,
      473,
      473,
      473,
      473,
      473,
      475,
      475,
      475,
      475,
      475,
      475,
      475
    ],
    "swim:timestamps": [
      1777218158,
      1777218158,
      1777218158,
      1777218158,
      1777218158,
      1777218158,
      1777218257,
      1777218257,
      1777218257,
      1777218257,
      1777218257,
      1777218257,
      1777218317,
      1777218317,
      1777218317,
      1777218317,
      1777218317,
      1777218377,
      1777218377,
      1777218377,
      1777218437,
      1777218437,
      1777218437,
      1777218437,
      1777218496,
      1777218496,
      1777218496,
      1777218496,
      1777218496,
      1777218496,
      1777218496,
      1777218556,
      1777218556,
      1777218556,
      1777218556,
      1777218556,
      1777218677,
      1777218677,
      1777218677,
      1777218677,
      1777218677,
      1777218677,
      1777218677,
      1777218737,
      1777218737,
      1777218737,
      1777218737,
      1777218737,
      1777218737,
      1777218857,
      1777218857,
      1777218857,
      1777218857,
      1777218857,
      1777218857,
      1777218857,
      1777218857,
      1777218918,
      1777218918,
      1777218918,
      1777218918,
      1777218918,
      1777218918,
      1777219037,
      1777219037,
      1777219037,
      1777219037,
      1777219097,
      1777219097,
      1777219097,
      1777219097,
      1777219097,
      1777219097,
      1777219097,
      1777219097,
      1777219097,
      1777219218,
      1777219218,
      1777219218,
      1777219218,
      1777219218,
      1777219218,
      1777219218,
      1777219218,
      1777219277,
      1777219277,
      1777219277,
      1777219277,
      1777219277,
      1777219338,
      1777219338,
      1777219338,
      1777219338,
      1777219338,
      1777219338,
      1777219338,
      1777219458,
      1777219458,
      1777219458,
      1777219458,
      1777219458,
      1777219458,
      1777219458,
      1777219579,
      1777219579,
      1777219579,
      1777219579,
      1777219579,
      1777219579,
      1777219579,
      1777219579,
      1777219758,
      1777219758,
      1777219758,
      1777219758,
      1777219758,
      1777219758,
      1777219818,
      1777219818,
      1777219818,
      1777219818,
      1777219818,
      1777219878,
      1777219878,
      1777219878,
      1777219878,
      1777219939,
      1777219939,
      1777219939,
      1777219939,
      1777219939,
      1777220059,
      1777220059,
      1777220059,
      1777220059,
      1777220059,
      1777220059,
      1777220059,
      1777220059,
      1777220179,
      1777220179,
      1777220179,
      1777220179,
      1777220179,
      1777220179,
      1777220179,
      1777220179,
      1777220359,
      1777220359,
      1777220359,
      1777220359,
      1777220359,
      1777220359,
      1777220359,
      1777220359,
      1777220419,
      1777220419,
      1777220419,
      1777220419,
      1777220419,
      1777220479,
      1777220479,
      1777220479,
      1777220479,
      1777220479,
      1777220479,
      1777220479,
      1777220720,
      1777220720,
      1777220720,
      1777220780,
      1777220780,
      1777220780,
      1777220780,
      1777220780,
      1777220780,
      1777220840,
      1777220840,
      1777220840,
      1777220900,
      1777220900,
      1777220900,
      1777220900,
      1777220900,
      1777220900,
      1777220900,
      1777220960,
      1777220960,
      1777220960,
      1777220960,
      1777221080,
      1777221080,
      1777221080,
      1777221080,
      1777221080,
      1777221140,
      1777221140,
      1777221140,
      1777221140,
      1777221140,
      1777221140,
      1777221140,
      1777221321,
      1777221321,
      1777221321,
      1777221321,
      1777221321,
      1777221321,
      1777221381,
      1777221381,
      1777221381,
      1777221381,
      1777221381,
      1777221441,
      1777221441,
      1777221441,
      1777221441,
      1777221501,
      1777221501,
      1777221501,
      1777221501,
      1777221501,
      1777221501,
      1777221561,
      1777221561,
      1777221561,
      1777221561,
      1777221561,
      1777221561,
      1777221561
    ],
    "wof:geomhash": "6504f4c323dd2c55e28c00eb2bae24ae",
    "wof:id": 2031119661,
    "wof:repo": "sfomuseum-data-flights-2026-04"
  },
  "bbox": [
    -122.55694444444444,
    32.624722222222225,
    -117.06222222222222,
    37.65
  ],
  "geometry": {"coordinates":[[-122.45,37.65],[-122.45,37.65],[-122.45,37.65],[-122.45,37.65],[-122.45,37.65],[-122.45,37.65],[-122.53944444444444,37.64194444444444],[-122.53944444444444,37.64194444444444],[-122.53944444444444,37.64194444444444],[-122.53944444444444,37.64194444444444],[-122.53944444444444,37.64194444444444],[-122.53944444444444,37.64194444444444],[-122.54333333333334,37.569722222222225],[-122.54333333333334,37.569722222222225],[-122.54333333333334,37.569722222222225],[-122.54333333333334,37.569722222222225],[-122.54333333333334,37.569722222222225],[-122.54666666666667,37.48861111111111],[-122.54666666666667,37.48861111111111],[-122.54666666666667,37.48861111111111],[-122.54972222222221,37.40361111111111],[-122.54972222222221,37.40361111111111],[-122.54972222222221,37.40361111111111],[-122.54972222222221,37.40361111111111],[-122.55361111111111,37.29472222222222],[-122.55361111111111,37.29472222222222],[-122.55361111111111,37.29472222222222],[-122.55361111111111,37.29472222222222],[-122.55361111111111,37.29472222222222],[-122.55361111111111,37.29472222222222],[-122.55361111111111,37.29472222222222],[-122.55694444444444,37.18944444444444],[-122.55694444444444,37.18944444444444],[-122.55694444444444,37.18944444444444],[-122.55694444444444,37.18944444444444],[-122.55694444444444,37.18944444444444],[-122.43916666666667,36.99472222222222],[-122.43916666666667,36.99472222222222],[-122.43916666666667,36.99472222222222],[-122.43916666666667,36.99472222222222],[-122.43916666666667,36.99472222222222],[-122.43916666666667,36.99472222222222],[-122.43916666666667,36.99472222222222],[-122.34888888888888,36.90083333333333],[-122.34888888888888,36.90083333333333],[-122.34888888888888,36.90083333333333],[-122.34888888888888,36.90083333333333],[-122.34888888888888,36.90083333333333],[-122.34888888888888,36.90083333333333],[-122.16222222222223,36.70305555555556],[-122.16222222222223,36.70305555555556],[-122.16222222222223,36.70305555555556],[-122.16222222222223,36.70305555555556],[-122.16222222222223,36.70305555555556],[-122.16222222222223,36.70305555555556],[-122.16222222222223,36.70305555555556],[-122.16222222222223,36.70305555555556],[-122.08,36.615],[-122.08,36.615],[-122.08,36.615],[-122.08,36.615],[-122.08,36.615],[-122.08,36.615],[-121.87333333333332,36.39277777777778],[-121.87333333333332,36.39277777777778],[-121.87333333333332,36.39277777777778],[-121.87333333333332,36.39277777777778],[-121.77694444444444,36.288888888888884],[-121.77694444444444,36.288888888888884],[-121.77694444444444,36.288888888888884],[-121.77694444444444,36.288888888888884],[-121.77694444444444,36.288888888888884],[-121.77694444444444,36.288888888888884],[-121.77694444444444,36.288888888888884],[-121.77694444444444,36.288888888888884],[-121.77694444444444,36.288888888888884],[-121.58444444444444,36.08027777777778],[-121.58444444444444,36.08027777777778],[-121.58444444444444,36.08027777777778],[-121.58444444444444,36.08027777777778],[-121.58444444444444,36.08027777777778],[-121.58444444444444,36.08027777777778],[-121.58444444444444,36.08027777777778],[-121.58444444444444,36.08027777777778],[-121.4925,35.980555555555554],[-121.4925,35.980555555555554],[-121.4925,35.980555555555554],[-121.4925,35.980555555555554],[-121.4925,35.980555555555554],[-121.39777777777779,35.8775],[-121.39777777777779,35.8775],[-121.39777777777779,35.8775],[-121.39777777777779,35.8775],[-121.39777777777779,35.8775],[-121.39777777777779,35.8775],[-121.39777777777779,35.8775],[-121.21305555555556,35.67527777777777],[-121.21305555555556,35.67527777777777],[-121.21305555555556,35.67527777777777],[-121.21305555555556,35.67527777777777],[-121.21305555555556,35.67527777777777],[-121.21305555555556,35.67527777777777],[-121.21305555555556,35.67527777777777],[-121.00944444444444,35.481944444444444],[-121.00944444444444,35.481944444444444],[-121.00944444444444,35.481944444444444],[-121.00944444444444,35.481944444444444],[-121.00944444444444,35.481944444444444],[-121.00944444444444,35.481944444444444],[-121.00944444444444,35.481944444444444],[-121.00944444444444,35.481944444444444],[-120.665,35.245],[-120.665,35.245],[-120.665,35.245],[-120.665,35.245],[-120.665,35.245],[-120.665,35.245],[-120.54194444444444,35.16027777777778],[-120.54194444444444,35.16027777777778],[-120.54194444444444,35.16027777777778],[-120.54194444444444,35.16027777777778],[-120.54194444444444,35.16027777777778],[-120.41888888888889,35.07472222222223],[-120.41888888888889,35.07472222222223],[-120.41888888888889,35.07472222222223],[-120.41888888888889,35.07472222222223],[-120.28833333333333,34.98388888888889],[-120.28833333333333,34.98388888888889],[-120.28833333333333,34.98388888888889],[-120.28833333333333,34.98388888888889],[-120.28833333333333,34.98388888888889],[-120.04694444444445,34.815],[-120.04694444444445,34.815],[-120.04694444444445,34.815],[-120.04694444444445,34.815],[-120.04694444444445,34.815],[-120.04694444444445,34.815],[-120.04694444444445,34.815],[-120.04694444444445,34.815],[-119.8086111111111,34.645833333333336],[-119.8086111111111,34.645833333333336],[-119.8086111111111,34.645833333333336],[-119.8086111111111,34.645833333333336],[-119.8086111111111,34.645833333333336],[-119.8086111111111,34.645833333333336],[-119.8086111111111,34.645833333333336],[-119.8086111111111,34.645833333333336],[-119.45083333333334,34.391666666666666],[-119.45083333333334,34.391666666666666],[-119.45083333333334,34.391666666666666],[-119.45083333333334,34.391666666666666],[-119.45083333333334,34.391666666666666],[-119.45083333333334,34.391666666666666],[-119.45083333333334,34.391666666666666],[-119.45083333333334,34.391666666666666],[-119.33,34.305277777777775],[-119.33,34.305277777777775],[-119.33,34.305277777777775],[-119.33,34.305277777777775],[-119.33,34.305277777777775],[-119.18722222222223,34.2025],[-119.18722222222223,34.2025],[-119.18722222222223,34.2025],[-119.18722222222223,34.2025],[-119.18722222222223,34.2025],[-119.18722222222223,34.2025],[-119.18722222222223,34.2025],[-118.70555555555556,33.85305555555556],[-118.70555555555556,33.85305555555556],[-118.70555555555556,33.85305555555556],[-118.58638888888889,33.76555555555556],[-118.58638888888889,33.76555555555556],[-118.58638888888889,33.76555555555556],[-118.58638888888889,33.76555555555556],[-118.58638888888889,33.76555555555556],[-118.58638888888889,33.76555555555556],[-118.46833333333333,33.67944444444444],[-118.46833333333333,33.67944444444444],[-118.46833333333333,33.67944444444444],[-118.35166666666666,33.593611111111116],[-118.35166666666666,33.593611111111116],[-118.35166666666666,33.593611111111116],[-118.35166666666666,33.593611111111116],[-118.35166666666666,33.593611111111116],[-118.35166666666666,33.593611111111116],[-118.35166666666666,33.593611111111116],[-118.23222222222222,33.505],[-118.23222222222222,33.505],[-118.23222222222222,33.505],[-118.23222222222222,33.505],[-117.99361111111111,33.327222222222225],[-117.99361111111111,33.327222222222225],[-117.99361111111111,33.327222222222225],[-117.99361111111111,33.327222222222225],[-117.99361111111111,33.327222222222225],[-117.87638888888888,33.239444444444445],[-117.87638888888888,33.239444444444445],[-117.87638888888888,33.239444444444445],[-117.87638888888888,33.239444444444445],[-117.87638888888888,33.239444444444445],[-117.87638888888888,33.239444444444445],[-117.87638888888888,33.239444444444445],[-117.52722222222222,32.97777777777778],[-117.52722222222222,32.97777777777778],[-117.52722222222222,32.97777777777778],[-117.52722222222222,32.97777777777778],[-117.52722222222222,32.97777777777778],[-117.52722222222222,32.97777777777778],[-117.41194444444444,32.89055555555556],[-117.41194444444444,32.89055555555556],[-117.41194444444444,32.89055555555556],[-117.41194444444444,32.89055555555556],[-117.41194444444444,32.89055555555556],[-117.29583333333333,32.802499999999995],[-117.29583333333333,32.802499999999995],[-117.29583333333333,32.802499999999995],[-117.29583333333333,32.802499999999995],[-117.17861111111111,32.71333333333334],[-117.17861111111111,32.71333333333334],[-117.17861111111111,32.71333333333334],[-117.17861111111111,32.71333333333334],[-117.17861111111111,32.71333333333334],[-117.17861111111111,32.71333333333334],[-117.06222222222222,32.624722222222225],[-117.06222222222222,32.624722222222225],[-117.06222222222222,32.624722222222225],[-117.06222222222222,32.624722222222225],[-117.06222222222222,32.624722222222225],[-117.06222222222222,32.624722222222225],[-117.06222222222222,32.624722222222225]],"type":"LineString"}
}
