{
  "id": 2031101081,
  "type": "Feature",
  "properties": {
    "geom:area": 0,
    "geom:bbox": "-122.362040,36.718270,-121.875900,37.616230",
    "geom:latitude": 37.21207554089733,
    "geom:longitude": -122.07043119810382,
    "src:alt_label": "swim-approach",
    "src:geom": "swim",
    "swim:elevations": [
      5690,
      5555,
      5048,
      4738,
      4627,
      4397,
      4174,
      4093,
      3862,
      3647,
      3381,
      3232,
      2956,
      2716,
      2525,
      2399,
      2222,
      1838,
      1795,
      1737,
      1564,
      1402,
      1096,
      969,
      945,
      932,
      638,
      418,
      383,
      198,
      52,
      0
    ],
    "swim:geom": "approach",
    "swim:timestamps": [
      1777017888,
      1777017901,
      1777017948,
      1777017976,
      1777017988,
      1777018009,
      1777018045,
      1777018054,
      1777018094,
      1777018130,
      1777018167,
      1777018185,
      1777018219,
      1777018249,
      1777018270,
      1777018301,
      1777018328,
      1777018374,
      1777018389,
      1777018416,
      1777018447,
      1777018476,
      1777018525,
      1777018555,
      1777018584,
      1777018596,
      1777018630,
      1777018675,
      1777018684,
      1777018732,
      1777018767,
      1777018782
    ],
    "wof:geomhash": "69ab5417cce3ae5d5f2820f9da094b53",
    "wof:id": 2031101081,
    "wof:repo": "sfomuseum-data-flights-2026-04"
  },
  "bbox": [
    -122.36204,
    36.71827,
    -121.8759,
    37.61623
  ],
  "geometry": {"coordinates":[[-121.8759,36.71827],[-121.88843,36.73778],[-121.91575,36.81839],[-121.9294,36.86525],[-121.93486,36.88539],[-121.94417,36.92063],[-121.96273,36.97684],[-121.96786,36.99011],[-121.98993,37.04687],[-122.00757,37.0922],[-122.02542,37.13746],[-122.03354,37.15825],[-122.0489,37.19768],[-122.06249,37.23175],[-122.07185,37.25516],[-122.08517,37.28962],[-122.09727,37.32097],[-122.11793,37.37236],[-122.12364,37.38805],[-122.13222,37.41396],[-122.14192,37.44202],[-122.14995,37.46633],[-122.16407,37.50912],[-122.17384,37.53421],[-122.20007,37.54655],[-122.21113,37.55203],[-122.24387,37.5659],[-122.28276,37.58228],[-122.28961,37.5852],[-122.32559,37.60019],[-122.35182,37.61126],[-122.36204,37.61623]],"type":"LineString"}
}
