{
  "id": 2015330731,
  "type": "Feature",
  "properties": {
    "geom:area": 0,
    "geom:bbox": "-122.407260,37.627420,-121.274310,37.960200",
    "geom:latitude": 37.828551109524774,
    "geom:longitude": -121.86339845967346,
    "src:alt_label": "swim-takeoff",
    "src:geom": "swim",
    "swim:elevations": [
      122,
      529,
      706,
      764,
      953,
      1308,
      1903,
      2069,
      2634,
      2940,
      3152,
      3326,
      3508,
      3651,
      3926,
      4257,
      4514,
      4755,
      5018,
      5222,
      5619,
      5831,
      5889
    ],
    "swim:geom": "takeoff",
    "swim:timestamps": [
      1776591399,
      1776591440,
      1776591475,
      1776591487,
      1776591511,
      1776591544,
      1776591591,
      1776591605,
      1776591654,
      1776591680,
      1776591698,
      1776591734,
      1776591773,
      1776591792,
      1776591822,
      1776591854,
      1776591880,
      1776591910,
      1776591939,
      1776591964,
      1776592015,
      1776592048,
      1776592055
    ],
    "wof:geomhash": "07b41eca2f070f54b7082bc911ab5094",
    "wof:id": 2015330731,
    "wof:repo": "sfomuseum-data-flights-2026-04"
  },
  "bbox": [
    -122.40726,
    37.62742,
    -121.27431,
    37.9602
  ],
  "geometry": {"coordinates":[[-122.39033,37.62742],[-122.40726,37.65502],[-122.37021,37.67113],[-122.35438,37.67463],[-122.32102,37.68376],[-122.27144,37.69956],[-122.20014,37.7248],[-122.18105,37.73484],[-122.10977,37.77184],[-122.07216,37.79121],[-122.04516,37.80514],[-121.98625,37.82924],[-121.90884,37.84359],[-121.86866,37.85121],[-121.80561,37.86295],[-121.73547,37.87593],[-121.67779,37.88656],[-121.61079,37.89891],[-121.54646,37.91062],[-121.48972,37.92101],[-121.3714,37.94273],[-121.29197,37.95702],[-121.27431,37.9602]],"type":"LineString"}
}
