{
  "id": 2015350311,
  "type": "Feature",
  "properties": {
    "geom:area": 0,
    "geom:bbox": "-122.501389,35.998333,-114.933056,37.671944",
    "geom:latitude": 36.978033448370944,
    "geom:longitude": -118.59830137800844,
    "src:alt_label": "swim-path",
    "src:geom": "swim",
    "swim:altitudes": [
      "035",
      "035",
      "107",
      "107",
      "120",
      "177",
      "228",
      "241",
      "290",
      "307",
      "309C",
      "309C",
      "310C",
      "310C",
      "310C",
      "310C",
      "310C",
      "310C",
      "310C",
      "310C",
      "310C",
      "310C",
      "310C",
      "310C",
      "310C",
      "310C",
      "310C",
      "310",
      "310",
      "293",
      "251",
      "226",
      "209",
      "192",
      "192",
      "183",
      "180",
      "167",
      "140",
      "138",
      "117",
      "115",
      "115",
      "115",
      "102",
      "100",
      "090",
      "085",
      "073",
      "049",
      "049",
      "034",
      "034",
      "033",
      "026",
      "026"
    ],
    "swim:geom": "path",
    "swim:speeds": [
      235,
      235,
      308,
      308,
      366,
      416,
      507,
      518,
      526,
      518,
      545,
      545,
      547,
      547,
      551,
      551,
      541,
      466,
      483,
      483,
      478,
      478,
      478,
      519,
      518,
      518,
      518,
      481,
      481,
      476,
      463,
      431,
      404,
      363,
      363,
      352,
      360,
      358,
      346,
      340,
      326,
      329,
      329,
      329,
      326,
      328,
      295,
      272,
      247,
      197,
      197,
      149,
      149,
      150,
      152,
      152
    ],
    "swim:timestamps": [
      1776831825,
      1776831825,
      1776832005,
      1776832005,
      1776832065,
      1776832246,
      1776832486,
      1776832546,
      1776832726,
      1776832786,
      1776833086,
      1776833086,
      1776833206,
      1776833206,
      1776833387,
      1776833387,
      1776833507,
      1776833567,
      1776833627,
      1776833627,
      1776833747,
      1776833747,
      1776833747,
      1776833987,
      1776834047,
      1776834047,
      1776834047,
      1776834167,
      1776834167,
      1776834287,
      1776834407,
      1776834472,
      1776834526,
      1776834604,
      1776834604,
      1776834652,
      1776834664,
      1776834718,
      1776834833,
      1776834839,
      1776834948,
      1776834954,
      1776834954,
      1776834954,
      1776835002,
      1776835014,
      1776835074,
      1776835134,
      1776835194,
      1776835314,
      1776835314,
      1776835434,
      1776835434,
      1776835440,
      1776835494,
      1776835494
    ],
    "wof:geomhash": "44c8de40c081811d64c1c32a4e29ebc3",
    "wof:id": 2015350311,
    "wof:repo": "sfomuseum-data-flights-2026-04"
  },
  "bbox": [
    -122.50138888888888,
    35.998333333333335,
    -114.93305555555555,
    37.67194444444444
  ],
  "geometry": {"coordinates":[[-122.50138888888888,37.67194444444444],[-122.50138888888888,37.67194444444444],[-122.47916666666667,37.49527777777778],[-122.47916666666667,37.49527777777778],[-122.38138888888888,37.43527777777778],[-121.9875,37.33861111111111],[-121.33638888888889,37.206944444444446],[-121.16166666666668,37.170833333333334],[-120.62388888888889,37.058055555555555],[-120.45194444444445,37.021388888888886],[-119.56305555555555,36.99944444444444],[-119.56305555555555,36.99944444444444],[-119.21305555555556,37.12],[-119.21305555555556,37.12],[-118.67055555555557,37.276944444444446],[-118.67055555555557,37.276944444444446],[-118.2761111111111,37.31888888888889],[-118.14361111111111,37.402499999999996],[-118.04388888888889,37.50388888888889],[-118.04388888888889,37.50388888888889],[-117.71972222222223,37.49472222222222],[-117.71972222222223,37.49472222222222],[-117.71972222222223,37.49472222222222],[-117.10972222222222,37.221111111111114],[-116.9563888888889,37.14194444444444],[-116.9563888888889,37.14194444444444],[-116.9563888888889,37.14194444444444],[-116.7375,36.93861111111111],[-116.7375,36.93861111111111],[-116.55055555555555,36.72083333333334],[-116.32833333333333,36.53611111111111],[-116.19388888888889,36.440555555555555],[-116.09972222222221,36.37388888888889],[-115.97166666666666,36.280277777777776],[-115.97166666666666,36.280277777777776],[-115.89555555555556,36.230000000000004],[-115.8786111111111,36.2175],[-115.78944444444444,36.16166666666666],[-115.57888888888888,36.086111111111116],[-115.56944444444444,36.083333333333336],[-115.37666666666667,36.02388888888889],[-115.36666666666666,36.02027777777778],[-115.36666666666666,36.02027777777778],[-115.36666666666666,36.02027777777778],[-115.28,36.01305555555555],[-115.25638888888889,36.011944444444445],[-115.1525,36.006388888888885],[-115.06083333333333,36.001666666666665],[-114.97222222222223,35.998333333333335],[-114.93305555555555,36.073055555555555],[-114.93305555555555,36.073055555555555],[-115.04083333333332,36.07361111111111],[-115.04083333333332,36.07361111111111],[-115.05111111111111,36.072500000000005],[-115.09416666666667,36.07361111111111],[-115.09416666666667,36.07361111111111]],"type":"LineString"}
}
