{
  "id": 2031099481,
  "type": "Feature",
  "properties": {
    "geom:area": 0,
    "geom:bbox": "-122.352530,36.867830,-121.929770,37.611570",
    "geom:latitude": 37.259488952028114,
    "geom:longitude": -122.14565061858049,
    "src:alt_label": "swim-approach",
    "src:geom": "swim",
    "swim:elevations": [
      4713,
      4579,
      4289,
      3794,
      3715,
      3575,
      3535,
      3504,
      3475,
      3442,
      3368,
      3067,
      2978,
      2836,
      2833,
      2608,
      2490,
      2312,
      2123,
      1969,
      1832,
      1671,
      1565,
      1407,
      1220,
      1119,
      913,
      914,
      695,
      555,
      425,
      334,
      175,
      83,
      46
    ],
    "swim:geom": "approach",
    "swim:timestamps": [
      1777014003,
      1777014014,
      1777014040,
      1777014087,
      1777014096,
      1777014147,
      1777014168,
      1777014185,
      1777014201,
      1777014213,
      1777014242,
      1777014287,
      1777014300,
      1777014325,
      1777014331,
      1777014366,
      1777014387,
      1777014410,
      1777014441,
      1777014476,
      1777014504,
      1777014538,
      1777014559,
      1777014590,
      1777014621,
      1777014643,
      1777014688,
      1777014700,
      1777014748,
      1777014773,
      1777014803,
      1777014823,
      1777014866,
      1777014891,
      1777014901
    ],
    "wof:geomhash": "473244716ac7f7ee5ba1683c36c5cf48",
    "wof:id": 2031099481,
    "wof:repo": "sfomuseum-data-flights-2026-04"
  },
  "bbox": [
    -122.35253,
    36.86783,
    -121.92977,
    37.61157
  ],
  "geometry": {"coordinates":[[-121.92977,36.86783],[-121.93486,36.88599],[-121.94625,36.92768],[-121.97207,37.00274],[-121.98058,37.01506],[-122.05989,37.04997],[-122.09189,37.06133],[-122.11708,37.0703],[-122.13982,37.07834],[-122.15606,37.08418],[-122.19294,37.09726],[-122.22292,37.13929],[-122.22713,37.1539],[-122.23473,37.18146],[-122.23665,37.18812],[-122.24768,37.22611],[-122.24032,37.24846],[-122.22627,37.27245],[-122.20848,37.30427],[-122.18833,37.34059],[-122.17255,37.36877],[-122.15361,37.40283],[-122.14284,37.42297],[-122.12601,37.45344],[-122.11285,37.48388],[-122.12504,37.50438],[-122.16704,37.53367],[-122.1809,37.5393],[-122.23207,37.5609],[-122.25683,37.57136],[-122.28176,37.58186],[-122.29573,37.58768],[-122.32762,37.60109],[-122.34596,37.60886],[-122.35253,37.61157]],"type":"LineString"}
}
