{
  "id": 2015351287,
  "type": "Feature",
  "properties": {
    "geom:area": 0,
    "geom:bbox": "-122.378889,37.670278,-87.366667,43.390833",
    "geom:latitude": 42.04181077166348,
    "geom:longitude": -104.9137787028724,
    "src:alt_label": "swim-path",
    "src:geom": "swim",
    "swim:altitudes": [
      "032",
      "167",
      "167",
      "203",
      "203",
      "236",
      "236",
      "236",
      "280",
      "280",
      "297",
      "297",
      "322",
      "322",
      "322",
      "330C",
      "330C",
      "330C",
      "330C",
      "330C",
      "330C",
      "330C",
      "330C",
      "330C",
      "330C",
      "330C",
      "330C",
      "330C",
      "330C",
      "330C",
      "330C",
      "330C",
      "330C",
      "330C",
      "330C",
      "330C",
      "330C",
      "330C",
      "330C",
      "330C",
      "330C",
      "330C",
      "330C",
      "330C",
      "330C",
      "330C",
      "330C",
      "330C",
      "330C",
      "330C",
      "330C",
      "330C",
      "330C",
      "330C",
      "330C",
      "330C",
      "330C",
      "330C",
      "330C",
      "330C",
      "330C",
      "330C",
      "330C",
      "330C",
      "330C",
      "330C",
      "330C",
      "330C",
      "330C",
      "330C",
      "330C",
      "330C",
      "330C",
      "330C",
      "330C",
      "330C",
      "330C",
      "330C",
      "330C",
      "330C",
      "330C",
      "330C",
      "330C",
      "330C",
      "330C",
      "330C",
      "330C",
      "330C",
      "330C",
      "330C",
      "330C",
      "330C",
      "330C",
      "330C",
      "330C",
      "330C",
      "330C",
      "330C",
      "330C",
      "330C",
      "338",
      "338",
      "342",
      "342",
      "348C",
      "348C",
      "348C",
      "348C",
      "350C",
      "350C",
      "350C",
      "350C",
      "350C",
      "350C",
      "350C",
      "350C",
      "350C",
      "350C",
      "350C",
      "350C",
      "350C",
      "350C",
      "350C",
      "350C",
      "350C",
      "350C",
      "350C",
      "350C",
      "350C",
      "350C",
      "350C",
      "350C",
      "350C",
      "350C",
      "350C",
      "350C",
      "350C",
      "350C",
      "350C",
      "350C",
      "350C",
      "350C",
      "350C",
      "350C",
      "350C",
      "350C",
      "350C",
      "350C",
      "350C",
      "350C",
      "350C",
      "350C",
      "350C",
      "350C",
      "350C",
      "350C",
      "350C",
      "350C",
      "350C",
      "350C",
      "350C",
      "350C",
      "350C",
      "350C",
      "350C",
      "350C",
      "350C",
      "350C",
      "350C",
      "350C",
      "350C",
      "350C",
      "350C",
      "350C",
      "350C",
      "350C",
      "350C",
      "350C",
      "350C",
      "350C",
      "350C",
      "350C",
      "350C",
      "350C",
      "350C",
      "350C",
      "350C",
      "350C",
      "350C",
      "350C",
      "350C",
      "350C",
      "350C",
      "350C",
      "350C",
      "350C",
      "350C",
      "350C",
      "350C",
      "350C",
      "350C",
      "350C",
      "350C",
      "350C",
      "350C",
      "350C",
      "350C",
      "350C",
      "350C",
      "350C",
      "350C",
      "350C",
      "350C",
      "350C",
      "350C",
      "350C",
      "350C",
      "350C",
      "350C",
      "350C",
      "350C",
      "350",
      "350",
      "350",
      "350",
      "350",
      "350",
      "342",
      "342",
      "310C",
      "310C",
      "310C",
      "310C",
      "310C",
      "310C",
      "310C",
      "310C",
      "278",
      "243",
      "243",
      "222",
      "222",
      "206",
      "189",
      "172",
      "172",
      "113",
      "110",
      "110",
      "110",
      "110",
      "110",
      "110",
      "100",
      "089",
      "086",
      "081",
      "073",
      "070",
      "070",
      "060",
      "060",
      "050",
      "041",
      "039",
      "039",
      "024",
      "024",
      "024",
      "014",
      "006",
      "006"
    ],
    "swim:geom": "path",
    "swim:speeds": [
      205,
      412,
      412,
      433,
      433,
      443,
      443,
      443,
      450,
      450,
      469,
      469,
      483,
      483,
      483,
      490,
      490,
      484,
      484,
      484,
      477,
      477,
      483,
      487,
      487,
      496,
      496,
      496,
      494,
      494,
      494,
      494,
      482,
      482,
      482,
      482,
      481,
      481,
      481,
      481,
      480,
      480,
      479,
      479,
      479,
      480,
      480,
      480,
      480,
      481,
      481,
      481,
      481,
      482,
      482,
      482,
      482,
      482,
      482,
      482,
      482,
      482,
      480,
      480,
      481,
      481,
      479,
      479,
      477,
      477,
      477,
      476,
      476,
      476,
      476,
      476,
      476,
      476,
      476,
      476,
      475,
      475,
      475,
      473,
      473,
      473,
      473,
      474,
      474,
      474,
      479,
      475,
      475,
      475,
      481,
      481,
      483,
      484,
      484,
      484,
      485,
      485,
      483,
      483,
      482,
      482,
      482,
      482,
      482,
      485,
      485,
      485,
      485,
      485,
      485,
      485,
      485,
      485,
      485,
      485,
      486,
      486,
      486,
      486,
      486,
      486,
      486,
      486,
      486,
      487,
      487,
      487,
      487,
      487,
      487,
      488,
      488,
      488,
      488,
      488,
      488,
      490,
      490,
      490,
      491,
      491,
      490,
      490,
      490,
      490,
      490,
      490,
      489,
      489,
      490,
      490,
      490,
      490,
      490,
      491,
      491,
      491,
      491,
      491,
      490,
      490,
      490,
      490,
      490,
      490,
      490,
      490,
      490,
      491,
      491,
      491,
      491,
      492,
      492,
      492,
      492,
      492,
      492,
      492,
      492,
      492,
      493,
      493,
      493,
      493,
      493,
      492,
      492,
      492,
      492,
      492,
      492,
      492,
      492,
      492,
      489,
      489,
      489,
      488,
      485,
      484,
      481,
      481,
      479,
      478,
      478,
      478,
      478,
      479,
      477,
      479,
      479,
      481,
      481,
      481,
      482,
      483,
      483,
      484,
      484,
      484,
      482,
      481,
      481,
      501,
      505,
      505,
      509,
      509,
      509,
      516,
      516,
      513,
      486,
      486,
      417,
      417,
      397,
      391,
      379,
      379,
      387,
      367,
      374,
      374,
      380,
      380,
      376,
      317,
      292,
      295,
      291,
      240,
      233,
      233,
      234,
      234,
      186,
      164,
      161,
      161,
      158,
      158,
      158,
      145,
      145,
      145
    ],
    "swim:timestamps": [
      1776807357,
      1776807777,
      1776807777,
      1776807897,
      1776807897,
      1776808017,
      1776808017,
      1776808017,
      1776808198,
      1776808198,
      1776808318,
      1776808318,
      1776808438,
      1776808438,
      1776808438,
      1776808618,
      1776808618,
      1776808679,
      1776808679,
      1776808679,
      1776808798,
      1776808798,
      1776808858,
      1776808918,
      1776808918,
      1776809220,
      1776809220,
      1776809220,
      1776809339,
      1776809339,
      1776809339,
      1776809339,
      1776809580,
      1776809580,
      1776809580,
      1776809580,
      1776809941,
      1776809941,
      1776809941,
      1776809941,
      1776810121,
      1776810121,
      1776810181,
      1776810181,
      1776810181,
      1776810361,
      1776810361,
      1776810361,
      1776810361,
      1776810541,
      1776810541,
      1776810541,
      1776810541,
      1776810722,
      1776810722,
      1776810722,
      1776811202,
      1776811202,
      1776811202,
      1776811262,
      1776811262,
      1776811262,
      1776811563,
      1776811563,
      1776811623,
      1776811623,
      1776811683,
      1776811683,
      1776811743,
      1776811743,
      1776811743,
      1776811863,
      1776811863,
      1776811863,
      1776811863,
      1776811923,
      1776811923,
      1776811923,
      1776812103,
      1776812103,
      1776812163,
      1776812163,
      1776812163,
      1776812344,
      1776812344,
      1776812404,
      1776812404,
      1776812464,
      1776812464,
      1776812464,
      1776812504,
      1776812524,
      1776812524,
      1776812524,
      1776812644,
      1776812644,
      1776812704,
      1776812764,
      1776812764,
      1776812764,
      1776812985,
      1776812985,
      1776813005,
      1776813005,
      1776813045,
      1776813045,
      1776813045,
      1776813045,
      1776813065,
      1776813165,
      1776813185,
      1776813185,
      1776813225,
      1776813305,
      1776813305,
      1776813305,
      1776813365,
      1776813365,
      1776813485,
      1776813485,
      1776813526,
      1776813526,
      1776813545,
      1776813646,
      1776813646,
      1776813706,
      1776813706,
      1776813706,
      1776813706,
      1776813946,
      1776813946,
      1776814006,
      1776814006,
      1776814006,
      1776814006,
      1776814066,
      1776814126,
      1776814126,
      1776814126,
      1776814186,
      1776814186,
      1776814487,
      1776814487,
      1776814487,
      1776814547,
      1776814547,
      1776814607,
      1776814607,
      1776814667,
      1776814727,
      1776814727,
      1776814727,
      1776814772,
      1776814772,
      1776814787,
      1776814787,
      1776814907,
      1776814952,
      1776814968,
      1776815012,
      1776815012,
      1776815012,
      1776815072,
      1776815072,
      1776815132,
      1776815132,
      1776815253,
      1776815268,
      1776815313,
      1776815313,
      1776815313,
      1776815313,
      1776815328,
      1776815388,
      1776815388,
      1776815448,
      1776815448,
      1776815508,
      1776815553,
      1776815568,
      1776815568,
      1776815613,
      1776815628,
      1776815628,
      1776815628,
      1776815689,
      1776815733,
      1776815733,
      1776815749,
      1776815793,
      1776815793,
      1776816034,
      1776816034,
      1776816154,
      1776816154,
      1776816154,
      1776816334,
      1776816334,
      1776816454,
      1776816454,
      1776816695,
      1776816695,
      1776816695,
      1776816815,
      1776816935,
      1776816995,
      1776817115,
      1776817115,
      1776817275,
      1776817296,
      1776817296,
      1776817296,
      1776817356,
      1776817395,
      1776817476,
      1776817536,
      1776817536,
      1776817636,
      1776817636,
      1776817716,
      1776817836,
      1776817897,
      1776817957,
      1776818017,
      1776818017,
      1776818077,
      1776818257,
      1776818297,
      1776818297,
      1776818477,
      1776818497,
      1776818497,
      1776818558,
      1776818558,
      1776818558,
      1776818678,
      1776818678,
      1776818798,
      1776818898,
      1776818898,
      1776819018,
      1776819018,
      1776819078,
      1776819138,
      1776819198,
      1776819198,
      1776819379,
      1776819420,
      1776819556,
      1776819556,
      1776819676,
      1776819676,
      1776819715,
      1776819796,
      1776819895,
      1776819917,
      1776819977,
      1776820135,
      1776820195,
      1776820195,
      1776820277,
      1776820277,
      1776820337,
      1776820381,
      1776820397,
      1776820397,
      1776820501,
      1776820501,
      1776820501,
      1776820578,
      1776820638,
      1776820638
    ],
    "wof:geomhash": "d3668e8aa90046d9509753ebc71746ac",
    "wof:id": 2015351287,
    "wof:repo": "sfomuseum-data-flights-2026-04"
  },
  "bbox": [
    -122.37888888888888,
    37.67027777777778,
    -87.36666666666666,
    43.39083333333333
  ],
  "geometry": {"coordinates":[[-122.37888888888888,37.67027777777778],[-121.7961111111111,38.10777777777778],[-121.7961111111111,38.10777777777778],[-121.61666666666666,38.30305555555555],[-121.61666666666666,38.30305555555555],[-121.3963888888889,38.473888888888894],[-121.3963888888889,38.473888888888894],[-121.3963888888889,38.473888888888894],[-121.02416666666666,38.684999999999995],[-121.02416666666666,38.684999999999995],[-120.75138888888888,38.83305555555556],[-120.75138888888888,38.83305555555556],[-120.4725,38.99055555555556],[-120.4725,38.99055555555556],[-120.4725,38.99055555555556],[-120.03777777777778,39.227222222222224],[-120.03777777777778,39.227222222222224],[-119.89694444444446,39.30305555555555],[-119.89694444444446,39.30305555555555],[-119.89694444444446,39.30305555555555],[-119.61388888888888,39.45472222222222],[-119.61388888888888,39.45472222222222],[-119.47111111111111,39.53055555555555],[-119.3236111111111,39.60888888888889],[-119.3236111111111,39.60888888888889],[-118.56694444444445,39.978611111111114],[-118.56694444444445,39.978611111111114],[-118.56694444444445,39.978611111111114],[-118.24972222222222,40.10666666666667],[-118.24972222222222,40.10666666666667],[-118.24972222222222,40.10666666666667],[-118.24972222222222,40.10666666666667],[-117.61138888888888,40.321111111111115],[-117.61138888888888,40.321111111111115],[-117.61138888888888,40.321111111111115],[-117.61138888888888,40.321111111111115],[-116.615,40.611666666666665],[-116.615,40.611666666666665],[-116.615,40.611666666666665],[-116.615,40.611666666666665],[-116.12277777777777,40.75111111111111],[-116.12277777777777,40.75111111111111],[-115.95805555555556,40.79722222222222],[-115.95805555555556,40.79722222222222],[-115.95805555555556,40.79722222222222],[-115.46194444444444,40.93416666666666],[-115.46194444444444,40.93416666666666],[-115.46194444444444,40.93416666666666],[-115.46194444444444,40.93416666666666],[-114.96444444444445,41.06861111111112],[-114.96444444444445,41.06861111111112],[-114.96444444444445,41.06861111111112],[-114.96444444444445,41.06861111111112],[-114.45138888888889,41.20472222222222],[-114.45138888888889,41.20472222222222],[-114.45138888888889,41.20472222222222],[-113.09944444444444,41.55888888888889],[-113.09944444444444,41.55888888888889],[-113.09944444444444,41.55888888888889],[-112.93,41.60277777777778],[-112.93,41.60277777777778],[-112.93,41.60277777777778],[-112.08333333333333,41.81777777777778],[-112.08333333333333,41.81777777777778],[-111.91194444444444,41.858333333333334],[-111.91194444444444,41.858333333333334],[-111.73972222222223,41.8925],[-111.73972222222223,41.8925],[-111.5675,41.924166666666665],[-111.5675,41.924166666666665],[-111.5675,41.924166666666665],[-111.2213888888889,41.98722222222222],[-111.2213888888889,41.98722222222222],[-111.2213888888889,41.98722222222222],[-111.2213888888889,41.98722222222222],[-111.05083333333333,42.018055555555556],[-111.05083333333333,42.018055555555556],[-111.05083333333333,42.018055555555556],[-110.54916666666666,42.10777777777778],[-110.54916666666666,42.10777777777778],[-110.37777777777777,42.13777777777778],[-110.37777777777777,42.13777777777778],[-110.37777777777777,42.13777777777778],[-109.85888888888888,42.22694444444445],[-109.85888888888888,42.22694444444445],[-109.6863888888889,42.255833333333335],[-109.6863888888889,42.255833333333335],[-109.51222222222222,42.285],[-109.51222222222222,42.285],[-109.51222222222222,42.285],[-109.40666666666667,42.30222222222222],[-109.33611111111111,42.314166666666665],[-109.33611111111111,42.314166666666665],[-109.33611111111111,42.314166666666665],[-108.98277777777778,42.37138888888889],[-108.98277777777778,42.37138888888889],[-108.80361111111111,42.400277777777774],[-108.6236111111111,42.42861111111111],[-108.6236111111111,42.42861111111111],[-108.6236111111111,42.42861111111111],[-107.98138888888889,42.52777777777778],[-107.98138888888889,42.52777777777778],[-107.90861111111111,42.538888888888884],[-107.90861111111111,42.538888888888884],[-107.80416666666666,42.55444444444444],[-107.80416666666666,42.55444444444444],[-107.80416666666666,42.55444444444444],[-107.80416666666666,42.55444444444444],[-107.73166666666667,42.56527777777777],[-107.44638888888889,42.6075],[-107.37388888888889,42.61833333333333],[-107.37388888888889,42.61833333333333],[-107.26638888888888,42.63388888888889],[-107.01388888888889,42.669999999999995],[-107.01388888888889,42.669999999999995],[-107.01388888888889,42.669999999999995],[-106.85249999999999,42.69277777777778],[-106.85249999999999,42.69277777777778],[-106.49222222222222,42.74305555555556],[-106.49222222222222,42.74305555555556],[-106.34888888888888,42.7625],[-106.34888888888888,42.7625],[-106.31333333333333,42.76722222222222],[-105.98861111111111,42.81083333333333],[-105.98861111111111,42.81083333333333],[-105.8086111111111,42.834722222222226],[-105.8086111111111,42.834722222222226],[-105.8086111111111,42.834722222222226],[-105.8086111111111,42.834722222222226],[-105.07944444444443,42.92805555555555],[-105.07944444444443,42.92805555555555],[-104.89555555555556,42.950833333333335],[-104.89555555555556,42.950833333333335],[-104.89555555555556,42.950833333333335],[-104.89555555555556,42.950833333333335],[-104.71166666666667,42.973333333333336],[-104.52666666666667,42.995555555555555],[-104.52666666666667,42.995555555555555],[-104.52666666666667,42.995555555555555],[-104.3436111111111,43.01722222222222],[-104.3436111111111,43.01722222222222],[-103.42083333333333,43.121944444444445],[-103.42083333333333,43.121944444444445],[-103.42083333333333,43.121944444444445],[-103.2375,43.14194444444444],[-103.2375,43.14194444444444],[-103.05499999999999,43.16138888888889],[-103.05499999999999,43.16138888888889],[-102.86777777777777,43.18111111111111],[-102.68527777777778,43.2],[-102.68527777777778,43.2],[-102.68527777777778,43.2],[-102.54666666666667,43.21416666666667],[-102.54666666666667,43.21416666666667],[-102.49916666666667,43.219166666666666],[-102.49916666666667,43.219166666666666],[-102.1325,43.25527777777778],[-101.99166666666667,43.26916666666666],[-101.94694444444445,43.27333333333333],[-101.80555555555556,43.286944444444444],[-101.80555555555556,43.286944444444444],[-101.80555555555556,43.286944444444444],[-101.62388888888889,43.303888888888885],[-101.62388888888889,43.303888888888885],[-101.43666666666667,43.321111111111115],[-101.43666666666667,43.321111111111115],[-101.07055555555556,43.35416666666667],[-101.03083333333333,43.3575],[-100.88222222222221,43.36611111111111],[-100.88222222222221,43.36611111111111],[-100.88222222222221,43.36611111111111],[-100.88222222222221,43.36611111111111],[-100.84472222222222,43.3675],[-100.65777777777778,43.37166666666667],[-100.65777777777778,43.37166666666667],[-100.47194444444445,43.37444444444444],[-100.47194444444445,43.37444444444444],[-100.28277777777778,43.37722222222222],[-100.13416666666667,43.37916666666667],[-100.09666666666666,43.37972222222222],[-100.09666666666666,43.37972222222222],[-99.94805555555556,43.38166666666667],[-99.91083333333334,43.382222222222225],[-99.91083333333334,43.382222222222225],[-99.91083333333334,43.382222222222225],[-99.72277777777778,43.38444444444444],[-99.57444444444444,43.38583333333333],[-99.57444444444444,43.38583333333333],[-99.5363888888889,43.38638888888889],[-99.38444444444445,43.3875],[-99.38444444444445,43.3875],[-98.65111111111112,43.39083333333333],[-98.65111111111112,43.39083333333333],[-98.27694444444444,43.39055555555556],[-98.27694444444444,43.39055555555556],[-98.27694444444444,43.39055555555556],[-97.71472222222222,43.388333333333335],[-97.71472222222222,43.388333333333335],[-97.34194444444444,43.385],[-97.34194444444444,43.385],[-96.5975,43.375],[-96.5975,43.375],[-96.5975,43.375],[-96.19250000000001,43.3675],[-95.82277777777777,43.35944444444445],[-95.64,43.355000000000004],[-95.27361111111111,43.34527777777778],[-95.27361111111111,43.34527777777778],[-94.81,43.330555555555556],[-94.72972222222222,43.328611111111115],[-94.72972222222222,43.328611111111115],[-94.72972222222222,43.328611111111115],[-94.54833333333333,43.322500000000005],[-94.44833333333334,43.31722222222223],[-94.19250000000001,43.309444444444445],[-94.01305555555555,43.29472222222222],[-94.01305555555555,43.29472222222222],[-93.72027777777778,43.271388888888886],[-93.72027777777778,43.271388888888886],[-93.46666666666667,43.25138888888889],[-93.10138888888888,43.22138888888889],[-92.91861111111112,43.20583333333334],[-92.73666666666666,43.19],[-92.55305555555556,43.17361111111111],[-92.55305555555556,43.17361111111111],[-92.37194444444444,43.157222222222224],[-91.8236111111111,43.10583333333334],[-91.71527777777779,43.09527777777778],[-91.71527777777779,43.09527777777778],[-91.165,43.01555555555556],[-91.09472222222222,42.99111111111111],[-91.09472222222222,42.99111111111111],[-90.91972222222223,42.92916666666667],[-90.91972222222223,42.92916666666667],[-90.91972222222223,42.92916666666667],[-90.56722222222221,42.80444444444444],[-90.56722222222221,42.80444444444444],[-90.25138888888888,42.69138888888889],[-89.9475,42.58083333333334],[-89.9475,42.58083333333334],[-89.66416666666667,42.50416666666667],[-89.66416666666667,42.50416666666667],[-89.51777777777778,42.48638888888889],[-89.37222222222222,42.468611111111116],[-89.23361111111112,42.45166666666667],[-89.23361111111112,42.45166666666667],[-88.7863888888889,42.394999999999996],[-88.68333333333334,42.38333333333333],[-88.38,42.33444444444444],[-88.38,42.33444444444444],[-88.1613888888889,42.20472222222222],[-88.1613888888889,42.20472222222222],[-88.08333333333333,42.166666666666664],[-87.94805555555556,42.08916666666667],[-87.76666666666667,42.06666666666667],[-87.72833333333334,42.073055555555555],[-87.62027777777777,42.07638888888889],[-87.36666666666666,42.03333333333333],[-87.41666666666667,41.983333333333334],[-87.41666666666667,41.983333333333334],[-87.52916666666667,41.988055555555555],[-87.52916666666667,41.988055555555555],[-87.60388888888889,41.98777777777778],[-87.65,41.983333333333334],[-87.665,41.988055555555555],[-87.665,41.988055555555555],[-87.76666666666667,41.983333333333334],[-87.76666666666667,41.983333333333334],[-87.76666666666667,41.983333333333334],[-87.84138888888889,41.98833333333334],[-87.89472222222223,41.98833333333334],[-87.89472222222223,41.98833333333334]],"type":"LineString"}
}
