{
  "id": 2031126113,
  "type": "Feature",
  "properties": {
    "geom:area": 0,
    "geom:bbox": "-122.359350,37.408590,-121.256730,37.614330",
    "geom:latitude": 37.528624311157735,
    "geom:longitude": -121.81447766633444,
    "src:alt_label": "swim-approach",
    "src:geom": "swim",
    "swim:elevations": [
      5160,
      4803,
      4492,
      4142,
      3906,
      3710,
      3472,
      3377,
      3294,
      3057,
      2954,
      2837,
      2774,
      2774,
      2774,
      2774,
      2770,
      2742,
      2552,
      2508,
      2433,
      2269,
      2149,
      2116,
      2003,
      1973,
      1790,
      1658,
      1548,
      1470,
      1246,
      1153,
      1013,
      887,
      787,
      593,
      541,
      501,
      432,
      287,
      132,
      89,
      3
    ],
    "swim:geom": "approach",
    "swim:timestamps": [
      1777323517,
      1777323553,
      1777323584,
      1777323616,
      1777323641,
      1777323664,
      1777323710,
      1777323724,
      1777323740,
      1777323778,
      1777323800,
      1777323821,
      1777323862,
      1777323879,
      1777323924,
      1777323927,
      1777323930,
      1777323973,
      1777324005,
      1777324017,
      1777324026,
      1777324051,
      1777324075,
      1777324081,
      1777324107,
      1777324115,
      1777324158,
      1777324176,
      1777324204,
      1777324233,
      1777324283,
      1777324315,
      1777324343,
      1777324370,
      1777324392,
      1777324438,
      1777324444,
      1777324460,
      1777324476,
      1777324513,
      1777324554,
      1777324563,
      1777324585
    ],
    "wof:geomhash": "890a7353ebe43b551162f9bb8687926f",
    "wof:id": 2031126113,
    "wof:repo": "sfomuseum-data-flights-2026-04"
  },
  "bbox": [
    -122.35935,
    37.40859,
    -121.25673,
    37.61433
  ],
  "geometry": {"coordinates":[[-121.25673,37.5937],[-121.31947,37.58607],[-121.37317,37.58012],[-121.42947,37.57379],[-121.47244,37.56868],[-121.51184,37.56401],[-121.58547,37.55645],[-121.60499,37.5592],[-121.62682,37.56312],[-121.67916,37.5729],[-121.70896,37.57853],[-121.73867,37.58396],[-121.78391,37.56281],[-121.78985,37.54454],[-121.78554,37.4942],[-121.78503,37.49085],[-121.78454,37.4875],[-121.77931,37.43971],[-121.80814,37.41451],[-121.82518,37.41212],[-121.83784,37.41088],[-121.87296,37.40859],[-121.9029,37.41958],[-121.90983,37.42299],[-121.93971,37.43722],[-121.94891,37.44114],[-121.99625,37.46106],[-122.01489,37.46889],[-122.04318,37.48097],[-122.07089,37.49277],[-122.12068,37.5139],[-122.14857,37.52555],[-122.1728,37.53591],[-122.19639,37.54595],[-122.2154,37.55395],[-122.25158,37.56918],[-122.25612,37.5711],[-122.26835,37.57622],[-122.28006,37.58114],[-122.30677,37.59232],[-122.33629,37.60476],[-122.34287,37.6076],[-122.35935,37.61433]],"type":"LineString"}
}
