{
  "id": 2031148581,
  "type": "Feature",
  "properties": {
    "geom:area": 0,
    "geom:bbox": "-122.380000,33.640000,-84.280000,38.250000",
    "geom:latitude": 36.78893645846307,
    "geom:longitude": -103.10483601208821,
    "src:alt_label": "swim-route",
    "src:geom": "swim",
    "swim:geom": "route",
    "wof:geomhash": "09ef93061bfa75b94c2e640e72605d75",
    "wof:id": 2031148581,
    "wof:repo": "sfomuseum-data-flights-2026-04"
  },
  "bbox": [
    -122.38,
    33.64,
    -84.28,
    38.25
  ],
  "geometry": {"coordinates":[[-84.43,33.64],[-84.28,33.68],[-84.28,33.81],[-84.53,33.81],[-84.62,33.82],[-84.62,33.82],[-85.19,33.82],[-85.2,33.82],[-85.42,33.83],[-85.65,33.84],[-86.04,33.95],[-86.27,34.02],[-86.62,34.12],[-87.1,34.25],[-87.11,34.26],[-87.45,34.35],[-87.92,34.48],[-88.1,34.53],[-88.27,34.57],[-88.6,34.66],[-88.61,34.66],[-89.19,34.81],[-89.6,34.92],[-89.66,34.93],[-89.98,35.02],[-90.01,35.02],[-90.19,35.07],[-90.36,35.12],[-90.72,35.22],[-90.8,35.24],[-91.1,35.32],[-91.26,35.36],[-91.28,35.37],[-91.45,35.41],[-91.69,35.47],[-91.76,35.49],[-91.86,35.52],[-92.09,35.58],[-92.24,35.62],[-92.28,35.63],[-92.52,35.68],[-92.66,35.72],[-92.68,35.73],[-92.94,35.79],[-93.09,35.83],[-93.1,35.83],[-93.34,35.89],[-93.53,35.93],[-93.54,35.94],[-93.7,35.97],[-94.01,36.05],[-94.22,36.1],[-94.25,36.11],[-94.46,36.15],[-94.9,36.26],[-95.27,36.34],[-95.74,36.44],[-96.59,36.63],[-97.16,36.75],[-97.74,36.8],[-99.93,36.98],[-100.97,37.04],[-101.74,37.14],[-102.32,37.21],[-103.16,37.31],[-106.21,37.61],[-108.93,37.81],[-109.08,37.82],[-110.55,37.97],[-112.35,38.12],[-114.02,38.23],[-114.39,38.25],[-117.27,38.12],[-117.27,38.12],[-117.77,38],[-119.1,37.86],[-119.69,37.79],[-119.97,37.75],[-120.06,37.74],[-120.15,37.73],[-120.24,37.72],[-120.4,37.7],[-120.48,37.69],[-120.55,37.68],[-120.67,37.67],[-120.69,37.67],[-120.75,37.66],[-120.85,37.65],[-120.85,37.65],[-120.96,37.63],[-121,37.63],[-121.03,37.62],[-121.09,37.62],[-121.18,37.6],[-121.26,37.59],[-121.39,37.58],[-121.41,37.58],[-121.6,37.55],[-121.61,37.55],[-121.62,37.55],[-121.7,37.53],[-121.8,37.51],[-121.84,37.5],[-121.88,37.49],[-121.94,37.51],[-122.08,37.54],[-122.12,37.55],[-122.18,37.57],[-122.28,37.59],[-122.33,37.61],[-122.36,37.61],[-122.38,37.62]],"type":"LineString"}
}
