{
  "id": 2015312723,
  "type": "Feature",
  "properties": {
    "geom:area": 0,
    "geom:bbox": "-122.353490,36.737330,-121.888250,37.609650",
    "geom:latitude": 37.21584498304453,
    "geom:longitude": -122.07583866153118,
    "src:alt_label": "swim-approach",
    "src:geom": "swim",
    "swim:elevations": [
      5527,
      5238,
      4987,
      4883,
      4608,
      4478,
      4147,
      4136,
      3974,
      3789,
      3470,
      3402,
      3171,
      2919,
      2671,
      2412,
      2228,
      2043,
      1825,
      1773,
      1697,
      1551,
      1399,
      1341,
      1314,
      1284,
      1250,
      1095,
      904,
      662,
      489,
      457,
      311,
      245,
      53
    ],
    "swim:geom": "approach",
    "swim:timestamps": [
      1776449988,
      1776450024,
      1776450050,
      1776450061,
      1776450104,
      1776450126,
      1776450178,
      1776450184,
      1776450203,
      1776450225,
      1776450263,
      1776450272,
      1776450300,
      1776450345,
      1776450380,
      1776450412,
      1776450436,
      1776450461,
      1776450500,
      1776450514,
      1776450529,
      1776450560,
      1776450593,
      1776450617,
      1776450635,
      1776450657,
      1776450680,
      1776450715,
      1776450741,
      1776450775,
      1776450802,
      1776450813,
      1776450849,
      1776450870,
      1776450923
    ],
    "wof:geomhash": "47a4e928c8a61986dc064600522ea074",
    "wof:id": 2015312723,
    "wof:repo": "sfomuseum-data-flights-2026-04"
  },
  "bbox": [
    -122.35349,
    36.73733,
    -121.88825,
    37.60965
  ],
  "geometry": {"coordinates":[[-121.88825,36.73733],[-121.9086,36.79436],[-121.92021,36.83501],[-121.92511,36.85229],[-121.94316,36.91571],[-121.95123,36.94552],[-121.97579,37.01033],[-121.97866,37.01747],[-121.98684,37.03837],[-121.99639,37.0628],[-122.0125,37.10424],[-122.01634,37.11393],[-122.02819,37.1444],[-122.04656,37.1904],[-122.0801,37.21614],[-122.10645,37.24113],[-122.10984,37.2666],[-122.11353,37.29299],[-122.1193,37.33314],[-122.12153,37.34773],[-122.12426,37.36462],[-122.13047,37.39666],[-122.13951,37.43089],[-122.14798,37.4565],[-122.15455,37.47353],[-122.16091,37.49435],[-122.16719,37.51446],[-122.18765,37.53897],[-122.21058,37.54976],[-122.24023,37.56183],[-122.26317,37.57162],[-122.27157,37.5752],[-122.2994,37.58691],[-122.31504,37.59347],[-122.35349,37.60965]],"type":"LineString"}
}
