{
  "id": 2015208019,
  "type": "Feature",
  "properties": {
    "geom:area": 0,
    "geom:bbox": "-122.529900,37.627060,-121.261700,38.147000",
    "geom:latitude": 37.93482574145814,
    "geom:longitude": -121.99000483914864,
    "src:alt_label": "swim-takeoff",
    "src:geom": "swim",
    "swim:elevations": [
      152,
      563,
      1005,
      1278,
      1489,
      2075,
      2665,
      2911,
      3236,
      3483,
      3723,
      4015,
      4556,
      4690,
      5389,
      5686,
      5999,
      6290,
      6686,
      7248,
      7546,
      7796,
      7901,
      8040,
      8435,
      8566,
      9033,
      9111
    ],
    "swim:geom": "takeoff",
    "swim:timestamps": [
      1775340769,
      1775340799,
      1775340831,
      1775340864,
      1775340882,
      1775340922,
      1775340953,
      1775340965,
      1775340988,
      1775341016,
      1775341047,
      1775341071,
      1775341106,
      1775341114,
      1775341162,
      1775341187,
      1775341209,
      1775341232,
      1775341265,
      1775341314,
      1775341340,
      1775341365,
      1775341374,
      1775341385,
      1775341426,
      1775341441,
      1775341498,
      1775341510
    ],
    "wof:geomhash": "2ee8d66d8549eca518cc9b0b0e896fb7",
    "wof:id": 2015208019,
    "wof:repo": "sfomuseum-data-flights-2026-04"
  },
  "bbox": [
    -122.5299,
    37.62706,
    -121.2617,
    38.147
  ],
  "geometry": {"coordinates":[[-122.39508,37.62706],[-122.42369,37.63901],[-122.45378,37.65214],[-122.491,37.66833],[-122.51386,37.68002],[-122.5299,37.72949],[-122.52769,37.77126],[-122.52419,37.78804],[-122.50169,37.81317],[-122.45603,37.83063],[-122.39691,37.8482],[-122.34546,37.86143],[-122.27084,37.88159],[-122.25277,37.88645],[-122.14467,37.91567],[-122.08713,37.93115],[-122.03547,37.94496],[-121.9814,37.95924],[-121.9003,37.98072],[-121.77844,38.01292],[-121.71238,38.03028],[-121.64866,38.04665],[-121.62525,38.05292],[-121.5982,38.06031],[-121.49016,38.08845],[-121.44969,38.09837],[-121.29499,38.13844],[-121.2617,38.147]],"type":"LineString"}
}
