{
  "id": 2031125763,
  "type": "Feature",
  "properties": {
    "geom:area": 0,
    "geom:bbox": "-124.308333,37.405000,-122.166667,47.437222",
    "geom:latitude": 42.20494560660768,
    "geom:longitude": -123.18554894960941,
    "src:alt_label": "swim-path",
    "src:geom": "swim",
    "swim:altitudes": [
      "009",
      "030",
      "030",
      "030",
      "040",
      "040",
      "040",
      "105",
      "105",
      "105",
      "105",
      "105",
      "175",
      "175",
      "175",
      "175",
      "175",
      "175",
      "214",
      "214",
      "214",
      "214",
      "214",
      "263",
      "263",
      "263",
      "277",
      "277",
      "277",
      "277",
      "336",
      "336",
      "336",
      "336",
      "336",
      "349C",
      "349C",
      "350C",
      "350C",
      "350C",
      "350C",
      "350C",
      "350C",
      "350C",
      "350C",
      "350C",
      "350C",
      "350C",
      "350C",
      "350C",
      "350C",
      "350C",
      "350C",
      "350C",
      "350C",
      "350C",
      "350C",
      "350C",
      "350C",
      "350C",
      "350C",
      "350C",
      "350C",
      "350C",
      "350C",
      "350C",
      "350C",
      "350C",
      "350C",
      "350C",
      "350C",
      "350C",
      "350C",
      "350C",
      "350C",
      "350C",
      "350C",
      "350C",
      "350C",
      "350C",
      "350C",
      "350C",
      "350C",
      "350C",
      "350C",
      "350C",
      "350C",
      "350C",
      "350C",
      "350C",
      "350C",
      "350C",
      "350C",
      "350C",
      "350C",
      "350C",
      "350C",
      "350C",
      "350C",
      "350C",
      "350C",
      "350C",
      "350C",
      "350C",
      "350C",
      "350C",
      "350C",
      "350C",
      "350C",
      "350C",
      "350C",
      "350C",
      "350C",
      "350C",
      "350C",
      "350C",
      "350C",
      "350C",
      "350C",
      "350C",
      "350C",
      "350C",
      "350C",
      "350C",
      "350C",
      "350C",
      "350C",
      "350C",
      "350C",
      "350C",
      "350C",
      "350C",
      "350C",
      "350C",
      "350C",
      "350C",
      "350C",
      "350C",
      "350C",
      "350C",
      "350C",
      "350C",
      "350C",
      "350C",
      "350C",
      "350C",
      "350C",
      "350C",
      "350C",
      "350C",
      "350C",
      "350C",
      "350C",
      "350C",
      "350C",
      "350C",
      "350C",
      "350C",
      "351C",
      "351C",
      "351C",
      "350C",
      "350C",
      "350C",
      "350C",
      "350C",
      "350C",
      "350C",
      "350C",
      "350C",
      "350C",
      "350C",
      "350C",
      "350C",
      "350C",
      "350C",
      "350C",
      "350C",
      "347",
      "347",
      "347",
      "347",
      "325",
      "325",
      "302",
      "302",
      "302",
      "281",
      "281",
      "281",
      "281",
      "222",
      "222",
      "204",
      "204",
      "204",
      "204",
      "204",
      "176",
      "176",
      "176",
      "136",
      "136",
      "136",
      "136",
      "117",
      "117",
      "116",
      "116",
      "110C",
      "110C",
      "110C",
      "110C",
      "099",
      "099",
      "078",
      "078",
      "078",
      "078",
      "035",
      "035",
      "025",
      "025",
      "015",
      "015",
      "016",
      "008",
      "008",
      "001"
    ],
    "swim:geom": "path",
    "swim:speeds": [
      152,
      211,
      211,
      211,
      215,
      215,
      215,
      276,
      276,
      276,
      276,
      276,
      362,
      362,
      362,
      362,
      362,
      362,
      401,
      401,
      401,
      401,
      401,
      436,
      436,
      436,
      447,
      447,
      447,
      447,
      460,
      460,
      460,
      460,
      460,
      454,
      454,
      455,
      455,
      455,
      455,
      455,
      455,
      455,
      450,
      450,
      449,
      449,
      449,
      450,
      450,
      450,
      450,
      449,
      449,
      449,
      446,
      446,
      446,
      443,
      443,
      443,
      443,
      444,
      444,
      444,
      444,
      444,
      444,
      445,
      445,
      445,
      445,
      445,
      445,
      445,
      445,
      445,
      445,
      444,
      444,
      444,
      444,
      450,
      450,
      450,
      450,
      444,
      444,
      444,
      448,
      448,
      446,
      446,
      444,
      444,
      444,
      446,
      446,
      446,
      447,
      447,
      447,
      447,
      447,
      447,
      447,
      449,
      449,
      449,
      449,
      449,
      449,
      449,
      449,
      449,
      449,
      449,
      449,
      449,
      449,
      449,
      449,
      449,
      449,
      449,
      449,
      449,
      449,
      449,
      449,
      449,
      439,
      439,
      439,
      439,
      419,
      419,
      419,
      415,
      415,
      404,
      404,
      404,
      404,
      404,
      403,
      403,
      404,
      404,
      416,
      416,
      417,
      417,
      417,
      418,
      418,
      418,
      429,
      429,
      429,
      431,
      431,
      431,
      431,
      437,
      437,
      474,
      474,
      474,
      474,
      474,
      470,
      470,
      470,
      470,
      470,
      470,
      471,
      471,
      471,
      471,
      477,
      477,
      481,
      481,
      481,
      468,
      468,
      468,
      468,
      422,
      422,
      409,
      409,
      409,
      409,
      409,
      380,
      380,
      380,
      355,
      355,
      355,
      355,
      352,
      352,
      345,
      345,
      258,
      258,
      258,
      258,
      252,
      252,
      209,
      209,
      209,
      209,
      195,
      195,
      191,
      191,
      175,
      175,
      180,
      130,
      130,
      127
    ],
    "swim:timestamps": [
      1777316404,
      1777316471,
      1777316471,
      1777316471,
      1777316492,
      1777316492,
      1777316492,
      1777316672,
      1777316672,
      1777316672,
      1777316672,
      1777316672,
      1777316852,
      1777316852,
      1777316852,
      1777316852,
      1777316852,
      1777316852,
      1777316972,
      1777316972,
      1777316972,
      1777316972,
      1777316972,
      1777317153,
      1777317153,
      1777317153,
      1777317213,
      1777317213,
      1777317213,
      1777317213,
      1777317453,
      1777317453,
      1777317453,
      1777317453,
      1777317453,
      1777317513,
      1777317513,
      1777317573,
      1777317573,
      1777317633,
      1777317633,
      1777317633,
      1777317633,
      1777317633,
      1777317753,
      1777317753,
      1777317813,
      1777317813,
      1777317813,
      1777317934,
      1777317934,
      1777317934,
      1777317934,
      1777317994,
      1777317994,
      1777317994,
      1777318054,
      1777318054,
      1777318054,
      1777318174,
      1777318174,
      1777318174,
      1777318174,
      1777318234,
      1777318234,
      1777318234,
      1777318234,
      1777318294,
      1777318294,
      1777318354,
      1777318354,
      1777318354,
      1777318354,
      1777318354,
      1777318594,
      1777318594,
      1777318594,
      1777318594,
      1777318594,
      1777318654,
      1777318654,
      1777318654,
      1777318654,
      1777318764,
      1777318764,
      1777318764,
      1777318764,
      1777318775,
      1777318775,
      1777318775,
      1777318884,
      1777318884,
      1777318944,
      1777318944,
      1777318955,
      1777318955,
      1777318955,
      1777319004,
      1777319004,
      1777319004,
      1777319135,
      1777319135,
      1777319135,
      1777319184,
      1777319184,
      1777319184,
      1777319184,
      1777319255,
      1777319305,
      1777319305,
      1777319305,
      1777319315,
      1777319315,
      1777319375,
      1777319375,
      1777319375,
      1777319435,
      1777319435,
      1777319435,
      1777319435,
      1777319555,
      1777319605,
      1777319605,
      1777319665,
      1777319665,
      1777319665,
      1777319665,
      1777319665,
      1777319785,
      1777319785,
      1777319785,
      1777319785,
      1777319976,
      1777319976,
      1777319976,
      1777319976,
      1777320026,
      1777320026,
      1777320026,
      1777320036,
      1777320036,
      1777320086,
      1777320096,
      1777320096,
      1777320096,
      1777320096,
      1777320206,
      1777320206,
      1777320276,
      1777320276,
      1777320326,
      1777320326,
      1777320336,
      1777320336,
      1777320336,
      1777320396,
      1777320396,
      1777320396,
      1777320506,
      1777320506,
      1777320506,
      1777320566,
      1777320566,
      1777320577,
      1777320577,
      1777320637,
      1777320637,
      1777320807,
      1777320807,
      1777320807,
      1777320807,
      1777320807,
      1777320987,
      1777320987,
      1777320987,
      1777320987,
      1777320987,
      1777320987,
      1777321107,
      1777321107,
      1777321107,
      1777321107,
      1777321287,
      1777321287,
      1777321408,
      1777321408,
      1777321408,
      1777321468,
      1777321468,
      1777321468,
      1777321468,
      1777321648,
      1777321648,
      1777321708,
      1777321708,
      1777321708,
      1777321708,
      1777321708,
      1777321804,
      1777321804,
      1777321804,
      1777321949,
      1777321949,
      1777321949,
      1777321949,
      1777322008,
      1777322008,
      1777322014,
      1777322014,
      1777322189,
      1777322189,
      1777322189,
      1777322189,
      1777322315,
      1777322315,
      1777322429,
      1777322429,
      1777322429,
      1777322429,
      1777322669,
      1777322669,
      1777322729,
      1777322729,
      1777322783,
      1777322783,
      1777322789,
      1777322850,
      1777322850,
      1777322910
    ],
    "wof:geomhash": "804c7e7550428ed346962287d98e2166",
    "wof:id": 2031125763,
    "wof:repo": "sfomuseum-data-flights-2026-04"
  },
  "bbox": [
    -124.30833333333334,
    37.405,
    -122.16666666666667,
    47.43722222222222
  ],
  "geometry": {"coordinates":[[-122.30916666666667,47.43722222222222],[-122.30916666666667,47.38388888888889],[-122.30916666666667,47.38388888888889],[-122.30916666666667,47.38388888888889],[-122.30944444444444,47.36222222222222],[-122.30944444444444,47.36222222222222],[-122.30944444444444,47.36222222222222],[-122.57638888888889,47.31111111111111],[-122.57638888888889,47.31111111111111],[-122.57638888888889,47.31111111111111],[-122.57638888888889,47.31111111111111],[-122.57638888888889,47.31111111111111],[-122.97944444444444,47.260555555555555],[-122.97944444444444,47.260555555555555],[-122.97944444444444,47.260555555555555],[-122.97944444444444,47.260555555555555],[-122.97944444444444,47.260555555555555],[-122.97944444444444,47.260555555555555],[-123.19166666666668,47.10472222222222],[-123.19166666666668,47.10472222222222],[-123.19166666666668,47.10472222222222],[-123.19166666666668,47.10472222222222],[-123.19166666666668,47.10472222222222],[-123.2075,46.761944444444445],[-123.2075,46.761944444444445],[-123.2075,46.761944444444445],[-123.20361111111112,46.63861111111111],[-123.20361111111112,46.63861111111111],[-123.20361111111112,46.63861111111111],[-123.20361111111112,46.63861111111111],[-123.18611111111112,46.10611111111111],[-123.18611111111112,46.10611111111111],[-123.18611111111112,46.10611111111111],[-123.18611111111112,46.10611111111111],[-123.18611111111112,46.10611111111111],[-123.18222222222222,45.97916666666667],[-123.18222222222222,45.97916666666667],[-123.17805555555556,45.85166666666667],[-123.17805555555556,45.85166666666667],[-123.1738888888889,45.725],[-123.1738888888889,45.725],[-123.1738888888889,45.725],[-123.1738888888889,45.725],[-123.1738888888889,45.725],[-123.16583333333334,45.476111111111116],[-123.16583333333334,45.476111111111116],[-123.16277777777778,45.376666666666665],[-123.16277777777778,45.376666666666665],[-123.16277777777778,45.376666666666665],[-123.15472222222223,45.12305555555555],[-123.15472222222223,45.12305555555555],[-123.15472222222223,45.12305555555555],[-123.15472222222223,45.12305555555555],[-123.15083333333334,44.99916666666667],[-123.15083333333334,44.99916666666667],[-123.15083333333334,44.99916666666667],[-123.14722222222223,44.8725],[-123.14722222222223,44.8725],[-123.14722222222223,44.8725],[-123.13944444444445,44.62583333333333],[-123.13944444444445,44.62583333333333],[-123.13944444444445,44.62583333333333],[-123.13944444444445,44.62583333333333],[-123.13527777777779,44.50111111111111],[-123.13527777777779,44.50111111111111],[-123.13527777777779,44.50111111111111],[-123.13527777777779,44.50111111111111],[-123.13083333333333,44.37861111111111],[-123.13083333333333,44.37861111111111],[-123.12666666666667,44.25361111111111],[-123.12666666666667,44.25361111111111],[-123.12666666666667,44.25361111111111],[-123.12666666666667,44.25361111111111],[-123.12666666666667,44.25361111111111],[-123.10833333333333,43.745],[-123.10833333333333,43.745],[-123.10833333333333,43.745],[-123.10833333333333,43.745],[-123.10833333333333,43.745],[-123.10416666666666,43.62083333333334],[-123.10416666666666,43.62083333333334],[-123.10416666666666,43.62083333333334],[-123.10416666666666,43.62083333333334],[-123.09583333333333,43.41],[-123.09583333333333,43.41],[-123.09583333333333,43.41],[-123.09583333333333,43.41],[-123.09555555555555,43.37444444444444],[-123.09555555555555,43.37444444444444],[-123.09555555555555,43.37444444444444],[-123.08888888888889,43.163333333333334],[-123.08888888888889,43.163333333333334],[-123.08333333333333,43.040277777777774],[-123.08333333333333,43.040277777777774],[-123.08277777777778,43.00388888888889],[-123.08277777777778,43.00388888888889],[-123.08277777777778,43.00388888888889],[-123.08027777777778,42.91722222222222],[-123.08027777777778,42.91722222222222],[-123.08027777777778,42.91722222222222],[-123.07055555555556,42.64416666666666],[-123.07055555555556,42.64416666666666],[-123.07055555555556,42.64416666666666],[-123.0675,42.54472222222222],[-123.0675,42.54472222222222],[-123.0675,42.54472222222222],[-123.0675,42.54472222222222],[-123.0625,42.394999999999996],[-123.05916666666667,42.294999999999995],[-123.05916666666667,42.294999999999995],[-123.05916666666667,42.294999999999995],[-123.05833333333334,42.27111111111111],[-123.05833333333334,42.27111111111111],[-123.05444444444444,42.14666666666667],[-123.05444444444444,42.14666666666667],[-123.05444444444444,42.14666666666667],[-123.05027777777778,42.022777777777776],[-123.05027777777778,42.022777777777776],[-123.05027777777778,42.022777777777776],[-123.05027777777778,42.022777777777776],[-123.0425,41.775],[-123.03833333333333,41.65],[-123.03833333333333,41.65],[-123.03472222222221,41.525277777777774],[-123.03472222222221,41.525277777777774],[-123.03472222222221,41.525277777777774],[-123.03472222222221,41.525277777777774],[-123.03472222222221,41.525277777777774],[-123.02722222222222,41.288888888888884],[-123.02722222222222,41.288888888888884],[-123.02722222222222,41.288888888888884],[-123.02722222222222,41.288888888888884],[-123.03999999999999,40.88111111111111],[-123.03999999999999,40.88111111111111],[-123.03999999999999,40.88111111111111],[-123.03999999999999,40.88111111111111],[-123.12388888888889,40.80972222222222],[-123.12388888888889,40.80972222222222],[-123.12388888888889,40.80972222222222],[-123.13388888888889,40.805277777777775],[-123.13388888888889,40.805277777777775],[-123.24777777777778,40.784166666666664],[-123.29305555555555,40.779444444444444],[-123.29305555555555,40.779444444444444],[-123.29305555555555,40.779444444444444],[-123.29305555555555,40.779444444444444],[-123.55666666666666,40.75277777777778],[-123.55666666666666,40.75277777777778],[-123.72777777777777,40.730555555555554],[-123.72777777777777,40.730555555555554],[-123.82805555555555,40.67611111111111],[-123.82805555555555,40.67611111111111],[-123.85111111111111,40.66166666666666],[-123.85111111111111,40.66166666666666],[-123.85111111111111,40.66166666666666],[-123.96722222222222,40.58861111111111],[-123.96722222222222,40.58861111111111],[-123.96722222222222,40.58861111111111],[-124.15194444444445,40.43083333333333],[-124.15194444444445,40.43083333333333],[-124.15194444444445,40.43083333333333],[-124.2225,40.33527777777778],[-124.2225,40.33527777777778],[-124.23611111111111,40.316944444444445],[-124.23611111111111,40.316944444444445],[-124.30833333333334,40.20944444444445],[-124.30833333333334,40.20944444444445],[-124.25444444444445,39.871944444444445],[-124.25444444444445,39.871944444444445],[-124.25444444444445,39.871944444444445],[-124.25444444444445,39.871944444444445],[-124.25444444444445,39.871944444444445],[-123.95916666666668,39.551944444444445],[-123.95916666666668,39.551944444444445],[-123.95916666666668,39.551944444444445],[-123.95916666666668,39.551944444444445],[-123.95916666666668,39.551944444444445],[-123.95916666666668,39.551944444444445],[-123.76416666666667,39.33888888888889],[-123.76416666666667,39.33888888888889],[-123.76416666666667,39.33888888888889],[-123.76416666666667,39.33888888888889],[-123.45138888888889,38.99388888888889],[-123.45138888888889,38.99388888888889],[-123.25444444444445,38.77472222222222],[-123.25444444444445,38.77472222222222],[-123.25444444444445,38.77472222222222],[-123.16000000000001,38.66916666666666],[-123.16000000000001,38.66916666666666],[-123.16000000000001,38.66916666666666],[-123.16000000000001,38.66916666666666],[-122.8938888888889,38.36888888888889],[-122.8938888888889,38.36888888888889],[-122.81194444444444,38.27583333333333],[-122.81194444444444,38.27583333333333],[-122.81194444444444,38.27583333333333],[-122.81194444444444,38.27583333333333],[-122.81194444444444,38.27583333333333],[-122.73333333333333,38.11666666666667],[-122.73333333333333,38.11666666666667],[-122.73333333333333,38.11666666666667],[-122.65,37.88333333333333],[-122.65,37.88333333333333],[-122.65,37.88333333333333],[-122.65,37.88333333333333],[-122.57472222222222,37.8075],[-122.57472222222222,37.8075],[-122.56666666666666,37.8],[-122.56666666666666,37.8],[-122.38305555555554,37.62638888888889],[-122.38305555555554,37.62638888888889],[-122.38305555555554,37.62638888888889],[-122.38305555555554,37.62638888888889],[-122.3,37.483333333333334],[-122.3,37.483333333333334],[-122.20277777777778,37.405],[-122.20277777777778,37.405],[-122.20277777777778,37.405],[-122.20277777777778,37.405],[-122.16666666666667,37.53333333333333],[-122.16666666666667,37.53333333333333],[-122.22,37.55583333333333],[-122.22,37.55583333333333],[-122.28333333333333,37.583333333333336],[-122.28333333333333,37.583333333333336],[-122.27527777777777,37.57916666666667],[-122.31916666666666,37.597500000000004],[-122.31916666666666,37.597500000000004],[-122.35833333333333,37.61416666666667]],"type":"LineString"}
}
