{
  "id": 2031097013,
  "type": "Feature",
  "properties": {
    "geom:area": 0,
    "geom:bbox": "-122.529050,37.131010,-121.244030,37.661560",
    "geom:latitude": 37.313551770008175,
    "geom:longitude": -122.00982334164691,
    "src:alt_label": "swim-takeoff",
    "src:geom": "swim",
    "swim:elevations": [
      213,
      456,
      668,
      829,
      1163,
      1451,
      1634,
      1774,
      2121,
      2544,
      2791,
      3112,
      3266,
      3623,
      4033,
      4481,
      4714,
      5167,
      5242,
      5417,
      5713,
      5913,
      6031,
      6161,
      6359,
      6466,
      6678,
      6855,
      7151,
      7229,
      7377,
      7651,
      7743
    ],
    "swim:geom": "takeoff",
    "swim:timestamps": [
      1776934272,
      1776934292,
      1776934309,
      1776934320,
      1776934367,
      1776934404,
      1776934419,
      1776934429,
      1776934458,
      1776934494,
      1776934514,
      1776934546,
      1776934573,
      1776934602,
      1776934640,
      1776934676,
      1776934699,
      1776934746,
      1776934753,
      1776934780,
      1776934819,
      1776934849,
      1776934865,
      1776934887,
      1776934916,
      1776934934,
      1776934959,
      1776934987,
      1776935034,
      1776935049,
      1776935074,
      1776935123,
      1776935138
    ],
    "wof:geomhash": "258375fa6c831e9c47895ac07ab96515",
    "wof:id": 2031097013,
    "wof:repo": "sfomuseum-data-flights-2026-04"
  },
  "bbox": [
    -122.52905,
    37.13101,
    -121.24403,
    37.66156
  ],
  "geometry": {"coordinates":[[-122.40081,37.62958],[-122.42029,37.63816],[-122.43655,37.64502],[-122.44737,37.64968],[-122.4996,37.66156],[-122.52905,37.62715],[-122.52706,37.60823],[-122.52496,37.59513],[-122.5192,37.55768],[-122.51102,37.50962],[-122.50229,37.48198],[-122.47551,37.44226],[-122.44992,37.40506],[-122.40954,37.37169],[-122.3535,37.32922],[-122.29196,37.30007],[-122.24636,37.29275],[-122.15219,37.27614],[-122.13804,37.27403],[-122.08215,37.26549],[-121.99926,37.25256],[-121.93435,37.24228],[-121.89992,37.2368],[-121.84966,37.22879],[-121.78522,37.21852],[-121.74293,37.21172],[-121.68375,37.20222],[-121.61755,37.19168],[-121.50389,37.17323],[-121.46604,37.16711],[-121.40482,37.15711],[-121.28232,37.13712],[-121.24403,37.13101]],"type":"LineString"}
}
