{
  "id": 2015338439,
  "type": "Feature",
  "properties": {
    "geom:area": 0,
    "geom:bbox": "-123.346111,37.569444,-122.257778,43.918611",
    "geom:latitude": 40.595313608898465,
    "geom:longitude": -123.0494036680022,
    "src:alt_label": "swim-path",
    "src:geom": "swim",
    "swim:altitudes": [
      "094",
      "114",
      "114",
      "143",
      "143",
      "221",
      "249",
      "271",
      "271",
      "271",
      "284",
      "284",
      "297",
      "297",
      "311",
      "345",
      "345",
      "356",
      "356",
      "374",
      "374",
      "374",
      "390C",
      "390C",
      "389C",
      "389C",
      "390C",
      "390C",
      "390C",
      "390C",
      "390C",
      "389C",
      "389C",
      "389C",
      "389C",
      "390C",
      "390C",
      "390C",
      "390C",
      "390C",
      "390C",
      "390C",
      "390C",
      "390C",
      "390C",
      "390",
      "390",
      "369",
      "295",
      "275",
      "258",
      "242",
      "242",
      "165",
      "165",
      "132",
      "110",
      "110",
      "109C",
      "109C",
      "018",
      "018",
      "009",
      "009",
      "003",
      "003"
    ],
    "swim:geom": "path",
    "swim:speeds": [
      254,
      296,
      296,
      310,
      310,
      309,
      316,
      348,
      348,
      348,
      350,
      350,
      363,
      363,
      365,
      365,
      365,
      365,
      365,
      360,
      360,
      360,
      371,
      371,
      385,
      385,
      381,
      381,
      384,
      384,
      384,
      384,
      384,
      376,
      376,
      375,
      373,
      373,
      373,
      373,
      373,
      372,
      372,
      371,
      371,
      371,
      372,
      372,
      361,
      350,
      344,
      339,
      339,
      309,
      309,
      308,
      242,
      242,
      236,
      236,
      185,
      185,
      148,
      148,
      142,
      142
    ],
    "swim:timestamps": [
      1776727263,
      1776727323,
      1776727323,
      1776727383,
      1776727383,
      1776727503,
      1776727563,
      1776727683,
      1776727683,
      1776727683,
      1776727740,
      1776727740,
      1776727803,
      1776727803,
      1776727863,
      1776728041,
      1776728041,
      1776728101,
      1776728101,
      1776728221,
      1776728221,
      1776728221,
      1776728461,
      1776728461,
      1776728524,
      1776728524,
      1776728702,
      1776728702,
      1776728824,
      1776728824,
      1776728824,
      1776728882,
      1776728882,
      1776729062,
      1776729062,
      1776729182,
      1776729242,
      1776729242,
      1776729242,
      1776729302,
      1776729302,
      1776729543,
      1776729543,
      1776729663,
      1776729663,
      1776729963,
      1776730083,
      1776730203,
      1776730383,
      1776730444,
      1776730504,
      1776730564,
      1776730564,
      1776730845,
      1776730845,
      1776730984,
      1776731163,
      1776731163,
      1776731224,
      1776731224,
      1776731825,
      1776731825,
      1776731885,
      1776731885,
      1776731945,
      1776731945
    ],
    "wof:geomhash": "44927c23e7a16946e34efc5aba114842",
    "wof:id": 2015338439,
    "wof:repo": "sfomuseum-data-flights-2026-04"
  },
  "bbox": [
    -123.3461111111111,
    37.56944444444445,
    -122.25777777777778,
    43.91861111111111
  ],
  "geometry": {"coordinates":[[-123.23666666666666,43.91861111111111],[-123.24861111111112,43.842222222222226],[-123.24861111111112,43.842222222222226],[-123.2625,43.755833333333335],[-123.2625,43.755833333333335],[-123.28944444444444,43.586666666666666],[-123.30277777777778,43.5],[-123.33194444444445,43.31527777777777],[-123.33194444444445,43.31527777777777],[-123.33194444444445,43.31527777777777],[-123.34555555555555,43.22777777777778],[-123.34555555555555,43.22777777777778],[-123.3461111111111,43.11611111111111],[-123.3461111111111,43.11611111111111],[-123.33611111111111,43.01416666666667],[-123.3086111111111,42.72277777777778],[-123.3086111111111,42.72277777777778],[-123.29888888888888,42.62166666666667],[-123.29888888888888,42.62166666666667],[-123.27972222222222,42.42361111111111],[-123.27972222222222,42.42361111111111],[-123.27972222222222,42.42361111111111],[-123.24083333333333,42.01833333333333],[-123.24083333333333,42.01833333333333],[-123.23111111111112,41.91305555555555],[-123.23111111111112,41.91305555555555],[-123.20138888888889,41.595555555555556],[-123.20138888888889,41.595555555555556],[-123.18055555555556,41.36944444444445],[-123.18055555555556,41.36944444444445],[-123.18055555555556,41.36944444444445],[-123.17083333333333,41.265],[-123.17083333333333,41.265],[-123.1413888888889,40.94166666666666],[-123.1413888888889,40.94166666666666],[-123.12305555555555,40.73888888888889],[-123.11361111111111,40.63583333333333],[-123.11361111111111,40.63583333333333],[-123.11361111111111,40.63583333333333],[-123.10444444444444,40.53361111111111],[-123.10444444444444,40.53361111111111],[-123.06805555555555,40.12416666666667],[-123.06805555555555,40.12416666666667],[-123.04972222222221,39.918055555555554],[-123.04972222222221,39.918055555555554],[-123.00555555555556,39.41083333333333],[-122.9875,39.20388888888889],[-122.96972222222223,38.996944444444445],[-122.905,38.69222222222222],[-122.87722222222222,38.59777777777778],[-122.84972222222221,38.504444444444445],[-122.82305555555556,38.41361111111111],[-122.82305555555556,38.41361111111111],[-122.7,38],[-122.7,38],[-122.59583333333333,37.82638888888889],[-122.41666666666667,37.65],[-122.41666666666667,37.65],[-122.36583333333333,37.60194444444445],[-122.36583333333333,37.60194444444445],[-122.25777777777778,37.56944444444445],[-122.25777777777778,37.56944444444445],[-122.30749999999999,37.59027777777778],[-122.30749999999999,37.59027777777778],[-122.35027777777778,37.608333333333334],[-122.35027777777778,37.608333333333334]],"type":"LineString"}
}
