{
  "id": 2031130317,
  "type": "Feature",
  "properties": {
    "geom:area": 0,
    "geom:bbox": "-122.547280,36.808850,-121.428400,37.669780",
    "geom:latitude": 37.24721463889421,
    "geom:longitude": -122.06581850498469,
    "src:alt_label": "swim-takeoff",
    "src:geom": "swim",
    "swim:elevations": [
      237,
      484,
      738,
      1092,
      1299,
      1823,
      2133,
      2333,
      3008,
      3429,
      3727,
      3839,
      3975,
      4224,
      4327,
      4632,
      4927,
      5013,
      5356,
      5722,
      5852,
      6001,
      6148,
      6508,
      7155,
      7267,
      7337,
      7648,
      7825
    ],
    "swim:geom": "takeoff",
    "swim:timestamps": [
      1777310488,
      1777310507,
      1777310528,
      1777310567,
      1777310592,
      1777310636,
      1777310659,
      1777310673,
      1777310719,
      1777310749,
      1777310776,
      1777310796,
      1777310824,
      1777310860,
      1777310869,
      1777310900,
      1777310930,
      1777310941,
      1777310979,
      1777311017,
      1777311033,
      1777311053,
      1777311072,
      1777311113,
      1777311189,
      1777311206,
      1777311215,
      1777311264,
      1777311295
    ],
    "wof:geomhash": "b58f72b000fe7b4c5691a95e54315aff",
    "wof:id": 2031130317,
    "wof:repo": "sfomuseum-data-flights-2026-04"
  },
  "bbox": [
    -122.54728,
    36.80885,
    -121.4284,
    37.66978
  ],
  "geometry": {"coordinates":[[-122.39497,37.62729],[-122.41132,37.6346],[-122.43011,37.64255],[-122.46873,37.65938],[-122.49968,37.66978],[-122.54728,37.63923],[-122.5413,37.61053],[-122.53179,37.5942],[-122.4979,37.5372],[-122.47752,37.4992],[-122.44782,37.46979],[-122.41701,37.45047],[-122.37113,37.42316],[-122.30743,37.38259],[-122.29082,37.3718],[-122.23484,37.33431],[-122.17869,37.29772],[-122.15921,37.28562],[-122.08496,37.23812],[-122.00853,37.1885],[-121.97722,37.1682],[-121.93683,37.14188],[-121.8987,37.11704],[-121.81314,37.06119],[-121.65614,36.95832],[-121.62119,36.93529],[-121.60217,36.92277],[-121.49592,36.8527],[-121.4284,36.80885]],"type":"LineString"}
}
