{
  "id": 2015240597,
  "type": "Feature",
  "properties": {
    "geom:area": 0,
    "geom:bbox": "-122.584660,36.725630,-121.522150,37.667950",
    "geom:latitude": 37.230470846054416,
    "geom:longitude": -122.12323663860676,
    "src:alt_label": "swim-takeoff",
    "src:geom": "swim",
    "swim:elevations": [
      122,
      484,
      717,
      1080,
      1336,
      1748,
      2217,
      2526,
      2875,
      3666,
      4195,
      4695,
      5282,
      5692,
      5963,
      6390,
      6716,
      6923,
      7241,
      7528,
      8039,
      8344,
      8730,
      8839,
      9214,
      9419,
      9567,
      9680,
      9889,
      10179,
      10557,
      10676
    ],
    "swim:geom": "takeoff",
    "swim:timestamps": [
      1775673237,
      1775673267,
      1775673298,
      1775673323,
      1775673351,
      1775673385,
      1775673416,
      1775673434,
      1775673455,
      1775673501,
      1775673536,
      1775673563,
      1775673595,
      1775673623,
      1775673640,
      1775673672,
      1775673695,
      1775673730,
      1775673760,
      1775673787,
      1775673831,
      1775673856,
      1775673898,
      1775673913,
      1775673955,
      1775673982,
      1775674000,
      1775674016,
      1775674032,
      1775674060,
      1775674096,
      1775674115
    ],
    "wof:geomhash": "a2d3093e3b9b83c8ecdad72635bb3e54",
    "wof:id": 2015240597,
    "wof:repo": "sfomuseum-data-flights-2026-04"
  },
  "bbox": [
    -122.58466,
    36.72563,
    -121.52215,
    37.66795
  ],
  "geometry": {"coordinates":[[-122.38208,37.62189],[-122.40398,37.63152],[-122.43328,37.64418],[-122.45937,37.65567],[-122.49244,37.66795],[-122.5352,37.65475],[-122.56223,37.62329],[-122.57841,37.60426],[-122.58466,37.57972],[-122.54268,37.531],[-122.49565,37.49758],[-122.45958,37.47128],[-122.4161,37.43963],[-122.37701,37.41098],[-122.35281,37.39313],[-122.30643,37.35927],[-122.27232,37.3345],[-122.22003,37.29186],[-122.17013,37.25148],[-122.12444,37.21492],[-122.04851,37.15336],[-122.00557,37.11874],[-121.93147,37.05858],[-121.9045,37.03656],[-121.82401,36.97212],[-121.77451,36.93152],[-121.74037,36.90397],[-121.70935,36.87885],[-121.6787,36.85404],[-121.62443,36.81006],[-121.55794,36.7554],[-121.52215,36.72563]],"type":"LineString"}
}
