{
  "id": 2031129987,
  "type": "Feature",
  "properties": {
    "geom:area": 0,
    "geom:bbox": "-122.463611,37.650000,-122.116111,48.557500",
    "geom:latitude": 43.06408000807964,
    "geom:longitude": -122.24586818406448,
    "src:alt_label": "swim-path",
    "src:geom": "swim",
    "swim:altitudes": [
      "023",
      "038",
      "038",
      "038",
      "038",
      "038",
      "038",
      "116",
      "116",
      "158",
      "158",
      "158",
      "158",
      "158",
      "158",
      "226",
      "226",
      "245",
      "245",
      "260",
      "260",
      "260",
      "260",
      "260",
      "301",
      "301",
      "301",
      "301",
      "314",
      "314",
      "314",
      "314",
      "327",
      "327",
      "340C",
      "340C",
      "340C",
      "340C",
      "340C",
      "340C",
      "340C",
      "340C",
      "340C",
      "340C",
      "340C",
      "340C",
      "340C",
      "340C",
      "340C",
      "340C",
      "340C",
      "340C",
      "340C",
      "340C",
      "340C",
      "340C",
      "340C",
      "340C",
      "340C",
      "340C",
      "340C",
      "340C",
      "340C",
      "340C",
      "340C",
      "340C",
      "340C",
      "340C",
      "340C",
      "340C",
      "340C",
      "340C",
      "340C",
      "340C",
      "340C",
      "340C",
      "340C",
      "340C",
      "340C",
      "340C",
      "340C",
      "340C",
      "340C",
      "340C",
      "340C",
      "340C",
      "340C",
      "340C",
      "340C",
      "340C",
      "340C",
      "340C",
      "340C",
      "340C",
      "340C",
      "340C",
      "340C",
      "340C",
      "340C",
      "340C",
      "340C",
      "340C",
      "340C",
      "340C",
      "340C",
      "340C",
      "340C",
      "340C",
      "340C",
      "340C",
      "340C",
      "340C",
      "340C",
      "340C",
      "340C",
      "340C",
      "340C",
      "340C",
      "340C",
      "340C",
      "340C",
      "340C",
      "340C",
      "340C",
      "340C",
      "340C",
      "340C",
      "340C",
      "340C",
      "340C",
      "340C",
      "340C",
      "340C",
      "340C",
      "340C",
      "340C",
      "340C",
      "340C",
      "340C",
      "340C",
      "340C",
      "340C",
      "340C",
      "340C",
      "340C",
      "340C",
      "340C",
      "340C",
      "340C",
      "340C",
      "340C",
      "340C",
      "340C",
      "340C",
      "340C",
      "340C",
      "340C",
      "340C",
      "340C",
      "340C",
      "340C",
      "318",
      "318",
      "318",
      "318",
      "296",
      "296",
      "276",
      "276",
      "256",
      "256",
      "235",
      "235",
      "212",
      "212",
      "212",
      "212",
      "212",
      "212",
      "174",
      "174",
      "174",
      "153",
      "153",
      "153",
      "153"
    ],
    "swim:geom": "path",
    "swim:speeds": [
      195,
      197,
      197,
      197,
      197,
      197,
      197,
      291,
      291,
      365,
      365,
      365,
      365,
      365,
      365,
      380,
      380,
      397,
      397,
      397,
      397,
      397,
      397,
      397,
      416,
      416,
      416,
      416,
      416,
      416,
      416,
      416,
      417,
      417,
      416,
      416,
      416,
      418,
      418,
      418,
      418,
      417,
      417,
      419,
      419,
      419,
      419,
      419,
      429,
      429,
      430,
      430,
      430,
      430,
      434,
      434,
      434,
      437,
      437,
      437,
      437,
      437,
      438,
      438,
      438,
      438,
      438,
      443,
      446,
      446,
      446,
      446,
      446,
      447,
      447,
      447,
      446,
      446,
      446,
      446,
      446,
      446,
      446,
      446,
      446,
      446,
      446,
      447,
      447,
      447,
      447,
      447,
      447,
      447,
      445,
      445,
      445,
      445,
      445,
      445,
      441,
      441,
      441,
      441,
      438,
      438,
      438,
      435,
      435,
      435,
      435,
      426,
      426,
      426,
      426,
      426,
      426,
      426,
      426,
      426,
      426,
      426,
      426,
      426,
      426,
      426,
      426,
      427,
      427,
      427,
      427,
      427,
      425,
      425,
      425,
      424,
      422,
      422,
      422,
      422,
      422,
      421,
      421,
      421,
      422,
      422,
      422,
      422,
      421,
      421,
      421,
      421,
      419,
      419,
      419,
      418,
      419,
      419,
      419,
      419,
      419,
      422,
      422,
      422,
      422,
      418,
      418,
      397,
      397,
      385,
      385,
      382,
      382,
      368,
      368,
      368,
      368,
      368,
      368,
      343,
      343,
      343,
      337,
      337,
      337,
      337
    ],
    "swim:timestamps": [
      1777315266,
      1777315315,
      1777315315,
      1777315315,
      1777315315,
      1777315315,
      1777315315,
      1777315495,
      1777315495,
      1777315615,
      1777315615,
      1777315615,
      1777315615,
      1777315615,
      1777315615,
      1777315796,
      1777315796,
      1777315855,
      1777315855,
      1777315915,
      1777315915,
      1777315915,
      1777315915,
      1777315915,
      1777316095,
      1777316095,
      1777316095,
      1777316095,
      1777316156,
      1777316156,
      1777316156,
      1777316156,
      1777316216,
      1777316216,
      1777316336,
      1777316336,
      1777316336,
      1777316396,
      1777316396,
      1777316396,
      1777316396,
      1777316756,
      1777316756,
      1777316816,
      1777316816,
      1777316816,
      1777316816,
      1777316816,
      1777317117,
      1777317117,
      1777317177,
      1777317177,
      1777317177,
      1777317177,
      1777317357,
      1777317357,
      1777317357,
      1777317477,
      1777317477,
      1777317477,
      1777317477,
      1777317477,
      1777317537,
      1777317537,
      1777317537,
      1777317537,
      1777317537,
      1777317839,
      1777317958,
      1777317958,
      1777317958,
      1777317958,
      1777317958,
      1777318018,
      1777318018,
      1777318078,
      1777318138,
      1777318138,
      1777318138,
      1777318138,
      1777318198,
      1777318198,
      1777318198,
      1777318258,
      1777318258,
      1777318258,
      1777318258,
      1777318438,
      1777318438,
      1777318438,
      1777318438,
      1777318438,
      1777318558,
      1777318558,
      1777318618,
      1777318618,
      1777318618,
      1777318618,
      1777318618,
      1777318618,
      1777318738,
      1777318738,
      1777318738,
      1777318738,
      1777318799,
      1777318799,
      1777318799,
      1777318859,
      1777318859,
      1777318859,
      1777318859,
      1777319159,
      1777319159,
      1777319159,
      1777319159,
      1777319219,
      1777319219,
      1777319279,
      1777319279,
      1777319279,
      1777319339,
      1777319339,
      1777319399,
      1777319399,
      1777319399,
      1777319399,
      1777319399,
      1777319519,
      1777319519,
      1777319519,
      1777319519,
      1777319519,
      1777319640,
      1777319640,
      1777319640,
      1777319700,
      1777319760,
      1777319760,
      1777319760,
      1777319760,
      1777319760,
      1777319880,
      1777319880,
      1777319880,
      1777319940,
      1777319940,
      1777319940,
      1777319940,
      1777320060,
      1777320060,
      1777320060,
      1777320060,
      1777320180,
      1777320180,
      1777320180,
      1777320240,
      1777320300,
      1777320300,
      1777320300,
      1777320300,
      1777320300,
      1777320541,
      1777320541,
      1777320541,
      1777320541,
      1777320601,
      1777320601,
      1777320661,
      1777320661,
      1777320721,
      1777320721,
      1777320781,
      1777320781,
      1777320841,
      1777320841,
      1777320841,
      1777320841,
      1777320841,
      1777320841,
      1777320961,
      1777320961,
      1777320961,
      1777321021,
      1777321021,
      1777321021,
      1777321021
    ],
    "wof:geomhash": "ded5ce737071471313bd8379dba7a2b0",
    "wof:id": 2031129987,
    "wof:repo": "sfomuseum-data-flights-2026-04"
  },
  "bbox": [
    -122.46361111111112,
    37.65,
    -122.11611111111111,
    48.5575
  ],
  "geometry": {"coordinates":[[-122.4,37.65],[-122.36083333333333,37.669999999999995],[-122.36083333333333,37.669999999999995],[-122.36083333333333,37.669999999999995],[-122.36083333333333,37.669999999999995],[-122.36083333333333,37.669999999999995],[-122.36083333333333,37.669999999999995],[-122.19833333333334,37.815555555555555],[-122.19833333333334,37.815555555555555],[-122.16666666666667,38.007222222222225],[-122.16666666666667,38.007222222222225],[-122.16666666666667,38.007222222222225],[-122.16666666666667,38.007222222222225],[-122.16666666666667,38.007222222222225],[-122.16666666666667,38.007222222222225],[-122.11611111111111,38.316111111111105],[-122.11611111111111,38.316111111111105],[-122.11666666666666,38.4325],[-122.11666666666666,38.4325],[-122.12472222222222,38.5425],[-122.12472222222222,38.5425],[-122.12472222222222,38.5425],[-122.12472222222222,38.5425],[-122.12472222222222,38.5425],[-122.14972222222222,38.88777777777778],[-122.14972222222222,38.88777777777778],[-122.14972222222222,38.88777777777778],[-122.14972222222222,38.88777777777778],[-122.1588888888889,39.00111111111111],[-122.1588888888889,39.00111111111111],[-122.1588888888889,39.00111111111111],[-122.1588888888889,39.00111111111111],[-122.165,39.11944444444445],[-122.165,39.11944444444445],[-122.18305555555555,39.34777777777778],[-122.18305555555555,39.34777777777778],[-122.18305555555555,39.34777777777778],[-122.19,39.46611111111111],[-122.19,39.46611111111111],[-122.19,39.46611111111111],[-122.19,39.46611111111111],[-122.2363888888889,40.153888888888886],[-122.2363888888889,40.153888888888886],[-122.2375,40.288888888888884],[-122.2375,40.288888888888884],[-122.2375,40.288888888888884],[-122.2375,40.288888888888884],[-122.2375,40.288888888888884],[-122.24,40.88055555555555],[-122.24,40.88055555555555],[-122.24083333333333,41],[-122.24083333333333,41],[-122.24083333333333,41],[-122.24083333333333,41],[-122.24222222222222,41.36277777777778],[-122.24222222222222,41.36277777777778],[-122.24222222222222,41.36277777777778],[-122.24361111111111,41.58916666666667],[-122.24361111111111,41.58916666666667],[-122.24361111111111,41.58916666666667],[-122.24361111111111,41.58916666666667],[-122.24361111111111,41.58916666666667],[-122.24416666666667,41.712500000000006],[-122.24416666666667,41.712500000000006],[-122.24416666666667,41.712500000000006],[-122.24416666666667,41.712500000000006],[-122.24416666666667,41.712500000000006],[-122.24722222222222,42.335],[-122.24833333333333,42.58416666666667],[-122.24833333333333,42.58416666666667],[-122.24833333333333,42.58416666666667],[-122.24833333333333,42.58416666666667],[-122.24833333333333,42.58416666666667],[-122.24888888888889,42.70777777777778],[-122.24888888888889,42.70777777777778],[-122.24972222222222,42.83916666666667],[-122.25027777777778,42.96361111111111],[-122.25027777777778,42.96361111111111],[-122.25027777777778,42.96361111111111],[-122.25027777777778,42.96361111111111],[-122.25111111111111,43.088055555555556],[-122.25111111111111,43.088055555555556],[-122.25111111111111,43.088055555555556],[-122.25166666666667,43.21138888888889],[-122.25166666666667,43.21138888888889],[-122.25166666666667,43.21138888888889],[-122.25166666666667,43.21138888888889],[-122.25361111111111,43.58361111111111],[-122.25361111111111,43.58361111111111],[-122.25361111111111,43.58361111111111],[-122.25361111111111,43.58361111111111],[-122.25361111111111,43.58361111111111],[-122.25472222222223,43.83166666666667],[-122.25472222222223,43.83166666666667],[-122.25527777777778,43.953611111111115],[-122.25527777777778,43.953611111111115],[-122.25527777777778,43.953611111111115],[-122.25527777777778,43.953611111111115],[-122.25527777777778,43.953611111111115],[-122.25527777777778,43.953611111111115],[-122.25694444444444,44.19638888888888],[-122.25694444444444,44.19638888888888],[-122.25694444444444,44.19638888888888],[-122.25694444444444,44.19638888888888],[-122.2575,44.3175],[-122.2575,44.3175],[-122.2575,44.3175],[-122.25805555555556,44.43805555555555],[-122.25805555555556,44.43805555555555],[-122.25805555555556,44.43805555555555],[-122.25805555555556,44.43805555555555],[-122.2611111111111,45.01833333333333],[-122.2611111111111,45.01833333333333],[-122.2611111111111,45.01833333333333],[-122.2611111111111,45.01833333333333],[-122.26222222222222,45.158055555555556],[-122.26222222222222,45.158055555555556],[-122.26222222222222,45.277499999999996],[-122.26222222222222,45.277499999999996],[-122.26222222222222,45.277499999999996],[-122.26333333333334,45.39361111111111],[-122.26333333333334,45.39361111111111],[-122.26388888888889,45.51138888888889],[-122.26388888888889,45.51138888888889],[-122.26388888888889,45.51138888888889],[-122.26388888888889,45.51138888888889],[-122.26388888888889,45.51138888888889],[-122.26527777777778,45.74944444444444],[-122.26527777777778,45.74944444444444],[-122.26527777777778,45.74944444444444],[-122.26527777777778,45.74944444444444],[-122.26527777777778,45.74944444444444],[-122.26638888888888,45.985],[-122.26638888888888,45.985],[-122.26638888888888,45.985],[-122.26722222222222,46.10194444444445],[-122.26777777777778,46.218611111111116],[-122.26777777777778,46.218611111111116],[-122.26777777777778,46.218611111111116],[-122.26777777777778,46.218611111111116],[-122.26777777777778,46.218611111111116],[-122.26916666666666,46.453611111111115],[-122.26916666666666,46.453611111111115],[-122.26916666666666,46.453611111111115],[-122.27,46.569722222222225],[-122.27,46.569722222222225],[-122.27,46.569722222222225],[-122.27,46.569722222222225],[-122.27111111111111,46.80472222222222],[-122.27111111111111,46.80472222222222],[-122.27111111111111,46.80472222222222],[-122.27111111111111,46.80472222222222],[-122.27277777777778,47.035555555555554],[-122.27277777777778,47.035555555555554],[-122.27277777777778,47.035555555555554],[-122.27333333333333,47.151111111111106],[-122.27388888888889,47.268055555555556],[-122.27388888888889,47.268055555555556],[-122.27388888888889,47.268055555555556],[-122.27388888888889,47.268055555555556],[-122.27388888888889,47.268055555555556],[-122.27666666666667,47.725833333333334],[-122.27666666666667,47.725833333333334],[-122.27666666666667,47.725833333333334],[-122.27666666666667,47.725833333333334],[-122.27722222222222,47.84444444444445],[-122.27722222222222,47.84444444444445],[-122.28805555555556,47.95444444444445],[-122.28805555555556,47.95444444444445],[-122.31805555555555,48.05916666666666],[-122.31805555555555,48.05916666666666],[-122.34805555555555,48.16222222222222],[-122.34805555555555,48.16222222222222],[-122.37972222222221,48.271388888888886],[-122.37972222222221,48.271388888888886],[-122.37972222222221,48.271388888888886],[-122.37972222222221,48.271388888888886],[-122.37972222222221,48.271388888888886],[-122.37972222222221,48.271388888888886],[-122.435,48.46],[-122.435,48.46],[-122.435,48.46],[-122.46361111111112,48.5575],[-122.46361111111112,48.5575],[-122.46361111111112,48.5575],[-122.46361111111112,48.5575]],"type":"LineString"}
}
