{
  "id": 2015360551,
  "type": "Feature",
  "properties": {
    "geom:area": 0,
    "geom:bbox": "-122.380000,33.800000,-80.950000,37.770000",
    "geom:latitude": 35.391196931346535,
    "geom:longitude": -101.73053896817774,
    "src:alt_label": "swim-route",
    "src:geom": "swim",
    "swim:geom": "route",
    "wof:geomhash": "9c03b002460af6c823356a052161d673",
    "wof:id": 2015360551,
    "wof:repo": "sfomuseum-data-flights-2026-04"
  },
  "bbox": [
    -122.38,
    33.8,
    -80.95,
    37.77
  ],
  "geometry": {"coordinates":[[-80.95,35.21],[-81.12,35.16],[-81.17,35.14],[-81.32,35.09],[-81.47,35.04],[-81.53,35.02],[-81.54,35.02],[-81.59,35],[-81.81,34.93],[-82.2,34.71],[-82.31,34.65],[-82.53,34.53],[-82.84,34.35],[-82.9,34.32],[-83.02,34.24],[-83.15,34.17],[-83.54,33.94],[-83.69,33.86],[-83.79,33.83],[-83.8,33.82],[-84,33.8],[-84.03,33.81],[-85,33.95],[-85.16,33.97],[-87.13,34.23],[-88.13,34.35],[-88.89,34.43],[-90.32,34.58],[-91.42,34.68],[-92.69,34.79],[-93.2,34.82],[-93.97,34.88],[-94.08,34.88],[-94.93,34.94],[-95.2,34.95],[-96.7,35.03],[-97.49,35.06],[-98.54,35.09],[-100.12,35.13],[-100.14,35.13],[-100.84,35.13],[-101.92,35.14],[-102.99,35.14],[-103.84,35.13],[-104.12,35.12],[-105.25,35.1],[-105.39,35.09],[-106.39,35.06],[-106.82,35.04],[-107.07,35.1],[-107.51,35.16],[-109.8,35.47],[-111.87,35.71],[-114.08,35.93],[-114.75,35.99],[-114.86,36],[-115.03,36.07],[-115.52,36.28],[-115.9,36.45],[-116.48,36.69],[-116.75,36.8],[-117.09,37.11],[-117.24,37.25],[-117.38,37.49],[-117.5,37.66],[-117.79,37.77],[-118.39,37.76],[-119.06,37.74],[-119.08,37.74],[-119.4,37.73],[-119.75,37.72],[-120.11,37.71],[-120.31,37.7],[-120.4,37.7],[-120.4,37.7],[-120.57,37.68],[-120.69,37.67],[-120.75,37.66],[-120.79,37.65],[-120.8,37.65],[-120.96,37.63],[-121,37.63],[-121.01,37.63],[-121.07,37.62],[-121.17,37.61],[-121.26,37.59],[-121.39,37.58],[-121.41,37.58],[-121.6,37.55],[-121.61,37.55],[-121.62,37.55],[-121.72,37.53],[-121.8,37.51],[-121.88,37.49],[-121.89,37.49],[-122.01,37.53],[-122.08,37.54],[-122.18,37.57],[-122.18,37.57],[-122.28,37.59],[-122.33,37.61],[-122.36,37.61],[-122.38,37.62]],"type":"LineString"}
}
