{
  "id": 2031102013,
  "type": "Feature",
  "properties": {
    "geom:area": 0,
    "geom:bbox": "-122.455556,25.812778,-80.328889,37.653611",
    "geom:latitude": 32.331110954946475,
    "geom:longitude": -101.23923392986339,
    "src:alt_label": "swim-path",
    "src:geom": "swim",
    "swim:altitudes": [
      "027",
      "204",
      "283",
      "347",
      "350C",
      "350",
      "350",
      "350C",
      "350C",
      "350C",
      "350C",
      "350C",
      "350C",
      "350C",
      "350C",
      "350C",
      "350C",
      "350C",
      "350C",
      "350C",
      "350C",
      "350C",
      "350C",
      "350C",
      "350C",
      "350C",
      "350C",
      "350C",
      "350C",
      "350C",
      "350C",
      "350C",
      "350C",
      "364",
      "370C",
      "370C",
      "370C",
      "370C",
      "370C",
      "370C",
      "370C",
      "370C",
      "370C",
      "370C",
      "370C",
      "370C",
      "370C",
      "370C",
      "370C",
      "370C",
      "370C",
      "370C",
      "370C",
      "370C",
      "370C",
      "370C",
      "370C",
      "370C",
      "370C",
      "370C",
      "370C",
      "370C",
      "370C",
      "370C",
      "370C",
      "370C",
      "370C",
      "370C",
      "370C",
      "370C",
      "370C",
      "370C",
      "370C",
      "370C",
      "370C",
      "370C",
      "370C",
      "370C",
      "370C",
      "370C",
      "370C",
      "370C",
      "370C",
      "370C",
      "370C",
      "370C",
      "370C",
      "370C",
      "370C",
      "370C",
      "370C",
      "370C",
      "370C",
      "370C",
      "370C",
      "370C",
      "370C",
      "370C",
      "370C",
      "370C",
      "370C",
      "370C",
      "370C",
      "370C",
      "370C",
      "370C",
      "370C",
      "370C",
      "370C",
      "370C",
      "370C",
      "370C",
      "370C",
      "370C",
      "370C",
      "370C",
      "370C",
      "370C",
      "370C",
      "370C",
      "370C",
      "370C",
      "370C",
      "370C",
      "370C",
      "370C",
      "370C",
      "370C",
      "370C",
      "370C",
      "370C",
      "370C",
      "370C",
      "370C",
      "370C",
      "370C",
      "370C",
      "370C",
      "370C",
      "370C",
      "370C",
      "370C",
      "370C",
      "370C",
      "370C",
      "370C",
      "370C",
      "370C",
      "370C",
      "370C",
      "370C",
      "370C",
      "370C",
      "370C",
      "370C",
      "370C",
      "370C",
      "370C",
      "370C",
      "370C",
      "370C",
      "370C",
      "370C",
      "370C",
      "370C",
      "370C",
      "370C",
      "370C",
      "370",
      "316",
      "273",
      "252",
      "252",
      "231",
      "158",
      "139",
      "126",
      "121",
      "103",
      "096",
      "084",
      "084",
      "063",
      "060",
      "060",
      "053",
      "034",
      "024",
      "023",
      "007",
      "006"
    ],
    "swim:geom": "path",
    "swim:speeds": [
      221,
      372,
      464,
      521,
      523,
      521,
      519,
      520,
      520,
      520,
      522,
      523,
      523,
      524,
      524,
      525,
      527,
      527,
      530,
      530,
      541,
      541,
      543,
      543,
      552,
      552,
      556,
      560,
      558,
      558,
      557,
      556,
      557,
      561,
      558,
      558,
      554,
      554,
      553,
      552,
      552,
      553,
      553,
      553,
      553,
      553,
      553,
      544,
      552,
      552,
      553,
      556,
      554,
      549,
      544,
      544,
      544,
      544,
      547,
      548,
      548,
      549,
      550,
      550,
      552,
      553,
      554,
      552,
      551,
      553,
      553,
      553,
      553,
      547,
      546,
      545,
      543,
      542,
      539,
      539,
      537,
      536,
      536,
      537,
      538,
      537,
      536,
      536,
      535,
      534,
      533,
      532,
      531,
      530,
      532,
      532,
      533,
      534,
      534,
      533,
      533,
      532,
      530,
      530,
      524,
      521,
      521,
      516,
      513,
      513,
      511,
      510,
      510,
      510,
      509,
      509,
      507,
      500,
      497,
      492,
      491,
      491,
      482,
      478,
      476,
      476,
      476,
      479,
      479,
      481,
      478,
      477,
      477,
      470,
      471,
      488,
      488,
      492,
      492,
      497,
      497,
      503,
      503,
      510,
      509,
      508,
      508,
      507,
      507,
      507,
      507,
      507,
      508,
      508,
      508,
      508,
      508,
      508,
      509,
      509,
      510,
      509,
      510,
      514,
      513,
      516,
      516,
      516,
      516,
      518,
      533,
      510,
      510,
      472,
      384,
      377,
      368,
      366,
      351,
      312,
      289,
      289,
      281,
      277,
      277,
      273,
      220,
      215,
      215,
      149,
      151
    ],
    "swim:timestamps": [
      1777101101,
      1777101575,
      1777101935,
      1777102361,
      1777102662,
      1777102773,
      1777102833,
      1777102902,
      1777103076,
      1777103082,
      1777103262,
      1777103376,
      1777103376,
      1777103436,
      1777103556,
      1777103676,
      1777103797,
      1777103797,
      1777103917,
      1777103989,
      1777104097,
      1777104097,
      1777104290,
      1777104457,
      1777104649,
      1777104649,
      1777104757,
      1777104937,
      1777105131,
      1777105131,
      1777105177,
      1777105250,
      1777105311,
      1777105491,
      1777105669,
      1777105669,
      1777105791,
      1777105791,
      1777105849,
      1777105910,
      1777106032,
      1777106090,
      1777106209,
      1777106272,
      1777106332,
      1777106392,
      1777106392,
      1777106513,
      1777106813,
      1777106813,
      1777106931,
      1777107050,
      1777107110,
      1777107285,
      1777107350,
      1777107472,
      1777107472,
      1777107530,
      1777107645,
      1777107765,
      1777107825,
      1777107885,
      1777107893,
      1777107893,
      1777107945,
      1777108005,
      1777108125,
      1777108245,
      1777108305,
      1777108365,
      1777108425,
      1777108425,
      1777108485,
      1777108845,
      1777108905,
      1777108956,
      1777108965,
      1777109016,
      1777109085,
      1777109085,
      1777109136,
      1777109196,
      1777109316,
      1777109376,
      1777109496,
      1777109556,
      1777109626,
      1777109626,
      1777109676,
      1777109686,
      1777109736,
      1777109806,
      1777109866,
      1777109916,
      1777110036,
      1777110046,
      1777110106,
      1777110166,
      1777110226,
      1777110286,
      1777110286,
      1777110337,
      1777110397,
      1777110406,
      1777110526,
      1777110637,
      1777110646,
      1777110766,
      1777110826,
      1777110826,
      1777110877,
      1777110937,
      1777110946,
      1777110997,
      1777111006,
      1777111057,
      1777111117,
      1777111297,
      1777111357,
      1777111477,
      1777111537,
      1777111537,
      1777111717,
      1777111777,
      1777111897,
      1777111957,
      1777111957,
      1777112198,
      1777112198,
      1777112378,
      1777112498,
      1777112558,
      1777112558,
      1777112675,
      1777112855,
      1777113336,
      1777113336,
      1777113516,
      1777113516,
      1777113876,
      1777113876,
      1777114056,
      1777114056,
      1777114508,
      1777114537,
      1777114657,
      1777114688,
      1777114717,
      1777114777,
      1777114777,
      1777115078,
      1777115109,
      1777115138,
      1777115169,
      1777115198,
      1777115289,
      1777115289,
      1777115349,
      1777115470,
      1777115498,
      1777115530,
      1777115559,
      1777115619,
      1777115650,
      1777115679,
      1777115799,
      1777115830,
      1777115830,
      1777116010,
      1777116191,
      1777116251,
      1777116311,
      1777116311,
      1777116371,
      1777116611,
      1777116672,
      1777116709,
      1777116732,
      1777116788,
      1777116842,
      1777116902,
      1777116902,
      1777117032,
      1777117040,
      1777117040,
      1777117082,
      1777117213,
      1777117263,
      1777117273,
      1777117384,
      1777117393
    ],
    "wof:geomhash": "412ca0b41ac2618aa2b49df1980769b7",
    "wof:id": 2031102013,
    "wof:repo": "sfomuseum-data-flights-2026-04"
  },
  "bbox": [
    -122.45555555555556,
    25.81277777777778,
    -80.32888888888888,
    37.65361111111111
  ],
  "geometry": {"coordinates":[[-122.45555555555556,37.65361111111111],[-121.93,37.35388888888889],[-121.02944444444444,37.20055555555556],[-119.78083333333333,36.98972222222222],[-118.89444444444445,36.831388888888895],[-118.56694444444445,36.77027777777778],[-118.39027777777778,36.73638888888889],[-118.21777777777778,36.70472222222222],[-117.68361111111112,36.60166666666667],[-117.69416666666667,36.60388888888889],[-117.17,36.500277777777775],[-116.84277777777777,36.43472222222222],[-116.84277777777777,36.43472222222222],[-116.665,36.39833333333333],[-116.31583333333333,36.32638888888889],[-115.94694444444445,36.24916666666667],[-115.60944444444443,36.17722222222222],[-115.60944444444443,36.17722222222222],[-115.26,36.10138888888889],[-115.04972222222221,36.06305555555555],[-114.7213888888889,36.018055555555556],[-114.7213888888889,36.018055555555556],[-114.13333333333334,35.93416666666666],[-113.62277777777777,35.85722222222223],[-112.99638888888889,35.76027777777778],[-112.99638888888889,35.76027777777778],[-112.69416666666667,35.712500000000006],[-112.1275,35.620555555555555],[-111.52722222222222,35.51972222222222],[-111.52722222222222,35.51972222222222],[-111.37805555555555,35.494166666666665],[-111.13055555555555,35.45166666666667],[-110.94611111111111,35.41916666666666],[-110.3863888888889,35.31944444444445],[-109.83333333333333,35.218333333333334],[-109.83333333333333,35.218333333333334],[-109.47027777777778,35.150277777777774],[-109.47027777777778,35.150277777777774],[-109.2911111111111,35.11611111111111],[-109.10777777777777,35.08083333333334],[-108.74472222222222,35.010555555555555],[-108.56583333333333,34.974444444444444],[-108.2025,34.90333333333333],[-108.03777777777778,34.87],[-107.85638888888889,34.83222222222223],[-107.6763888888889,34.79527777777778],[-107.6763888888889,34.79527777777778],[-107.29444444444444,34.71611111111111],[-106.40333333333334,34.52638888888889],[-106.40333333333334,34.52638888888889],[-106.05027777777778,34.44888888888889],[-105.68861111111111,34.368611111111115],[-105.51722222222222,34.311388888888885],[-105.01638888888888,34.14083333333333],[-104.84333333333333,34.08111111111111],[-104.50166666666667,33.96138888888889],[-104.50166666666667,33.96138888888889],[-104.33277777777778,33.90333333333333],[-104.00888888888889,33.78805555555555],[-103.67111111111112,33.666666666666664],[-103.50194444444445,33.60666666666667],[-103.33444444444444,33.545833333333334],[-103.33388888888888,33.546388888888885],[-103.33388888888888,33.546388888888885],[-103.16305555555556,33.485],[-102.99583333333334,33.422777777777775],[-102.65944444444445,33.29861111111111],[-102.32444444444444,33.17638888888889],[-102.15416666666667,33.11805555555556],[-101.98472222222222,33.05638888888888],[-101.83916666666666,33.00361111111111],[-101.83916666666666,33.00361111111111],[-101.67277777777778,32.943888888888885],[-100.65583333333333,32.57055555555556],[-100.49333333333334,32.51],[-100.36777777777777,32.46222222222222],[-100.33138888888888,32.44916666666666],[-100.20555555555556,32.40222222222222],[-100.01444444444445,32.32944444444445],[-100.01444444444445,32.32944444444445],[-99.86861111111111,32.27361111111111],[-99.71111111111111,32.216944444444444],[-99.38833333333334,32.099722222222226],[-99.2275,32.04055555555556],[-98.90361111111112,31.920833333333334],[-98.7425,31.860833333333336],[-98.58305555555555,31.801111111111112],[-98.58305555555555,31.801111111111112],[-98.42444444444445,31.741944444444446],[-98.42444444444445,31.741666666666667],[-98.26555555555555,31.68166666666667],[-98.1061111111111,31.62138888888889],[-97.94861111111112,31.56138888888889],[-97.79277777777777,31.501666666666665],[-97.47611111111111,31.38],[-97.47638888888889,31.38],[-97.30944444444444,31.331666666666667],[-97.14027777777778,31.288611111111113],[-96.97500000000001,31.246111111111112],[-96.80694444444444,31.202777777777776],[-96.80694444444444,31.202777777777776],[-96.67527777777778,31.168333333333333],[-96.51138888888889,31.12527777777778],[-96.47722222222222,31.116388888888892],[-96.15333333333334,31.03111111111111],[-95.84555555555555,30.948888888888888],[-95.83166666666666,30.945],[-95.52222222222223,30.861666666666668],[-95.36749999999999,30.819444444444443],[-95.36749999999999,30.819444444444443],[-95.21444444444445,30.7775],[-95.05805555555555,30.734444444444446],[-95.05583333333333,30.733888888888888],[-94.90305555555557,30.691944444444445],[-94.86944444444444,30.6825],[-94.74916666666667,30.649166666666666],[-94.59722222222221,30.60638888888889],[-94.14,30.4775],[-93.99055555555556,30.433333333333334],[-93.71944444444445,30.29527777777778],[-93.58888888888889,30.2275],[-93.58888888888889,30.2275],[-93.19222222222223,30.02111111111111],[-93.06527777777778,29.954166666666666],[-92.80333333333333,29.816944444444445],[-92.67500000000001,29.749722222222225],[-92.67500000000001,29.749722222222225],[-92.07138888888889,29.56527777777778],[-92.07138888888889,29.56527777777778],[-91.64666666666668,29.447222222222223],[-91.35694444444444,29.365555555555556],[-91.21583333333334,29.325555555555557],[-91.21583333333334,29.325555555555557],[-90.9325,29.240833333333335],[-90.50472222222223,29.119722222222222],[-89.33361111111111,28.774166666666666],[-89.33361111111111,28.774166666666666],[-88.9038888888889,28.64472222222222],[-88.9038888888889,28.64472222222222],[-88.02,28.37138888888889],[-88.02,28.37138888888889],[-87.57083333333333,28.22972222222222],[-87.57083333333333,28.22972222222222],[-86.41944444444445,27.858611111111113],[-86.36888888888888,27.841944444444444],[-86.07166666666666,27.74361111111111],[-85.9725,27.710833333333333],[-85.89555555555556,27.685277777777777],[-85.74722222222222,27.635833333333334],[-85.74722222222222,27.635833333333334],[-85.00638888888889,27.385833333333334],[-84.94583333333334,27.365000000000002],[-84.85805555555555,27.334999999999997],[-84.80083333333333,27.315555555555555],[-84.71055555555556,27.284444444444446],[-84.50277777777778,27.212777777777777],[-84.50277777777778,27.212777777777777],[-84.35666666666665,27.16222222222222],[-84.06055555555555,27.05888888888889],[-84.00166666666667,27.03805555555556],[-83.91277777777778,27.00722222222222],[-83.8536111111111,26.985833333333336],[-83.67472222222223,26.925],[-83.61416666666666,26.901944444444442],[-83.52527777777777,26.869722222222222],[-83.22694444444444,26.76361111111111],[-83.16944444444445,26.74361111111111],[-83.16944444444445,26.74361111111111],[-82.72500000000001,26.58361111111111],[-82.28,26.421666666666667],[-82.09805555555555,26.354444444444447],[-81.95166666666667,26.3],[-81.95166666666667,26.3],[-81.81888888888888,26.251666666666665],[-81.35749999999999,26.053333333333335],[-81.25277777777778,26.0075],[-81.18527777777778,25.9775],[-81.15194444444445,25.96361111111111],[-81.05527777777777,25.92138888888889],[-80.97361111111111,25.88722222222222],[-80.88777777777779,25.85527777777778],[-80.88777777777779,25.85527777777778],[-80.70583333333333,25.854444444444447],[-80.69083333333333,25.855833333333333],[-80.69083333333333,25.855833333333333],[-80.63111111111111,25.859722222222224],[-80.47916666666667,25.871944444444445],[-80.42500000000001,25.860555555555557],[-80.41666666666667,25.85777777777778],[-80.33555555555554,25.81388888888889],[-80.32888888888888,25.81277777777778]],"type":"LineString"}
}
