{
  "id": 2031096119,
  "type": "Feature",
  "properties": {
    "geom:area": 0,
    "geom:bbox": "-122.533333,33.466667,-111.800000,37.616667",
    "geom:latitude": 36.28592675412744,
    "geom:longitude": -116.8356949383963,
    "src:alt_label": "swim-path",
    "src:geom": "swim",
    "swim:altitudes": [
      "070",
      "116",
      "221",
      "258",
      "259",
      "284",
      "309",
      "324",
      "370C",
      "370C",
      "370C",
      "370C",
      "370C",
      "370C",
      "370C",
      "370",
      "315",
      "304",
      "271",
      "200",
      "122",
      "098",
      "066",
      "040"
    ],
    "swim:geom": "path",
    "swim:speeds": [
      272,
      326,
      366,
      431,
      413,
      455,
      465,
      494,
      526,
      528,
      529,
      491,
      506,
      505,
      507,
      496,
      492,
      485,
      453,
      411,
      308,
      281,
      221,
      205
    ],
    "swim:timestamps": [
      1776971964,
      1776972084,
      1776972368,
      1776972600,
      1776972608,
      1776972849,
      1776972969,
      1776973149,
      1776973630,
      1776973690,
      1776973930,
      1776974187,
      1776974411,
      1776974831,
      1776974993,
      1776975473,
      1776975673,
      1776975714,
      1776975913,
      1776976315,
      1776976629,
      1776976749,
      1776976990,
      1776977110
    ],
    "wof:geomhash": "3cb6ec7b50421d08f867c16f545a1bc1",
    "wof:id": 2031096119,
    "wof:repo": "sfomuseum-data-flights-2026-04"
  },
  "bbox": [
    -122.53333333333333,
    33.46666666666667,
    -111.8,
    37.61666666666667
  ],
  "geometry": {"coordinates":[[-122.53333333333333,37.61666666666667],[-122.43333333333334,37.46666666666667],[-121.90166666666667,37.32055555555556],[-121.34888888888888,37.2075],[-121.34388888888888,37.20722222222223],[-120.72722222222222,37.080000000000005],[-120.41027777777778,37.0125],[-119.91472222222222,36.91],[-118.5525,37.28944444444444],[-118.36805555555554,37.303888888888885],[-117.63611111111112,37.35638888888889],[-117.04055555555556,37.11972222222222],[-116.64361111111111,36.71527777777778],[-115.5761111111111,36.24916666666667],[-115.18333333333334,36.073888888888895],[-113.97638888888889,35.52222222222222],[-113.50027777777778,35.26694444444444],[-113.42277777777778,35.224444444444444],[-112.98444444444445,34.98388888888889],[-112.33194444444445,34.42166666666667],[-112.08333333333333,33.95],[-112.01666666666667,33.8],[-111.88333333333334,33.53333333333333],[-111.8,33.46666666666667]],"type":"LineString"}
}
