{
  "id": 2015359557,
  "type": "Feature",
  "properties": {
    "geom:area": 0,
    "geom:bbox": "-122.552500,32.700000,-116.950000,37.651389",
    "geom:latitude": 34.97649621067519,
    "geom:longitude": -119.95739372126913,
    "src:alt_label": "swim-path",
    "src:geom": "swim",
    "swim:altitudes": [
      "039",
      "039",
      "075",
      "075",
      "110",
      "110",
      "172",
      "172",
      "172",
      "172",
      "172",
      "197",
      "197",
      "197",
      "197",
      "197",
      "256",
      "256",
      "275",
      "275",
      "275",
      "353",
      "353",
      "353",
      "353",
      "370C",
      "370C",
      "370C",
      "370C",
      "370C",
      "370C",
      "370C",
      "370C",
      "370C",
      "370C",
      "370C",
      "370C",
      "370C",
      "370C",
      "370C",
      "370C",
      "370C",
      "370C",
      "370C",
      "370C",
      "370C",
      "370C",
      "370C",
      "370C",
      "370C",
      "370C",
      "370C",
      "370C",
      "370C",
      "370C",
      "370C",
      "370C",
      "370C",
      "370C",
      "370C",
      "370C",
      "370C",
      "370C",
      "370C",
      "370C",
      "370C",
      "370C",
      "370C",
      "370",
      "370",
      "370",
      "370",
      "370",
      "364",
      "364",
      "364",
      "364",
      "349",
      "340",
      "340",
      "340",
      "340",
      "340",
      "340",
      "340",
      "340",
      "282",
      "282",
      "282",
      "225",
      "225",
      "204",
      "204",
      "191",
      "182",
      "151",
      "140",
      "119",
      "119",
      "119",
      "094",
      "078",
      "078",
      "068",
      "068",
      "068",
      "058",
      "058",
      "050",
      "050",
      "042",
      "042",
      "042",
      "023",
      "023",
      "020",
      "011",
      "011",
      "005",
      "005"
    ],
    "swim:geom": "path",
    "swim:speeds": [
      198,
      198,
      254,
      254,
      288,
      288,
      343,
      343,
      343,
      343,
      343,
      359,
      359,
      359,
      359,
      359,
      400,
      400,
      428,
      428,
      428,
      482,
      482,
      482,
      482,
      475,
      475,
      475,
      475,
      475,
      473,
      473,
      473,
      467,
      467,
      467,
      467,
      467,
      467,
      494,
      493,
      493,
      491,
      491,
      491,
      491,
      490,
      490,
      491,
      491,
      491,
      492,
      492,
      492,
      494,
      494,
      494,
      494,
      494,
      494,
      495,
      495,
      495,
      495,
      495,
      495,
      495,
      495,
      498,
      498,
      498,
      498,
      498,
      500,
      500,
      500,
      500,
      478,
      461,
      461,
      461,
      454,
      454,
      454,
      454,
      454,
      482,
      482,
      482,
      444,
      444,
      418,
      418,
      406,
      405,
      386,
      381,
      371,
      371,
      371,
      309,
      282,
      282,
      264,
      264,
      264,
      248,
      248,
      239,
      239,
      212,
      212,
      212,
      171,
      171,
      173,
      141,
      141,
      138,
      138
    ],
    "swim:timestamps": [
      1776867265,
      1776867265,
      1776867325,
      1776867325,
      1776867385,
      1776867385,
      1776867505,
      1776867505,
      1776867505,
      1776867505,
      1776867505,
      1776867565,
      1776867565,
      1776867565,
      1776867565,
      1776867565,
      1776867686,
      1776867686,
      1776867746,
      1776867746,
      1776867746,
      1776868049,
      1776868049,
      1776868049,
      1776868049,
      1776868166,
      1776868166,
      1776868166,
      1776868166,
      1776868166,
      1776868226,
      1776868226,
      1776868226,
      1776868526,
      1776868526,
      1776868526,
      1776868526,
      1776868526,
      1776868526,
      1776868707,
      1776868767,
      1776868767,
      1776868887,
      1776868887,
      1776868887,
      1776868887,
      1776868947,
      1776868947,
      1776869010,
      1776869010,
      1776869010,
      1776869067,
      1776869067,
      1776869067,
      1776869190,
      1776869190,
      1776869190,
      1776869190,
      1776869190,
      1776869190,
      1776869311,
      1776869311,
      1776869311,
      1776869371,
      1776869371,
      1776869371,
      1776869371,
      1776869371,
      1776869551,
      1776869551,
      1776869551,
      1776869551,
      1776869551,
      1776869611,
      1776869611,
      1776869611,
      1776869611,
      1776869671,
      1776869731,
      1776869731,
      1776869731,
      1776869851,
      1776869851,
      1776869851,
      1776869851,
      1776869851,
      1776869972,
      1776869972,
      1776869972,
      1776870092,
      1776870092,
      1776870152,
      1776870152,
      1776870184,
      1776870212,
      1776870299,
      1776870332,
      1776870392,
      1776870392,
      1776870392,
      1776870512,
      1776870572,
      1776870572,
      1776870605,
      1776870605,
      1776870605,
      1776870693,
      1776870693,
      1776870753,
      1776870753,
      1776870791,
      1776870791,
      1776870791,
      1776870911,
      1776870911,
      1776870933,
      1776870993,
      1776870993,
      1776871031,
      1776871031
    ],
    "wof:geomhash": "42ff606015366739fdd7acbf020183e4",
    "wof:id": 2015359557,
    "wof:repo": "sfomuseum-data-flights-2026-04"
  },
  "bbox": [
    -122.5525,
    32.7,
    -116.95,
    37.65138888888889
  ],
  "geometry": {"coordinates":[[-122.44888888888889,37.650555555555556],[-122.44888888888889,37.650555555555556],[-122.53444444444445,37.65138888888889],[-122.53444444444445,37.65138888888889],[-122.53972222222222,37.575],[-122.53972222222222,37.575],[-122.54888888888888,37.39138888888889],[-122.54888888888888,37.39138888888889],[-122.54888888888888,37.39138888888889],[-122.54888888888888,37.39138888888889],[-122.54888888888888,37.39138888888889],[-122.5525,37.29277777777778],[-122.5525,37.29277777777778],[-122.5525,37.29277777777778],[-122.5525,37.29277777777778],[-122.5525,37.29277777777778],[-122.54222222222222,37.08583333333333],[-122.54222222222222,37.08583333333333],[-122.45472222222223,36.99138888888889],[-122.45472222222223,36.99138888888889],[-122.45472222222223,36.99138888888889],[-121.95666666666666,36.46944444444445],[-121.95666666666666,36.46944444444445],[-121.95666666666666,36.46944444444445],[-121.95666666666666,36.46944444444445],[-121.7575,36.25805555555556],[-121.7575,36.25805555555556],[-121.7575,36.25805555555556],[-121.7575,36.25805555555556],[-121.7575,36.25805555555556],[-121.65944444444445,36.15361111111111],[-121.65944444444445,36.15361111111111],[-121.65944444444445,36.15361111111111],[-121.17861111111111,35.635555555555555],[-121.17861111111111,35.635555555555555],[-121.17861111111111,35.635555555555555],[-121.17861111111111,35.635555555555555],[-121.17861111111111,35.635555555555555],[-121.17861111111111,35.635555555555555],[-120.81527777777778,35.369166666666665],[-120.68083333333334,35.29055555555556],[-120.68083333333334,35.29055555555556],[-120.41222222222223,35.132777777777775],[-120.41222222222223,35.132777777777775],[-120.41222222222223,35.132777777777775],[-120.41222222222223,35.132777777777775],[-120.28027777777778,35.055],[-120.28027777777778,35.055],[-120.14055555555557,34.97222222222222],[-120.14055555555557,34.97222222222222],[-120.14055555555557,34.97222222222222],[-120.0125,34.89611111111111],[-120.0125,34.89611111111111],[-120.0125,34.89611111111111],[-119.71777777777778,34.719722222222224],[-119.71777777777778,34.719722222222224],[-119.71777777777778,34.719722222222224],[-119.71777777777778,34.719722222222224],[-119.71777777777778,34.719722222222224],[-119.71777777777778,34.719722222222224],[-119.45861111111111,34.56333333333333],[-119.45861111111111,34.56333333333333],[-119.45861111111111,34.56333333333333],[-119.32444444444444,34.481944444444444],[-119.32444444444444,34.481944444444444],[-119.32444444444444,34.481944444444444],[-119.32444444444444,34.481944444444444],[-119.32444444444444,34.481944444444444],[-118.91888888888889,34.23444444444444],[-118.91888888888889,34.23444444444444],[-118.91888888888889,34.23444444444444],[-118.91888888888889,34.23444444444444],[-118.91888888888889,34.23444444444444],[-118.78472222222221,34.151944444444446],[-118.78472222222221,34.151944444444446],[-118.78472222222221,34.151944444444446],[-118.78472222222221,34.151944444444446],[-118.65444444444445,34.071111111111115],[-118.53027777777778,33.994166666666665],[-118.53027777777778,33.994166666666665],[-118.53027777777778,33.994166666666665],[-118.2936111111111,33.82611111111112],[-118.2936111111111,33.82611111111112],[-118.2936111111111,33.82611111111112],[-118.2936111111111,33.82611111111112],[-118.2936111111111,33.82611111111112],[-118.05444444444444,33.64361111111111],[-118.05444444444444,33.64361111111111],[-118.05444444444444,33.64361111111111],[-117.82944444444443,33.461111111111116],[-117.82944444444443,33.461111111111116],[-117.73444444444445,33.37361111111111],[-117.73444444444445,33.37361111111111],[-117.68333333333334,33.31666666666667],[-117.64527777777778,33.290277777777774],[-117.51666666666667,33.166666666666664],[-117.47555555555556,33.1275],[-117.40527777777778,33.04277777777778],[-117.40527777777778,33.04277777777778],[-117.40527777777778,33.04277777777778],[-117.26,32.89666666666667],[-117.1825,32.85],[-117.1825,32.85],[-117.13333333333334,32.833333333333336],[-117.13333333333334,32.833333333333336],[-117.13333333333334,32.833333333333336],[-117.0436111111111,32.77361111111111],[-117.0436111111111,32.77361111111111],[-116.97,32.753055555555555],[-116.97,32.753055555555555],[-116.95,32.71666666666667],[-116.95,32.71666666666667],[-116.95,32.71666666666667],[-117.06666666666666,32.7],[-117.06666666666666,32.7],[-117.08277777777778,32.7075],[-117.12777777777777,32.718333333333334],[-117.12777777777777,32.718333333333334],[-117.15,32.733333333333334],[-117.15,32.733333333333334]],"type":"LineString"}
}
