{
  "id": 2031141669,
  "type": "Feature",
  "properties": {
    "geom:area": 0,
    "geom:bbox": "-123.490390,37.160110,-122.101680,37.612490",
    "geom:latitude": 37.3352314312521,
    "geom:longitude": -122.68352245878393,
    "src:alt_label": "swim-approach",
    "src:geom": "swim",
    "swim:elevations": [
      5486,
      5201,
      5148,
      4664,
      4566,
      4392,
      4247,
      3962,
      3808,
      3483,
      3111,
      3045,
      3048,
      3048,
      3048,
      3048,
      3048,
      2867,
      2558,
      2493,
      2403,
      2250,
      2020,
      1829,
      1675,
      1499,
      1270,
      1219,
      1219,
      1219,
      1219,
      1219,
      1219,
      1219,
      1159,
      985,
      838,
      638,
      526,
      425,
      323,
      201,
      91,
      32
    ],
    "swim:geom": "approach",
    "swim:timestamps": [
      1777492092,
      1777492133,
      1777492141,
      1777492187,
      1777492202,
      1777492224,
      1777492240,
      1777492275,
      1777492292,
      1777492327,
      1777492375,
      1777492389,
      1777492429,
      1777492465,
      1777492470,
      1777492495,
      1777492505,
      1777492535,
      1777492577,
      1777492592,
      1777492620,
      1777492668,
      1777492702,
      1777492760,
      1777492843,
      1777492868,
      1777492897,
      1777492931,
      1777492967,
      1777492980,
      1777493007,
      1777493031,
      1777493060,
      1777493079,
      1777493101,
      1777493142,
      1777493172,
      1777493213,
      1777493242,
      1777493266,
      1777493299,
      1777493331,
      1777493360,
      1777493374
    ],
    "wof:geomhash": "481606e52e858e48b0c30372d69cd76f",
    "wof:id": 2031141669,
    "wof:repo": "sfomuseum-data-flights-2026-04"
  },
  "bbox": [
    -123.49039,
    37.16011,
    -122.10168,
    37.61249
  ],
  "geometry": {"coordinates":[[-123.49039,37.16011],[-123.41517,37.17235],[-123.40143,37.17451],[-123.31465,37.18804],[-123.28706,37.19236],[-123.24686,37.19865],[-123.21478,37.20371],[-123.14581,37.21436],[-123.11184,37.21953],[-123.04224,37.23021],[-122.9508,37.24425],[-122.92634,37.24806],[-122.85265,37.26039],[-122.78687,37.27544],[-122.77804,37.27747],[-122.73443,37.2877],[-122.71875,37.2914],[-122.67211,37.30234],[-122.60664,37.31753],[-122.58253,37.32316],[-122.54128,37.33268],[-122.47719,37.3475],[-122.43376,37.35746],[-122.37726,37.39278],[-122.28461,37.41675],[-122.25125,37.41469],[-122.21315,37.41242],[-122.16818,37.409],[-122.13082,37.41673],[-122.12393,37.42685],[-122.11072,37.44842],[-122.10168,37.46798],[-122.11568,37.49029],[-122.12741,37.50333],[-122.14066,37.51833],[-122.17532,37.53691],[-122.20186,37.54817],[-122.23797,37.56344],[-122.26145,37.57333],[-122.27961,37.58092],[-122.30227,37.59043],[-122.32385,37.59959],[-122.3445,37.60828],[-122.35476,37.61249]],"type":"LineString"}
}
