{
  "id": 2031146093,
  "type": "Feature",
  "properties": {
    "geom:area": 0,
    "geom:bbox": "-122.380000,37.620000,-70.930000,44.760000",
    "geom:latitude": 43.06540143379823,
    "geom:longitude": -96.93269070667354,
    "src:alt_label": "swim-route",
    "src:geom": "swim",
    "swim:geom": "route",
    "wof:geomhash": "3f970336da1bf50469ad852eca66de39",
    "wof:id": 2031146093,
    "wof:repo": "sfomuseum-data-flights-2026-04"
  },
  "bbox": [
    -122.38,
    37.62,
    -70.93,
    44.76
  ],
  "geometry": {"coordinates":[[-122.38,37.62],[-122.28,37.68],[-122.27,37.69],[-122.27,37.69],[-122.21,37.72],[-122.21,37.73],[-122.2,37.73],[-122.18,37.75],[-122.14,37.79],[-122.13,37.81],[-122.07,37.88],[-122.03,37.92],[-121.9,38.06],[-121.9,38.06],[-121.85,38.12],[-121.81,38.17],[-121.73,38.25],[-121.71,38.27],[-121.64,38.35],[-121.55,38.44],[-121.55,38.45],[-121.49,38.48],[-121.47,38.49],[-121.31,38.59],[-121.24,38.64],[-121.16,38.68],[-121.09,38.73],[-121.07,38.73],[-120.18,39.04],[-120.13,39.07],[-119.8,39.42],[-117.91,40.21],[-117.87,40.23],[-117.7,40.29],[-116.88,40.62],[-116.67,40.7],[-114.84,41.38],[-114.49,41.51],[-113.32,41.92],[-112.07,42.34],[-109.8,42.98],[-107.21,43.41],[-106.61,43.5],[-106.23,43.56],[-103.01,43.98],[-101.44,44.16],[-101.29,44.18],[-100.54,44.25],[-99.34,44.37],[-98.14,44.47],[-96.93,44.56],[-95.6,44.65],[-94.88,44.68],[-93.89,44.73],[-93.21,44.76],[-93.11,44.75],[-93.09,44.75],[-92.07,44.72],[-90.07,44.63],[-89.5,44.6],[-88.78,44.55],[-87.25,44.46],[-86.3,44.39],[-85.03,44.29],[-82.21,44.01],[-82.21,44.01],[-81.28,43.9],[-81.01,43.87],[-80.21,43.77],[-79.62,43.69],[-79.04,43.61],[-78.75,43.57],[-78.2,43.49],[-77.62,43.4],[-77.14,43.33],[-76.77,43.27],[-76.16,43.08],[-76.02,42.99],[-75.97,42.96],[-75.94,42.94],[-75.82,42.9],[-75.66,42.89],[-75.02,42.85],[-74.72,42.82],[-74.54,42.82],[-74.26,42.8],[-73.87,42.78],[-73.49,42.75],[-73,42.71],[-72.78,42.7],[-72.63,42.68],[-72.32,42.65],[-72.04,42.61],[-71.96,42.6],[-71.84,42.59],[-71.82,42.59],[-71.75,42.57],[-71.61,42.55],[-71.59,42.55],[-71.59,42.54],[-71.43,42.52],[-71.37,42.5],[-71.35,42.5],[-71.25,42.48],[-71.16,42.46],[-71.16,42.46],[-71.06,42.45],[-71.03,42.45],[-70.99,42.39],[-70.96,42.35],[-70.95,42.34],[-70.93,42.31],[-70.95,42.27],[-70.97,42.24],[-70.98,42.21],[-70.99,42.18],[-70.99,42.2],[-71,42.28],[-71.01,42.35],[-71.01,42.36]],"type":"LineString"}
}
