{
  "id": 2031103963,
  "type": "Feature",
  "properties": {
    "geom:area": 0,
    "geom:bbox": "-122.564167,36.000833,-114.966667,37.650556",
    "geom:latitude": 36.98472048474012,
    "geom:longitude": -118.66051433055071,
    "src:alt_label": "swim-path",
    "src:geom": "swim",
    "swim:altitudes": [
      "019",
      "019",
      "063",
      "063",
      "063",
      "180",
      "180",
      "180",
      "211",
      "213",
      "213",
      "213",
      "213",
      "262",
      "262",
      "272",
      "277",
      "277",
      "283",
      "283",
      "288C",
      "288C",
      "290C",
      "290C",
      "291",
      "297",
      "297",
      "297",
      "300",
      "300",
      "310C",
      "310C",
      "310C",
      "310C",
      "310C",
      "310C",
      "310C",
      "310C",
      "310C",
      "311C",
      "311C",
      "311C",
      "310C",
      "310C",
      "310C",
      "310C",
      "310C",
      "310C",
      "310C",
      "310C",
      "310C",
      "310C",
      "310C",
      "310C",
      "310C",
      "310C",
      "310C",
      "310C",
      "310C",
      "310C",
      "310C",
      "310C",
      "310C",
      "310C",
      "310C",
      "310C",
      "310C",
      "310C",
      "310C",
      "310C",
      "310C",
      "310C",
      "310C",
      "310C",
      "310",
      "310",
      "310",
      "304",
      "304",
      "291",
      "286",
      "255",
      "255",
      "255",
      "250",
      "250",
      "236",
      "232",
      "232",
      "214",
      "214",
      "214",
      "214",
      "193",
      "193",
      "193",
      "173",
      "173",
      "173",
      "119",
      "119",
      "113",
      "106",
      "099",
      "099",
      "094",
      "094",
      "090",
      "090",
      "090",
      "086",
      "084",
      "084",
      "077",
      "077",
      "045",
      "045",
      "045",
      "034",
      "034",
      "026",
      "026",
      "026",
      "022",
      "022",
      "022"
    ],
    "swim:geom": "path",
    "swim:speeds": [
      162,
      162,
      268,
      268,
      268,
      341,
      341,
      341,
      377,
      398,
      398,
      398,
      398,
      416,
      416,
      418,
      427,
      427,
      423,
      423,
      436,
      436,
      435,
      435,
      441,
      443,
      443,
      443,
      451,
      451,
      461,
      461,
      461,
      470,
      476,
      476,
      476,
      476,
      476,
      474,
      474,
      474,
      472,
      472,
      472,
      470,
      470,
      469,
      469,
      468,
      468,
      467,
      467,
      466,
      466,
      466,
      466,
      466,
      464,
      464,
      464,
      464,
      464,
      464,
      464,
      464,
      463,
      464,
      464,
      464,
      464,
      464,
      463,
      463,
      461,
      460,
      460,
      433,
      433,
      405,
      397,
      372,
      372,
      372,
      372,
      372,
      370,
      370,
      370,
      363,
      363,
      363,
      363,
      385,
      385,
      385,
      343,
      343,
      343,
      329,
      329,
      316,
      311,
      302,
      302,
      304,
      304,
      303,
      303,
      303,
      282,
      263,
      263,
      220,
      220,
      185,
      185,
      185,
      142,
      142,
      141,
      141,
      141,
      142,
      142,
      142
    ],
    "swim:timestamps": [
      1777064581,
      1777064581,
      1777064701,
      1777064701,
      1777064701,
      1777064995,
      1777064995,
      1777064995,
      1777065115,
      1777065122,
      1777065122,
      1777065122,
      1777065122,
      1777065302,
      1777065302,
      1777065356,
      1777065374,
      1777065374,
      1777065416,
      1777065416,
      1777065434,
      1777065434,
      1777065476,
      1777065476,
      1777065554,
      1777065596,
      1777065596,
      1777065596,
      1777065614,
      1777065614,
      1777065716,
      1777065716,
      1777065716,
      1777065795,
      1777065896,
      1777065896,
      1777065896,
      1777065956,
      1777065956,
      1777066035,
      1777066035,
      1777066035,
      1777066137,
      1777066137,
      1777066137,
      1777066197,
      1777066215,
      1777066257,
      1777066257,
      1777066275,
      1777066275,
      1777066317,
      1777066317,
      1777066377,
      1777066377,
      1777066377,
      1777066516,
      1777066516,
      1777066617,
      1777066636,
      1777066636,
      1777066636,
      1777066678,
      1777066678,
      1777066678,
      1777066696,
      1777066738,
      1777066816,
      1777066816,
      1777066858,
      1777066876,
      1777066876,
      1777066936,
      1777066936,
      1777066978,
      1777066996,
      1777066996,
      1777067038,
      1777067038,
      1777067098,
      1777067116,
      1777067218,
      1777067218,
      1777067218,
      1777067237,
      1777067237,
      1777067278,
      1777067297,
      1777067297,
      1777067357,
      1777067357,
      1777067357,
      1777067357,
      1777067699,
      1777067699,
      1777067699,
      1777067819,
      1777067819,
      1777067819,
      1777068060,
      1777068060,
      1777068086,
      1777068120,
      1777068153,
      1777068153,
      1777068180,
      1777068180,
      1777068201,
      1777068201,
      1777068201,
      1777068240,
      1777068261,
      1777068261,
      1777068327,
      1777068327,
      1777068480,
      1777068480,
      1777068480,
      1777068563,
      1777068563,
      1777068623,
      1777068623,
      1777068623,
      1777068660,
      1777068660,
      1777068660
    ],
    "wof:geomhash": "5b43ac5aa24fef9348b5ff8e568838eb",
    "wof:id": 2031103963,
    "wof:repo": "sfomuseum-data-flights-2026-04"
  },
  "bbox": [
    -122.56416666666667,
    36.00083333333333,
    -114.96666666666667,
    37.650555555555556
  ],
  "geometry": {"coordinates":[[-122.415,37.6375],[-122.415,37.6375],[-122.56416666666667,37.650555555555556],[-122.56416666666667,37.650555555555556],[-122.56416666666667,37.650555555555556],[-122.13277777777778,37.42666666666666],[-122.13277777777778,37.42666666666666],[-122.13277777777778,37.42666666666666],[-121.8775,37.365833333333335],[-121.86194444444443,37.365833333333335],[-121.86194444444443,37.365833333333335],[-121.86194444444443,37.365833333333335],[-121.86194444444443,37.365833333333335],[-121.43027777777779,37.26694444444444],[-121.43027777777779,37.26694444444444],[-121.31722222222221,37.239444444444445],[-121.25916666666667,37.227222222222224],[-121.25916666666667,37.227222222222224],[-121.1725,37.20638888888889],[-121.1725,37.20638888888889],[-121.11333333333333,37.19333333333333],[-121.11333333333333,37.19333333333333],[-121.02388888888889,37.17194444444444],[-121.02388888888889,37.17194444444444],[-120.81805555555555,37.12388888888889],[-120.72611111111111,37.10111111111111],[-120.72611111111111,37.10111111111111],[-120.72611111111111,37.10111111111111],[-120.66916666666667,37.08833333333334],[-120.66916666666667,37.08833333333334],[-120.41638888888889,37.027499999999996],[-120.41638888888889,37.027499999999996],[-120.41638888888889,37.027499999999996],[-120.19833333333334,36.975],[-119.93555555555555,36.9375],[-119.93555555555555,36.9375],[-119.93555555555555,36.9375],[-119.7713888888889,36.95],[-119.7713888888889,36.95],[-119.57833333333333,37.001666666666665],[-119.57833333333333,37.001666666666665],[-119.57833333333333,37.001666666666665],[-119.31055555555555,37.08833333333334],[-119.31055555555555,37.08833333333334],[-119.31055555555555,37.08833333333334],[-119.14500000000001,37.14138888888889],[-119.12472222222222,37.14805555555556],[-118.9925,37.19027777777777],[-118.9925,37.19027777777777],[-118.97361111111111,37.19638888888888],[-118.97361111111111,37.19638888888888],[-118.84388888888888,37.237500000000004],[-118.84388888888888,37.237500000000004],[-118.68694444444445,37.276666666666664],[-118.68694444444445,37.276666666666664],[-118.68694444444445,37.276666666666664],[-118.33305555555555,37.30611111111111],[-118.33305555555555,37.30611111111111],[-118.04388888888889,37.3275],[-118.01027777777777,37.330000000000005],[-118.01027777777777,37.330000000000005],[-118.01027777777777,37.330000000000005],[-117.88388888888889,37.33916666666667],[-117.88388888888889,37.33916666666667],[-117.88388888888889,37.33916666666667],[-117.85166666666666,37.34138888888889],[-117.72333333333333,37.35027777777778],[-117.53,37.36222222222222],[-117.53,37.36222222222222],[-117.4025,37.35388888888889],[-117.36999999999999,37.348888888888894],[-117.36999999999999,37.348888888888894],[-117.21638888888889,37.30833333333333],[-117.21638888888889,37.30833333333333],[-117.10527777777777,37.25888888888889],[-117.08027777777778,37.24472222222222],[-117.08027777777778,37.24472222222222],[-116.98694444444445,37.18083333333333],[-116.98694444444445,37.18083333333333],[-116.88194444444444,37.10472222222222],[-116.86388888888888,37.087500000000006],[-116.72972222222222,36.931666666666665],[-116.72972222222222,36.931666666666665],[-116.72972222222222,36.931666666666665],[-116.71472222222222,36.91444444444444],[-116.71472222222222,36.91444444444444],[-116.65777777777778,36.84666666666667],[-116.64416666666668,36.830555555555556],[-116.64416666666668,36.830555555555556],[-116.57305555555556,36.74722222222222],[-116.57305555555556,36.74722222222222],[-116.57305555555556,36.74722222222222],[-116.57305555555556,36.74722222222222],[-116.02055555555556,36.316944444444445],[-116.02055555555556,36.316944444444445],[-116.02055555555556,36.316944444444445],[-115.83722222222222,36.19361111111111],[-115.83722222222222,36.19361111111111],[-115.83722222222222,36.19361111111111],[-115.41722222222222,36.03583333333333],[-115.41722222222222,36.03583333333333],[-115.36972222222222,36.02055555555555],[-115.31416666666667,36.013888888888886],[-115.25416666666666,36.01111111111111],[-115.25416666666666,36.01111111111111],[-115.21083333333334,36.00944444444445],[-115.21083333333334,36.00944444444445],[-115.17166666666667,36.00666666666667],[-115.17166666666667,36.00666666666667],[-115.17166666666667,36.00666666666667],[-115.11305555555555,36.004444444444445],[-115.07833333333333,36.0025],[-115.07833333333333,36.0025],[-114.98722222222223,36.00083333333333],[-114.98722222222223,36.00083333333333],[-114.96666666666667,36.07333333333334],[-114.96666666666667,36.07333333333334],[-114.96666666666667,36.07333333333334],[-115.04305555555555,36.07333333333334],[-115.04305555555555,36.07333333333334],[-115.09305555555555,36.07277777777778],[-115.09305555555555,36.07277777777778],[-115.09305555555555,36.07277777777778],[-115.12166666666666,36.07361111111111],[-115.12166666666666,36.07361111111111],[-115.12166666666666,36.07361111111111]],"type":"LineString"}
}
