{
  "id": 2015256009,
  "type": "Feature",
  "properties": {
    "geom:area": 0,
    "geom:bbox": "-122.562930,36.719760,-122.202210,37.664730",
    "geom:latitude": 37.147709290433994,
    "geom:longitude": -122.43279231538278,
    "src:alt_label": "swim-takeoff",
    "src:geom": "swim",
    "swim:elevations": [
      7159,
      7688,
      8066,
      8345,
      8357,
      8418,
      8564,
      8780,
      8916,
      183,
      460,
      685,
      969,
      1269,
      1658,
      2150,
      2324,
      3040,
      3318,
      3651,
      3988,
      4127,
      4534,
      4957,
      5411,
      5495,
      6181,
      6600,
      6871,
      7150,
      7333,
      7690,
      7903,
      8232,
      8353,
      8767,
      8873
    ],
    "swim:geom": "takeoff",
    "swim:timestamps": [
      1775804410,
      1775804452,
      1775804480,
      1775804516,
      1775804529,
      1775804545,
      1775804566,
      1775804595,
      1775804616,
      1775889716,
      1775889738,
      1775889775,
      1775889798,
      1775889828,
      1775889857,
      1775889891,
      1775889906,
      1775889956,
      1775889987,
      1775890013,
      1775890034,
      1775890046,
      1775890073,
      1775890104,
      1775890137,
      1775890143,
      1775890195,
      1775890228,
      1775890250,
      1775890279,
      1775890300,
      1775890336,
      1775890360,
      1775890403,
      1775890418,
      1775890466,
      1775890478
    ],
    "wof:geomhash": "0bcbba96b022ffc8b345eb8114fbbd89",
    "wof:id": 2015256009,
    "wof:repo": "sfomuseum-data-flights-2026-04"
  },
  "bbox": [
    -122.56293,
    36.71976,
    -122.20221,
    37.66473
  ],
  "geometry": {"coordinates":[[-122.56293,37.04301],[-122.54196,36.97569],[-122.51131,36.9341],[-122.47276,36.88161],[-122.45798,36.86182],[-122.43937,36.83582],[-122.41411,36.80187],[-122.37905,36.75395],[-122.35396,36.71976],[-122.39408,37.62675],[-122.4142,37.63539],[-122.4526,37.65182],[-122.47947,37.66368],[-122.51882,37.66473],[-122.53817,37.63737],[-122.53805,37.59803],[-122.53828,37.58111],[-122.54044,37.5189],[-122.54233,37.47846],[-122.54401,37.44217],[-122.54481,37.41128],[-122.54547,37.39455],[-122.54742,37.35495],[-122.54921,37.30786],[-122.55103,37.25656],[-122.55142,37.24726],[-122.55707,37.16496],[-122.55594,37.11088],[-122.53727,37.0768],[-122.4975,37.03542],[-122.46799,37.00471],[-122.41623,36.95091],[-122.38163,36.91456],[-122.31719,36.84766],[-122.29413,36.82381],[-122.22074,36.74678],[-122.20221,36.72738]],"type":"LineString"}
}
