{
  "id": 2015291521,
  "type": "Feature",
  "properties": {
    "geom:area": 0,
    "geom:bbox": "-123.446540,37.625830,-122.391780,38.499850",
    "geom:latitude": 38.050313924891384,
    "geom:longitude": -122.92885426047023,
    "src:alt_label": "swim-takeoff",
    "src:geom": "swim",
    "swim:elevations": [
      122,
      569,
      948,
      1063,
      1130,
      1454,
      1964,
      2086,
      2386,
      2934,
      3264,
      3519,
      3620,
      3634,
      3993,
      4436,
      4538,
      4931,
      5415,
      5413,
      5856,
      6002,
      6286,
      6516,
      6651,
      6949,
      7222,
      7305
    ],
    "swim:geom": "takeoff",
    "swim:timestamps": [
      1776166725,
      1776166756,
      1776166795,
      1776166808,
      1776166835,
      1776166876,
      1776166915,
      1776166927,
      1776166951,
      1776166990,
      1776167027,
      1776167068,
      1776167097,
      1776167101,
      1776167136,
      1776167181,
      1776167191,
      1776167226,
      1776167276,
      1776167280,
      1776167332,
      1776167348,
      1776167389,
      1776167408,
      1776167433,
      1776167476,
      1776167518,
      1776167529
    ],
    "wof:geomhash": "340c383b5b7f94af540bd9c10813ef31",
    "wof:id": 2015291521,
    "wof:repo": "sfomuseum-data-flights-2026-04"
  },
  "bbox": [
    -123.44654,
    37.62583,
    -122.39178,
    38.49985
  ],
  "geometry": {"coordinates":[[-122.39178,37.62583],[-122.42115,37.63902],[-122.45764,37.65474],[-122.46975,37.66],[-122.49903,37.67294],[-122.54791,37.70078],[-122.59767,37.73042],[-122.61201,37.73875],[-122.64354,37.75705],[-122.69418,37.78703],[-122.74287,37.8156],[-122.78889,37.86099],[-122.81984,37.89954],[-122.82469,37.90552],[-122.86552,37.95507],[-122.91966,38.02004],[-122.93187,38.03467],[-122.97542,38.08678],[-123.03736,38.16077],[-123.04236,38.16677],[-123.10817,38.2452],[-123.12925,38.27034],[-123.18186,38.33297],[-123.20812,38.36374],[-123.2517,38.39857],[-123.33683,38.44381],[-123.42269,38.48775],[-123.44654,38.49985]],"type":"LineString"}
}
