{
  "id": 2015241339,
  "type": "Feature",
  "properties": {
    "geom:area": 0,
    "geom:bbox": "-122.404167,35.794444,-78.833056,40.183333",
    "geom:latitude": 38.82110354942438,
    "geom:longitude": -100.19881559987745,
    "src:alt_label": "swim-path",
    "src:geom": "swim",
    "swim:altitudes": [
      "011",
      "011",
      "011",
      "033",
      "052",
      "052",
      "052",
      "078",
      "078",
      "097",
      "097",
      "097",
      "107",
      "107",
      "107",
      "190",
      "190",
      "190",
      "190",
      "190",
      "205",
      "205",
      "222",
      "222",
      "238",
      "238",
      "238",
      "238",
      "238",
      "265",
      "265",
      "265",
      "276",
      "276",
      "276",
      "295",
      "295",
      "297",
      "310",
      "310",
      "310",
      "310",
      "320",
      "320",
      "321",
      "321",
      "321",
      "330C",
      "330C",
      "330C",
      "330C",
      "330C",
      "330C",
      "330C",
      "330C",
      "330C",
      "330C",
      "330C",
      "330C",
      "330C",
      "330C",
      "330C",
      "330C",
      "330C",
      "330C",
      "330C",
      "330C",
      "330C",
      "330C",
      "330C",
      "330C",
      "330C",
      "330C",
      "330C",
      "330C",
      "330C",
      "330C",
      "330C",
      "330C",
      "330C",
      "330C",
      "330C",
      "330C",
      "330C",
      "330C",
      "330C",
      "330C",
      "330C",
      "330C",
      "330C",
      "330C",
      "330C",
      "330C",
      "330C",
      "330C",
      "330C",
      "330C",
      "330C",
      "330C",
      "330C",
      "330C",
      "330C",
      "330C",
      "330C",
      "330C",
      "330C",
      "330C",
      "330C",
      "330C",
      "330C",
      "330C",
      "330C",
      "330C",
      "330C",
      "330C",
      "330C",
      "330C",
      "330C",
      "330C",
      "330C",
      "330C",
      "330C",
      "330C",
      "330C",
      "330C",
      "330C",
      "330C",
      "330C",
      "330C",
      "330C",
      "330C",
      "330C",
      "330C",
      "330C",
      "330C",
      "330C",
      "330C",
      "330C",
      "330C",
      "330C",
      "330C",
      "330C",
      "330C",
      "330C",
      "330C",
      "330C",
      "330C",
      "330",
      "330",
      "330",
      "330",
      "330",
      "350C",
      "350C",
      "350C",
      "350C",
      "350C",
      "350C",
      "350C",
      "350C",
      "350C",
      "350C",
      "350C",
      "350C",
      "350C",
      "350C",
      "350C",
      "350C",
      "350C",
      "350C",
      "350C",
      "350C",
      "350C",
      "350C",
      "350C",
      "350C",
      "350C",
      "350C",
      "350C",
      "350C",
      "350C",
      "350C",
      "350C",
      "350C",
      "350C",
      "350C",
      "350C",
      "350C",
      "350C",
      "350C",
      "350C",
      "350C",
      "350C",
      "350C",
      "350C",
      "350C",
      "350C",
      "350C",
      "350C",
      "350C",
      "350C",
      "350C",
      "350C",
      "350C",
      "350C",
      "350C",
      "350C",
      "350C",
      "350C",
      "350C",
      "350C",
      "350C",
      "350C",
      "350C",
      "350C",
      "350C",
      "350C",
      "350C",
      "350C",
      "350C",
      "350C",
      "350C",
      "350C",
      "350C",
      "350C",
      "350C",
      "350C",
      "350C",
      "350C",
      "350C",
      "350C",
      "350C",
      "350C",
      "350C",
      "350C",
      "350C",
      "350C",
      "350C",
      "350C",
      "350C",
      "350C",
      "350C",
      "350C",
      "350C",
      "350C",
      "350C",
      "350C",
      "350C",
      "350C",
      "350C",
      "350C",
      "350C",
      "350C",
      "350C",
      "350C",
      "350C",
      "350C",
      "350C",
      "350C",
      "350C",
      "350C",
      "350C",
      "350C",
      "350C",
      "350C",
      "350C",
      "350C",
      "350C",
      "350C",
      "350C",
      "350C",
      "350C",
      "350C",
      "350C",
      "350C",
      "350C",
      "350C",
      "350C",
      "350C",
      "350C",
      "350C",
      "350C",
      "350C",
      "350C",
      "350C",
      "350C",
      "350C",
      "350C",
      "350C",
      "350C",
      "350C",
      "350C",
      "350C",
      "350C",
      "350C",
      "350C",
      "350C",
      "350C",
      "350C",
      "350C",
      "350C",
      "350C",
      "350C",
      "350C",
      "350C",
      "350C",
      "350C",
      "350C",
      "350C",
      "350C",
      "350C",
      "350C",
      "350C",
      "350C",
      "350C",
      "350C",
      "350C",
      "350C",
      "350C",
      "350C",
      "350C",
      "350C",
      "350C",
      "350C",
      "350C",
      "350C",
      "350C",
      "350C",
      "350C",
      "350C",
      "350C",
      "350C",
      "350C",
      "350C",
      "350C",
      "350C",
      "350C",
      "350C",
      "350C",
      "350C",
      "350C",
      "350C",
      "350C",
      "350C",
      "350C",
      "350C",
      "350C",
      "350C",
      "350C",
      "350C",
      "350C",
      "350C",
      "350C",
      "350C",
      "350C",
      "350C",
      "350C",
      "350C",
      "350C",
      "350C",
      "350C",
      "350C",
      "350C",
      "350C",
      "350C",
      "350C",
      "350C",
      "350C",
      "350C",
      "350C",
      "350C",
      "350C",
      "350C",
      "350C",
      "350C",
      "350C",
      "350C",
      "350C",
      "350C",
      "350C",
      "350C",
      "350C",
      "350C",
      "350C",
      "350C",
      "350C",
      "350C",
      "350C",
      "350C",
      "350C",
      "350C",
      "350C",
      "350C",
      "350C",
      "350C",
      "350C",
      "350C",
      "350C",
      "350C",
      "350C",
      "350C",
      "350C",
      "350C",
      "350C",
      "350C",
      "350C",
      "350C",
      "350C",
      "350C",
      "350C",
      "350C",
      "350C",
      "350C",
      "350C",
      "350C",
      "350C",
      "350C",
      "350C",
      "350C",
      "350C",
      "350C",
      "350C",
      "350C",
      "350C",
      "350C",
      "350C",
      "350C",
      "350C",
      "350C",
      "350C",
      "350C",
      "350C",
      "350C",
      "350C",
      "350C",
      "350C",
      "350C",
      "350C",
      "350C",
      "350C",
      "350C",
      "350C",
      "350C",
      "350C",
      "350C",
      "350C",
      "350C",
      "350C",
      "350C",
      "350C",
      "350C",
      "350C",
      "350C",
      "350C",
      "350C",
      "350C",
      "350C",
      "350C",
      "350C",
      "350C",
      "350C",
      "350C",
      "350C",
      "350C",
      "350C",
      "350C",
      "350C",
      "350C",
      "350C",
      "350C",
      "350C",
      "350C",
      "350C",
      "350C",
      "350C",
      "350C",
      "350C",
      "350C",
      "350C",
      "350C",
      "350C",
      "350C",
      "350C",
      "350C",
      "350C",
      "350C",
      "350C",
      "350C",
      "350C",
      "350C",
      "350C",
      "350C",
      "350C",
      "350C",
      "350C",
      "350C",
      "350C",
      "350C",
      "350C",
      "350C",
      "350C",
      "350C",
      "350C",
      "350C",
      "350C",
      "350C",
      "350C",
      "350C",
      "350C",
      "350C",
      "350C",
      "350C",
      "350C",
      "350C",
      "350C",
      "350C",
      "350C",
      "350C",
      "350C",
      "350C",
      "350C",
      "350C",
      "350C",
      "350C",
      "350C",
      "350C",
      "350C",
      "350C",
      "350C",
      "350C",
      "350C",
      "350C",
      "350C",
      "350C",
      "350C",
      "350C",
      "350C",
      "350C",
      "350C",
      "350C",
      "350C",
      "350C",
      "350C",
      "350C",
      "350C",
      "350C",
      "350C",
      "350C",
      "350C",
      "350C",
      "350C",
      "350C",
      "350C",
      "350C",
      "350C",
      "350C",
      "350C",
      "350C",
      "350C",
      "350C",
      "350C",
      "350",
      "350",
      "350",
      "345",
      "342",
      "342",
      "329",
      "329",
      "329",
      "309",
      "309",
      "309",
      "290C",
      "290C",
      "290C",
      "290C",
      "290C",
      "290C",
      "290C",
      "290C",
      "286",
      "286",
      "286",
      "286",
      "286",
      "252",
      "252",
      "252",
      "246",
      "246",
      "246",
      "246",
      "232",
      "232",
      "232",
      "225",
      "225",
      "221",
      "221",
      "221",
      "221",
      "201",
      "201",
      "201",
      "201",
      "141",
      "141",
      "141",
      "141",
      "141",
      "141",
      "120",
      "120",
      "120",
      "120",
      "111",
      "111",
      "109",
      "109",
      "109",
      "109",
      "088",
      "088",
      "080",
      "080",
      "080",
      "079",
      "068",
      "068",
      "068",
      "057",
      "057",
      "057",
      "056",
      "056",
      "043",
      "043",
      "043",
      "033",
      "033",
      "023",
      "019",
      "019",
      "019",
      "019"
    ],
    "swim:geom": "path",
    "swim:speeds": [
      181,
      181,
      181,
      191,
      264,
      264,
      264,
      281,
      281,
      292,
      292,
      292,
      354,
      354,
      354,
      413,
      413,
      413,
      413,
      413,
      433,
      433,
      444,
      444,
      452,
      452,
      452,
      452,
      452,
      470,
      470,
      470,
      475,
      475,
      475,
      493,
      493,
      495,
      494,
      494,
      494,
      494,
      490,
      490,
      492,
      492,
      492,
      487,
      487,
      487,
      487,
      487,
      487,
      487,
      486,
      486,
      486,
      486,
      486,
      486,
      486,
      485,
      485,
      485,
      485,
      485,
      485,
      487,
      487,
      487,
      487,
      487,
      486,
      486,
      486,
      486,
      486,
      486,
      486,
      483,
      483,
      483,
      483,
      483,
      483,
      483,
      480,
      480,
      480,
      480,
      480,
      485,
      485,
      485,
      485,
      487,
      487,
      487,
      487,
      487,
      487,
      487,
      487,
      487,
      487,
      487,
      487,
      487,
      488,
      488,
      488,
      488,
      489,
      489,
      489,
      489,
      489,
      489,
      488,
      488,
      488,
      488,
      488,
      489,
      489,
      489,
      489,
      489,
      490,
      490,
      490,
      490,
      490,
      490,
      490,
      490,
      490,
      490,
      489,
      489,
      489,
      489,
      487,
      487,
      487,
      487,
      487,
      491,
      491,
      491,
      491,
      491,
      494,
      494,
      495,
      495,
      495,
      495,
      495,
      496,
      496,
      496,
      497,
      497,
      497,
      497,
      498,
      498,
      498,
      498,
      498,
      501,
      501,
      501,
      501,
      501,
      501,
      500,
      500,
      500,
      499,
      499,
      499,
      499,
      498,
      498,
      499,
      499,
      499,
      499,
      499,
      499,
      503,
      503,
      503,
      503,
      503,
      503,
      501,
      501,
      500,
      500,
      500,
      500,
      500,
      494,
      494,
      494,
      494,
      494,
      494,
      492,
      492,
      492,
      490,
      490,
      490,
      490,
      490,
      490,
      490,
      490,
      490,
      489,
      489,
      489,
      500,
      500,
      500,
      500,
      500,
      500,
      499,
      495,
      495,
      495,
      490,
      490,
      490,
      490,
      490,
      493,
      493,
      493,
      493,
      497,
      497,
      497,
      498,
      498,
      498,
      498,
      498,
      498,
      495,
      495,
      495,
      495,
      495,
      495,
      495,
      495,
      498,
      498,
      498,
      498,
      497,
      497,
      497,
      497,
      497,
      497,
      497,
      486,
      486,
      486,
      486,
      476,
      476,
      476,
      476,
      476,
      476,
      478,
      478,
      478,
      476,
      476,
      479,
      477,
      477,
      477,
      477,
      477,
      477,
      477,
      478,
      477,
      477,
      477,
      477,
      478,
      478,
      478,
      478,
      478,
      478,
      479,
      479,
      480,
      480,
      480,
      481,
      481,
      481,
      483,
      483,
      483,
      483,
      484,
      484,
      485,
      485,
      486,
      486,
      486,
      487,
      487,
      487,
      487,
      488,
      488,
      488,
      488,
      488,
      488,
      488,
      488,
      488,
      488,
      488,
      488,
      488,
      488,
      488,
      488,
      488,
      485,
      485,
      485,
      485,
      485,
      485,
      483,
      483,
      483,
      483,
      483,
      482,
      482,
      480,
      480,
      480,
      480,
      480,
      480,
      480,
      480,
      480,
      480,
      480,
      481,
      481,
      481,
      481,
      481,
      481,
      481,
      481,
      481,
      481,
      481,
      481,
      481,
      481,
      481,
      481,
      481,
      481,
      477,
      477,
      477,
      477,
      477,
      475,
      475,
      475,
      475,
      475,
      474,
      474,
      474,
      474,
      474,
      474,
      474,
      474,
      473,
      473,
      473,
      473,
      473,
      473,
      473,
      471,
      471,
      471,
      471,
      472,
      472,
      472,
      472,
      472,
      476,
      476,
      476,
      476,
      476,
      476,
      476,
      476,
      476,
      476,
      476,
      477,
      477,
      477,
      477,
      477,
      478,
      478,
      478,
      478,
      478,
      478,
      478,
      478,
      478,
      478,
      478,
      478,
      478,
      478,
      478,
      478,
      478,
      479,
      479,
      479,
      479,
      479,
      479,
      479,
      480,
      480,
      480,
      482,
      482,
      483,
      483,
      483,
      483,
      483,
      483,
      483,
      483,
      484,
      484,
      484,
      484,
      484,
      484,
      482,
      482,
      482,
      482,
      482,
      481,
      481,
      481,
      481,
      481,
      481,
      481,
      481,
      482,
      482,
      482,
      482,
      482,
      482,
      482,
      482,
      482,
      482,
      482,
      482,
      482,
      482,
      482,
      482,
      482,
      482,
      482,
      482,
      482,
      482,
      482,
      482,
      482,
      482,
      482,
      482,
      482,
      482,
      482,
      482,
      486,
      486,
      486,
      486,
      486,
      490,
      490,
      490,
      490,
      492,
      492,
      492,
      495,
      495,
      495,
      495,
      495,
      494,
      494,
      494,
      493,
      492,
      492,
      492,
      492,
      492,
      494,
      495,
      495,
      495,
      495,
      495,
      495,
      495,
      495,
      495,
      495,
      495,
      495,
      495,
      495,
      495,
      495,
      496,
      496,
      496,
      501,
      501,
      501,
      501,
      502,
      502,
      502,
      502,
      502,
      502,
      502,
      502,
      502,
      477,
      477,
      477,
      474,
      474,
      474,
      474,
      463,
      463,
      463,
      458,
      458,
      455,
      455,
      455,
      455,
      436,
      436,
      436,
      436,
      397,
      397,
      397,
      397,
      397,
      397,
      317,
      300,
      300,
      300,
      296,
      296,
      297,
      297,
      297,
      297,
      287,
      287,
      261,
      261,
      261,
      264,
      247,
      247,
      247,
      231,
      231,
      231,
      234,
      234,
      230,
      230,
      230,
      221,
      221,
      195,
      175,
      175,
      175,
      175
    ],
    "swim:timestamps": [
      1775658047,
      1775658047,
      1775658047,
      1775658108,
      1775658170,
      1775658170,
      1775658170,
      1775658230,
      1775658230,
      1775658288,
      1775658288,
      1775658288,
      1775658348,
      1775658348,
      1775658348,
      1775658588,
      1775658588,
      1775658588,
      1775658588,
      1775658588,
      1775658648,
      1775658648,
      1775658708,
      1775658708,
      1775658768,
      1775658768,
      1775658768,
      1775658768,
      1775658768,
      1775658907,
      1775658907,
      1775658907,
      1775658967,
      1775658967,
      1775658967,
      1775659068,
      1775659068,
      1775659088,
      1775659148,
      1775659148,
      1775659148,
      1775659148,
      1775659189,
      1775659189,
      1775659208,
      1775659208,
      1775659208,
      1775659309,
      1775659309,
      1775659328,
      1775659328,
      1775659328,
      1775659388,
      1775659388,
      1775659429,
      1775659429,
      1775659429,
      1775659429,
      1775659508,
      1775659508,
      1775659508,
      1775659568,
      1775659568,
      1775659568,
      1775659568,
      1775659609,
      1775659669,
      1775659688,
      1775659688,
      1775659808,
      1775659808,
      1775659808,
      1775659849,
      1775659849,
      1775659849,
      1775659869,
      1775659869,
      1775659869,
      1775659929,
      1775660029,
      1775660049,
      1775660049,
      1775660049,
      1775660049,
      1775660049,
      1775660049,
      1775660229,
      1775660229,
      1775660229,
      1775660229,
      1775660229,
      1775660390,
      1775660390,
      1775660390,
      1775660390,
      1775660469,
      1775660469,
      1775660469,
      1775660469,
      1775660510,
      1775660510,
      1775660510,
      1775660529,
      1775660650,
      1775660650,
      1775660650,
      1775660650,
      1775660650,
      1775660710,
      1775660710,
      1775660710,
      1775660710,
      1775660830,
      1775660830,
      1775660830,
      1775660890,
      1775660890,
      1775660890,
      1775661070,
      1775661070,
      1775661070,
      1775661070,
      1775661070,
      1775661190,
      1775661190,
      1775661190,
      1775661190,
      1775661190,
      1775661310,
      1775661310,
      1775661310,
      1775661310,
      1775661491,
      1775661491,
      1775661551,
      1775661551,
      1775661551,
      1775661551,
      1775661671,
      1775661671,
      1775661671,
      1775661671,
      1775661971,
      1775661971,
      1775661971,
      1775661971,
      1775661971,
      1775662135,
      1775662135,
      1775662135,
      1775662135,
      1775662135,
      1775662332,
      1775662332,
      1775662392,
      1775662392,
      1775662392,
      1775662392,
      1775662392,
      1775662495,
      1775662495,
      1775662495,
      1775662615,
      1775662615,
      1775662615,
      1775662615,
      1775662692,
      1775662692,
      1775662692,
      1775662692,
      1775662692,
      1775662916,
      1775662916,
      1775662916,
      1775662916,
      1775662916,
      1775662916,
      1775662976,
      1775662976,
      1775662976,
      1775663036,
      1775663036,
      1775663036,
      1775663036,
      1775663096,
      1775663096,
      1775663156,
      1775663156,
      1775663156,
      1775663156,
      1775663173,
      1775663173,
      1775663396,
      1775663396,
      1775663396,
      1775663396,
      1775663396,
      1775663396,
      1775663457,
      1775663457,
      1775663517,
      1775663517,
      1775663517,
      1775663517,
      1775663517,
      1775663757,
      1775663757,
      1775663757,
      1775663757,
      1775663757,
      1775663757,
      1775663817,
      1775663817,
      1775663817,
      1775663937,
      1775663937,
      1775663937,
      1775663937,
      1775663997,
      1775663997,
      1775663997,
      1775663997,
      1775663997,
      1775664057,
      1775664057,
      1775664057,
      1775664358,
      1775664358,
      1775664358,
      1775664358,
      1775664418,
      1775664418,
      1775664478,
      1775664538,
      1775664538,
      1775664538,
      1775664658,
      1775664658,
      1775664658,
      1775664658,
      1775664658,
      1775664718,
      1775664718,
      1775664718,
      1775664718,
      1775664838,
      1775664838,
      1775664838,
      1775665079,
      1775665079,
      1775665079,
      1775665079,
      1775665079,
      1775665079,
      1775665282,
      1775665282,
      1775665282,
      1775665282,
      1775665282,
      1775665379,
      1775665379,
      1775665379,
      1775665559,
      1775665559,
      1775665559,
      1775665582,
      1775665619,
      1775665619,
      1775665619,
      1775665702,
      1775665702,
      1775665702,
      1775665702,
      1775665822,
      1775665822,
      1775665822,
      1775665822,
      1775666040,
      1775666040,
      1775666040,
      1775666100,
      1775666100,
      1775666100,
      1775666123,
      1775666123,
      1775666123,
      1775666141,
      1775666141,
      1775666183,
      1775666201,
      1775666201,
      1775666201,
      1775666201,
      1775666201,
      1775666220,
      1775666220,
      1775666243,
      1775666321,
      1775666321,
      1775666400,
      1775666400,
      1775666441,
      1775666441,
      1775666441,
      1775666441,
      1775666461,
      1775666461,
      1775666483,
      1775666483,
      1775666521,
      1775666521,
      1775666521,
      1775666581,
      1775666581,
      1775666581,
      1775666663,
      1775666681,
      1775666681,
      1775666681,
      1775666742,
      1775666742,
      1775666784,
      1775666784,
      1775666802,
      1775666802,
      1775666802,
      1775666862,
      1775666862,
      1775666862,
      1775666862,
      1775666922,
      1775666922,
      1775666922,
      1775666964,
      1775666964,
      1775666964,
      1775666982,
      1775667084,
      1775667084,
      1775667084,
      1775667102,
      1775667102,
      1775667162,
      1775667162,
      1775667162,
      1775667162,
      1775667162,
      1775667324,
      1775667324,
      1775667324,
      1775667324,
      1775667324,
      1775667324,
      1775667402,
      1775667402,
      1775667402,
      1775667402,
      1775667402,
      1775667444,
      1775667444,
      1775667523,
      1775667523,
      1775667523,
      1775667523,
      1775667523,
      1775667583,
      1775667583,
      1775667625,
      1775667643,
      1775667643,
      1775667643,
      1775667685,
      1775667685,
      1775667703,
      1775667703,
      1775667703,
      1775667703,
      1775667703,
      1775667745,
      1775667745,
      1775667805,
      1775667805,
      1775667805,
      1775667883,
      1775667883,
      1775667925,
      1775667925,
      1775667925,
      1775667925,
      1775668045,
      1775668045,
      1775668045,
      1775668045,
      1775668045,
      1775668165,
      1775668165,
      1775668165,
      1775668165,
      1775668165,
      1775668286,
      1775668286,
      1775668286,
      1775668286,
      1775668346,
      1775668346,
      1775668346,
      1775668346,
      1775668406,
      1775668406,
      1775668406,
      1775668526,
      1775668526,
      1775668526,
      1775668526,
      1775668646,
      1775668646,
      1775668646,
      1775668646,
      1775668766,
      1775668766,
      1775668766,
      1775668766,
      1775668766,
      1775668946,
      1775668946,
      1775668946,
      1775668946,
      1775668946,
      1775669067,
      1775669067,
      1775669067,
      1775669127,
      1775669127,
      1775669127,
      1775669187,
      1775669187,
      1775669187,
      1775669187,
      1775669247,
      1775669422,
      1775669422,
      1775669422,
      1775669542,
      1775669542,
      1775669542,
      1775669542,
      1775669602,
      1775669602,
      1775669662,
      1775669662,
      1775669662,
      1775669722,
      1775669722,
      1775669722,
      1775669722,
      1775669722,
      1775669908,
      1775669908,
      1775669908,
      1775669908,
      1775669963,
      1775669963,
      1775669963,
      1775670023,
      1775670023,
      1775670023,
      1775670083,
      1775670083,
      1775670143,
      1775670143,
      1775670143,
      1775670143,
      1775670203,
      1775670203,
      1775670203,
      1775670203,
      1775670388,
      1775670388,
      1775670388,
      1775670388,
      1775670388,
      1775670388,
      1775670624,
      1775670624,
      1775670624,
      1775670624,
      1775670624,
      1775670684,
      1775670684,
      1775670744,
      1775670744,
      1775670804,
      1775670804,
      1775670804,
      1775670804,
      1775671104,
      1775671104,
      1775671104,
      1775671104,
      1775671104,
      1775671285,
      1775671285,
      1775671285,
      1775671285,
      1775671285,
      1775671285,
      1775671465,
      1775671465,
      1775671465,
      1775671465,
      1775671525,
      1775671525,
      1775671585,
      1775671585,
      1775671585,
      1775671585,
      1775671585,
      1775671645,
      1775671645,
      1775671645,
      1775671765,
      1775671765,
      1775671765,
      1775671765,
      1775671765,
      1775671825,
      1775671825,
      1775671945,
      1775671945,
      1775671945,
      1775671945,
      1775671945,
      1775672006,
      1775672006,
      1775672006,
      1775672006,
      1775672066,
      1775672066,
      1775672066,
      1775672246,
      1775672246,
      1775672246,
      1775672246,
      1775672246,
      1775672306,
      1775672306,
      1775672306,
      1775672383,
      1775672426,
      1775672426,
      1775672426,
      1775672426,
      1775672426,
      1775672486,
      1775672546,
      1775672546,
      1775672546,
      1775672546,
      1775672564,
      1775672564,
      1775672606,
      1775672624,
      1775672624,
      1775672624,
      1775672666,
      1775672684,
      1775672684,
      1775672726,
      1775672726,
      1775672726,
      1775672804,
      1775672804,
      1775672804,
      1775672907,
      1775672907,
      1775672907,
      1775672907,
      1775672967,
      1775672967,
      1775672985,
      1775672985,
      1775673027,
      1775673027,
      1775673027,
      1775673027,
      1775673027,
      1775673225,
      1775673225,
      1775673225,
      1775673267,
      1775673267,
      1775673267,
      1775673267,
      1775673345,
      1775673345,
      1775673345,
      1775673387,
      1775673387,
      1775673405,
      1775673405,
      1775673405,
      1775673405,
      1775673525,
      1775673525,
      1775673525,
      1775673525,
      1775673706,
      1775673706,
      1775673706,
      1775673706,
      1775673706,
      1775673706,
      1775673826,
      1775673886,
      1775673886,
      1775673886,
      1775673937,
      1775673937,
      1775673946,
      1775673946,
      1775673946,
      1775673946,
      1775674051,
      1775674051,
      1775674112,
      1775674112,
      1775674112,
      1775674124,
      1775674172,
      1775674172,
      1775674172,
      1775674232,
      1775674232,
      1775674232,
      1775674244,
      1775674244,
      1775674292,
      1775674292,
      1775674292,
      1775674364,
      1775674364,
      1775674412,
      1775674478,
      1775674478,
      1775674478,
      1775674478
    ],
    "wof:geomhash": "c537561c8432796af86fe43a221068b6",
    "wof:id": 2015241339,
    "wof:repo": "sfomuseum-data-flights-2026-04"
  },
  "bbox": [
    -122.40416666666667,
    35.794444444444444,
    -78.83305555555555,
    40.18333333333333
  ],
  "geometry": {"coordinates":[[-122.40416666666667,37.63166666666667],[-122.40416666666667,37.63166666666667],[-122.40416666666667,37.63166666666667],[-122.3775,37.666666666666664],[-122.28333333333333,37.7],[-122.28333333333333,37.7],[-122.28333333333333,37.7],[-122.2,37.733333333333334],[-122.2,37.733333333333334],[-122.12666666666667,37.763333333333335],[-122.12666666666667,37.763333333333335],[-122.12666666666667,37.763333333333335],[-122.02944444444444,37.81361111111111],[-122.02944444444444,37.81361111111111],[-122.02944444444444,37.81361111111111],[-121.52805555555555,38.014722222222225],[-121.52805555555555,38.014722222222225],[-121.52805555555555,38.014722222222225],[-121.52805555555555,38.014722222222225],[-121.52805555555555,38.014722222222225],[-121.39222222222223,38.06805555555556],[-121.39222222222223,38.06805555555556],[-121.25194444444445,38.12222222222222],[-121.25194444444445,38.12222222222222],[-121.11138888888888,38.17666666666666],[-121.11138888888888,38.17666666666666],[-121.11138888888888,38.17666666666666],[-121.11138888888888,38.17666666666666],[-121.11138888888888,38.17666666666666],[-120.76361111111112,38.24333333333333],[-120.76361111111112,38.24333333333333],[-120.76361111111112,38.24333333333333],[-120.59694444444445,38.266666666666666],[-120.59694444444445,38.266666666666666],[-120.59694444444445,38.266666666666666],[-120.28722222222223,38.31083333333333],[-120.28722222222223,38.31083333333333],[-120.2538888888889,38.31388888888888],[-120.08305555555555,38.33722222222222],[-120.08305555555555,38.33722222222222],[-120.08305555555555,38.33722222222222],[-120.08305555555555,38.33722222222222],[-119.94527777777778,38.35722222222223],[-119.94527777777778,38.35722222222223],[-119.91416666666667,38.359722222222224],[-119.91416666666667,38.359722222222224],[-119.91416666666667,38.359722222222224],[-119.60749999999999,38.401111111111106],[-119.60749999999999,38.401111111111106],[-119.57694444444444,38.403055555555554],[-119.57694444444444,38.403055555555554],[-119.57694444444444,38.403055555555554],[-119.40805555555556,38.42611111111111],[-119.40805555555556,38.42611111111111],[-119.27083333333333,38.44472222222222],[-119.27083333333333,38.44472222222222],[-119.27083333333333,38.44472222222222],[-119.27083333333333,38.44472222222222],[-119.03777777777778,38.473888888888894],[-119.03777777777778,38.473888888888894],[-119.03777777777778,38.473888888888894],[-118.86944444444444,38.49444444444445],[-118.86944444444444,38.49444444444445],[-118.86944444444444,38.49444444444445],[-118.86944444444444,38.49444444444445],[-118.76611111111112,38.50805555555556],[-118.59777777777778,38.52861111111111],[-118.53833333333333,38.53583333333333],[-118.53833333333333,38.53583333333333],[-118.19888888888889,38.57638888888889],[-118.19888888888889,38.57638888888889],[-118.19888888888889,38.57638888888889],[-118.08888888888889,38.589444444444446],[-118.08888888888889,38.589444444444446],[-118.08888888888889,38.589444444444446],[-118.02694444444444,38.59666666666667],[-118.02694444444444,38.59666666666667],[-118.02694444444444,38.59666666666667],[-117.85638888888889,38.61611111111111],[-117.58111111111111,38.6475],[-117.51805555555555,38.65472222222222],[-117.51805555555555,38.65472222222222],[-117.51805555555555,38.65472222222222],[-117.51805555555555,38.65472222222222],[-117.51805555555555,38.65472222222222],[-117.51805555555555,38.65472222222222],[-117.01,38.72833333333333],[-117.01,38.72833333333333],[-117.01,38.72833333333333],[-117.01,38.72833333333333],[-117.01,38.72833333333333],[-116.56805555555555,38.802499999999995],[-116.56805555555555,38.802499999999995],[-116.56805555555555,38.802499999999995],[-116.56805555555555,38.802499999999995],[-116.32972222222222,38.84166666666667],[-116.32972222222222,38.84166666666667],[-116.32972222222222,38.84166666666667],[-116.32972222222222,38.84166666666667],[-116.22611111111111,38.858333333333334],[-116.22611111111111,38.858333333333334],[-116.22611111111111,38.858333333333334],[-116.16000000000001,38.86888888888889],[-115.82055555555556,38.92333333333333],[-115.82055555555556,38.92333333333333],[-115.82055555555556,38.92333333333333],[-115.82055555555556,38.92333333333333],[-115.82055555555556,38.92333333333333],[-115.64888888888889,38.95055555555556],[-115.64888888888889,38.95055555555556],[-115.64888888888889,38.95055555555556],[-115.64888888888889,38.95055555555556],[-115.30833333333334,39.00333333333333],[-115.30833333333334,39.00333333333333],[-115.30833333333334,39.00333333333333],[-115.13833333333334,39.02916666666667],[-115.13833333333334,39.02916666666667],[-115.13833333333334,39.02916666666667],[-114.61972222222222,39.106944444444444],[-114.61972222222222,39.106944444444444],[-114.61972222222222,39.106944444444444],[-114.61972222222222,39.106944444444444],[-114.61972222222222,39.106944444444444],[-114.27722222222222,39.156666666666666],[-114.27722222222222,39.156666666666666],[-114.27722222222222,39.156666666666666],[-114.27722222222222,39.156666666666666],[-114.27722222222222,39.156666666666666],[-113.94055555555556,39.20472222222222],[-113.94055555555556,39.20472222222222],[-113.94055555555556,39.20472222222222],[-113.94055555555556,39.20472222222222],[-113.42583333333334,39.27611111111111],[-113.42583333333334,39.27611111111111],[-113.25222222222222,39.29972222222222],[-113.25222222222222,39.29972222222222],[-113.25222222222222,39.29972222222222],[-113.25222222222222,39.29972222222222],[-112.91055555555556,39.355000000000004],[-112.91055555555556,39.355000000000004],[-112.91055555555556,39.355000000000004],[-112.91055555555556,39.355000000000004],[-112.05666666666666,39.49138888888889],[-112.05666666666666,39.49138888888889],[-112.05666666666666,39.49138888888889],[-112.05666666666666,39.49138888888889],[-112.05666666666666,39.49138888888889],[-111.59166666666667,39.504444444444445],[-111.59166666666667,39.504444444444445],[-111.59166666666667,39.504444444444445],[-111.59166666666667,39.504444444444445],[-111.59166666666667,39.504444444444445],[-110.98666666666666,39.50805555555556],[-110.98666666666666,39.50805555555556],[-110.81055555555555,39.50888888888889],[-110.81055555555555,39.50888888888889],[-110.81055555555555,39.50888888888889],[-110.81055555555555,39.50888888888889],[-110.81055555555555,39.50888888888889],[-110.48944444444444,39.50888888888889],[-110.48944444444444,39.50888888888889],[-110.48944444444444,39.50888888888889],[-110.13361111111112,39.50805555555556],[-110.13361111111112,39.50805555555556],[-110.13361111111112,39.50805555555556],[-110.13361111111112,39.50805555555556],[-109.9175,39.507222222222225],[-109.9175,39.507222222222225],[-109.9175,39.507222222222225],[-109.9175,39.507222222222225],[-109.9175,39.507222222222225],[-109.23527777777778,39.50138888888889],[-109.23527777777778,39.50138888888889],[-109.23527777777778,39.50138888888889],[-109.23527777777778,39.50138888888889],[-109.23527777777778,39.50138888888889],[-109.23527777777778,39.50138888888889],[-109.05611111111111,39.49944444444444],[-109.05611111111111,39.49944444444444],[-109.05611111111111,39.49944444444444],[-108.87972222222221,39.496944444444445],[-108.87972222222221,39.496944444444445],[-108.87972222222221,39.496944444444445],[-108.87972222222221,39.496944444444445],[-108.70861111111111,39.49638888888889],[-108.70861111111111,39.49638888888889],[-108.5175,39.49861111111111],[-108.5175,39.49861111111111],[-108.5175,39.49861111111111],[-108.5175,39.49861111111111],[-108.495,39.49861111111111],[-108.495,39.49861111111111],[-107.79861111111111,39.505],[-107.79861111111111,39.505],[-107.79861111111111,39.505],[-107.79861111111111,39.505],[-107.79861111111111,39.505],[-107.79861111111111,39.505],[-107.62249999999999,39.50972222222222],[-107.62249999999999,39.50972222222222],[-107.45277777777778,39.51361111111111],[-107.45277777777778,39.51361111111111],[-107.45277777777778,39.51361111111111],[-107.45277777777778,39.51361111111111],[-107.45277777777778,39.51361111111111],[-106.74444444444444,39.526944444444446],[-106.74444444444444,39.526944444444446],[-106.74444444444444,39.526944444444446],[-106.74444444444444,39.526944444444446],[-106.74444444444444,39.526944444444446],[-106.74444444444444,39.526944444444446],[-106.56805555555555,39.52972222222222],[-106.56805555555555,39.52972222222222],[-106.56805555555555,39.52972222222222],[-106.22722222222222,39.53388888888889],[-106.22722222222222,39.53388888888889],[-106.22722222222222,39.53388888888889],[-106.22722222222222,39.53388888888889],[-106.02416666666666,39.53611111111111],[-106.02416666666666,39.53611111111111],[-106.02416666666666,39.53611111111111],[-106.02416666666666,39.53611111111111],[-106.02416666666666,39.53611111111111],[-105.8475,39.53777777777778],[-105.8475,39.53777777777778],[-105.8475,39.53777777777778],[-104.96027777777778,39.53388888888889],[-104.96027777777778,39.53388888888889],[-104.96027777777778,39.53388888888889],[-104.96027777777778,39.53388888888889],[-104.78416666666666,39.52833333333333],[-104.78416666666666,39.52833333333333],[-104.61555555555555,39.522777777777776],[-104.43972222222223,39.52611111111111],[-104.43972222222223,39.52611111111111],[-104.43972222222223,39.52611111111111],[-104.09944444444444,39.59055555555556],[-104.09944444444444,39.59055555555556],[-104.09944444444444,39.59055555555556],[-104.09944444444444,39.59055555555556],[-104.09944444444444,39.59055555555556],[-103.92750000000001,39.62305555555555],[-103.92750000000001,39.62305555555555],[-103.92750000000001,39.62305555555555],[-103.92750000000001,39.62305555555555],[-103.58027777777778,39.68888888888888],[-103.58027777777778,39.68888888888888],[-103.58027777777778,39.68888888888888],[-102.88083333333333,39.816944444444445],[-102.88083333333333,39.816944444444445],[-102.88083333333333,39.816944444444445],[-102.88083333333333,39.816944444444445],[-102.88083333333333,39.816944444444445],[-102.88083333333333,39.816944444444445],[-102.2936111111111,39.92055555555555],[-102.2936111111111,39.92055555555555],[-102.2936111111111,39.92055555555555],[-102.2936111111111,39.92055555555555],[-102.2936111111111,39.92055555555555],[-101.98416666666667,39.974722222222226],[-101.98416666666667,39.974722222222226],[-101.98416666666667,39.974722222222226],[-101.45805555555556,40.06361111111111],[-101.45805555555556,40.06361111111111],[-101.45805555555556,40.06361111111111],[-101.41083333333334,40.07083333333334],[-101.28333333333333,40.092222222222226],[-101.28333333333333,40.092222222222226],[-101.28333333333333,40.092222222222226],[-101.06083333333333,40.12972222222222],[-101.06083333333333,40.12972222222222],[-101.06083333333333,40.12972222222222],[-101.06083333333333,40.12972222222222],[-100.71611111111112,40.18333333333333],[-100.71611111111112,40.18333333333333],[-100.71611111111112,40.18333333333333],[-100.71611111111112,40.18333333333333],[-100.08555555555554,40.15],[-100.08555555555554,40.15],[-100.08555555555554,40.15],[-99.91388888888889,40.13111111111111],[-99.91388888888889,40.13111111111111],[-99.91388888888889,40.13111111111111],[-99.84444444444443,40.12361111111111],[-99.84444444444443,40.12361111111111],[-99.84444444444443,40.12361111111111],[-99.78833333333333,40.1175],[-99.78833333333333,40.1175],[-99.69194444444445,40.10666666666667],[-99.61722222222221,40.098333333333336],[-99.61722222222221,40.098333333333336],[-99.61722222222221,40.098333333333336],[-99.61722222222221,40.098333333333336],[-99.61722222222221,40.098333333333336],[-99.58583333333333,40.094722222222224],[-99.58583333333333,40.094722222222224],[-99.51861111111111,40.08722222222222],[-99.275,40.05972222222222],[-99.275,40.05972222222222],[-99.07388888888889,40.03638888888889],[-99.07388888888889,40.03638888888889],[-98.935,40.01972222222222],[-98.935,40.01972222222222],[-98.935,40.01972222222222],[-98.935,40.01972222222222],[-98.90333333333334,40.01611111111111],[-98.90333333333334,40.01611111111111],[-98.83638888888889,40.00805555555556],[-98.83638888888889,40.00805555555556],[-98.73027777777779,39.99527777777778],[-98.73027777777779,39.99527777777778],[-98.73027777777779,39.99527777777778],[-98.55749999999999,39.974444444444444],[-98.55749999999999,39.974444444444444],[-98.55749999999999,39.974444444444444],[-98.32,39.94499999999999],[-98.2461111111111,39.93583333333333],[-98.2461111111111,39.93583333333333],[-98.2461111111111,39.93583333333333],[-98.07305555555556,39.91416666666667],[-98.07305555555556,39.91416666666667],[-97.97222222222223,39.90138888888889],[-97.97222222222223,39.90138888888889],[-97.89833333333334,39.89194444444444],[-97.89833333333334,39.89194444444444],[-97.89833333333334,39.89194444444444],[-97.72527777777778,39.86972222222222],[-97.72527777777778,39.86972222222222],[-97.72527777777778,39.86972222222222],[-97.72527777777778,39.86972222222222],[-97.55138888888888,39.84722222222222],[-97.55138888888888,39.84722222222222],[-97.55138888888888,39.84722222222222],[-97.45138888888889,39.83416666666667],[-97.45138888888889,39.83416666666667],[-97.45138888888889,39.83416666666667],[-97.37722222222222,39.82416666666667],[-97.10555555555555,39.78777777777778],[-97.10555555555555,39.78777777777778],[-97.10555555555555,39.78777777777778],[-97.05388888888889,39.780833333333334],[-97.05388888888889,39.780833333333334],[-96.84916666666666,39.753055555555555],[-96.84916666666666,39.753055555555555],[-96.84916666666666,39.753055555555555],[-96.84916666666666,39.753055555555555],[-96.84916666666666,39.753055555555555],[-96.41722222222222,39.684999999999995],[-96.41722222222222,39.684999999999995],[-96.41722222222222,39.684999999999995],[-96.41722222222222,39.684999999999995],[-96.41722222222222,39.684999999999995],[-96.41722222222222,39.684999999999995],[-96.17083333333333,39.63138888888889],[-96.17083333333333,39.63138888888889],[-96.17083333333333,39.63138888888889],[-96.17083333333333,39.63138888888889],[-96.17083333333333,39.63138888888889],[-96.0825,39.61194444444445],[-96.0825,39.61194444444445],[-95.84194444444444,39.55888888888889],[-95.84194444444444,39.55888888888889],[-95.84194444444444,39.55888888888889],[-95.84194444444444,39.55888888888889],[-95.84194444444444,39.55888888888889],[-95.67694444444444,39.5225],[-95.67694444444444,39.5225],[-95.58388888888888,39.501666666666665],[-95.50972222222222,39.485],[-95.50972222222222,39.485],[-95.50972222222222,39.485],[-95.40055555555556,39.46027777777778],[-95.40055555555556,39.46027777777778],[-95.34555555555555,39.44777777777777],[-95.34555555555555,39.44777777777777],[-95.34555555555555,39.44777777777777],[-95.34555555555555,39.44777777777777],[-95.34555555555555,39.44777777777777],[-95.23,39.42166666666667],[-95.23,39.42166666666667],[-95.07805555555555,39.386944444444445],[-95.07805555555555,39.386944444444445],[-95.07805555555555,39.386944444444445],[-94.8536111111111,39.33555555555556],[-94.8536111111111,39.33555555555556],[-94.74722222222222,39.31083333333333],[-94.74722222222222,39.31083333333333],[-94.74722222222222,39.31083333333333],[-94.74722222222222,39.31083333333333],[-94.41944444444445,39.23416666666667],[-94.41944444444445,39.23416666666667],[-94.41944444444445,39.23416666666667],[-94.41944444444445,39.23416666666667],[-94.41944444444445,39.23416666666667],[-94.09638888888888,39.157222222222224],[-94.09638888888888,39.157222222222224],[-94.09638888888888,39.157222222222224],[-94.09638888888888,39.157222222222224],[-94.09638888888888,39.157222222222224],[-93.77083333333333,39.07916666666667],[-93.77083333333333,39.07916666666667],[-93.77083333333333,39.07916666666667],[-93.77083333333333,39.07916666666667],[-93.61138888888888,39.040277777777774],[-93.61138888888888,39.040277777777774],[-93.61138888888888,39.040277777777774],[-93.61138888888888,39.040277777777774],[-93.44916666666667,39.00055555555556],[-93.44916666666667,39.00055555555556],[-93.44916666666667,39.00055555555556],[-93.11999999999999,38.91888888888889],[-93.11999999999999,38.91888888888889],[-93.11999999999999,38.91888888888889],[-93.11999999999999,38.91888888888889],[-92.79861111111111,38.83861111111111],[-92.79861111111111,38.83861111111111],[-92.79861111111111,38.83861111111111],[-92.79861111111111,38.83861111111111],[-92.47722222222222,38.75694444444444],[-92.47722222222222,38.75694444444444],[-92.47722222222222,38.75694444444444],[-92.47722222222222,38.75694444444444],[-92.47722222222222,38.75694444444444],[-91.99194444444444,38.63166666666667],[-91.99194444444444,38.63166666666667],[-91.99194444444444,38.63166666666667],[-91.99194444444444,38.63166666666667],[-91.99194444444444,38.63166666666667],[-91.66944444444445,38.54694444444444],[-91.66944444444445,38.54694444444444],[-91.66944444444445,38.54694444444444],[-91.50916666666667,38.504444444444445],[-91.50916666666667,38.504444444444445],[-91.50916666666667,38.504444444444445],[-91.34666666666666,38.46138888888889],[-91.34666666666666,38.46138888888889],[-91.34666666666666,38.46138888888889],[-91.34666666666666,38.46138888888889],[-91.1875,38.419999999999995],[-90.71583333333334,38.3975],[-90.71583333333334,38.3975],[-90.71583333333334,38.3975],[-90.37805555555555,38.391666666666666],[-90.37805555555555,38.391666666666666],[-90.37805555555555,38.391666666666666],[-90.37805555555555,38.391666666666666],[-90.20861111111111,38.38638888888889],[-90.20861111111111,38.38638888888889],[-90.03916666666666,38.37138888888889],[-90.03916666666666,38.37138888888889],[-90.03916666666666,38.37138888888889],[-89.87083333333332,38.36472222222223],[-89.87083333333332,38.36472222222223],[-89.87083333333332,38.36472222222223],[-89.87083333333332,38.36472222222223],[-89.87083333333332,38.36472222222223],[-89.34222222222222,38.34027777777778],[-89.34222222222222,38.34027777777778],[-89.34222222222222,38.34027777777778],[-89.34222222222222,38.34027777777778],[-89.19500000000001,38.333333333333336],[-89.19500000000001,38.333333333333336],[-89.19500000000001,38.333333333333336],[-89.02333333333333,38.325],[-89.02333333333333,38.325],[-89.02333333333333,38.325],[-88.85444444444444,38.31666666666667],[-88.85444444444444,38.31666666666667],[-88.68194444444445,38.3075],[-88.68194444444445,38.3075],[-88.68194444444445,38.3075],[-88.68194444444445,38.3075],[-88.50888888888889,38.29833333333333],[-88.50888888888889,38.29833333333333],[-88.50888888888889,38.29833333333333],[-88.50888888888889,38.29833333333333],[-87.99361111111111,38.26972222222222],[-87.99361111111111,38.26972222222222],[-87.99361111111111,38.26972222222222],[-87.99361111111111,38.26972222222222],[-87.99361111111111,38.26972222222222],[-87.99361111111111,38.26972222222222],[-87.31666666666666,38.22805555555556],[-87.31666666666666,38.22805555555556],[-87.31666666666666,38.22805555555556],[-87.31666666666666,38.22805555555556],[-87.31666666666666,38.22805555555556],[-87.14972222222222,38.217222222222226],[-87.14972222222222,38.217222222222226],[-86.98694444444445,38.20638888888889],[-86.98694444444445,38.20638888888889],[-86.82166666666666,38.195277777777775],[-86.82166666666666,38.195277777777775],[-86.82166666666666,38.195277777777775],[-86.82166666666666,38.195277777777775],[-85.97527777777778,38.13444444444444],[-85.97527777777778,38.13444444444444],[-85.97527777777778,38.13444444444444],[-85.97527777777778,38.13444444444444],[-85.97527777777778,38.13444444444444],[-85.46583333333334,38.08916666666667],[-85.46583333333334,38.08916666666667],[-85.46583333333334,38.08916666666667],[-85.46583333333334,38.08916666666667],[-85.46583333333334,38.08916666666667],[-85.46583333333334,38.08916666666667],[-84.96388888888889,38.024166666666666],[-84.96388888888889,38.024166666666666],[-84.96388888888889,38.024166666666666],[-84.96388888888889,38.024166666666666],[-84.7961111111111,38.00194444444445],[-84.7961111111111,38.00194444444445],[-84.62972222222221,37.97944444444445],[-84.62972222222221,37.97944444444445],[-84.62972222222221,37.97944444444445],[-84.62972222222221,37.97944444444445],[-84.62972222222221,37.97944444444445],[-84.4575,37.95638888888889],[-84.4575,37.95638888888889],[-84.4575,37.95638888888889],[-84.1363888888889,37.91166666666666],[-84.1363888888889,37.91166666666666],[-84.1363888888889,37.91166666666666],[-84.1363888888889,37.91166666666666],[-84.1363888888889,37.91166666666666],[-83.96861111111112,37.888333333333335],[-83.96861111111112,37.888333333333335],[-83.61083333333333,37.83722222222222],[-83.61083333333333,37.83722222222222],[-83.61083333333333,37.83722222222222],[-83.61083333333333,37.83722222222222],[-83.61083333333333,37.83722222222222],[-83.43916666666667,37.81222222222222],[-83.43916666666667,37.81222222222222],[-83.43916666666667,37.81222222222222],[-83.43916666666667,37.81222222222222],[-83.26805555555555,37.7875],[-83.26805555555555,37.7875],[-83.26805555555555,37.7875],[-82.76194444444444,37.711666666666666],[-82.76194444444444,37.711666666666666],[-82.76194444444444,37.711666666666666],[-82.76194444444444,37.711666666666666],[-82.76194444444444,37.711666666666666],[-82.59166666666667,37.68583333333333],[-82.59166666666667,37.68583333333333],[-82.59166666666667,37.68583333333333],[-82.39,37.65416666666667],[-82.25416666666666,37.63361111111111],[-82.25416666666666,37.63361111111111],[-82.25416666666666,37.63361111111111],[-82.25416666666666,37.63361111111111],[-82.25416666666666,37.63361111111111],[-82.08444444444444,37.606944444444444],[-81.91444444444446,37.57972222222222],[-81.91444444444446,37.57972222222222],[-81.91444444444446,37.57972222222222],[-81.91444444444446,37.57972222222222],[-81.86416666666666,37.57166666666667],[-81.86416666666666,37.57166666666667],[-81.74361111111111,37.55222222222222],[-81.71027777777778,37.54694444444444],[-81.71027777777778,37.54694444444444],[-81.71027777777778,37.54694444444444],[-81.57305555555556,37.52472222222222],[-81.54055555555556,37.519444444444446],[-81.54055555555556,37.519444444444446],[-81.40444444444445,37.49722222222222],[-81.40444444444445,37.49722222222222],[-81.40444444444445,37.49722222222222],[-81.20555555555556,37.46388888888889],[-81.20555555555556,37.46388888888889],[-81.20555555555556,37.46388888888889],[-80.89166666666668,37.41166666666666],[-80.89166666666668,37.41166666666666],[-80.89166666666668,37.41166666666666],[-80.89166666666668,37.41166666666666],[-80.72166666666666,37.38333333333333],[-80.72166666666666,37.38333333333333],[-80.68611111111112,37.37722222222222],[-80.68611111111112,37.37722222222222],[-80.55333333333333,37.35027777777778],[-80.55333333333333,37.35027777777778],[-80.55333333333333,37.35027777777778],[-80.55333333333333,37.35027777777778],[-80.55333333333333,37.35027777777778],[-80.04861111111111,37.13472222222222],[-80.04861111111111,37.13472222222222],[-80.04861111111111,37.13472222222222],[-79.96305555555556,37.09722222222222],[-79.96305555555556,37.09722222222222],[-79.96305555555556,37.09722222222222],[-79.96305555555556,37.09722222222222],[-79.7675,37.010555555555555],[-79.7675,37.010555555555555],[-79.7675,37.010555555555555],[-79.68305555555555,36.973888888888894],[-79.68305555555555,36.973888888888894],[-79.63111111111111,36.950833333333335],[-79.63111111111111,36.950833333333335],[-79.63111111111111,36.950833333333335],[-79.63111111111111,36.950833333333335],[-79.38722222222223,36.80583333333333],[-79.38722222222223,36.80583333333333],[-79.38722222222223,36.80583333333333],[-79.38722222222223,36.80583333333333],[-79.1,36.547777777777775],[-79.1,36.547777777777775],[-79.1,36.547777777777775],[-79.1,36.547777777777775],[-79.1,36.547777777777775],[-79.1,36.547777777777775],[-78.93861111111111,36.399166666666666],[-78.9113888888889,36.319722222222225],[-78.9113888888889,36.319722222222225],[-78.9113888888889,36.319722222222225],[-78.89166666666668,36.24888888888889],[-78.89166666666668,36.24888888888889],[-78.88861111111112,36.239444444444445],[-78.88861111111112,36.239444444444445],[-78.88861111111112,36.239444444444445],[-78.88861111111112,36.239444444444445],[-78.84833333333333,36.09527777777778],[-78.84833333333333,36.09527777777778],[-78.83388888888888,36.02305555555555],[-78.83388888888888,36.02305555555555],[-78.83388888888888,36.02305555555555],[-78.83305555555555,36.014722222222225],[-78.84583333333333,35.956944444444446],[-78.84583333333333,35.956944444444446],[-78.84583333333333,35.956944444444446],[-78.90416666666667,35.91],[-78.90416666666667,35.91],[-78.90416666666667,35.91],[-78.90972222222223,35.905],[-78.90972222222223,35.905],[-78.9625,35.863055555555555],[-78.9625,35.863055555555555],[-78.9625,35.863055555555555],[-78.985,35.808055555555555],[-78.985,35.808055555555555],[-78.93027777777779,35.794444444444444],[-78.86944444444444,35.82055555555556],[-78.86944444444444,35.82055555555556],[-78.86944444444444,35.82055555555556],[-78.86944444444444,35.82055555555556]],"type":"LineString"}
}
