{
  "id": 2031105929,
  "type": "Feature",
  "properties": {
    "date:inception_lower": "2026-04-24",
    "date:inception_upper": "2026-04-24",
    "edtf:cessation": "",
    "edtf:inception": "2026-04-24",
    "flysfo:actual_timestamp": -1,
    "flysfo:airline": "VA",
    "flysfo:base_airline": "",
    "flysfo:base_flight_number": "9323",
    "flysfo:date": "2026-04-24",
    "flysfo:estimated_timestamp": 1777097880,
    "flysfo:event": "D",
    "flysfo:flight_number": "VA8378",
    "flysfo:gate": "G11",
    "flysfo:journey": "SFO-IAD",
    "flysfo:scheduled_timestamp": 1777098000,
    "flysfo:timestamp": 1777098000,
    "geom:area": 0,
    "geom:bbox": "-122.370943,37.617990,-77.453702,38.949246",
    "geom:latitude": 38.283618000000004,
    "geom:longitude": -99.9123225,
    "iata:airline": "VA",
    "iata:base_airline": "",
    "icao:airline": "VOZ",
    "icao:base_airline": "MSR",
    "lbl:latitude": 37.61799,
    "lbl:longitude": -122.370943,
    "sfomuseum:airline_id": 1159285485,
    "sfomuseum:arrival_id": 102528817,
    "sfomuseum:base_flight_id": "20260424-D-MSR-9323",
    "sfomuseum:departure_id": 102527513,
    "sfomuseum:flight_id": "20260424-D-VOZ-8378",
    "sfomuseum:flight_number": [
      "VOZ8378",
      "VA8378"
    ],
    "sfomuseum:placetype": "flight",
    "src:geom": "flysfo",
    "wof:belongsto": [
      1947304067,
      102527513,
      1947304129,
      102191575,
      85633793,
      102087579,
      85922583,
      554784711,
      85688637,
      1947304139,
      1947304069,
      102085387
    ],
    "wof:country": "US",
    "wof:created": 1777133893,
    "wof:geomhash": "1c4ce661f6692034a082b31062a17f5e",
    "wof:hierarchy": [
      {
        "building_id": 1947304067,
        "campus_id": 102527513,
        "concourse_id": 1947304129,
        "continent_id": 102191575,
        "country_id": 85633793,
        "county_id": 102087579,
        "custom_id": 2031105929,
        "flight_id": 2031105929,
        "locality_id": 85922583,
        "postalcode_id": 554784711,
        "region_id": 85688637,
        "venue_id": 1947304139,
        "wing_id": 1947304069
      },
      {
        "building_id": 1947304067,
        "campus_id": 102527513,
        "concourse_id": 1947304129,
        "continent_id": 102191575,
        "country_id": 85633793,
        "county_id": 102085387,
        "custom_id": 2031105929,
        "flight_id": 2031105929,
        "region_id": 85688637,
        "venue_id": 1947304139,
        "wing_id": 1947304069
      }
    ],
    "wof:id": 2031105929,
    "wof:involves": [
      102528817,
      102527513,
      1159285485,
      1947304139,
      1159284325
    ],
    "wof:lastmodified": 1777133893,
    "wof:name": "VA8378 (SFO-IAD)",
    "wof:parent_id": 1947304139,
    "wof:placetype": "custom",
    "wof:placetype_alt": [
      "flight"
    ],
    "wof:repo": "sfomuseum-data-flights-2026-04",
    "wof:superseded_by": [],
    "wof:supersedes": []
  },
  "bbox": [
    -122.370943,
    37.61799,
    -77.453702,
    38.949246
  ],
  "geometry": {"coordinates":[[-122.370943,37.61799],[-77.453702,38.949246]],"type":"MultiPoint"}
}
