{
  "id": 2015334129,
  "type": "Feature",
  "properties": {
    "geom:area": 0,
    "geom:bbox": "-122.546500,37.190470,-121.245870,37.668200",
    "geom:latitude": 37.38143130639769,
    "geom:longitude": -121.99874280991929,
    "src:alt_label": "swim-takeoff",
    "src:geom": "swim",
    "swim:elevations": [
      152,
      426,
      1089,
      1285,
      1502,
      1867,
      2133,
      2567,
      2629,
      2864,
      3067,
      3313,
      3323,
      3589,
      3711,
      3935,
      4242,
      4774,
      5004,
      5344,
      5457,
      5546,
      5744,
      6035,
      6285,
      6405,
      6629,
      6690,
      7041,
      7290,
      7494,
      7690
    ],
    "swim:geom": "takeoff",
    "swim:timestamps": [
      1776599492,
      1776599520,
      1776599572,
      1776599604,
      1776599622,
      1776599647,
      1776599665,
      1776599693,
      1776599697,
      1776599712,
      1776599726,
      1776599757,
      1776599760,
      1776599813,
      1776599824,
      1776599845,
      1776599874,
      1776599923,
      1776599944,
      1776599982,
      1776599994,
      1776600006,
      1776600031,
      1776600068,
      1776600100,
      1776600117,
      1776600147,
      1776600156,
      1776600206,
      1776600238,
      1776600266,
      1776600293
    ],
    "wof:geomhash": "f77925400a6906d53c4fbc594e8aa876",
    "wof:id": 2015334129,
    "wof:repo": "sfomuseum-data-flights-2026-04"
  },
  "bbox": [
    -122.5465,
    37.19047,
    -121.24587,
    37.6682
  ],
  "geometry": {"coordinates":[[-122.39392,37.6265],[-122.42049,37.63793],[-122.47402,37.66126],[-122.51607,37.6682],[-122.53732,37.65797],[-122.5465,37.63023],[-122.53521,37.60967],[-122.51702,37.57851],[-122.51484,37.57382],[-122.50665,37.55599],[-122.49904,37.53943],[-122.47882,37.50145],[-122.47592,37.49784],[-122.39493,37.44401],[-122.37556,37.4329],[-122.3358,37.41445],[-122.27307,37.39882],[-122.16282,37.37695],[-122.11554,37.36753],[-122.02823,37.34998],[-122.00096,37.34441],[-121.97275,37.33873],[-121.9117,37.32645],[-121.8227,37.30859],[-121.74237,37.29237],[-121.70012,37.2838],[-121.62394,37.26833],[-121.60121,37.26378],[-121.47327,37.23734],[-121.3903,37.22026],[-121.31642,37.20502],[-121.24587,37.19047]],"type":"LineString"}
}
