{
  "id": 2015225101,
  "type": "Feature",
  "properties": {
    "geom:area": 0,
    "geom:bbox": "-122.458889,34.198611,-118.411944,37.487778",
    "geom:latitude": 35.7437992800401,
    "geom:longitude": -120.48170161750153,
    "src:alt_label": "swim-path",
    "src:geom": "swim",
    "swim:altitudes": [
      "180",
      "208",
      "310C",
      "310C",
      "310C",
      "258",
      "200",
      "200",
      "151",
      "133",
      "133",
      "105",
      "094",
      "072",
      "072",
      "071",
      "064",
      "033",
      "033",
      "032",
      "022",
      "015"
    ],
    "swim:geom": "path",
    "swim:speeds": [
      382,
      386,
      479,
      504,
      480,
      435,
      377,
      377,
      343,
      330,
      330,
      309,
      306,
      269,
      269,
      271,
      259,
      195,
      195,
      190,
      158,
      147
    ],
    "swim:timestamps": [
      1775533449,
      1775533507,
      1775533870,
      1775534108,
      1775534230,
      1775534951,
      1775535131,
      1775535131,
      1775535311,
      1775535370,
      1775535370,
      1775535490,
      1775535537,
      1775535656,
      1775535656,
      1775535670,
      1775535717,
      1775535897,
      1775535897,
      1775535910,
      1775535970,
      1775536031
    ],
    "wof:geomhash": "9a35dc27c9b6952eb0ca038ecc44e171",
    "wof:id": 2015225101,
    "wof:repo": "sfomuseum-data-flights-2026-04"
  },
  "bbox": [
    -122.4588888888889,
    34.198611111111106,
    -118.41194444444444,
    37.48777777777778
  ],
  "geometry": {"coordinates":[[-122.4588888888889,37.48777777777778],[-122.37666666666667,37.410555555555554],[-121.71888888888888,36.86277777777778],[-121.25555555555556,36.46416666666667],[-121.03416666666666,36.25861111111111],[-119.80611111111111,35.05833333333333],[-119.53138888888888,34.816111111111105],[-119.53138888888888,34.816111111111105],[-119.2525,34.635],[-119.14055555555557,34.580000000000005],[-119.14055555555557,34.580000000000005],[-118.9863888888889,34.470555555555556],[-118.93333333333334,34.416666666666664],[-118.81666666666666,34.28333333333333],[-118.81666666666666,34.28333333333333],[-118.80499999999999,34.27916666666667],[-118.75,34.25],[-118.53333333333333,34.2],[-118.53333333333333,34.2],[-118.51638888888888,34.19972222222222],[-118.46027777777778,34.19916666666666],[-118.41194444444444,34.198611111111106]],"type":"LineString"}
}
