{
  "id": 2015287455,
  "type": "Feature",
  "properties": {
    "geom:area": 0,
    "geom:bbox": "-122.348120,37.492590,-121.265790,37.609720",
    "geom:latitude": 37.54156241193018,
    "geom:longitude": -121.81373823155839,
    "src:alt_label": "swim-approach",
    "src:geom": "swim",
    "swim:elevations": [
      4847,
      4826,
      4460,
      4050,
      3868,
      3635,
      3406,
      3110,
      3029,
      2628,
      2603,
      2552,
      2521,
      2169,
      1994,
      1978,
      1829,
      1654,
      1499,
      1387,
      1265,
      1103,
      987,
      882,
      755,
      616,
      455,
      368,
      219,
      121,
      77
    ],
    "swim:geom": "approach",
    "swim:timestamps": [
      1776155968,
      1776155971,
      1776156010,
      1776156056,
      1776156074,
      1776156101,
      1776156127,
      1776156174,
      1776156185,
      1776156236,
      1776156240,
      1776156261,
      1776156270,
      1776156325,
      1776156357,
      1776156365,
      1776156413,
      1776156446,
      1776156470,
      1776156486,
      1776156520,
      1776156561,
      1776156592,
      1776156616,
      1776156650,
      1776156679,
      1776156717,
      1776156738,
      1776156776,
      1776156803,
      1776156818
    ],
    "wof:geomhash": "38fd5fe701b26e39188ffc6b486b1225",
    "wof:id": 2015287455,
    "wof:repo": "sfomuseum-data-flights-2026-04"
  },
  "bbox": [
    -122.34812,
    37.49259,
    -121.26579,
    37.60972
  ],
  "geometry": {"coordinates":[[-121.26579,37.59249],[-121.27155,37.5917],[-121.34607,37.58302],[-121.43399,37.57322],[-121.46742,37.56935],[-121.51711,37.56334],[-121.56346,37.55791],[-121.64222,37.54682],[-121.65986,37.54251],[-121.74141,37.52318],[-121.74741,37.52175],[-121.77963,37.5139],[-121.7919,37.51086],[-121.87188,37.49259],[-121.91915,37.49367],[-121.92979,37.49426],[-121.99412,37.49778],[-122.03372,37.49973],[-122.06058,37.5012],[-122.07898,37.50233],[-122.11189,37.51013],[-122.14881,37.52588],[-122.17603,37.53713],[-122.19639,37.54584],[-122.2235,37.55735],[-122.24712,37.56727],[-122.27631,37.57946],[-122.2919,37.58608],[-122.31873,37.59744],[-122.33769,37.6054],[-122.34812,37.60972]],"type":"LineString"}
}
