{
  "id": 2015244421,
  "type": "Feature",
  "properties": {
    "geom:area": 0,
    "geom:bbox": "-123.491640,37.262940,-122.117730,37.627750",
    "geom:latitude": 37.41750798841261,
    "geom:longitude": -122.7122842258439,
    "src:alt_label": "swim-approach",
    "src:geom": "swim",
    "swim:elevations": [
      5181,
      5106,
      4998,
      4839,
      4695,
      4629,
      4567,
      4332,
      4092,
      3961,
      3863,
      3521,
      3414,
      3135,
      3049,
      3048,
      3048,
      3048,
      3048,
      3048,
      3048,
      3048,
      3048,
      3048,
      3033,
      2924,
      2872,
      2772,
      2653,
      2400,
      2317,
      2287,
      2102,
      2019,
      1942,
      1798,
      1668,
      1570,
      1524,
      1524,
      1209,
      1113,
      951,
      890,
      760,
      637,
      485,
      385,
      272,
      128,
      0
    ],
    "swim:geom": "approach",
    "swim:timestamps": [
      1775732157,
      1775732177,
      1775732210,
      1775732242,
      1775732270,
      1775732283,
      1775732298,
      1775732332,
      1775732367,
      1775732387,
      1775732400,
      1775732451,
      1775732463,
      1775732509,
      1775732543,
      1775732566,
      1775732578,
      1775732603,
      1775732608,
      1775732611,
      1775732616,
      1775732661,
      1775732686,
      1775732723,
      1775732741,
      1775732771,
      1775732785,
      1775732801,
      1775732820,
      1775732874,
      1775732902,
      1775732911,
      1775732964,
      1775732987,
      1775733008,
      1775733041,
      1775733064,
      1775733082,
      1775733118,
      1775733122,
      1775733178,
      1775733200,
      1775733230,
      1775733241,
      1775733266,
      1775733293,
      1775733322,
      1775733346,
      1775733370,
      1775733402,
      1775733435
    ],
    "wof:geomhash": "354266821d6fc8a7ca28d352c158798b",
    "wof:id": 2015244421,
    "wof:repo": "sfomuseum-data-flights-2026-04"
  },
  "bbox": [
    -123.49164,
    37.26294,
    -122.11773,
    37.62775
  ],
  "geometry": {"coordinates":[[-123.49164,37.62775],[-123.46097,37.60993],[-123.41206,37.58146],[-123.36309,37.55278],[-123.32148,37.52837],[-123.30106,37.51633],[-123.28008,37.50407],[-123.22989,37.47451],[-123.17849,37.44415],[-123.14946,37.42712],[-123.13209,37.41688],[-123.05964,37.37412],[-123.04248,37.36399],[-122.97864,37.32621],[-122.9335,37.29921],[-122.9032,37.28131],[-122.8872,37.27199],[-122.84683,37.26294],[-122.83725,37.26391],[-122.83175,37.26492],[-122.82285,37.26691],[-122.74437,37.28524],[-122.7002,37.29592],[-122.63758,37.31069],[-122.60979,37.31714],[-122.56529,37.32725],[-122.54459,37.33195],[-122.52271,37.33693],[-122.49444,37.3433],[-122.41853,37.35714],[-122.37896,37.35849],[-122.36643,37.35878],[-122.29087,37.36058],[-122.2583,37.36139],[-122.22842,37.36418],[-122.19294,37.38862],[-122.17039,37.40937],[-122.15322,37.42506],[-122.11968,37.45684],[-122.11773,37.46005],[-122.12871,37.51622],[-122.15263,37.52716],[-122.1822,37.53983],[-122.19329,37.54456],[-122.2179,37.55499],[-122.24315,37.56556],[-122.26987,37.57687],[-122.29033,37.58545],[-122.30948,37.5935],[-122.33563,37.60451],[-122.36326,37.61548]],"type":"LineString"}
}
