{
  "id": 2031152225,
  "type": "Feature",
  "properties": {
    "geom:area": 0,
    "geom:bbox": "-122.727500,37.633333,-122.015000,47.413056",
    "geom:latitude": 42.5649245596847,
    "geom:longitude": -122.24088533915308,
    "src:alt_label": "swim-path",
    "src:geom": "swim",
    "swim:altitudes": [
      "006",
      "006",
      "068",
      "068",
      "094",
      "094",
      "115",
      "115",
      "115",
      "240",
      "241",
      "278",
      "294",
      "294",
      "294",
      "340",
      "340",
      "340",
      "340",
      "346",
      "358",
      "358",
      "358",
      "360",
      "360",
      "360",
      "360",
      "364",
      "364",
      "364",
      "380C",
      "380C",
      "380C",
      "380C",
      "380C",
      "380C",
      "380C",
      "380C",
      "380C",
      "380C",
      "380C",
      "380C",
      "380C",
      "380C",
      "380C",
      "380C",
      "380C",
      "380C",
      "380C",
      "380C",
      "380C",
      "380C",
      "380C",
      "380C",
      "380C",
      "380C",
      "380C",
      "380C",
      "380C",
      "380C",
      "380C",
      "380C",
      "380C",
      "380C",
      "380C",
      "380C",
      "380C",
      "380C",
      "380C",
      "380C",
      "380C",
      "380C",
      "380C",
      "380C",
      "380C",
      "380C",
      "380C",
      "380C",
      "380C",
      "380C",
      "380C",
      "380C",
      "380C",
      "380C",
      "380C",
      "380C",
      "380C",
      "380",
      "380",
      "380",
      "380",
      "380",
      "380",
      "328",
      "328",
      "328",
      "300",
      "300",
      "300",
      "201",
      "201",
      "201",
      "201",
      "136",
      "136",
      "136",
      "118",
      "109",
      "104",
      "101",
      "101",
      "059",
      "059",
      "054",
      "054",
      "044",
      "044",
      "039",
      "017",
      "017",
      "017",
      "017",
      "010",
      "010",
      "010"
    ],
    "swim:geom": "path",
    "swim:speeds": [
      159,
      159,
      269,
      269,
      282,
      282,
      318,
      318,
      318,
      368,
      377,
      395,
      400,
      400,
      401,
      421,
      422,
      420,
      419,
      419,
      419,
      419,
      419,
      417,
      415,
      415,
      414,
      413,
      413,
      413,
      406,
      406,
      403,
      403,
      403,
      403,
      402,
      401,
      401,
      401,
      401,
      401,
      401,
      401,
      402,
      402,
      403,
      403,
      403,
      406,
      409,
      409,
      408,
      408,
      408,
      409,
      409,
      409,
      408,
      408,
      408,
      408,
      409,
      409,
      419,
      419,
      416,
      416,
      416,
      416,
      412,
      411,
      411,
      411,
      409,
      408,
      408,
      409,
      409,
      409,
      409,
      411,
      418,
      421,
      421,
      421,
      425,
      426,
      426,
      426,
      425,
      425,
      425,
      437,
      437,
      437,
      443,
      443,
      443,
      392,
      392,
      392,
      392,
      357,
      357,
      357,
      317,
      316,
      309,
      291,
      291,
      258,
      258,
      247,
      247,
      234,
      234,
      234,
      168,
      168,
      168,
      168,
      150,
      150,
      150
    ],
    "swim:timestamps": [
      1777580048,
      1777580048,
      1777580242,
      1777580242,
      1777580302,
      1777580302,
      1777580362,
      1777580362,
      1777580362,
      1777580653,
      1777580662,
      1777580783,
      1777580833,
      1777580833,
      1777580843,
      1777581083,
      1777581133,
      1777581193,
      1777581263,
      1777581313,
      1777581373,
      1777581373,
      1777581373,
      1777581433,
      1777581493,
      1777581493,
      1777581504,
      1777581684,
      1777581684,
      1777581684,
      1777581794,
      1777581794,
      1777581914,
      1777581914,
      1777581914,
      1777581914,
      1777581974,
      1777582044,
      1777582044,
      1777582094,
      1777582094,
      1777582214,
      1777582225,
      1777582225,
      1777582285,
      1777582285,
      1777582334,
      1777582334,
      1777582334,
      1777582465,
      1777582515,
      1777582515,
      1777582525,
      1777582525,
      1777582525,
      1777582585,
      1777582635,
      1777582635,
      1777582755,
      1777582755,
      1777582755,
      1777582755,
      1777582815,
      1777582815,
      1777583295,
      1777583295,
      1777583356,
      1777583356,
      1777583356,
      1777583356,
      1777583476,
      1777583536,
      1777583536,
      1777583536,
      1777583656,
      1777583716,
      1777583716,
      1777583836,
      1777583836,
      1777583836,
      1777583836,
      1777583896,
      1777583956,
      1777584016,
      1777584016,
      1777584016,
      1777584136,
      1777584197,
      1777584197,
      1777584197,
      1777584317,
      1777584317,
      1777584317,
      1777584557,
      1777584557,
      1777584557,
      1777584617,
      1777584617,
      1777584617,
      1777584857,
      1777584857,
      1777584857,
      1777584857,
      1777585044,
      1777585044,
      1777585044,
      1777585123,
      1777585158,
      1777585183,
      1777585218,
      1777585218,
      1777585424,
      1777585424,
      1777585458,
      1777585458,
      1777585518,
      1777585518,
      1777585539,
      1777585660,
      1777585660,
      1777585660,
      1777585660,
      1777585719,
      1777585719,
      1777585719
    ],
    "wof:geomhash": "4ea009b10fb9415dbbaee59bdcac3f0e",
    "wof:id": 2031152225,
    "wof:repo": "sfomuseum-data-flights-2026-04"
  },
  "bbox": [
    -122.7275,
    37.63333333333333,
    -122.015,
    47.41305555555555
  ],
  "geometry": {"coordinates":[[-122.38333333333334,37.63333333333333],[-122.38333333333334,37.63333333333333],[-122.21166666666667,37.73694444444445],[-122.21166666666667,37.73694444444445],[-122.205,37.815555555555555],[-122.205,37.815555555555555],[-122.2025,37.89972222222222],[-122.2025,37.89972222222222],[-122.2025,37.89972222222222],[-122.18027777777779,38.38],[-122.18583333333333,38.38583333333333],[-122.17861111111111,38.605000000000004],[-122.17305555555556,38.711666666666666],[-122.17305555555556,38.711666666666666],[-122.17500000000001,38.71472222222223],[-122.1588888888889,39.1825],[-122.15277777777779,39.29388888888889],[-122.14972222222222,39.40972222222222],[-122.14583333333334,39.54944444444444],[-122.14166666666668,39.6425],[-122.13777777777779,39.757777777777775],[-122.13777777777779,39.757777777777775],[-122.13777777777779,39.757777777777775],[-122.13305555555554,39.87222222222222],[-122.13083333333333,39.985],[-122.13083333333333,39.985],[-122.13,40.00861111111111],[-122.11749999999999,40.34638888888889],[-122.11749999999999,40.34638888888889],[-122.11749999999999,40.34638888888889],[-122.10972222222222,40.54805555555556],[-122.10972222222222,40.54805555555556],[-122.10249999999999,40.770833333333336],[-122.10249999999999,40.770833333333336],[-122.10249999999999,40.770833333333336],[-122.10249999999999,40.770833333333336],[-122.09805555555555,40.882222222222225],[-122.09305555555555,41.01555555555556],[-122.09305555555555,41.01555555555556],[-122.08999999999999,41.10472222222222],[-122.08999999999999,41.10472222222222],[-122.08111111111111,41.3325],[-122.08055555555555,41.350833333333334],[-122.08055555555555,41.350833333333334],[-122.07666666666667,41.46666666666667],[-122.07666666666667,41.46666666666667],[-122.07305555555556,41.55777777777777],[-122.07305555555556,41.55777777777777],[-122.07305555555556,41.55777777777777],[-122.06416666666667,41.80833333333333],[-122.06083333333333,41.899166666666666],[-122.06083333333333,41.899166666666666],[-122.05972222222222,41.92361111111111],[-122.05972222222222,41.92361111111111],[-122.05972222222222,41.92361111111111],[-122.05499999999999,42.038888888888884],[-122.05138888888888,42.13472222222222],[-122.05138888888888,42.13472222222222],[-122.04277777777777,42.36222222222222],[-122.04277777777777,42.36222222222222],[-122.04277777777777,42.36222222222222],[-122.04277777777777,42.36222222222222],[-122.03833333333333,42.477222222222224],[-122.03833333333333,42.477222222222224],[-122.015,43.39666666666667],[-122.015,43.39666666666667],[-122.04138888888889,43.509166666666665],[-122.04138888888889,43.509166666666665],[-122.04138888888889,43.509166666666665],[-122.04138888888889,43.509166666666665],[-122.09416666666667,43.73305555555556],[-122.1211111111111,43.84583333333334],[-122.1211111111111,43.84583333333334],[-122.1211111111111,43.84583333333334],[-122.17444444444445,44.06888888888889],[-122.20138888888889,44.17833333333333],[-122.20138888888889,44.17833333333333],[-122.25583333333333,44.40277777777778],[-122.25583333333333,44.40277777777778],[-122.25583333333333,44.40277777777778],[-122.25583333333333,44.40277777777778],[-122.28305555555555,44.51583333333333],[-122.31083333333333,44.629444444444445],[-122.33944444444444,44.74472222222222],[-122.33944444444444,44.74472222222222],[-122.33944444444444,44.74472222222222],[-122.39777777777779,44.97916666666667],[-122.42694444444444,45.09527777777778],[-122.42694444444444,45.09527777777778],[-122.42694444444444,45.09527777777778],[-122.48555555555555,45.32638888888889],[-122.48555555555555,45.32638888888889],[-122.48555555555555,45.32638888888889],[-122.57555555555555,45.800555555555555],[-122.57555555555555,45.800555555555555],[-122.57555555555555,45.800555555555555],[-122.59555555555555,45.92305555555555],[-122.59555555555555,45.92305555555555],[-122.59555555555555,45.92305555555555],[-122.67361111111111,46.39666666666667],[-122.67361111111111,46.39666666666667],[-122.67361111111111,46.39666666666667],[-122.67361111111111,46.39666666666667],[-122.7275,46.71472222222223],[-122.7275,46.71472222222223],[-122.7275,46.71472222222223],[-122.69083333333333,46.82527777777778],[-122.64444444444445,46.861666666666665],[-122.60722222222222,46.89055555555556],[-122.56083333333333,46.92166666666667],[-122.56083333333333,46.92166666666667],[-122.34666666666666,47.13111111111111],[-122.34666666666666,47.13111111111111],[-122.33277777777778,47.16777777777777],[-122.33277777777778,47.16777777777777],[-122.32,47.23111111111111],[-122.32,47.23111111111111],[-122.32083333333333,47.25555555555555],[-122.31972222222223,47.37083333333334],[-122.31972222222223,47.37083333333334],[-122.31972222222223,47.37083333333334],[-122.31972222222223,47.37083333333334],[-122.31944444444444,47.41305555555555],[-122.31944444444444,47.41305555555555],[-122.31944444444444,47.41305555555555]],"type":"LineString"}
}
