{
  "id": 2015359553,
  "type": "Feature",
  "properties": {
    "geom:area": 0,
    "geom:bbox": "-122.416667,37.633333,-87.933333,42.882222",
    "geom:latitude": 40.62494225606178,
    "geom:longitude": -104.56388476854889,
    "src:alt_label": "swim-path",
    "src:geom": "swim",
    "swim:altitudes": [
      "023",
      "023",
      "113",
      "113",
      "113",
      "113",
      "165",
      "165",
      "165",
      "165",
      "165",
      "195",
      "195",
      "210",
      "210",
      "210",
      "210",
      "210",
      "241",
      "241",
      "241",
      "241",
      "263",
      "263",
      "263",
      "263",
      "263",
      "263",
      "270C",
      "270C",
      "270C",
      "270C",
      "270C",
      "275",
      "275",
      "275",
      "282",
      "282",
      "308",
      "308",
      "308",
      "320",
      "320",
      "320",
      "320",
      "330C",
      "330C",
      "330C",
      "330C",
      "330C",
      "330C",
      "330C",
      "330C",
      "330C",
      "330C",
      "330C",
      "330C",
      "331C",
      "331C",
      "331C",
      "330C",
      "330C",
      "330C",
      "330C",
      "330C",
      "330C",
      "330C",
      "330C",
      "330C",
      "330C",
      "330C",
      "330C",
      "330C",
      "330C",
      "330C",
      "330C",
      "330C",
      "330C",
      "330C",
      "330C",
      "330C",
      "330C",
      "330C",
      "330C",
      "330C",
      "330C",
      "330C",
      "330C",
      "330C",
      "330C",
      "330C",
      "330C",
      "330C",
      "330C",
      "330C",
      "330C",
      "330C",
      "330C",
      "330C",
      "330C",
      "330C",
      "330C",
      "330C",
      "330C",
      "330C",
      "330C",
      "330C",
      "330C",
      "330C",
      "330C",
      "330C",
      "330C",
      "330C",
      "330C",
      "330C",
      "331C",
      "331C",
      "331C",
      "331C",
      "330C",
      "330C",
      "330C",
      "330C",
      "330C",
      "329C",
      "330C",
      "330C",
      "330C",
      "330C",
      "330C",
      "330C",
      "331C",
      "331C",
      "331C",
      "330C",
      "330C",
      "330C",
      "330C",
      "330C",
      "330C",
      "330C",
      "330C",
      "330C",
      "330C",
      "330C",
      "330C",
      "330C",
      "330C",
      "330C",
      "330C",
      "330C",
      "330C",
      "330C",
      "330C",
      "330C",
      "330C",
      "330C",
      "330C",
      "330C",
      "330C",
      "330C",
      "330C",
      "330C",
      "331C",
      "331C",
      "331C",
      "331C",
      "330C",
      "330C",
      "330C",
      "330C",
      "330C",
      "330C",
      "330C",
      "330C",
      "330C",
      "330C",
      "330C",
      "330C",
      "330C",
      "330C",
      "330C",
      "330C",
      "330C",
      "330C",
      "330C",
      "330C",
      "330C",
      "330C",
      "330C",
      "330C",
      "330C",
      "330C",
      "330C",
      "330C",
      "330C",
      "330C",
      "330C",
      "330C",
      "330C",
      "330C",
      "330C",
      "330C",
      "330C",
      "330C",
      "331C",
      "331C",
      "331C",
      "331C",
      "330C",
      "330C",
      "330C",
      "330C",
      "330C",
      "330C",
      "330C",
      "330C",
      "330C",
      "330C",
      "330C",
      "330C",
      "330C",
      "330C",
      "330C",
      "330C",
      "330C",
      "330C",
      "330C",
      "330C",
      "330C",
      "331C",
      "331C",
      "331C",
      "331C",
      "331C",
      "331C",
      "331C",
      "330C",
      "330C",
      "330C",
      "330C",
      "330C",
      "330C",
      "330C",
      "330C",
      "330C",
      "330C",
      "330C",
      "330C",
      "330C",
      "330C",
      "330C",
      "330C",
      "330C",
      "330C",
      "330C",
      "330C",
      "330C",
      "330C",
      "330C",
      "330C",
      "330C",
      "330C",
      "330C",
      "330C",
      "330C",
      "330C",
      "330C",
      "330C",
      "330C",
      "330C",
      "330C",
      "330C",
      "330C",
      "330C",
      "330C",
      "330C",
      "330C",
      "330C",
      "330C",
      "330C",
      "330C",
      "330C",
      "330C",
      "330C",
      "330C",
      "330C",
      "330C",
      "330C",
      "330C",
      "330C",
      "330C",
      "330C",
      "330C",
      "330C",
      "330C",
      "330C",
      "330C",
      "330C",
      "330C",
      "330C",
      "330C",
      "330C",
      "330C",
      "330C",
      "330C",
      "330C",
      "330C",
      "330C",
      "330C",
      "330C",
      "330C",
      "330C",
      "330C",
      "330C",
      "330C",
      "330C",
      "330C",
      "330C",
      "330C",
      "330C",
      "330C",
      "330C",
      "330C",
      "330C",
      "330C",
      "330C",
      "330C",
      "330C",
      "330C",
      "330C",
      "330C",
      "330C",
      "330C",
      "330C",
      "330C",
      "330C",
      "330C",
      "330C",
      "330C",
      "330C",
      "330C",
      "330C",
      "330C",
      "330C",
      "330C",
      "330C",
      "330C",
      "329",
      "329",
      "311",
      "301",
      "301",
      "301",
      "290C",
      "290C",
      "290C",
      "290C",
      "290C",
      "290C",
      "290",
      "290",
      "290",
      "288",
      "267",
      "267",
      "267",
      "253",
      "253",
      "175",
      "175",
      "175",
      "156",
      "156",
      "150C",
      "150C",
      "150C",
      "150C",
      "150C",
      "150C",
      "150C",
      "150C",
      "150",
      "145",
      "145",
      "135",
      "135",
      "135",
      "110C",
      "110C",
      "110C",
      "110C",
      "110C",
      "110C",
      "110C",
      "097",
      "097",
      "068",
      "068",
      "068",
      "056",
      "056",
      "056",
      "050",
      "050",
      "040",
      "040",
      "040",
      "040",
      "040",
      "040",
      "040",
      "040",
      "040",
      "025",
      "025",
      "025",
      "025",
      "016",
      "016",
      "016",
      "009",
      "009",
      "009"
    ],
    "swim:geom": "path",
    "swim:speeds": [
      188,
      188,
      350,
      350,
      350,
      350,
      425,
      425,
      425,
      425,
      425,
      447,
      447,
      459,
      459,
      459,
      459,
      459,
      492,
      492,
      492,
      492,
      510,
      510,
      510,
      510,
      510,
      510,
      513,
      513,
      513,
      513,
      513,
      515,
      515,
      515,
      518,
      518,
      531,
      531,
      531,
      538,
      538,
      538,
      538,
      539,
      539,
      539,
      539,
      539,
      539,
      540,
      540,
      540,
      541,
      541,
      541,
      543,
      543,
      543,
      542,
      541,
      541,
      541,
      540,
      540,
      540,
      540,
      540,
      540,
      540,
      540,
      543,
      543,
      543,
      543,
      543,
      543,
      544,
      544,
      545,
      545,
      545,
      545,
      545,
      545,
      545,
      548,
      548,
      548,
      548,
      548,
      548,
      548,
      548,
      548,
      546,
      546,
      546,
      546,
      546,
      545,
      545,
      545,
      546,
      546,
      546,
      546,
      547,
      547,
      547,
      547,
      548,
      548,
      548,
      551,
      551,
      551,
      551,
      549,
      549,
      549,
      549,
      549,
      549,
      548,
      538,
      538,
      538,
      538,
      538,
      540,
      540,
      540,
      537,
      537,
      537,
      537,
      537,
      538,
      538,
      538,
      538,
      540,
      540,
      541,
      541,
      541,
      542,
      542,
      542,
      541,
      541,
      539,
      539,
      539,
      539,
      532,
      532,
      532,
      532,
      533,
      533,
      535,
      535,
      535,
      535,
      540,
      537,
      537,
      537,
      537,
      537,
      537,
      518,
      518,
      518,
      518,
      518,
      518,
      518,
      528,
      528,
      528,
      525,
      525,
      525,
      525,
      519,
      519,
      519,
      519,
      519,
      519,
      519,
      519,
      519,
      519,
      493,
      493,
      493,
      493,
      490,
      490,
      490,
      493,
      493,
      493,
      493,
      497,
      497,
      500,
      500,
      500,
      500,
      500,
      500,
      500,
      500,
      500,
      500,
      497,
      497,
      497,
      497,
      497,
      497,
      479,
      479,
      479,
      481,
      481,
      481,
      481,
      484,
      484,
      484,
      483,
      483,
      482,
      482,
      482,
      482,
      478,
      482,
      482,
      482,
      483,
      483,
      483,
      483,
      483,
      483,
      482,
      482,
      482,
      482,
      481,
      481,
      479,
      479,
      479,
      479,
      479,
      478,
      478,
      478,
      478,
      479,
      480,
      480,
      480,
      480,
      480,
      481,
      481,
      481,
      482,
      482,
      482,
      482,
      483,
      483,
      483,
      483,
      482,
      482,
      480,
      480,
      479,
      479,
      478,
      478,
      478,
      478,
      478,
      479,
      480,
      480,
      480,
      480,
      480,
      480,
      474,
      474,
      474,
      474,
      472,
      472,
      472,
      473,
      473,
      475,
      475,
      476,
      476,
      477,
      479,
      479,
      479,
      479,
      477,
      477,
      477,
      478,
      478,
      478,
      478,
      477,
      477,
      476,
      476,
      476,
      476,
      475,
      475,
      475,
      476,
      477,
      477,
      477,
      478,
      478,
      482,
      482,
      481,
      481,
      481,
      480,
      480,
      476,
      475,
      475,
      475,
      437,
      437,
      424,
      424,
      423,
      423,
      470,
      470,
      470,
      476,
      480,
      480,
      480,
      468,
      468,
      410,
      410,
      410,
      401,
      401,
      386,
      277,
      277,
      304,
      304,
      305,
      305,
      305,
      303,
      310,
      310,
      285,
      285,
      285,
      257,
      257,
      256,
      256,
      256,
      258,
      258,
      258,
      258,
      244,
      244,
      244,
      237,
      237,
      237,
      233,
      233,
      222,
      222,
      222,
      222,
      222,
      226,
      226,
      226,
      226,
      181,
      181,
      181,
      181,
      147,
      147,
      147,
      131,
      131,
      131
    ],
    "swim:timestamps": [
      1776881229,
      1776881229,
      1776881527,
      1776881527,
      1776881527,
      1776881527,
      1776881707,
      1776881707,
      1776881707,
      1776881707,
      1776881707,
      1776881827,
      1776881827,
      1776881887,
      1776881887,
      1776881887,
      1776881887,
      1776881887,
      1776882068,
      1776882068,
      1776882068,
      1776882068,
      1776882188,
      1776882188,
      1776882188,
      1776882188,
      1776882188,
      1776882188,
      1776882368,
      1776882368,
      1776882368,
      1776882368,
      1776882368,
      1776882428,
      1776882428,
      1776882428,
      1776882488,
      1776882488,
      1776882668,
      1776882668,
      1776882668,
      1776882728,
      1776882728,
      1776882728,
      1776882728,
      1776882849,
      1776882849,
      1776882849,
      1776882849,
      1776882849,
      1776882849,
      1776883149,
      1776883149,
      1776883149,
      1776883209,
      1776883209,
      1776883209,
      1776883269,
      1776883269,
      1776883269,
      1776883329,
      1776883389,
      1776883389,
      1776883389,
      1776883449,
      1776883449,
      1776883449,
      1776883449,
      1776883630,
      1776883630,
      1776883630,
      1776883630,
      1776883870,
      1776883870,
      1776883870,
      1776883870,
      1776883870,
      1776883870,
      1776883930,
      1776883930,
      1776883990,
      1776883990,
      1776884050,
      1776884050,
      1776884050,
      1776884050,
      1776884050,
      1776884230,
      1776884230,
      1776884230,
      1776884230,
      1776884230,
      1776884291,
      1776884291,
      1776884291,
      1776884291,
      1776884483,
      1776884483,
      1776884483,
      1776884483,
      1776884483,
      1776884543,
      1776884543,
      1776884543,
      1776884603,
      1776884603,
      1776884603,
      1776884663,
      1776884723,
      1776884723,
      1776884723,
      1776884723,
      1776884783,
      1776884783,
      1776884783,
      1776884903,
      1776884903,
      1776884903,
      1776884903,
      1776885030,
      1776885030,
      1776885030,
      1776885030,
      1776885030,
      1776885090,
      1776885144,
      1776885204,
      1776885204,
      1776885204,
      1776885210,
      1776885210,
      1776885270,
      1776885270,
      1776885270,
      1776885444,
      1776885444,
      1776885450,
      1776885450,
      1776885450,
      1776885504,
      1776885504,
      1776885511,
      1776885511,
      1776885564,
      1776885571,
      1776885624,
      1776885624,
      1776885631,
      1776885691,
      1776885691,
      1776885691,
      1776885756,
      1776885756,
      1776885817,
      1776885817,
      1776885817,
      1776885817,
      1776885937,
      1776885937,
      1776885937,
      1776885937,
      1776886057,
      1776886057,
      1776886111,
      1776886111,
      1776886111,
      1776886111,
      1776886232,
      1776886292,
      1776886292,
      1776886292,
      1776886292,
      1776886292,
      1776886292,
      1776886532,
      1776886532,
      1776886532,
      1776886532,
      1776886592,
      1776886592,
      1776886592,
      1776886652,
      1776886652,
      1776886652,
      1776886772,
      1776886772,
      1776886772,
      1776886772,
      1776886892,
      1776886892,
      1776886892,
      1776886892,
      1776886892,
      1776886953,
      1776886953,
      1776886953,
      1776886953,
      1776886953,
      1776887313,
      1776887313,
      1776887313,
      1776887313,
      1776887373,
      1776887373,
      1776887373,
      1776887493,
      1776887493,
      1776887493,
      1776887493,
      1776887673,
      1776887673,
      1776887794,
      1776887794,
      1776887794,
      1776887794,
      1776887794,
      1776887794,
      1776887854,
      1776887854,
      1776887854,
      1776887854,
      1776887974,
      1776887974,
      1776887974,
      1776887974,
      1776887974,
      1776887974,
      1776888214,
      1776888214,
      1776888214,
      1776888274,
      1776888274,
      1776888274,
      1776888274,
      1776888334,
      1776888334,
      1776888334,
      1776888394,
      1776888394,
      1776888455,
      1776888455,
      1776888455,
      1776888455,
      1776888556,
      1776888575,
      1776888575,
      1776888575,
      1776888695,
      1776888695,
      1776888695,
      1776888695,
      1776888695,
      1776888695,
      1776888815,
      1776888815,
      1776888815,
      1776888815,
      1776888935,
      1776888935,
      1776889037,
      1776889037,
      1776889037,
      1776889037,
      1776889037,
      1776889115,
      1776889115,
      1776889115,
      1776889115,
      1776889176,
      1776889217,
      1776889217,
      1776889277,
      1776889277,
      1776889277,
      1776889337,
      1776889337,
      1776889337,
      1776889398,
      1776889398,
      1776889398,
      1776889398,
      1776889416,
      1776889458,
      1776889476,
      1776889476,
      1776889536,
      1776889536,
      1776889578,
      1776889578,
      1776889638,
      1776889638,
      1776889698,
      1776889698,
      1776889698,
      1776889698,
      1776889698,
      1776889818,
      1776889878,
      1776889878,
      1776889878,
      1776889878,
      1776889878,
      1776889878,
      1776890059,
      1776890059,
      1776890059,
      1776890059,
      1776890239,
      1776890239,
      1776890239,
      1776890299,
      1776890299,
      1776890359,
      1776890359,
      1776890419,
      1776890419,
      1776890479,
      1776890599,
      1776890599,
      1776890599,
      1776890599,
      1776890720,
      1776890720,
      1776890720,
      1776890898,
      1776890958,
      1776890958,
      1776890958,
      1776891018,
      1776891018,
      1776891139,
      1776891139,
      1776891139,
      1776891139,
      1776891259,
      1776891259,
      1776891259,
      1776891319,
      1776891379,
      1776891379,
      1776891379,
      1776891439,
      1776891439,
      1776891740,
      1776891740,
      1776891801,
      1776891801,
      1776891801,
      1776891921,
      1776891921,
      1776892042,
      1776892102,
      1776892102,
      1776892102,
      1776892233,
      1776892233,
      1776892282,
      1776892282,
      1776892342,
      1776892342,
      1776892462,
      1776892462,
      1776892462,
      1776892473,
      1776892593,
      1776892593,
      1776892593,
      1776892653,
      1776892653,
      1776892894,
      1776892894,
      1776892894,
      1776892954,
      1776892954,
      1776893014,
      1776893254,
      1776893254,
      1776893375,
      1776893375,
      1776893435,
      1776893435,
      1776893435,
      1776893495,
      1776893550,
      1776893550,
      1776893611,
      1776893611,
      1776893611,
      1776893855,
      1776893855,
      1776893915,
      1776893915,
      1776893915,
      1776893976,
      1776893976,
      1776894036,
      1776894036,
      1776894156,
      1776894156,
      1776894156,
      1776894211,
      1776894211,
      1776894211,
      1776894276,
      1776894276,
      1776894396,
      1776894396,
      1776894396,
      1776894396,
      1776894396,
      1776894456,
      1776894456,
      1776894456,
      1776894456,
      1776894637,
      1776894637,
      1776894637,
      1776894637,
      1776894697,
      1776894697,
      1776894697,
      1776894751,
      1776894751,
      1776894751
    ],
    "wof:geomhash": "ea5a2255ba0f3ac94fc9af673020c640",
    "wof:id": 2015359553,
    "wof:repo": "sfomuseum-data-flights-2026-04"
  },
  "bbox": [
    -122.41666666666667,
    37.63333333333333,
    -87.93333333333334,
    42.882222222222225
  ],
  "geometry": {"coordinates":[[-122.41666666666667,37.63333333333333],[-122.41666666666667,37.63333333333333],[-122.36333333333333,37.88722222222222],[-122.36333333333333,37.88722222222222],[-122.36333333333333,37.88722222222222],[-122.36333333333333,37.88722222222222],[-121.95361111111112,37.933055555555555],[-121.95361111111112,37.933055555555555],[-121.95361111111112,37.933055555555555],[-121.95361111111112,37.933055555555555],[-121.95361111111112,37.933055555555555],[-121.65416666666667,37.95416666666667],[-121.65416666666667,37.95416666666667],[-121.49472222222222,37.965],[-121.49472222222222,37.965],[-121.49472222222222,37.965],[-121.49472222222222,37.965],[-121.49472222222222,37.965],[-120.98916666666666,38.009166666666665],[-120.98916666666666,38.009166666666665],[-120.98916666666666,38.009166666666665],[-120.98916666666666,38.009166666666665],[-120.60555555555555,38.0675],[-120.60555555555555,38.0675],[-120.60555555555555,38.0675],[-120.60555555555555,38.0675],[-120.60555555555555,38.0675],[-120.60555555555555,38.0675],[-120.07249999999999,38.14694444444444],[-120.07249999999999,38.14694444444444],[-120.07249999999999,38.14694444444444],[-120.07249999999999,38.14694444444444],[-120.07249999999999,38.14694444444444],[-119.89666666666668,38.1725],[-119.89666666666668,38.1725],[-119.89666666666668,38.1725],[-119.74416666666667,38.19305555555555],[-119.74416666666667,38.19305555555555],[-119.1913888888889,38.27305555555555],[-119.1913888888889,38.27305555555555],[-119.1913888888889,38.27305555555555],[-118.96638888888889,38.30333333333333],[-118.96638888888889,38.30333333333333],[-118.96638888888889,38.30333333333333],[-118.96638888888889,38.30333333333333],[-118.59194444444444,38.35416666666667],[-118.59194444444444,38.35416666666667],[-118.59194444444444,38.35416666666667],[-118.59194444444444,38.35416666666667],[-118.59194444444444,38.35416666666667],[-118.59194444444444,38.35416666666667],[-117.68444444444445,38.47138888888889],[-117.68444444444445,38.47138888888889],[-117.68444444444445,38.47138888888889],[-117.49194444444444,38.49527777777778],[-117.49194444444444,38.49527777777778],[-117.49194444444444,38.49527777777778],[-117.29972222222221,38.51861111111111],[-117.29972222222221,38.51861111111111],[-117.29972222222221,38.51861111111111],[-117.10416666666666,38.53],[-116.91333333333334,38.53944444444444],[-116.91333333333334,38.53944444444444],[-116.91333333333334,38.53944444444444],[-116.71805555555555,38.549166666666665],[-116.71805555555555,38.549166666666665],[-116.71805555555555,38.549166666666665],[-116.71805555555555,38.549166666666665],[-116.14166666666668,38.57555555555556],[-116.14166666666668,38.57555555555556],[-116.14166666666668,38.57555555555556],[-116.14166666666668,38.57555555555556],[-115.37333333333332,38.60611111111111],[-115.37333333333332,38.60611111111111],[-115.37333333333332,38.60611111111111],[-115.37333333333332,38.60611111111111],[-115.37333333333332,38.60611111111111],[-115.37333333333332,38.60611111111111],[-115.1613888888889,38.61361111111111],[-115.1613888888889,38.61361111111111],[-114.96944444444445,38.62],[-114.96944444444445,38.62],[-114.77444444444444,38.626111111111115],[-114.77444444444444,38.626111111111115],[-114.77444444444444,38.626111111111115],[-114.77444444444444,38.626111111111115],[-114.77444444444444,38.626111111111115],[-114.19194444444445,38.643055555555556],[-114.19194444444445,38.643055555555556],[-114.19194444444445,38.643055555555556],[-114.19194444444445,38.643055555555556],[-114.19194444444445,38.643055555555556],[-113.99833333333333,38.64805555555556],[-113.99833333333333,38.64805555555556],[-113.99833333333333,38.64805555555556],[-113.99833333333333,38.64805555555556],[-113.41555555555556,38.66111111111111],[-113.41555555555556,38.66111111111111],[-113.41555555555556,38.66111111111111],[-113.41555555555556,38.66111111111111],[-113.41555555555556,38.66111111111111],[-113.18277777777779,38.67638888888889],[-113.18277777777779,38.67638888888889],[-113.18277777777779,38.67638888888889],[-112.99694444444445,38.7175],[-112.99694444444445,38.7175],[-112.99694444444445,38.7175],[-112.81416666666667,38.769999999999996],[-112.62916666666666,38.823055555555555],[-112.62916666666666,38.823055555555555],[-112.62916666666666,38.823055555555555],[-112.62916666666666,38.823055555555555],[-112.48138888888889,38.86472222222223],[-112.48138888888889,38.86472222222223],[-112.48138888888889,38.86472222222223],[-112.11138888888888,38.96888888888889],[-112.11138888888888,38.96888888888889],[-112.11138888888888,38.96888888888889],[-112.11138888888888,38.96888888888889],[-111.69722222222222,39.0675],[-111.69722222222222,39.0675],[-111.69722222222222,39.0675],[-111.69722222222222,39.0675],[-111.69722222222222,39.0675],[-111.51944444444445,39.10638888888889],[-111.35833333333333,39.14138888888889],[-111.1463888888889,39.18722222222222],[-111.1463888888889,39.18722222222222],[-111.1463888888889,39.18722222222222],[-111.1463888888889,39.18722222222222],[-111.1463888888889,39.18722222222222],[-110.96000000000001,39.22694444444445],[-110.96000000000001,39.22694444444445],[-110.96000000000001,39.22694444444445],[-110.40694444444445,39.376666666666665],[-110.40694444444445,39.376666666666665],[-110.40694444444445,39.376666666666665],[-110.40694444444445,39.376666666666665],[-110.40694444444445,39.376666666666665],[-110.22333333333333,39.42666666666666],[-110.22333333333333,39.42666666666666],[-110.22333333333333,39.42666666666666],[-110.22333333333333,39.42666666666666],[-110.03777777777778,39.47638888888889],[-110.04055555555556,39.47555555555556],[-109.85472222222222,39.525277777777774],[-109.85472222222222,39.525277777777774],[-109.85444444444444,39.525277777777774],[-109.67111111111112,39.573888888888895],[-109.67111111111112,39.573888888888895],[-109.67111111111112,39.573888888888895],[-109.48472222222222,39.62277777777778],[-109.48472222222222,39.62277777777778],[-109.26666666666667,39.67972222222222],[-109.26666666666667,39.67972222222222],[-109.26666666666667,39.67972222222222],[-109.26666666666667,39.67972222222222],[-108.89916666666667,39.774166666666666],[-108.89916666666667,39.774166666666666],[-108.89916666666667,39.774166666666666],[-108.89916666666667,39.774166666666666],[-108.56361111111111,39.85944444444445],[-108.56361111111111,39.85944444444445],[-108.37722222222222,39.906388888888884],[-108.37722222222222,39.906388888888884],[-108.37722222222222,39.906388888888884],[-108.37722222222222,39.906388888888884],[-108.00361111111111,39.99888888888889],[-107.81666666666666,40.04194444444444],[-107.81666666666666,40.04194444444444],[-107.81666666666666,40.04194444444444],[-107.81666666666666,40.04194444444444],[-107.81666666666666,40.04194444444444],[-107.81666666666666,40.04194444444444],[-107.07805555555555,40.20805555555556],[-107.07805555555555,40.20805555555556],[-107.07805555555555,40.20805555555556],[-107.07805555555555,40.20805555555556],[-106.89666666666668,40.24777777777778],[-106.89666666666668,40.24777777777778],[-106.89666666666668,40.24777777777778],[-106.715,40.2875],[-106.715,40.2875],[-106.715,40.2875],[-106.34944444444444,40.36638888888889],[-106.34944444444444,40.36638888888889],[-106.34944444444444,40.36638888888889],[-106.34944444444444,40.36638888888889],[-105.99416666666667,40.44166666666666],[-105.99416666666667,40.44166666666666],[-105.99416666666667,40.44166666666666],[-105.99416666666667,40.44166666666666],[-105.99416666666667,40.44166666666666],[-105.81166666666667,40.47972222222222],[-105.81166666666667,40.47972222222222],[-105.81166666666667,40.47972222222222],[-105.81166666666667,40.47972222222222],[-105.81166666666667,40.47972222222222],[-104.75611111111111,40.714444444444446],[-104.75611111111111,40.714444444444446],[-104.75611111111111,40.714444444444446],[-104.75611111111111,40.714444444444446],[-104.58416666666666,40.755],[-104.58416666666666,40.755],[-104.58416666666666,40.755],[-104.23944444444444,40.83416666666667],[-104.23944444444444,40.83416666666667],[-104.23944444444444,40.83416666666667],[-104.23944444444444,40.83416666666667],[-103.71888888888888,40.95111111111111],[-103.71888888888888,40.95111111111111],[-103.3711111111111,41.028055555555554],[-103.3711111111111,41.028055555555554],[-103.3711111111111,41.028055555555554],[-103.3711111111111,41.028055555555554],[-103.3711111111111,41.028055555555554],[-103.3711111111111,41.028055555555554],[-103.19250000000001,41.066944444444445],[-103.19250000000001,41.066944444444445],[-103.19250000000001,41.066944444444445],[-103.19250000000001,41.066944444444445],[-102.83583333333333,41.14361111111111],[-102.83583333333333,41.14361111111111],[-102.83583333333333,41.14361111111111],[-102.83583333333333,41.14361111111111],[-102.83583333333333,41.14361111111111],[-102.83583333333333,41.14361111111111],[-102.1538888888889,41.28666666666666],[-102.1538888888889,41.28666666666666],[-102.1538888888889,41.28666666666666],[-101.9825,41.32194444444445],[-101.9825,41.32194444444445],[-101.9825,41.32194444444445],[-101.9825,41.32194444444445],[-101.80722222222222,41.35777777777778],[-101.80722222222222,41.35777777777778],[-101.80722222222222,41.35777777777778],[-101.63666666666667,41.39222222222222],[-101.63666666666667,41.39222222222222],[-101.46388888888889,41.426944444444445],[-101.46388888888889,41.426944444444445],[-101.46388888888889,41.426944444444445],[-101.46388888888889,41.426944444444445],[-101.17444444444445,41.48583333333333],[-101.11666666666666,41.49583333333334],[-101.11666666666666,41.49583333333334],[-101.11666666666666,41.49583333333334],[-100.77,41.56305555555555],[-100.77,41.56305555555555],[-100.77,41.56305555555555],[-100.77,41.56305555555555],[-100.77,41.56305555555555],[-100.77,41.56305555555555],[-100.42333333333333,41.62972222222222],[-100.42333333333333,41.62972222222222],[-100.42333333333333,41.62972222222222],[-100.42333333333333,41.62972222222222],[-100.0775,41.69444444444444],[-100.0775,41.69444444444444],[-99.785,41.748333333333335],[-99.785,41.748333333333335],[-99.785,41.748333333333335],[-99.785,41.748333333333335],[-99.785,41.748333333333335],[-99.57472222222222,41.786944444444444],[-99.57472222222222,41.786944444444444],[-99.57472222222222,41.786944444444444],[-99.57472222222222,41.786944444444444],[-99.40166666666667,41.81805555555556],[-99.26083333333334,41.843333333333334],[-99.26083333333334,41.843333333333334],[-99.08749999999999,41.87388888888889],[-99.08749999999999,41.87388888888889],[-99.08749999999999,41.87388888888889],[-98.90861111111111,41.905277777777776],[-98.90861111111111,41.905277777777776],[-98.90861111111111,41.905277777777776],[-98.74722222222222,41.96],[-98.74722222222222,41.96],[-98.74722222222222,41.96],[-98.74722222222222,41.96],[-98.72194444444445,41.97805555555556],[-98.63694444444445,42.065],[-98.61444444444444,42.08861111111111],[-98.61444444444444,42.08861111111111],[-98.51138888888889,42.19777777777777],[-98.51138888888889,42.19777777777777],[-98.42916666666667,42.28527777777778],[-98.42916666666667,42.28527777777778],[-98.3275,42.39333333333333],[-98.3275,42.39333333333333],[-98.22416666666666,42.503055555555555],[-98.22416666666666,42.503055555555555],[-98.22416666666666,42.503055555555555],[-98.22416666666666,42.503055555555555],[-98.22416666666666,42.503055555555555],[-98.02444444444444,42.715],[-97.91972222222223,42.823888888888895],[-97.91972222222223,42.823888888888895],[-97.91972222222223,42.823888888888895],[-97.91972222222223,42.823888888888895],[-97.91972222222223,42.823888888888895],[-97.91972222222223,42.823888888888895],[-97.4088888888889,42.882222222222225],[-97.4088888888889,42.882222222222225],[-97.4088888888889,42.882222222222225],[-97.4088888888889,42.882222222222225],[-96.87888888888888,42.85805555555556],[-96.87888888888888,42.85805555555556],[-96.87888888888888,42.85805555555556],[-96.69972222222222,42.84916666666667],[-96.69972222222222,42.84916666666667],[-96.5213888888889,42.84027777777778],[-96.5213888888889,42.84027777777778],[-96.33999999999999,42.83083333333334],[-96.33999999999999,42.83083333333334],[-96.16083333333334,42.821111111111115],[-95.80138888888888,42.801111111111105],[-95.80138888888888,42.801111111111105],[-95.80138888888888,42.801111111111105],[-95.80138888888888,42.801111111111105],[-95.44222222222223,42.78],[-95.44222222222223,42.78],[-95.44222222222223,42.78],[-94.91694444444445,42.74722222222222],[-94.73833333333333,42.73638888888889],[-94.73833333333333,42.73638888888889],[-94.73833333333333,42.73638888888889],[-94.55972222222222,42.72416666666667],[-94.55972222222222,42.72416666666667],[-94.20444444444445,42.698055555555555],[-94.20444444444445,42.698055555555555],[-94.20444444444445,42.698055555555555],[-94.20444444444445,42.698055555555555],[-93.85027777777778,42.67194444444444],[-93.85027777777778,42.67194444444444],[-93.85027777777778,42.67194444444444],[-93.63361111111112,42.65555555555555],[-93.45611111111111,42.641666666666666],[-93.45611111111111,42.641666666666666],[-93.45611111111111,42.641666666666666],[-93.27833333333334,42.6275],[-93.27833333333334,42.6275],[-92.37833333333333,42.55222222222222],[-92.37833333333333,42.55222222222222],[-92.19916666666667,42.53638888888889],[-92.19916666666667,42.53638888888889],[-92.19916666666667,42.53638888888889],[-91.84527777777777,42.525277777777774],[-91.84527777777777,42.525277777777774],[-91.49138888888889,42.526944444444446],[-91.31583333333333,42.52722222222222],[-91.31583333333333,42.52722222222222],[-91.31583333333333,42.52722222222222],[-90.94916666666667,42.5375],[-90.94916666666667,42.5375],[-90.85222222222221,42.59666666666667],[-90.85222222222221,42.59666666666667],[-90.74305555555556,42.67722222222222],[-90.74305555555556,42.67722222222222],[-90.41666666666667,42.65972222222222],[-90.41666666666667,42.65972222222222],[-90.41666666666667,42.65972222222222],[-90.38222222222221,42.65222222222222],[-90.03361111111111,42.57555555555556],[-90.03361111111111,42.57555555555556],[-90.03361111111111,42.57555555555556],[-89.85583333333332,42.53583333333333],[-89.85583333333332,42.53583333333333],[-89.22805555555556,42.450833333333335],[-89.22805555555556,42.450833333333335],[-89.22805555555556,42.450833333333335],[-89.08111111111111,42.43277777777777],[-89.08111111111111,42.43277777777777],[-88.94,42.414722222222224],[-88.62249999999999,42.47638888888889],[-88.62249999999999,42.47638888888889],[-88.845,42.490833333333335],[-88.845,42.490833333333335],[-88.96083333333334,42.49527777777778],[-88.96083333333334,42.49527777777778],[-88.96083333333334,42.49527777777778],[-89.07416666666666,42.49944444444444],[-89.18333333333334,42.483333333333334],[-89.18333333333334,42.483333333333334],[-89.16666666666667,42.4],[-89.16666666666667,42.4],[-89.16666666666667,42.4],[-88.79277777777777,42.380833333333335],[-88.79277777777777,42.380833333333335],[-88.6975,42.38027777777778],[-88.6975,42.38027777777778],[-88.6975,42.38027777777778],[-88.60194444444444,42.37138888888889],[-88.60194444444444,42.37138888888889],[-88.50722222222223,42.35888888888889],[-88.50722222222223,42.35888888888889],[-88.38111111111111,42.28],[-88.38111111111111,42.28],[-88.38111111111111,42.28],[-88.38333333333334,42.21666666666667],[-88.38333333333334,42.21666666666667],[-88.38333333333334,42.21666666666667],[-88.36694444444444,42.15],[-88.36694444444444,42.15],[-88.35249999999999,42.02833333333333],[-88.35249999999999,42.02833333333333],[-88.35249999999999,42.02833333333333],[-88.35249999999999,42.02833333333333],[-88.35249999999999,42.02833333333333],[-88.28166666666667,42.0025],[-88.28166666666667,42.0025],[-88.28166666666667,42.0025],[-88.28166666666667,42.0025],[-88.04833333333333,42.00277777777778],[-88.04833333333333,42.00277777777778],[-88.04833333333333,42.00277777777778],[-88.04833333333333,42.00277777777778],[-87.98833333333333,42.00277777777778],[-87.98833333333333,42.00277777777778],[-87.98833333333333,42.00277777777778],[-87.93333333333334,42],[-87.93333333333334,42],[-87.93333333333334,42]],"type":"LineString"}
}
