{
  "id": 2015249267,
  "type": "Feature",
  "properties": {
    "geom:area": 0,
    "geom:bbox": "-122.400000,30.220556,-97.679722,38.518056",
    "geom:latitude": 35.68634732710377,
    "geom:longitude": -109.65145447475633,
    "src:alt_label": "swim-path",
    "src:geom": "swim",
    "swim:altitudes": [
      "006",
      "006",
      "034",
      "038",
      "084",
      "084",
      "171",
      "171",
      "192",
      "210",
      "210",
      "230",
      "245",
      "260",
      "290",
      "290",
      "306",
      "306",
      "313",
      "316",
      "329",
      "330",
      "330",
      "330",
      "335",
      "350C",
      "350C",
      "350C",
      "350C",
      "350C",
      "350C",
      "350C",
      "350C",
      "350C",
      "350C",
      "350C",
      "350C",
      "350C",
      "350C",
      "350C",
      "350C",
      "350C",
      "350C",
      "350C",
      "350C",
      "350C",
      "350C",
      "350C",
      "350C",
      "350C",
      "350C",
      "350C",
      "350C",
      "350C",
      "350C",
      "350C",
      "350C",
      "350C",
      "350C",
      "350C",
      "350C",
      "350C",
      "350C",
      "350C",
      "350C",
      "350C",
      "350C",
      "350C",
      "350C",
      "350C",
      "350C",
      "350C",
      "350C",
      "350C",
      "350C",
      "350C",
      "350C",
      "350C",
      "350C",
      "350C",
      "350C",
      "350C",
      "350C",
      "350C",
      "350C",
      "350C",
      "350C",
      "350C",
      "350C",
      "350C",
      "350C",
      "350C",
      "350C",
      "350C",
      "350C",
      "350C",
      "350C",
      "350C",
      "350C",
      "350C",
      "350C",
      "350C",
      "350C",
      "350C",
      "350C",
      "350C",
      "350C",
      "350C",
      "350C",
      "350C",
      "350C",
      "350C",
      "350C",
      "350C",
      "350C",
      "350C",
      "350C",
      "350C",
      "350C",
      "350C",
      "350C",
      "350C",
      "350C",
      "350C",
      "350C",
      "350C",
      "350C",
      "350C",
      "350C",
      "350C",
      "350C",
      "350C",
      "350C",
      "350C",
      "350C",
      "350C",
      "350C",
      "350C",
      "350C",
      "350C",
      "350C",
      "350C",
      "350C",
      "350C",
      "350C",
      "350C",
      "350C",
      "350C",
      "350C",
      "350C",
      "350C",
      "350C",
      "350C",
      "350C",
      "350C",
      "350C",
      "350C",
      "350C",
      "350C",
      "344",
      "334",
      "330C",
      "330C",
      "330C",
      "330C",
      "330",
      "329",
      "324",
      "304",
      "286",
      "286",
      "276",
      "274",
      "266",
      "264",
      "246",
      "246",
      "243",
      "228",
      "224",
      "192",
      "188",
      "176",
      "176",
      "171",
      "153",
      "135",
      "135",
      "120",
      "108",
      "083",
      "084",
      "051",
      "035",
      "035",
      "018",
      "018",
      "015",
      "008"
    ],
    "swim:geom": "path",
    "swim:speeds": [
      173,
      173,
      197,
      201,
      296,
      296,
      393,
      393,
      407,
      426,
      426,
      434,
      450,
      458,
      467,
      467,
      468,
      468,
      474,
      469,
      475,
      477,
      476,
      476,
      476,
      475,
      475,
      473,
      474,
      473,
      470,
      470,
      472,
      472,
      472,
      472,
      471,
      472,
      472,
      473,
      473,
      472,
      476,
      476,
      476,
      475,
      475,
      475,
      475,
      475,
      475,
      475,
      476,
      476,
      476,
      477,
      477,
      478,
      478,
      478,
      479,
      479,
      479,
      478,
      478,
      475,
      474,
      474,
      473,
      474,
      474,
      476,
      478,
      477,
      479,
      480,
      480,
      480,
      477,
      477,
      477,
      477,
      477,
      477,
      478,
      478,
      478,
      478,
      479,
      479,
      477,
      477,
      471,
      470,
      469,
      469,
      469,
      471,
      471,
      472,
      472,
      478,
      478,
      475,
      475,
      472,
      470,
      470,
      472,
      472,
      474,
      475,
      475,
      471,
      471,
      470,
      469,
      468,
      468,
      468,
      467,
      466,
      466,
      465,
      465,
      463,
      463,
      462,
      462,
      462,
      462,
      462,
      463,
      462,
      462,
      462,
      462,
      461,
      461,
      461,
      461,
      460,
      460,
      461,
      461,
      460,
      459,
      459,
      459,
      457,
      456,
      456,
      453,
      450,
      450,
      450,
      450,
      451,
      450,
      450,
      446,
      444,
      444,
      444,
      443,
      443,
      443,
      443,
      448,
      448,
      448,
      442,
      440,
      436,
      435,
      420,
      420,
      417,
      406,
      405,
      384,
      380,
      376,
      376,
      375,
      364,
      348,
      348,
      334,
      325,
      289,
      293,
      249,
      221,
      221,
      167,
      167,
      161,
      161
    ],
    "swim:timestamps": [
      1775752781,
      1775752781,
      1775752853,
      1775752866,
      1775752986,
      1775752986,
      1775753227,
      1775753227,
      1775753287,
      1775753347,
      1775753347,
      1775753407,
      1775753467,
      1775753527,
      1775753647,
      1775753647,
      1775753734,
      1775753734,
      1775753767,
      1775753794,
      1775753854,
      1775753887,
      1775753914,
      1775753914,
      1775753974,
      1775754068,
      1775754068,
      1775754188,
      1775754215,
      1775754275,
      1775754308,
      1775754308,
      1775754335,
      1775754395,
      1775754455,
      1775754455,
      1775754488,
      1775754515,
      1775754548,
      1775754575,
      1775754575,
      1775754608,
      1775754875,
      1775754909,
      1775754909,
      1775754996,
      1775755029,
      1775755056,
      1775755056,
      1775755089,
      1775755116,
      1775755149,
      1775755236,
      1775755236,
      1775755269,
      1775755296,
      1775755356,
      1775755416,
      1775755536,
      1775755536,
      1775755596,
      1775755657,
      1775755657,
      1775755777,
      1775755777,
      1775755957,
      1775756077,
      1775756077,
      1775756137,
      1775756197,
      1775756197,
      1775756438,
      1775756447,
      1775756498,
      1775756558,
      1775756687,
      1775756738,
      1775756807,
      1775757107,
      1775757107,
      1775757360,
      1775757399,
      1775757420,
      1775757420,
      1775757480,
      1775757519,
      1775757540,
      1775757540,
      1775757579,
      1775757600,
      1775757720,
      1775757720,
      1775757901,
      1775757961,
      1775757985,
      1775757985,
      1775758046,
      1775758081,
      1775758081,
      1775758166,
      1775758166,
      1775758381,
      1775758381,
      1775758526,
      1775758526,
      1775758646,
      1775758707,
      1775758707,
      1775758827,
      1775758827,
      1775758947,
      1775759007,
      1775759007,
      1775759247,
      1775759247,
      1775759307,
      1775759367,
      1775759548,
      1775759548,
      1775759608,
      1775759668,
      1775759721,
      1775759721,
      1775759841,
      1775759841,
      1775759962,
      1775759962,
      1775760149,
      1775760149,
      1775760269,
      1775760269,
      1775760322,
      1775760382,
      1775760509,
      1775760563,
      1775760563,
      1775760569,
      1775760623,
      1775760629,
      1775760629,
      1775760743,
      1775760803,
      1775760803,
      1775761103,
      1775761103,
      1775761224,
      1775761284,
      1775761284,
      1775761344,
      1775761514,
      1775761524,
      1775761524,
      1775761584,
      1775761695,
      1775761695,
      1775761755,
      1775761815,
      1775761824,
      1775761875,
      1775761945,
      1775762005,
      1775762065,
      1775762065,
      1775762115,
      1775762175,
      1775762236,
      1775762245,
      1775762305,
      1775762425,
      1775762536,
      1775762536,
      1775762596,
      1775762606,
      1775762656,
      1775762666,
      1775762776,
      1775762776,
      1775762786,
      1775762837,
      1775762846,
      1775762957,
      1775762966,
      1775763017,
      1775763017,
      1775763026,
      1775763086,
      1775763147,
      1775763147,
      1775763191,
      1775763257,
      1775763371,
      1775763377,
      1775763558,
      1775763678,
      1775763678,
      1775763798,
      1775763798,
      1775763804,
      1775763858
    ],
    "wof:geomhash": "6c785275f341cf660bf2d6ddd85ea63e",
    "wof:id": 2015249267,
    "wof:repo": "sfomuseum-data-flights-2026-04"
  },
  "bbox": [
    -122.4,
    30.220555555555553,
    -97.67972222222222,
    38.518055555555556
  ],
  "geometry": {"coordinates":[[-122.4,37.63333333333333],[-122.4,37.63333333333333],[-122.36666666666666,37.666666666666664],[-122.35527777777777,37.67333333333333],[-122.18222222222222,37.734722222222224],[-122.18222222222222,37.734722222222224],[-121.73055555555555,37.87722222222222],[-121.73055555555555,37.87722222222222],[-121.59194444444444,37.90361111111111],[-121.44583333333334,37.92972222222222],[-121.44583333333334,37.92972222222222],[-121.29638888888888,37.95611111111111],[-121.14555555555556,37.983333333333334],[-120.98611111111111,38.00972222222222],[-120.66611111111112,38.05833333333333],[-120.66611111111112,38.05833333333333],[-120.45083333333334,38.080000000000005],[-120.45083333333334,38.080000000000005],[-120.34305555555555,38.106944444444444],[-120.28583333333333,38.10611111111111],[-120.11916666666666,38.13055555555555],[-120.01083333333334,38.15611111111111],[-119.95416666666667,38.1625],[-119.95416666666667,38.1625],[-119.78972222222222,38.18694444444444],[-119.5175,38.22694444444445],[-119.5175,38.22694444444445],[-119.19638888888889,38.27194444444444],[-119.13055555555555,38.28055555555555],[-118.96611111111112,38.30166666666666],[-118.86861111111111,38.316944444444445],[-118.86861111111111,38.316944444444445],[-118.80305555555556,38.32361111111111],[-118.63944444444445,38.34722222222222],[-118.4786111111111,38.369166666666665],[-118.4786111111111,38.369166666666665],[-118.37333333333332,38.38305555555556],[-118.30972222222222,38.39138888888889],[-118.20805555555556,38.40472222222222],[-118.14416666666668,38.41305555555555],[-118.14416666666668,38.41305555555555],[-118.0436111111111,38.42583333333333],[-117.30611111111111,38.51777777777777],[-117.20305555555557,38.518055555555556],[-117.20305555555557,38.518055555555556],[-116.96666666666667,38.51111111111111],[-116.86361111111111,38.507777777777775],[-116.79833333333333,38.50555555555555],[-116.79833333333333,38.50555555555555],[-116.69277777777778,38.50222222222222],[-116.62833333333333,38.5],[-116.52333333333333,38.49666666666667],[-116.28861111111111,38.488055555555555],[-116.28861111111111,38.488055555555555],[-116.18694444444445,38.48444444444444],[-116.12083333333332,38.48166666666667],[-115.95027777777779,38.47527777777778],[-115.78194444444445,38.468333333333334],[-115.4413888888889,38.45388888888889],[-115.4413888888889,38.45388888888889],[-115.27527777777777,38.44638888888888],[-115.10694444444444,38.43861111111111],[-115.10694444444444,38.43861111111111],[-114.76833333333333,38.4225],[-114.76833333333333,38.4225],[-114.26611111111112,38.384166666666665],[-113.94638888888889,38.30888888888889],[-113.94638888888889,38.30888888888889],[-113.78722222222223,38.27111111111111],[-113.62694444444443,38.23277777777778],[-113.62694444444443,38.23277777777778],[-112.98444444444445,38.07611111111112],[-112.96277777777777,38.07083333333334],[-112.82444444444444,38.03666666666666],[-112.66277777777778,37.99611111111111],[-112.32,37.90972222222222],[-112.18083333333334,37.87444444444444],[-112.00027777777778,37.827222222222225],[-111.25583333333333,37.52611111111111],[-111.25583333333333,37.52611111111111],[-110.63583333333334,37.26888888888889],[-110.54972222222221,37.23277777777778],[-110.49138888888889,37.208333333333336],[-110.49138888888889,37.208333333333336],[-110.35249999999999,37.14972222222222],[-110.25833333333334,37.11],[-110.20416666666667,37.08694444444445],[-110.20416666666667,37.08694444444445],[-110.11583333333333,37.04944444444444],[-110.05777777777777,37.02472222222222],[-109.7863888888889,36.87416666666667],[-109.7863888888889,36.87416666666667],[-109.39277777777778,36.64083333333333],[-109.26277777777777,36.562777777777775],[-109.21027777777778,36.53138888888889],[-109.21027777777778,36.53138888888889],[-109.07944444444443,36.45305555555556],[-109.00027777777778,36.405],[-109.00027777777778,36.405],[-108.815,36.293055555555554],[-108.815,36.293055555555554],[-108.33777777777777,36.00138888888889],[-108.33777777777777,36.00138888888889],[-108.08194444444445,35.761944444444445],[-108.08194444444445,35.761944444444445],[-107.88111111111111,35.556666666666665],[-107.78111111111112,35.453611111111115],[-107.78111111111112,35.453611111111115],[-107.52777777777777,35.29944444444444],[-107.52777777777777,35.29944444444444],[-107.2425,35.17333333333333],[-107.08416666666666,35.10277777777778],[-107.08416666666666,35.10277777777778],[-106.52444444444444,34.850833333333334],[-106.52444444444444,34.850833333333334],[-106.39277777777778,34.79083333333333],[-106.2538888888889,34.727222222222224],[-105.84722222222221,34.53972222222222],[-105.84722222222221,34.53972222222222],[-105.70944444444444,34.47555555555556],[-105.57555555555555,34.41305555555555],[-105.4413888888889,34.35],[-105.4413888888889,34.35],[-105.17166666666667,34.223055555555554],[-105.17166666666667,34.223055555555554],[-104.90444444444445,34.096111111111114],[-104.90444444444445,34.096111111111114],[-104.48805555555556,33.896388888888886],[-104.48805555555556,33.896388888888886],[-104.22027777777778,33.76694444444444],[-104.22027777777778,33.76694444444444],[-104.1036111111111,33.71027777777778],[-103.97111111111111,33.64555555555555],[-103.68666666666667,33.505833333333335],[-103.57472222222222,33.45027777777778],[-103.57472222222222,33.45027777777778],[-103.57249999999999,33.44916666666666],[-103.44472222222223,33.38583333333333],[-103.44250000000001,33.38472222222222],[-103.44250000000001,33.38472222222222],[-103.18027777777779,33.25388888888889],[-103.05,33.18888888888888],[-103.05,33.18888888888888],[-102.3963888888889,32.85777777777778],[-102.3963888888889,32.85777777777778],[-102.13388888888889,32.723055555555554],[-102.0038888888889,32.65611111111111],[-102.0038888888889,32.65611111111111],[-101.87527777777777,32.58972222222222],[-101.51305555555555,32.40138888888889],[-101.49333333333334,32.39],[-101.49333333333334,32.39],[-101.38083333333333,32.30833333333333],[-101.1763888888889,32.15472222222222],[-101.1763888888889,32.15472222222222],[-101.06138888888889,32.0675],[-100.9525,31.984722222222224],[-100.94694444444445,31.980555555555554],[-100.84194444444444,31.900555555555552],[-100.7286111111111,31.81416666666667],[-100.6211111111111,31.731944444444444],[-100.51527777777778,31.650555555555552],[-100.51527777777778,31.650555555555552],[-100.4263888888889,31.58222222222222],[-100.31916666666666,31.499444444444446],[-100.21138888888889,31.41611111111111],[-100.18944444444445,31.399166666666666],[-100.08083333333333,31.31972222222222],[-99.81888888888888,31.211944444444445],[-99.58166666666666,31.1175],[-99.58166666666666,31.1175],[-99.45333333333333,31.066111111111113],[-99.42611111111111,31.055],[-99.3261111111111,31.015],[-99.29861111111111,31.003888888888888],[-99.07694444444444,30.914166666666667],[-99.07694444444444,30.914166666666667],[-99.05194444444444,30.904166666666665],[-98.95694444444445,30.865555555555556],[-98.93444444444445,30.85611111111111],[-98.72472222222223,30.789722222222224],[-98.69916666666667,30.787222222222223],[-98.60555555555555,30.7775],[-98.60555555555555,30.7775],[-98.58027777777778,30.77472222222222],[-98.46361111111112,30.7625],[-98.35888888888888,30.730277777777776],[-98.35888888888888,30.730277777777776],[-98.27527777777777,30.695833333333333],[-98.18444444444445,30.661388888888887],[-98.00833333333334,30.590833333333332],[-98.01277777777777,30.593333333333334],[-97.80916666666667,30.470555555555553],[-97.7175,30.37027777777778],[-97.7175,30.37027777777778],[-97.68083333333334,30.274166666666666],[-97.68083333333334,30.274166666666666],[-97.68222222222222,30.259166666666665],[-97.67972222222222,30.220555555555553]],"type":"LineString"}
}
