{
  "id": 2015212343,
  "type": "Feature",
  "properties": {
    "geom:area": 0,
    "geom:bbox": "-122.760780,37.434270,-122.118300,38.511140",
    "geom:latitude": 37.85376460017799,
    "geom:longitude": -122.48435891128412,
    "src:alt_label": "swim-approach",
    "src:geom": "swim",
    "swim:elevations": [
      6895,
      6818,
      6589,
      6572,
      6382,
      6198,
      6158,
      5991,
      5826,
      5757,
      5654,
      5509,
      5238,
      5014,
      4831,
      4491,
      4249,
      4035,
      3848,
      3814,
      3381,
      3353,
      3353,
      3353,
      3353,
      3318,
      3137,
      3046,
      2835,
      2520,
      2355,
      2165,
      2134,
      1939,
      1663,
      1570,
      1314,
      1142,
      848,
      702,
      586,
      475,
      365,
      247,
      84,
      60
    ],
    "swim:geom": "approach",
    "swim:timestamps": [
      1775381188,
      1775381204,
      1775381248,
      1775381254,
      1775381291,
      1775381326,
      1775381334,
      1775381368,
      1775381396,
      1775381411,
      1775381433,
      1775381463,
      1775381517,
      1775381539,
      1775381565,
      1775381599,
      1775381626,
      1775381651,
      1775381695,
      1775381700,
      1775381750,
      1775381771,
      1775381818,
      1775381831,
      1775381866,
      1775381897,
      1775381928,
      1775381944,
      1775381972,
      1775382028,
      1775382051,
      1775382076,
      1775382102,
      1775382144,
      1775382173,
      1775382183,
      1775382214,
      1775382243,
      1775382297,
      1775382322,
      1775382348,
      1775382375,
      1775382394,
      1775382429,
      1775382474,
      1775382482
    ],
    "wof:geomhash": "7aa98a47a5c7365967a180451b5555cf",
    "wof:id": 2015212343,
    "wof:repo": "sfomuseum-data-flights-2026-04"
  },
  "bbox": [
    -122.76078,
    37.43427,
    -122.1183,
    38.51114
  ],
  "geometry": {"coordinates":[[-122.54642,38.51114],[-122.56443,38.48796],[-122.61261,38.42549],[-122.61923,38.41698],[-122.65937,38.36486],[-122.69646,38.31644],[-122.70529,38.30489],[-122.74119,38.25839],[-122.76078,38.2174],[-122.75734,38.19299],[-122.74754,38.15846],[-122.73371,38.11009],[-122.70936,38.02542],[-122.69983,37.99253],[-122.68801,37.95189],[-122.67078,37.90138],[-122.63977,37.86871],[-122.60774,37.83845],[-122.55921,37.79254],[-122.55434,37.7879],[-122.50418,37.74026],[-122.48391,37.7208],[-122.43972,37.67944],[-122.42768,37.6681],[-122.39676,37.63907],[-122.37008,37.61287],[-122.35446,37.58237],[-122.34383,37.56743],[-122.32665,37.54032],[-122.29347,37.4862],[-122.27623,37.46711],[-122.24616,37.45752],[-122.2136,37.44824],[-122.16061,37.43427],[-122.1274,37.44849],[-122.12169,37.45797],[-122.1183,37.4911],[-122.13975,37.5159],[-122.19812,37.54659],[-122.22384,37.55749],[-122.2494,37.56824],[-122.274,37.57856],[-122.29025,37.58539],[-122.31543,37.59601],[-122.34608,37.60888],[-122.35131,37.61111]],"type":"LineString"}
}
