{
  "id": 2031130153,
  "type": "Feature",
  "properties": {
    "geom:area": 0,
    "geom:bbox": "-122.530000,37.620000,-74.170000,45.150000",
    "geom:latitude": 43.08856584000057,
    "geom:longitude": -98.12410203600362,
    "src:alt_label": "swim-route",
    "src:geom": "swim",
    "swim:geom": "route",
    "wof:geomhash": "acbcfcd803cdff3a2f2dd52f945e0bf8",
    "wof:id": 2031130153,
    "wof:repo": "sfomuseum-data-flights-2026-04"
  },
  "bbox": [
    -122.53,
    37.62,
    -74.17,
    45.15
  ],
  "geometry": {"coordinates":[[-122.38,37.62],[-122.5,37.67],[-122.51,37.67],[-122.52,37.68],[-122.53,37.72],[-122.53,37.73],[-122.53,37.75],[-122.53,37.8],[-122.53,37.8],[-122.51,37.81],[-122.43,37.84],[-122.36,37.89],[-122.2,38],[-122.12,38.06],[-122.04,38.11],[-121.9,38.2],[-121.89,38.21],[-121.73,38.32],[-121.68,38.36],[-121.62,38.4],[-121.59,38.42],[-121.55,38.44],[-121.52,38.46],[-121.27,38.61],[-121.2,38.66],[-121.19,38.66],[-121.1,38.72],[-121.02,38.77],[-120.77,38.92],[-120.44,39.12],[-120.35,39.16],[-119.89,39.44],[-119.1,39.89],[-118.92,39.98],[-118.12,40.32],[-114.49,41.57],[-113.95,41.74],[-113.34,41.93],[-112.9,42.07],[-112.45,42.2],[-112.04,42.33],[-111.81,42.41],[-111.34,42.56],[-110.14,42.93],[-108.83,43.31],[-108.3,43.46],[-107.97,43.56],[-107.44,43.72],[-107.26,43.77],[-106.44,44],[-106.21,44],[-103.01,43.98],[-102.75,44.01],[-102.49,44.04],[-101.44,44.16],[-101.14,44.19],[-98.14,44.47],[-97.79,44.5],[-97.03,44.55],[-95.8,44.74],[-94,45.05],[-93.37,45.15],[-93.1,45.13],[-92.76,45.12],[-91.25,45.03],[-90.43,44.98],[-90.33,44.97],[-90.16,44.96],[-87.6,44.75],[-87.1,44.7],[-82.23,44.11],[-82.23,44.11],[-80.91,43.91],[-80.42,43.83],[-80.2,43.8],[-80.03,43.77],[-79.5,43.67],[-79.35,43.65],[-79.05,43.57],[-78.95,43.53],[-78.8,43.49],[-78.75,43.48],[-78.65,43.45],[-78.5,43.41],[-78.2,43.33],[-78.18,43.32],[-78.13,43.31],[-77.98,43.25],[-77.77,43.16],[-77.7,43.13],[-77.63,43.1],[-77.29,42.95],[-77.15,42.89],[-76.81,42.74],[-76.72,42.7],[-76.16,42.45],[-76,42.38],[-75.78,42.28],[-75.32,42.06],[-74.98,41.94],[-74.77,41.86],[-74.49,41.75],[-74.35,41.7],[-74.29,41.67],[-74.28,41.67],[-74.32,41.57],[-74.33,41.54],[-74.35,41.5],[-74.39,41.42],[-74.41,41.36],[-74.42,41.34],[-74.44,41.29],[-74.45,41.27],[-74.48,41.2],[-74.52,41.11],[-74.54,41.07],[-74.54,41.04],[-74.56,40.83],[-74.56,40.79],[-74.56,40.78],[-74.55,40.66],[-74.49,40.66],[-74.38,40.67],[-74.27,40.68],[-74.17,40.69]],"type":"LineString"}
}
