{
  "id": 2031128641,
  "type": "Feature",
  "properties": {
    "geom:area": 0,
    "geom:bbox": "-122.400200,37.629440,-121.256400,37.991060",
    "geom:latitude": 37.93664748677747,
    "geom:longitude": -121.94154253422413,
    "src:alt_label": "swim-takeoff",
    "src:geom": "swim",
    "swim:elevations": [
      343,
      944,
      1354,
      1443,
      1996,
      2372,
      2913,
      3155,
      3315,
      3527,
      3901,
      4174,
      4616,
      5673,
      6409,
      6910,
      7519,
      7734,
      7791
    ],
    "swim:geom": "takeoff",
    "swim:timestamps": [
      1777335774,
      1777335834,
      1777335867,
      1777335873,
      1777335911,
      1777335935,
      1777335974,
      1777335992,
      1777336016,
      1777336043,
      1777336071,
      1777336095,
      1777336133,
      1777336242,
      1777336321,
      1777336382,
      1777336463,
      1777336493,
      1777336502
    ],
    "wof:geomhash": "40c9829f6ab30a5abba89acc6f26fc6f",
    "wof:id": 2031128641,
    "wof:repo": "sfomuseum-data-flights-2026-04"
  },
  "bbox": [
    -122.4002,
    37.62944,
    -121.2564,
    37.99106
  ],
  "geometry": {"coordinates":[[-122.4002,37.62944],[-122.38016,37.6789],[-122.3498,37.70959],[-122.34486,37.71573],[-122.3453,37.76041],[-122.35903,37.78894],[-122.38164,37.83744],[-122.38557,37.86139],[-122.38391,37.89557],[-122.36017,37.93315],[-122.31225,37.95481],[-122.26325,37.965],[-122.18406,37.98073],[-121.93348,37.9893],[-121.73813,37.98995],[-121.58037,37.99073],[-121.36311,37.99106],[-121.28151,37.99101],[-121.2564,37.99106]],"type":"LineString"}
}
