{
  "id": 2031108761,
  "type": "Feature",
  "properties": {
    "geom:area": 0,
    "geom:bbox": "-122.353020,36.720690,-121.877430,37.611880",
    "geom:latitude": 37.234706009936765,
    "geom:longitude": -122.06378770604697,
    "src:alt_label": "swim-approach",
    "src:geom": "swim",
    "swim:elevations": [
      5812,
      5318,
      5189,
      4623,
      4340,
      4099,
      3676,
      3417,
      3141,
      3064,
      2934,
      2746,
      2544,
      2292,
      2006,
      1932,
      1830,
      1829,
      1829,
      1829,
      1750,
      1620,
      1465,
      1069,
      988,
      871,
      695,
      510,
      424,
      313,
      214,
      89,
      37
    ],
    "swim:geom": "approach",
    "swim:timestamps": [
      1777100615,
      1777100660,
      1777100673,
      1777100726,
      1777100752,
      1777100776,
      1777100813,
      1777100837,
      1777100875,
      1777100906,
      1777100925,
      1777100953,
      1777100983,
      1777101014,
      1777101055,
      1777101066,
      1777101091,
      1777101129,
      1777101170,
      1777101184,
      1777101238,
      1777101257,
      1777101274,
      1777101327,
      1777101347,
      1777101372,
      1777101409,
      1777101448,
      1777101467,
      1777101502,
      1777101530,
      1777101565,
      1777101577
    ],
    "wof:geomhash": "97671271fd375b066e66159f6d9d9dca",
    "wof:id": 2031108761,
    "wof:repo": "sfomuseum-data-flights-2026-04"
  },
  "bbox": [
    -122.35302,
    36.72069,
    -121.87743,
    37.61188
  ],
  "geometry": {"coordinates":[[-121.87743,36.72069],[-121.90836,36.79236],[-121.91393,36.81247],[-121.93753,36.89683],[-121.94867,36.93724],[-121.96131,36.97351],[-121.9829,37.02914],[-121.99737,37.06559],[-122.01893,37.12161],[-122.03528,37.16343],[-122.04496,37.18737],[-122.05867,37.22189],[-122.07325,37.25943],[-122.08823,37.29762],[-122.10803,37.34737],[-122.11337,37.36098],[-122.12138,37.3904],[-122.09118,37.4245],[-122.05609,37.45294],[-122.04541,37.46169],[-122.07033,37.49424],[-122.08947,37.50102],[-122.10755,37.50821],[-122.16142,37.53117],[-122.1794,37.5387],[-122.2017,37.54818],[-122.23301,37.56129],[-122.26564,37.57507],[-122.28004,37.58114],[-122.30319,37.59086],[-122.32212,37.59885],[-122.34508,37.60851],[-122.35302,37.61188]],"type":"LineString"}
}
