{
  "id": 2031117877,
  "type": "Feature",
  "properties": {
    "geom:area": 0,
    "geom:bbox": "-123.189750,37.429110,-122.119410,38.481690",
    "geom:latitude": 37.88396762573866,
    "geom:longitude": -122.57941726585538,
    "src:alt_label": "swim-approach",
    "src:geom": "swim",
    "swim:elevations": [
      7559,
      7357,
      7054,
      6904,
      6622,
      6444,
      6118,
      5849,
      5677,
      5383,
      5153,
      5059,
      4604,
      4355,
      4280,
      3938,
      3561,
      3490,
      3441,
      3352,
      3353,
      3353,
      3353,
      3307,
      3123,
      2965,
      2810,
      2582,
      2433,
      2363,
      1781,
      1624,
      1442,
      1218,
      1219,
      1117,
      910,
      914,
      880,
      745,
      687,
      577,
      431,
      306,
      258,
      148,
      2
    ],
    "swim:geom": "approach",
    "swim:timestamps": [
      1777267348,
      1777267371,
      1777267407,
      1777267428,
      1777267461,
      1777267485,
      1777267523,
      1777267555,
      1777267576,
      1777267609,
      1777267639,
      1777267651,
      1777267705,
      1777267738,
      1777267747,
      1777267782,
      1777267820,
      1777267830,
      1777267851,
      1777267883,
      1777267916,
      1777267946,
      1777267973,
      1777268008,
      1777268038,
      1777268059,
      1777268086,
      1777268128,
      1777268153,
      1777268162,
      1777268216,
      1777268231,
      1777268246,
      1777268277,
      1777268287,
      1777268319,
      1777268360,
      1777268384,
      1777268402,
      1777268423,
      1777268432,
      1777268453,
      1777268486,
      1777268516,
      1777268531,
      1777268554,
      1777268590
    ],
    "wof:geomhash": "b3a33c6cb98d8a338fb1e9738e2d90f6",
    "wof:id": 2031117877,
    "wof:repo": "sfomuseum-data-flights-2026-04"
  },
  "bbox": [
    -123.18975,
    37.42911,
    -122.11941,
    38.48169
  ],
  "geometry": {"coordinates":[[-123.18975,38.48169],[-123.14218,38.45272],[-123.06979,38.40935],[-123.02828,38.38384],[-122.96355,38.34456],[-122.91713,38.31636],[-122.84413,38.27166],[-122.78683,38.23202],[-122.76192,38.19817],[-122.74286,38.13894],[-122.72717,38.08537],[-122.72099,38.06433],[-122.6944,37.97292],[-122.67734,37.91842],[-122.67001,37.90433],[-122.62866,37.85744],[-122.57659,37.80844],[-122.56239,37.79498],[-122.53611,37.77017],[-122.49893,37.73487],[-122.46139,37.69959],[-122.42693,37.66724],[-122.39717,37.63918],[-122.36304,37.60613],[-122.34206,37.57404],[-122.32899,37.55154],[-122.31229,37.52264],[-122.28636,37.47868],[-122.26159,37.4604],[-122.25026,37.45619],[-122.18323,37.43222],[-122.16385,37.42911],[-122.14497,37.43444],[-122.12421,37.46174],[-122.11941,37.47042],[-122.12364,37.50166],[-122.15826,37.52982],[-122.18403,37.54068],[-122.20251,37.54844],[-122.22505,37.55798],[-122.23425,37.56182],[-122.25375,37.57007],[-122.28109,37.58156],[-122.304,37.59123],[-122.3156,37.59608],[-122.33301,37.60341],[-122.36172,37.61528]],"type":"LineString"}
}
