{
  "id": 2015249545,
  "type": "Feature",
  "properties": {
    "geom:area": 0,
    "geom:bbox": "-122.410100,37.626750,-121.254950,38.090310",
    "geom:latitude": 37.96885705099872,
    "geom:longitude": -121.94636833580113,
    "src:alt_label": "swim-takeoff",
    "src:geom": "swim",
    "swim:elevations": [
      152,
      600,
      718,
      919,
      1099,
      1209,
      1582,
      1872,
      2173,
      2433,
      2809,
      3094,
      3160,
      3513,
      3805,
      4089,
      4574,
      4697,
      4958,
      5273,
      5477,
      5886,
      6168,
      6234,
      6636,
      6846,
      6977,
      7366,
      7528,
      7567,
      7605,
      7628
    ],
    "swim:geom": "takeoff",
    "swim:timestamps": [
      1775779253,
      1775779287,
      1775779296,
      1775779316,
      1775779346,
      1775779364,
      1775779404,
      1775779425,
      1775779446,
      1775779468,
      1775779497,
      1775779523,
      1775779532,
      1775779583,
      1775779610,
      1775779635,
      1775779676,
      1775779688,
      1775779723,
      1775779756,
      1775779778,
      1775779821,
      1775779856,
      1775779862,
      1775779914,
      1775779940,
      1775779954,
      1775780008,
      1775780031,
      1775780037,
      1775780043,
      1775780049
    ],
    "wof:geomhash": "0822f475cd8136c6d10dc80219f02624",
    "wof:id": 2015249545,
    "wof:repo": "sfomuseum-data-flights-2026-04"
  },
  "bbox": [
    -122.4101,
    37.62675,
    -121.25495,
    38.09031
  ],
  "geometry": {"coordinates":[[-122.39433,37.62675],[-122.4101,37.6515],[-122.40454,37.65905],[-122.38867,37.67275],[-122.36324,37.69595],[-122.3471,37.71287],[-122.34498,37.76228],[-122.35755,37.78717],[-122.3712,37.8134],[-122.38318,37.842],[-122.38528,37.88068],[-122.37749,37.91693],[-122.36922,37.92814],[-122.28263,37.96102],[-122.22976,37.97177],[-122.18033,37.98175],[-122.09788,37.99839],[-122.07209,38.0035],[-121.99981,38.01777],[-121.92751,38.02945],[-121.8793,38.03363],[-121.78582,38.0419],[-121.70514,38.04906],[-121.69144,38.05023],[-121.57135,38.06076],[-121.51262,38.06587],[-121.4795,38.06873],[-121.35251,38.0795],[-121.29796,38.08411],[-121.28362,38.0857],[-121.26927,38.08791],[-121.25495,38.09031]],"type":"LineString"}
}
