{
  "id": 2031141853,
  "type": "Feature",
  "properties": {
    "geom:area": 0,
    "geom:bbox": "-122.850000,37.533333,-104.850000,40.724722",
    "geom:latitude": 40.012768398304985,
    "geom:longitude": -114.57440672582236,
    "src:alt_label": "swim-path",
    "src:geom": "swim",
    "swim:altitudes": [
      "091",
      "091",
      "091",
      "111",
      "111",
      "115",
      "115",
      "115",
      "136",
      "136",
      "136",
      "136",
      "186",
      "186",
      "186",
      "186",
      "186",
      "204",
      "204",
      "204",
      "204",
      "204",
      "235",
      "235",
      "235",
      "235",
      "235",
      "235",
      "235",
      "291",
      "291",
      "291",
      "291",
      "291",
      "300",
      "300",
      "300",
      "300",
      "300",
      "300",
      "300",
      "300",
      "300",
      "300",
      "300",
      "300",
      "305",
      "305",
      "315",
      "315",
      "326",
      "326",
      "326",
      "326",
      "326",
      "339C",
      "339C",
      "339C",
      "340C",
      "340C",
      "340C",
      "340C",
      "340C",
      "340C",
      "340C",
      "340C",
      "340C",
      "340C",
      "340C",
      "340C",
      "340C",
      "340C",
      "340C",
      "340C",
      "340C",
      "340C",
      "340C",
      "340C",
      "340C",
      "340C",
      "340C",
      "340C",
      "340C",
      "340C",
      "340C",
      "340C",
      "340C",
      "340C",
      "340C",
      "340C",
      "341C",
      "341C",
      "341C",
      "341C",
      "341C",
      "340C",
      "340C",
      "340C",
      "340C",
      "340C",
      "340C",
      "340C",
      "340C",
      "340C",
      "340C",
      "340C",
      "340C",
      "340C",
      "340C",
      "340C",
      "340C",
      "340C",
      "340C",
      "340C",
      "340C",
      "340C",
      "340C",
      "340C",
      "340C",
      "340C",
      "340C",
      "340C",
      "340C",
      "340C",
      "340C",
      "340C",
      "340C",
      "340C",
      "340C",
      "340C",
      "340C",
      "340C",
      "340C",
      "340C",
      "340C",
      "340C",
      "340C",
      "340C",
      "340C",
      "340C",
      "340C",
      "340C",
      "340C",
      "340C",
      "340C",
      "340C",
      "340C",
      "340C",
      "340C",
      "340C",
      "340C",
      "340C",
      "340C",
      "340C",
      "340C",
      "340C",
      "340C",
      "340C",
      "340C",
      "340C",
      "340C",
      "340C",
      "340C",
      "340C",
      "340C",
      "340C",
      "340C",
      "340C",
      "340C",
      "340C",
      "339C",
      "339C",
      "339C",
      "340C",
      "340C",
      "340C",
      "340C",
      "340C",
      "340C",
      "340C",
      "340C",
      "340C",
      "340C",
      "340C",
      "340C",
      "340C",
      "340C",
      "340C",
      "340C",
      "340C",
      "340C",
      "340C",
      "340C",
      "340C",
      "340C",
      "340C",
      "340C",
      "340C",
      "340C",
      "340C",
      "340C",
      "340C",
      "340C",
      "340C",
      "340C",
      "340C",
      "340C",
      "340C",
      "340C",
      "340C",
      "341C",
      "341C",
      "341C",
      "341C",
      "341C",
      "341C",
      "341C",
      "341C",
      "341C",
      "340C",
      "340C",
      "340C",
      "340C",
      "340C",
      "340C",
      "340C",
      "340C",
      "340C",
      "340C",
      "340C",
      "340C",
      "340C",
      "340C",
      "340C",
      "340C",
      "341C",
      "341C",
      "341C",
      "341C",
      "341C",
      "341C",
      "341C",
      "341C",
      "341C",
      "341C",
      "340C",
      "340C",
      "340C",
      "340C",
      "340C",
      "340C",
      "340C",
      "340C",
      "340C",
      "340C",
      "340C",
      "340C",
      "340C",
      "340C",
      "340C",
      "340C",
      "340C",
      "340C",
      "340C",
      "340C",
      "340C",
      "340C",
      "340C",
      "340C",
      "340C",
      "340C",
      "340C",
      "340C",
      "340C",
      "340C",
      "340C",
      "340C",
      "340C",
      "340C",
      "315",
      "315",
      "315",
      "315",
      "315",
      "293",
      "293",
      "293",
      "293",
      "293",
      "261",
      "261",
      "261",
      "261",
      "261",
      "240C",
      "240C",
      "240C",
      "240C",
      "240C",
      "240C",
      "232",
      "232",
      "232",
      "232",
      "216",
      "216",
      "200",
      "200",
      "200",
      "182",
      "182",
      "182",
      "182",
      "155",
      "155",
      "155",
      "155",
      "146",
      "146",
      "146",
      "140",
      "140",
      "140",
      "140",
      "132",
      "132",
      "132",
      "115",
      "115",
      "115",
      "030",
      "030",
      "026",
      "026",
      "026",
      "020",
      "020",
      "020",
      "020"
    ],
    "swim:geom": "path",
    "swim:speeds": [
      288,
      288,
      288,
      294,
      294,
      294,
      294,
      294,
      293,
      293,
      293,
      293,
      344,
      344,
      344,
      344,
      344,
      349,
      349,
      349,
      349,
      349,
      400,
      400,
      400,
      400,
      400,
      400,
      400,
      419,
      419,
      419,
      419,
      419,
      412,
      412,
      410,
      410,
      410,
      410,
      410,
      410,
      410,
      410,
      410,
      410,
      410,
      410,
      418,
      418,
      420,
      420,
      420,
      420,
      420,
      407,
      407,
      407,
      406,
      406,
      406,
      406,
      406,
      406,
      407,
      408,
      408,
      408,
      408,
      408,
      408,
      408,
      407,
      407,
      407,
      407,
      408,
      408,
      408,
      407,
      407,
      407,
      407,
      407,
      409,
      409,
      409,
      409,
      409,
      409,
      413,
      413,
      413,
      413,
      413,
      413,
      413,
      413,
      413,
      413,
      413,
      414,
      414,
      414,
      414,
      414,
      414,
      416,
      416,
      416,
      416,
      416,
      416,
      417,
      417,
      417,
      417,
      417,
      418,
      418,
      418,
      418,
      418,
      418,
      419,
      419,
      419,
      419,
      419,
      419,
      419,
      419,
      419,
      417,
      417,
      417,
      417,
      417,
      417,
      417,
      421,
      421,
      421,
      421,
      422,
      422,
      422,
      422,
      422,
      422,
      422,
      422,
      425,
      425,
      425,
      425,
      425,
      425,
      427,
      427,
      427,
      427,
      427,
      426,
      426,
      425,
      425,
      425,
      425,
      425,
      420,
      420,
      420,
      426,
      426,
      426,
      429,
      429,
      427,
      427,
      432,
      432,
      432,
      432,
      432,
      431,
      431,
      428,
      428,
      425,
      425,
      425,
      425,
      425,
      425,
      425,
      425,
      427,
      427,
      427,
      427,
      427,
      427,
      428,
      428,
      428,
      431,
      431,
      432,
      432,
      433,
      433,
      433,
      433,
      434,
      434,
      434,
      434,
      434,
      434,
      434,
      434,
      434,
      433,
      433,
      433,
      433,
      433,
      433,
      433,
      433,
      433,
      436,
      439,
      439,
      440,
      440,
      441,
      441,
      441,
      441,
      441,
      441,
      441,
      441,
      441,
      441,
      442,
      442,
      442,
      443,
      443,
      443,
      443,
      443,
      452,
      452,
      452,
      454,
      454,
      454,
      454,
      453,
      453,
      453,
      453,
      453,
      453,
      453,
      454,
      454,
      454,
      464,
      464,
      453,
      453,
      453,
      453,
      453,
      433,
      433,
      433,
      433,
      433,
      396,
      396,
      396,
      396,
      396,
      380,
      380,
      380,
      380,
      380,
      371,
      371,
      371,
      371,
      371,
      371,
      397,
      397,
      397,
      397,
      385,
      385,
      365,
      365,
      365,
      361,
      361,
      361,
      361,
      337,
      337,
      337,
      337,
      335,
      335,
      335,
      330,
      330,
      330,
      330,
      326,
      326,
      326,
      317,
      317,
      317,
      175,
      175,
      152,
      152,
      152,
      149,
      149,
      149,
      149
    ],
    "swim:timestamps": [
      1777500735,
      1777500735,
      1777500735,
      1777500789,
      1777500789,
      1777500796,
      1777500796,
      1777500796,
      1777500849,
      1777500849,
      1777500849,
      1777500849,
      1777501029,
      1777501029,
      1777501029,
      1777501029,
      1777501029,
      1777501089,
      1777501089,
      1777501089,
      1777501089,
      1777501089,
      1777501269,
      1777501269,
      1777501269,
      1777501269,
      1777501269,
      1777501269,
      1777501269,
      1777501567,
      1777501567,
      1777501567,
      1777501567,
      1777501567,
      1777501627,
      1777501627,
      1777501690,
      1777501690,
      1777501690,
      1777501690,
      1777501690,
      1777501930,
      1777501930,
      1777501930,
      1777501930,
      1777501930,
      1777501987,
      1777501987,
      1777502050,
      1777502050,
      1777502111,
      1777502111,
      1777502111,
      1777502111,
      1777502111,
      1777502168,
      1777502168,
      1777502168,
      1777502231,
      1777502231,
      1777502231,
      1777502231,
      1777502231,
      1777502231,
      1777502291,
      1777502411,
      1777502411,
      1777502411,
      1777502411,
      1777502411,
      1777502411,
      1777502411,
      1777502708,
      1777502708,
      1777502708,
      1777502708,
      1777502832,
      1777502832,
      1777502832,
      1777502949,
      1777502949,
      1777502949,
      1777502949,
      1777502949,
      1777503069,
      1777503069,
      1777503069,
      1777503069,
      1777503069,
      1777503069,
      1777503249,
      1777503249,
      1777503249,
      1777503249,
      1777503249,
      1777503369,
      1777503369,
      1777503369,
      1777503369,
      1777503369,
      1777503369,
      1777503429,
      1777503429,
      1777503489,
      1777503489,
      1777503489,
      1777503489,
      1777503549,
      1777503549,
      1777503549,
      1777503549,
      1777503549,
      1777503549,
      1777503730,
      1777503730,
      1777503730,
      1777503730,
      1777503730,
      1777503850,
      1777503850,
      1777503850,
      1777503850,
      1777503850,
      1777503850,
      1777504030,
      1777504030,
      1777504030,
      1777504030,
      1777504030,
      1777504090,
      1777504090,
      1777504090,
      1777504090,
      1777504210,
      1777504210,
      1777504210,
      1777504210,
      1777504210,
      1777504210,
      1777504210,
      1777504571,
      1777504571,
      1777504571,
      1777504571,
      1777504631,
      1777504631,
      1777504631,
      1777504631,
      1777504691,
      1777504691,
      1777504691,
      1777504691,
      1777504811,
      1777504811,
      1777504811,
      1777504811,
      1777504811,
      1777504811,
      1777504991,
      1777504991,
      1777504991,
      1777504991,
      1777504991,
      1777505051,
      1777505051,
      1777505112,
      1777505112,
      1777505112,
      1777505172,
      1777505172,
      1777505197,
      1777505197,
      1777505197,
      1777505232,
      1777505232,
      1777505232,
      1777505292,
      1777505292,
      1777505317,
      1777505317,
      1777505437,
      1777505437,
      1777505472,
      1777505472,
      1777505472,
      1777505498,
      1777505498,
      1777505558,
      1777505558,
      1777505618,
      1777505618,
      1777505618,
      1777505618,
      1777505618,
      1777505618,
      1777505652,
      1777505652,
      1777505712,
      1777505712,
      1777505712,
      1777505738,
      1777505738,
      1777505738,
      1777505772,
      1777505772,
      1777505772,
      1777505858,
      1777505858,
      1777505893,
      1777505893,
      1777505918,
      1777505918,
      1777505918,
      1777505918,
      1777505953,
      1777505953,
      1777505978,
      1777505978,
      1777505978,
      1777506013,
      1777506013,
      1777506013,
      1777506013,
      1777506133,
      1777506133,
      1777506193,
      1777506193,
      1777506193,
      1777506193,
      1777506253,
      1777506253,
      1777506253,
      1777506313,
      1777506373,
      1777506373,
      1777506399,
      1777506399,
      1777506433,
      1777506433,
      1777506433,
      1777506433,
      1777506433,
      1777506459,
      1777506459,
      1777506459,
      1777506519,
      1777506519,
      1777506579,
      1777506579,
      1777506579,
      1777506639,
      1777506639,
      1777506639,
      1777506639,
      1777506639,
      1777506674,
      1777506674,
      1777506674,
      1777506939,
      1777506939,
      1777506939,
      1777506939,
      1777506999,
      1777506999,
      1777506999,
      1777506999,
      1777506999,
      1777506999,
      1777506999,
      1777507240,
      1777507240,
      1777507240,
      1777507360,
      1777507360,
      1777507420,
      1777507420,
      1777507420,
      1777507420,
      1777507420,
      1777507660,
      1777507660,
      1777507660,
      1777507660,
      1777507660,
      1777507780,
      1777507780,
      1777507780,
      1777507780,
      1777507780,
      1777507901,
      1777507901,
      1777507901,
      1777507901,
      1777507901,
      1777508021,
      1777508021,
      1777508021,
      1777508021,
      1777508021,
      1777508021,
      1777508141,
      1777508141,
      1777508141,
      1777508141,
      1777508201,
      1777508201,
      1777508261,
      1777508261,
      1777508261,
      1777508321,
      1777508321,
      1777508321,
      1777508321,
      1777508444,
      1777508444,
      1777508444,
      1777508444,
      1777508498,
      1777508498,
      1777508498,
      1777508558,
      1777508558,
      1777508558,
      1777508558,
      1777508618,
      1777508618,
      1777508618,
      1777508682,
      1777508682,
      1777508682,
      1777509224,
      1777509224,
      1777509284,
      1777509284,
      1777509284,
      1777509343,
      1777509343,
      1777509343,
      1777509343
    ],
    "wof:geomhash": "6a0a768ee750708efc872874038ad556",
    "wof:id": 2031141853,
    "wof:repo": "sfomuseum-data-flights-2026-04"
  },
  "bbox": [
    -122.85,
    37.53333333333333,
    -104.85,
    40.724722222222226
  ],
  "geometry": {"coordinates":[[-104.85,39.86666666666667],[-104.85,39.86666666666667],[-104.85,39.86666666666667],[-104.93694444444445,39.84444444444445],[-104.93694444444445,39.84444444444445],[-104.95,39.85],[-104.95,39.85],[-104.95,39.85],[-105.04166666666667,39.852222222222224],[-105.04166666666667,39.852222222222224],[-105.04166666666667,39.852222222222224],[-105.04166666666667,39.852222222222224],[-105.39305555555556,39.8875],[-105.39305555555556,39.8875],[-105.39305555555556,39.8875],[-105.39305555555556,39.8875],[-105.39305555555556,39.8875],[-105.51777777777778,39.903055555555554],[-105.51777777777778,39.903055555555554],[-105.51777777777778,39.903055555555554],[-105.51777777777778,39.903055555555554],[-105.51777777777778,39.903055555555554],[-105.92,39.95],[-105.92,39.95],[-105.92,39.95],[-105.92,39.95],[-105.92,39.95],[-105.92,39.95],[-105.92,39.95],[-106.64861111111112,40.03722222222222],[-106.64861111111112,40.03722222222222],[-106.64861111111112,40.03722222222222],[-106.64861111111112,40.03722222222222],[-106.64861111111112,40.03722222222222],[-106.79277777777777,40.058611111111105],[-106.79277777777777,40.058611111111105],[-106.95555555555556,40.081388888888895],[-106.95555555555556,40.081388888888895],[-106.95555555555556,40.081388888888895],[-106.95555555555556,40.081388888888895],[-106.95555555555556,40.081388888888895],[-107.53555555555555,40.16083333333333],[-107.53555555555555,40.16083333333333],[-107.53555555555555,40.16083333333333],[-107.53555555555555,40.16083333333333],[-107.53555555555555,40.16083333333333],[-107.66833333333334,40.17805555555555],[-107.66833333333334,40.17805555555555],[-107.84916666666666,40.2025],[-107.84916666666666,40.2025],[-107.9925,40.22138888888889],[-107.9925,40.22138888888889],[-107.9925,40.22138888888889],[-107.9925,40.22138888888889],[-107.9925,40.22138888888889],[-108.11361111111111,40.23722222222222],[-108.11361111111111,40.23722222222222],[-108.11361111111111,40.23722222222222],[-108.28611111111111,40.259166666666665],[-108.28611111111111,40.259166666666665],[-108.28611111111111,40.259166666666665],[-108.28611111111111,40.259166666666665],[-108.28611111111111,40.259166666666665],[-108.28611111111111,40.259166666666665],[-108.43333333333334,40.278055555555554],[-108.72444444444444,40.31444444444444],[-108.72444444444444,40.31444444444444],[-108.72444444444444,40.31444444444444],[-108.72444444444444,40.31444444444444],[-108.72444444444444,40.31444444444444],[-108.72444444444444,40.31444444444444],[-108.72444444444444,40.31444444444444],[-109.4525,40.401944444444446],[-109.4525,40.401944444444446],[-109.4525,40.401944444444446],[-109.4525,40.401944444444446],[-109.74361111111111,40.43583333333333],[-109.74361111111111,40.43583333333333],[-109.74361111111111,40.43583333333333],[-110.03944444444444,40.469166666666666],[-110.03944444444444,40.469166666666666],[-110.03944444444444,40.469166666666666],[-110.03944444444444,40.469166666666666],[-110.03944444444444,40.469166666666666],[-110.33305555555555,40.501666666666665],[-110.33305555555555,40.501666666666665],[-110.33305555555555,40.501666666666665],[-110.33305555555555,40.501666666666665],[-110.33305555555555,40.501666666666665],[-110.33305555555555,40.501666666666665],[-110.76416666666667,40.547777777777775],[-110.76416666666667,40.547777777777775],[-110.76416666666667,40.547777777777775],[-110.76416666666667,40.547777777777775],[-110.76416666666667,40.547777777777775],[-111.06361111111111,40.57888888888889],[-111.06361111111111,40.57888888888889],[-111.06361111111111,40.57888888888889],[-111.06361111111111,40.57888888888889],[-111.06361111111111,40.57888888888889],[-111.06361111111111,40.57888888888889],[-111.215,40.594166666666666],[-111.215,40.594166666666666],[-111.36416666666666,40.60944444444445],[-111.36416666666666,40.60944444444445],[-111.36416666666666,40.60944444444445],[-111.36416666666666,40.60944444444445],[-111.5175,40.62444444444444],[-111.5175,40.62444444444444],[-111.5175,40.62444444444444],[-111.5175,40.62444444444444],[-111.5175,40.62444444444444],[-111.5175,40.62444444444444],[-111.97583333333334,40.66861111111111],[-111.97583333333334,40.66861111111111],[-111.97583333333334,40.66861111111111],[-111.97583333333334,40.66861111111111],[-111.97583333333334,40.66861111111111],[-112.28055555555555,40.69694444444444],[-112.28055555555555,40.69694444444444],[-112.28055555555555,40.69694444444444],[-112.28055555555555,40.69694444444444],[-112.28055555555555,40.69694444444444],[-112.28055555555555,40.69694444444444],[-112.74166666666667,40.72166666666667],[-112.74166666666667,40.72166666666667],[-112.74166666666667,40.72166666666667],[-112.74166666666667,40.72166666666667],[-112.74166666666667,40.72166666666667],[-112.89416666666668,40.72277777777778],[-112.89416666666668,40.72277777777778],[-112.89416666666668,40.72277777777778],[-112.89416666666668,40.72277777777778],[-113.19861111111112,40.724722222222226],[-113.19861111111112,40.724722222222226],[-113.19861111111112,40.724722222222226],[-113.19861111111112,40.724722222222226],[-113.19861111111112,40.724722222222226],[-113.19861111111112,40.724722222222226],[-113.19861111111112,40.724722222222226],[-114.11916666666666,40.71388888888889],[-114.11916666666666,40.71388888888889],[-114.11916666666666,40.71388888888889],[-114.11916666666666,40.71388888888889],[-114.27222222222223,40.70861111111111],[-114.27222222222223,40.70861111111111],[-114.27222222222223,40.70861111111111],[-114.27222222222223,40.70861111111111],[-114.4263888888889,40.70277777777778],[-114.4263888888889,40.70277777777778],[-114.4263888888889,40.70277777777778],[-114.4263888888889,40.70277777777778],[-114.73805555555556,40.68944444444444],[-114.73805555555556,40.68944444444444],[-114.73805555555556,40.68944444444444],[-114.73805555555556,40.68944444444444],[-114.73805555555556,40.68944444444444],[-114.73805555555556,40.68944444444444],[-115.20583333333333,40.66722222222222],[-115.20583333333333,40.66722222222222],[-115.20583333333333,40.66722222222222],[-115.20583333333333,40.66722222222222],[-115.20583333333333,40.66722222222222],[-115.36055555555555,40.659444444444446],[-115.36055555555555,40.659444444444446],[-115.51527777777778,40.65138888888889],[-115.51527777777778,40.65138888888889],[-115.51527777777778,40.65138888888889],[-115.67027777777778,40.643055555555556],[-115.67027777777778,40.643055555555556],[-115.75027777777778,40.63777777777778],[-115.75027777777778,40.63777777777778],[-115.75027777777778,40.63777777777778],[-115.82555555555555,40.63472222222222],[-115.82555555555555,40.63472222222222],[-115.82555555555555,40.63472222222222],[-115.98138888888889,40.626111111111115],[-115.98138888888889,40.626111111111115],[-116.0625,40.62111111111111],[-116.0625,40.62111111111111],[-116.37888888888888,40.60277777777778],[-116.37888888888888,40.60277777777778],[-116.47,40.59722222222222],[-116.47,40.59722222222222],[-116.47,40.59722222222222],[-116.53388888888888,40.593611111111116],[-116.53388888888888,40.593611111111116],[-116.68833333333333,40.58388888888889],[-116.68833333333333,40.58388888888889],[-116.84166666666667,40.57416666666667],[-116.84166666666667,40.57416666666667],[-116.84166666666667,40.57416666666667],[-116.84166666666667,40.57416666666667],[-116.84166666666667,40.57416666666667],[-116.84166666666667,40.57416666666667],[-116.93111111111112,40.56472222222222],[-116.93111111111112,40.56472222222222],[-117.08138888888888,40.53194444444444],[-117.08138888888888,40.53194444444444],[-117.08138888888888,40.53194444444444],[-117.14361111111111,40.5175],[-117.14361111111111,40.5175],[-117.14361111111111,40.5175],[-117.23083333333334,40.4975],[-117.23083333333334,40.4975],[-117.23083333333334,40.4975],[-117.44305555555556,40.4475],[-117.44305555555556,40.4475],[-117.53305555555555,40.42583333333333],[-117.53305555555555,40.42583333333333],[-117.59555555555555,40.41111111111111],[-117.59555555555555,40.41111111111111],[-117.59555555555555,40.41111111111111],[-117.59555555555555,40.41111111111111],[-117.68333333333334,40.390277777777776],[-117.68333333333334,40.390277777777776],[-117.74638888888889,40.375],[-117.74638888888889,40.375],[-117.74638888888889,40.375],[-117.83361111111111,40.35416666666667],[-117.83361111111111,40.35416666666667],[-117.83361111111111,40.35416666666667],[-117.83361111111111,40.35416666666667],[-118.13333333333334,40.281666666666666],[-118.13333333333334,40.281666666666666],[-118.28388888888888,40.245],[-118.28388888888888,40.245],[-118.28388888888888,40.245],[-118.28388888888888,40.245],[-118.43277777777779,40.20861111111111],[-118.43277777777779,40.20861111111111],[-118.43277777777779,40.20861111111111],[-118.58277777777778,40.171388888888885],[-118.73472222222222,40.13361111111111],[-118.73472222222222,40.13361111111111],[-118.7975,40.117777777777775],[-118.7975,40.117777777777775],[-118.88583333333334,40.095555555555556],[-118.88583333333334,40.095555555555556],[-118.88583333333334,40.095555555555556],[-118.88583333333334,40.095555555555556],[-118.88583333333334,40.095555555555556],[-118.94972222222222,40.07944444444445],[-118.94972222222222,40.07944444444445],[-118.94972222222222,40.07944444444445],[-119.09888888888888,40.04194444444444],[-119.09888888888888,40.04194444444444],[-119.24944444444445,40.00361111111111],[-119.24944444444445,40.00361111111111],[-119.24944444444445,40.00361111111111],[-119.40277777777779,39.96388888888889],[-119.40277777777779,39.96388888888889],[-119.40277777777779,39.96388888888889],[-119.40277777777779,39.96388888888889],[-119.40277777777779,39.96388888888889],[-119.48944444444444,39.93416666666666],[-119.48944444444444,39.93416666666666],[-119.48944444444444,39.93416666666666],[-120.1588888888889,39.689166666666665],[-120.1588888888889,39.689166666666665],[-120.1588888888889,39.689166666666665],[-120.1588888888889,39.689166666666665],[-120.30416666666666,39.63527777777778],[-120.30416666666666,39.63527777777778],[-120.30416666666666,39.63527777777778],[-120.30416666666666,39.63527777777778],[-120.30416666666666,39.63527777777778],[-120.30416666666666,39.63527777777778],[-120.30416666666666,39.63527777777778],[-120.88972222222223,39.415],[-120.88972222222223,39.415],[-120.88972222222223,39.415],[-121.17583333333334,39.28972222222222],[-121.17583333333334,39.28972222222222],[-121.30638888888889,39.21388888888889],[-121.30638888888889,39.21388888888889],[-121.30638888888889,39.21388888888889],[-121.30638888888889,39.21388888888889],[-121.30638888888889,39.21388888888889],[-121.8111111111111,38.91777777777777],[-121.8111111111111,38.91777777777777],[-121.8111111111111,38.91777777777777],[-121.8111111111111,38.91777777777777],[-121.8111111111111,38.91777777777777],[-122.05638888888889,38.801111111111105],[-122.05638888888889,38.801111111111105],[-122.05638888888889,38.801111111111105],[-122.05638888888889,38.801111111111105],[-122.05638888888889,38.801111111111105],[-122.325,38.76305555555555],[-122.325,38.76305555555555],[-122.325,38.76305555555555],[-122.325,38.76305555555555],[-122.325,38.76305555555555],[-122.58361111111111,38.72222222222222],[-122.58361111111111,38.72222222222222],[-122.58361111111111,38.72222222222222],[-122.58361111111111,38.72222222222222],[-122.58361111111111,38.72222222222222],[-122.58361111111111,38.72222222222222],[-122.69055555555556,38.53805555555555],[-122.69055555555556,38.53805555555555],[-122.69055555555556,38.53805555555555],[-122.69055555555556,38.53805555555555],[-122.71638888888889,38.43222222222222],[-122.71638888888889,38.43222222222222],[-122.75333333333333,38.33416666666667],[-122.75333333333333,38.33416666666667],[-122.75333333333333,38.33416666666667],[-122.80416666666666,38.245],[-122.80416666666666,38.245],[-122.80416666666666,38.245],[-122.80416666666666,38.245],[-122.85,38.05],[-122.85,38.05],[-122.85,38.05],[-122.85,38.05],[-122.76666666666667,37.983333333333334],[-122.76666666666667,37.983333333333334],[-122.76666666666667,37.983333333333334],[-122.7,37.916666666666664],[-122.7,37.916666666666664],[-122.7,37.916666666666664],[-122.7,37.916666666666664],[-122.61666666666666,37.85],[-122.61666666666666,37.85],[-122.61666666666666,37.85],[-122.55361111111111,37.78638888888889],[-122.55361111111111,37.78638888888889],[-122.55361111111111,37.78638888888889],[-122.15,37.53333333333333],[-122.15,37.53333333333333],[-122.2,37.55],[-122.2,37.55],[-122.2,37.55],[-122.24333333333334,37.56333333333333],[-122.24333333333334,37.56333333333333],[-122.24333333333334,37.56333333333333],[-122.24333333333334,37.56333333333333]],"type":"LineString"}
}
