{
  "id": 2015175243,
  "type": "Feature",
  "properties": {
    "geom:area": 0,
    "geom:bbox": "-122.756990,37.410940,-122.090040,38.512360",
    "geom:latitude": 37.84666719067248,
    "geom:longitude": -122.46347306506898,
    "src:alt_label": "swim-approach",
    "src:geom": "swim",
    "swim:elevations": [
      8534,
      8534,
      8186,
      7989,
      7867,
      7586,
      7397,
      7090,
      6860,
      6324,
      6081,
      5696,
      5466,
      5194,
      4764,
      4607,
      4140,
      3808,
      3519,
      3386,
      3353,
      3353,
      3353,
      3353,
      3353,
      3341,
      3309,
      3222,
      3101,
      2881,
      2648,
      2328,
      2175,
      1968,
      1778,
      1492,
      1281,
      1219,
      1219,
      1219,
      1133,
      1096,
      1030,
      920,
      777,
      575,
      451,
      410,
      308,
      303,
      235,
      88,
      0
    ],
    "swim:geom": "approach",
    "swim:timestamps": [
      1775087187,
      1775087207,
      1775087237,
      1775087255,
      1775087264,
      1775087289,
      1775087305,
      1775087332,
      1775087350,
      1775087398,
      1775087419,
      1775087453,
      1775087476,
      1775087503,
      1775087544,
      1775087559,
      1775087601,
      1775087634,
      1775087666,
      1775087698,
      1775087728,
      1775087737,
      1775087773,
      1775087814,
      1775087820,
      1775087843,
      1775087852,
      1775087864,
      1775087882,
      1775087923,
      1775087960,
      1775087998,
      1775088016,
      1775088035,
      1775088053,
      1775088079,
      1775088109,
      1775088138,
      1775088166,
      1775088205,
      1775088230,
      1775088236,
      1775088248,
      1775088272,
      1775088302,
      1775088345,
      1775088382,
      1775088392,
      1775088417,
      1775088422,
      1775088441,
      1775088478,
      1775088506
    ],
    "wof:geomhash": "6c7220b40f51ff99fecfffd0662dccf1",
    "wof:id": 2015175243,
    "wof:repo": "sfomuseum-data-flights-2026-04"
  },
  "bbox": [
    -122.75699,
    37.41094,
    -122.09004,
    38.51236
  ],
  "geometry": {"coordinates":[[-122.47125,38.51236],[-122.50058,38.48393],[-122.54323,38.44295],[-122.56886,38.41862],[-122.58128,38.40639],[-122.61606,38.37209],[-122.63791,38.35088],[-122.67389,38.31591],[-122.69832,38.29191],[-122.75345,38.22713],[-122.75699,38.1901],[-122.73993,38.12963],[-122.72873,38.09061],[-122.71512,38.04385],[-122.69433,37.97275],[-122.68708,37.94742],[-122.65209,37.8802],[-122.6053,37.83558],[-122.56183,37.79415],[-122.51911,37.75363],[-122.48199,37.71919],[-122.47133,37.70928],[-122.42899,37.66938],[-122.38435,37.62726],[-122.37804,37.62134],[-122.35519,37.59641],[-122.34794,37.58611],[-122.33991,37.57188],[-122.33074,37.55088],[-122.30408,37.50273],[-122.27935,37.46227],[-122.23364,37.43473],[-122.20877,37.42751],[-122.1817,37.41968],[-122.15753,37.41264],[-122.11895,37.41094],[-122.09004,37.43518],[-122.09335,37.46362],[-122.10836,37.48481],[-122.12991,37.51451],[-122.15056,37.52686],[-122.15616,37.5293],[-122.16746,37.53394],[-122.19005,37.54326],[-122.21578,37.55414],[-122.25213,37.56946],[-122.27808,37.58028],[-122.28502,37.58327],[-122.30163,37.59023],[-122.30552,37.59185],[-122.31827,37.59708],[-122.34366,37.60785],[-122.3618,37.61599]],"type":"LineString"}
}
