{
  "id": 2015358279,
  "type": "Feature",
  "properties": {
    "geom:area": 0,
    "geom:bbox": "-121.583333,33.649444,-84.202500,38.512500",
    "geom:latitude": 36.52780119347062,
    "geom:longitude": -102.72300905743585,
    "src:alt_label": "swim-path",
    "src:geom": "swim",
    "swim:altitudes": [
      "222",
      "330C",
      "330C",
      "330C",
      "330C",
      "330C",
      "330C",
      "330C",
      "330C",
      "330C",
      "330C",
      "330C",
      "330C",
      "330C",
      "330C",
      "330C",
      "330C",
      "330C",
      "330C",
      "330C",
      "330C",
      "330C",
      "330C",
      "330C",
      "330C",
      "330C",
      "330C",
      "330C",
      "330C",
      "330C",
      "330C",
      "330C",
      "330C",
      "330C",
      "330C",
      "330C",
      "330C",
      "330C",
      "330C",
      "330C",
      "330C",
      "330C",
      "330C",
      "330C",
      "330C",
      "330C",
      "330C",
      "330C",
      "330C",
      "330C",
      "330C",
      "330C",
      "330C",
      "330C",
      "330C",
      "330C",
      "330C",
      "330C",
      "330C",
      "330",
      "332",
      "345",
      "345",
      "350C",
      "350C",
      "350C",
      "350C",
      "350C",
      "350C",
      "350C",
      "350C",
      "350C",
      "350C",
      "350C",
      "350C",
      "350C",
      "350C",
      "350C",
      "350C",
      "350C",
      "350C",
      "350C",
      "350C",
      "350C",
      "350C",
      "350C",
      "350C",
      "350C",
      "350C",
      "350C",
      "350C",
      "350C",
      "350C",
      "350C",
      "350C",
      "350C",
      "350C",
      "350C",
      "350C",
      "350C",
      "350C",
      "350C",
      "350C",
      "350C",
      "350C",
      "350C",
      "350C",
      "350C",
      "350C",
      "350C",
      "350C",
      "350C",
      "350C",
      "350C",
      "350C",
      "350C",
      "350C",
      "350C",
      "350C",
      "350C",
      "350C",
      "350C",
      "350C",
      "350C",
      "350C",
      "350C",
      "350C",
      "350C",
      "350C",
      "350C",
      "350C",
      "350C",
      "350C",
      "350C",
      "350C",
      "350C",
      "350C",
      "350C",
      "350C",
      "350C",
      "350C",
      "350C",
      "350C",
      "350C",
      "350C",
      "350C",
      "350C",
      "350C",
      "350C",
      "350C",
      "350C",
      "350C",
      "350C",
      "350C",
      "337",
      "334",
      "324",
      "324",
      "314",
      "310C",
      "310C",
      "310C",
      "310C",
      "310C",
      "310C",
      "310C",
      "310",
      "310",
      "310",
      "289",
      "266",
      "239",
      "189",
      "189",
      "130",
      "120",
      "120",
      "120",
      "120",
      "107",
      "108",
      "094",
      "076",
      "078",
      "062",
      "041",
      "035",
      "035",
      "026",
      "026",
      "020",
      "012"
    ],
    "swim:geom": "path",
    "swim:speeds": [
      424,
      548,
      556,
      551,
      551,
      551,
      550,
      547,
      547,
      547,
      547,
      547,
      548,
      548,
      551,
      562,
      562,
      565,
      560,
      553,
      551,
      549,
      549,
      548,
      547,
      548,
      548,
      543,
      543,
      542,
      541,
      543,
      545,
      546,
      546,
      546,
      546,
      543,
      541,
      540,
      539,
      539,
      539,
      538,
      538,
      537,
      532,
      527,
      527,
      526,
      527,
      527,
      499,
      500,
      500,
      500,
      500,
      500,
      500,
      500,
      500,
      500,
      500,
      500,
      500,
      501,
      499,
      492,
      492,
      491,
      491,
      491,
      491,
      491,
      493,
      493,
      491,
      489,
      486,
      486,
      486,
      486,
      486,
      487,
      488,
      488,
      485,
      485,
      483,
      480,
      474,
      481,
      482,
      482,
      486,
      486,
      485,
      479,
      478,
      480,
      480,
      477,
      476,
      475,
      473,
      473,
      472,
      471,
      471,
      471,
      472,
      473,
      475,
      478,
      479,
      480,
      477,
      475,
      475,
      471,
      471,
      471,
      470,
      470,
      469,
      469,
      468,
      465,
      452,
      452,
      466,
      466,
      467,
      467,
      467,
      469,
      471,
      472,
      472,
      474,
      472,
      471,
      469,
      467,
      467,
      467,
      466,
      467,
      467,
      468,
      465,
      466,
      465,
      464,
      465,
      469,
      474,
      474,
      475,
      475,
      475,
      475,
      475,
      474,
      473,
      473,
      472,
      473,
      473,
      479,
      481,
      470,
      433,
      433,
      371,
      371,
      310,
      310,
      254,
      250,
      249,
      241,
      234,
      239,
      225,
      198,
      182,
      182,
      167,
      167,
      147,
      149
    ],
    "swim:timestamps": [
      1776928391,
      1776929111,
      1776929631,
      1776929751,
      1776929772,
      1776929772,
      1776929832,
      1776930072,
      1776930072,
      1776930111,
      1776930192,
      1776930231,
      1776930291,
      1776930411,
      1776930831,
      1776931131,
      1776931131,
      1776931137,
      1776931492,
      1776931672,
      1776931732,
      1776931857,
      1776931857,
      1776931972,
      1776932037,
      1776932217,
      1776932217,
      1776932397,
      1776932517,
      1776932637,
      1776932673,
      1776932792,
      1776932851,
      1776932913,
      1776932913,
      1776932973,
      1776933090,
      1776933118,
      1776933153,
      1776933178,
      1776933213,
      1776933298,
      1776933331,
      1776933358,
      1776933394,
      1776933418,
      1776933538,
      1776933571,
      1776933571,
      1776933598,
      1776933634,
      1776933634,
      1776933778,
      1776933811,
      1776933874,
      1776933874,
      1776933898,
      1776933958,
      1776933991,
      1776934053,
      1776934083,
      1776934173,
      1776934173,
      1776934202,
      1776934232,
      1776934294,
      1776934414,
      1776934531,
      1776934623,
      1776934714,
      1776934745,
      1776934745,
      1776934774,
      1776934865,
      1776934984,
      1776935013,
      1776935132,
      1776935194,
      1776935284,
      1776935373,
      1776935404,
      1776935404,
      1776935433,
      1776935465,
      1776935611,
      1776935611,
      1776935673,
      1776935673,
      1776935703,
      1776935763,
      1776935885,
      1776936126,
      1776936185,
      1776936244,
      1776936454,
      1776936454,
      1776936514,
      1776936604,
      1776936664,
      1776936694,
      1776936754,
      1776936786,
      1776936874,
      1776936934,
      1776936967,
      1776937054,
      1776937084,
      1776937114,
      1776937114,
      1776937147,
      1776937267,
      1776937294,
      1776937386,
      1776937474,
      1776937505,
      1776937534,
      1776937655,
      1776937746,
      1776937746,
      1776937955,
      1776938015,
      1776938135,
      1776938195,
      1776938195,
      1776938315,
      1776938435,
      1776938555,
      1776938735,
      1776938775,
      1776938775,
      1776938915,
      1776938956,
      1776938975,
      1776939016,
      1776939016,
      1776939035,
      1776939095,
      1776939155,
      1776939196,
      1776939276,
      1776939376,
      1776939437,
      1776939497,
      1776939516,
      1776939516,
      1776939576,
      1776939617,
      1776939636,
      1776939677,
      1776939857,
      1776939876,
      1776939978,
      1776940038,
      1776940056,
      1776940158,
      1776940176,
      1776940218,
      1776940218,
      1776940278,
      1776940338,
      1776940338,
      1776940356,
      1776940398,
      1776940476,
      1776940536,
      1776940579,
      1776940656,
      1776940819,
      1776940819,
      1776940897,
      1776940939,
      1776940999,
      1776941119,
      1776941119,
      1776941359,
      1776941432,
      1776941479,
      1776941479,
      1776941552,
      1776941599,
      1776941612,
      1776941672,
      1776941725,
      1776941732,
      1776941785,
      1776941913,
      1776941973,
      1776941973,
      1776942033,
      1776942033,
      1776942079,
      1776942153
    ],
    "wof:geomhash": "900dc67b30b091db555984c4a5f3d364",
    "wof:id": 2015358279,
    "wof:repo": "sfomuseum-data-flights-2026-04"
  },
  "bbox": [
    -121.58333333333333,
    33.64944444444444,
    -84.2025,
    38.5125
  ],
  "geometry": {"coordinates":[[-121.58333333333333,38.015277777777776],[-119.48666666666666,38.2825],[-117.80111111111111,38.46805555555556],[-117.41027777777778,38.50805555555556],[-117.36861111111111,38.5125],[-117.36861111111111,38.5125],[-117.1725,38.51083333333333],[-116.39444444444445,38.44472222222222],[-116.39444444444445,38.44472222222222],[-116.27944444444444,38.43472222222222],[-116.00861111111111,38.41027777777778],[-115.89333333333335,38.39944444444444],[-115.7,38.38138888888889],[-115.31777777777778,38.34444444444445],[-113.97777777777777,38.16277777777778],[-113.02194444444444,37.95583333333334],[-113.02194444444444,37.95583333333334],[-113.02194444444444,37.95583333333334],[-111.8711111111111,37.69583333333333],[-111.31555555555555,37.56527777777777],[-111.13277777777778,37.52166666666667],[-110.7675,37.433611111111105],[-110.7675,37.433611111111105],[-110.40222222222222,37.34388888888889],[-110.22027777777778,37.29888888888889],[-109.66638888888889,37.159444444444446],[-109.66638888888889,37.159444444444446],[-109.1275,37.021388888888886],[-108.76611111111112,36.92638888888889],[-108.40833333333335,36.83166666666667],[-108.3025,36.80333333333333],[-107.97583333333334,36.74027777777778],[-107.78583333333333,36.72694444444445],[-107.59861111111111,36.71416666666667],[-107.59861111111111,36.71416666666667],[-107.40777777777778,36.700833333333335],[-107.03111111111112,36.67333333333333],[-106.9213888888889,36.665],[-106.84722222222221,36.659444444444446],[-106.73777777777778,36.651111111111106],[-106.66277777777778,36.644999999999996],[-106.36333333333333,36.62083333333334],[-106.26083333333334,36.612500000000004],[-106.17416666666666,36.605555555555554],[-106.07388888888889,36.597500000000004],[-106.00027777777778,36.59111111111111],[-105.63166666666666,36.559999999999995],[-105.53055555555555,36.551111111111105],[-105.53055555555555,36.551111111111105],[-105.45333333333333,36.544444444444444],[-105.3611111111111,36.53611111111111],[-105.3611111111111,36.53611111111111],[-104.95694444444445,36.49944444444444],[-104.84194444444444,36.49111111111111],[-104.66777777777779,36.48972222222222],[-104.66777777777779,36.48972222222222],[-104.58555555555554,36.48861111111111],[-104.41666666666667,36.486666666666665],[-104.32222222222222,36.48555555555556],[-104.15055555555556,36.48305555555556],[-104.06138888888889,36.48111111111111],[-103.80583333333333,36.4775],[-103.80583333333333,36.4775],[-103.71694444444445,36.477222222222224],[-103.63083333333333,36.473888888888894],[-103.45777777777778,36.47083333333334],[-103.11277777777777,36.463055555555556],[-102.78833333333333,36.455555555555556],[-102.52083333333333,36.448055555555555],[-102.28083333333333,36.44083333333333],[-102.18138888888889,36.437777777777775],[-102.18138888888889,36.437777777777775],[-102.11055555555555,36.43555555555555],[-101.84388888888888,36.42666666666666],[-101.50777777777778,36.415],[-101.43861111111111,36.41222222222222],[-101.10388888888889,36.399166666666666],[-100.93722222222223,36.3925],[-100.67416666666666,36.38111111111111],[-100.43722222222223,36.370555555555555],[-100.33916666666666,36.36638888888889],[-100.33916666666666,36.36638888888889],[-100.27083333333333,36.363055555555555],[-100.17222222222223,36.358333333333334],[-99.77,36.34166666666667],[-99.77,36.34166666666667],[-99.60305555555556,36.338055555555556],[-99.60305555555556,36.338055555555556],[-99.50777777777778,36.336111111111116],[-99.34694444444445,36.3325],[-99.01888888888888,36.32416666666667],[-98.36305555555555,36.305277777777775],[-98.19583333333334,36.3],[-98.03083333333333,36.294444444444444],[-97.45861111111111,36.27194444444444],[-97.45861111111111,36.27194444444444],[-97.29416666666667,36.26777777777777],[-97.03472222222221,36.255833333333335],[-96.8711111111111,36.24888888888889],[-96.80222222222221,36.24583333333334],[-96.63805555555557,36.23777777777778],[-96.54138888888889,36.23388888888889],[-96.28222222222222,36.22166666666667],[-96.11916666666666,36.21361111111111],[-96.05333333333333,36.21027777777778],[-95.79694444444445,36.19555555555555],[-95.73333333333333,36.18388888888889],[-95.6438888888889,36.16444444444444],[-95.6438888888889,36.16444444444444],[-95.57583333333334,36.14972222222222],[-95.26472222222222,36.08111111111111],[-95.1763888888889,36.061388888888885],[-94.95694444444445,36.01416666666667],[-94.69972222222222,35.96805555555556],[-94.63305555555554,35.95611111111111],[-94.53916666666666,35.93888888888888],[-94.23361111111112,35.88333333333333],[-93.98027777777779,35.836111111111116],[-93.98027777777779,35.836111111111116],[-93.44694444444445,35.735],[-93.28833333333333,35.70472222222222],[-92.97194444444445,35.643055555555556],[-92.81416666666667,35.61222222222222],[-92.81416666666667,35.61222222222222],[-92.50111111111111,35.54944444444444],[-92.19055555555556,35.48694444444445],[-91.88083333333333,35.42361111111111],[-91.42194444444445,35.32777777777778],[-91.32472222222222,35.30277777777778],[-91.32472222222222,35.30277777777778],[-90.97694444444444,35.233333333333334],[-90.86277777777777,35.20777777777778],[-90.82249999999999,35.2],[-90.70861111111111,35.17611111111111],[-90.70861111111111,35.17611111111111],[-90.6675,35.16638888888889],[-90.51305555555555,35.1325],[-90.35888888888888,35.098888888888894],[-90.2425,35.073055555555555],[-90.0461111111111,35.02916666666667],[-89.7761111111111,34.986666666666665],[-89.6211111111111,34.965833333333336],[-89.46583333333334,34.943888888888885],[-89.415,34.934999999999995],[-89.415,34.934999999999995],[-89.25972222222222,34.9125],[-89.15555555555557,34.897777777777776],[-89.10305555555556,34.88944444444444],[-89,34.87555555555556],[-88.53611111111111,34.805277777777775],[-88.48527777777778,34.7975],[-88.22722222222222,34.757777777777775],[-88.07416666666666,34.73416666666667],[-88.04083333333332,34.72916666666667],[-87.76277777777777,34.68555555555555],[-87.73166666666667,34.68055555555555],[-87.60333333333332,34.66],[-87.60333333333332,34.66],[-87.44388888888889,34.634166666666665],[-87.28527777777778,34.60583333333334],[-87.28527777777778,34.60583333333334],[-87.25194444444445,34.599444444444444],[-87.12833333333333,34.57638888888889],[-86.94,34.54333333333333],[-86.78694444444444,34.50472222222222],[-86.69777777777779,34.48166666666667],[-86.485,34.425555555555555],[-86.06083333333333,34.31333333333333],[-86.06083333333333,34.31333333333333],[-85.87722222222222,34.26583333333333],[-85.76805555555555,34.23722222222222],[-85.61555555555555,34.1975],[-85.33222222222221,34.123333333333335],[-85.33222222222221,34.123333333333335],[-84.86666666666666,33.916666666666664],[-84.76583333333333,33.845555555555556],[-84.68333333333334,33.8],[-84.68333333333334,33.8],[-84.60472222222222,33.7475],[-84.53333333333333,33.733333333333334],[-84.52666666666667,33.7325],[-84.44611111111111,33.73277777777778],[-84.36666666666666,33.733333333333334],[-84.36944444444444,33.733333333333334],[-84.28333333333333,33.733333333333334],[-84.2025,33.68388888888889],[-84.25444444444445,33.64944444444444],[-84.25444444444445,33.64944444444444],[-84.31,33.64944444444444],[-84.31,33.64944444444444],[-84.35,33.65],[-84.39833333333334,33.64944444444444]],"type":"LineString"}
}
