{
  "id": 2031112605,
  "type": "Feature",
  "properties": {
    "geom:area": 0,
    "geom:bbox": "-122.526130,37.624500,-121.498080,38.497880",
    "geom:latitude": 38.06127658984694,
    "geom:longitude": -122.08467500435786,
    "src:alt_label": "swim-takeoff",
    "src:geom": "swim",
    "swim:elevations": [
      152,
      737,
      870,
      917,
      1008,
      1046,
      1146,
      1546,
      1976,
      2324,
      2447,
      2666,
      2844,
      3252,
      3375,
      3391,
      3588,
      3923,
      3953,
      4062,
      4409,
      4592,
      5072,
      5191,
      5642,
      5726,
      5984,
      6013,
      6292,
      6601,
      6727,
      6894,
      7043,
      7225,
      7412
    ],
    "swim:geom": "takeoff",
    "swim:timestamps": [
      1777137033,
      1777137084,
      1777137100,
      1777137107,
      1777137117,
      1777137142,
      1777137163,
      1777137208,
      1777137235,
      1777137264,
      1777137274,
      1777137292,
      1777137306,
      1777137356,
      1777137386,
      1777137392,
      1777137414,
      1777137447,
      1777137450,
      1777137458,
      1777137491,
      1777137511,
      1777137562,
      1777137575,
      1777137621,
      1777137628,
      1777137658,
      1777137663,
      1777137702,
      1777137742,
      1777137768,
      1777137804,
      1777137829,
      1777137864,
      1777137891
    ],
    "wof:geomhash": "0a2bca5d88f47e0311df40535a06d488",
    "wof:id": 2031112605,
    "wof:repo": "sfomuseum-data-flights-2026-04"
  },
  "bbox": [
    -122.52613,
    37.6245,
    -121.49808,
    38.49788
  ],
  "geometry": {"coordinates":[[-122.38878,37.6245],[-122.42951,37.64206],[-122.44252,37.64759],[-122.44817,37.65005],[-122.45592,37.65345],[-122.4804,37.6638],[-122.50391,37.67401],[-122.5261,37.72227],[-122.52613,37.75772],[-122.52411,37.79373],[-122.51657,37.80478],[-122.49286,37.81797],[-122.47065,37.82513],[-122.39894,37.86121],[-122.3567,37.8914],[-122.34756,37.89781],[-122.31266,37.92203],[-122.26095,37.95775],[-122.25611,37.96109],[-122.24258,37.97049],[-122.1888,38.00761],[-122.15652,38.02995],[-122.07267,38.0877],[-122.05151,38.10225],[-121.97358,38.15575],[-121.96093,38.16442],[-121.91013,38.19931],[-121.90133,38.20533],[-121.83477,38.25088],[-121.76399,38.2991],[-121.71848,38.33016],[-121.6513,38.37572],[-121.60566,38.40668],[-121.54063,38.45384],[-121.49808,38.49788]],"type":"LineString"}
}
