{
  "id": 2015218405,
  "type": "Feature",
  "properties": {
    "geom:area": 0,
    "geom:bbox": "-122.357350,37.451080,-121.267570,37.611300",
    "geom:latitude": 37.53910146038235,
    "geom:longitude": -121.81538124845173,
    "src:alt_label": "swim-approach",
    "src:geom": "swim",
    "swim:elevations": [
      4640,
      4581,
      4185,
      4105,
      3807,
      3476,
      3365,
      3353,
      3206,
      3044,
      3046,
      3049,
      2880,
      2834,
      2741,
      2741,
      2677,
      2498,
      2316,
      2169,
      2088,
      1879,
      1786,
      1557,
      1451,
      1219,
      1097,
      914,
      796,
      792,
      681,
      545,
      495,
      367,
      240,
      197,
      58,
      42
    ],
    "swim:geom": "approach",
    "swim:timestamps": [
      1775488162,
      1775488170,
      1775488221,
      1775488230,
      1775488271,
      1775488318,
      1775488330,
      1775488374,
      1775488401,
      1775488434,
      1775488453,
      1775488487,
      1775488525,
      1775488535,
      1775488581,
      1775488612,
      1775488643,
      1775488670,
      1775488694,
      1775488726,
      1775488758,
      1775488791,
      1775488809,
      1775488849,
      1775488873,
      1775488905,
      1775488939,
      1775488973,
      1775489005,
      1775489026,
      1775489065,
      1775489097,
      1775489109,
      1775489146,
      1775489185,
      1775489197,
      1775489246,
      1775489255
    ],
    "wof:geomhash": "b0c1a9e7d3a6d2fee8004f24c7049de1",
    "wof:id": 2015218405,
    "wof:repo": "sfomuseum-data-flights-2026-04"
  },
  "bbox": [
    -122.35735,
    37.45108,
    -121.26757,
    37.6113
  ],
  "geometry": {"coordinates":[[-121.26757,37.59202],[-121.28396,37.59001],[-121.38377,37.57888],[-121.40069,37.57689],[-121.47482,37.56831],[-121.5581,37.55857],[-121.57834,37.55627],[-121.64499,37.54905],[-121.67932,37.56005],[-121.71604,37.57978],[-121.73718,37.59112],[-121.7776,37.60938],[-121.81198,37.58388],[-121.80869,37.57248],[-121.76047,37.53636],[-121.76209,37.50142],[-121.7864,37.47567],[-121.81946,37.46251],[-121.85154,37.45832],[-121.89364,37.4546],[-121.93656,37.45108],[-121.98005,37.45411],[-122.00247,37.46209],[-122.04819,37.4803],[-122.07169,37.49064],[-122.10312,37.50448],[-122.13329,37.51727],[-122.16157,37.52895],[-122.18684,37.53965],[-122.20204,37.54604],[-122.23006,37.55778],[-122.25281,37.56733],[-122.26193,37.5711],[-122.28781,37.58206],[-122.31448,37.59326],[-122.32166,37.59632],[-122.35166,37.60887],[-122.35735,37.6113]],"type":"LineString"}
}
