{
  "id": 2031146025,
  "type": "Feature",
  "properties": {
    "geom:area": 0,
    "geom:bbox": "-122.380000,37.620000,-79.390000,43.980000",
    "geom:latitude": 40.22115334746537,
    "geom:longitude": -100.56190300251787,
    "src:alt_label": "swim-route",
    "src:geom": "swim",
    "swim:geom": "route",
    "wof:geomhash": "a2590eb6260521b63af6fb7d856591de",
    "wof:id": 2031146025,
    "wof:repo": "sfomuseum-data-flights-2026-04"
  },
  "bbox": [
    -122.38,
    37.62,
    -79.39,
    43.98
  ],
  "geometry": {"coordinates":[[-122.38,37.62],[-122.28,37.68],[-122.27,37.69],[-122.27,37.69],[-122.21,37.72],[-122.21,37.72],[-122.2,37.72],[-122.18,37.73],[-122.18,37.74],[-122.16,37.75],[-122.12,37.76],[-122.11,37.77],[-122,37.83],[-121.93,37.84],[-121.73,37.88],[-121.7,37.88],[-121.65,37.89],[-121.58,37.91],[-121.43,37.93],[-121.34,37.95],[-121.32,37.95],[-121.2,37.97],[-121.16,37.98],[-121.1,37.99],[-121.09,37.99],[-121.08,37.99],[-121.06,38],[-120.81,38.03],[-120.71,38.04],[-120.61,38.05],[-120.56,38.06],[-120.51,38.06],[-120.09,38.11],[-119.85,38.14],[-119.61,38.16],[-119.17,38.21],[-118.23,38.3],[-117.28,38.39],[-114.15,38.61],[-114.08,38.62],[-113.91,38.63],[-113.65,38.64],[-113.18,38.67],[-112.1,38.68],[-111.8,38.68],[-111.73,38.68],[-111.56,38.68],[-109.98,38.68],[-109.94,38.68],[-109.82,38.69],[-107.19,38.92],[-106,39],[-105.27,39.09],[-104.76,39.15],[-104.26,39.21],[-103.2,39.32],[-102.95,39.35],[-102.79,39.39],[-102.44,39.47],[-100.36,39.93],[-100,40],[-99.06,40.17],[-98.36,40.29],[-97.48,40.37],[-96,40.5],[-95.78,40.51],[-95.11,40.55],[-93.97,40.6],[-93.94,40.61],[-93.53,40.73],[-91.1,41.42],[-90.91,41.48],[-90.72,41.56],[-89.97,41.89],[-89.69,41.94],[-89.35,42],[-88.55,42.12],[-87,42.35],[-86.88,42.36],[-86.1,42.47],[-85.14,42.53],[-85,42.54],[-84.27,42.59],[-83.44,42.64],[-83.32,42.65],[-83.14,42.65],[-82.95,42.69],[-82.65,42.72],[-82.25,42.85],[-81.37,43.14],[-81.26,43.18],[-81.16,43.21],[-80.97,43.27],[-80.78,43.33],[-80.71,43.35],[-80.42,43.44],[-80.38,43.46],[-80.19,43.51],[-80.17,43.51],[-79.87,43.59],[-79.8,43.66],[-79.8,43.67],[-79.72,43.75],[-79.67,43.78],[-79.66,43.79],[-79.54,43.87],[-79.49,43.91],[-79.44,43.94],[-79.39,43.98],[-79.47,43.87],[-79.51,43.83],[-79.53,43.8],[-79.59,43.73],[-79.63,43.68]],"type":"LineString"}
}
