{
  "id": 2015257917,
  "type": "Feature",
  "properties": {
    "geom:area": 0,
    "geom:bbox": "-122.555480,37.196510,-121.250650,37.664690",
    "geom:latitude": 37.35930493328775,
    "geom:longitude": -122.00414827856146,
    "src:alt_label": "swim-takeoff",
    "src:geom": "swim",
    "swim:elevations": [
      301,
      434,
      968,
      1044,
      1349,
      1468,
      1734,
      2146,
      2529,
      2932,
      3433,
      3486,
      3573,
      3652,
      3721,
      3920,
      4086,
      4237,
      4631,
      4928,
      5275,
      5387,
      5521,
      5631,
      5878,
      6262,
      6530,
      6649,
      6886,
      6969,
      7093,
      7257,
      7402
    ],
    "swim:geom": "takeoff",
    "swim:timestamps": [
      1775866558,
      1775866570,
      1775866613,
      1775866628,
      1775866676,
      1775866685,
      1775866704,
      1775866733,
      1775866761,
      1775866791,
      1775866827,
      1775866839,
      1775866856,
      1775866874,
      1775866886,
      1775866917,
      1775866932,
      1775866950,
      1775866987,
      1775867020,
      1775867059,
      1775867074,
      1775867092,
      1775867104,
      1775867134,
      1775867181,
      1775867217,
      1775867232,
      1775867265,
      1775867277,
      1775867307,
      1775867335,
      1775867365
    ],
    "wof:geomhash": "e64c11642283f4f36864f0945ee908b5",
    "wof:id": 2015257917,
    "wof:repo": "sfomuseum-data-flights-2026-04"
  },
  "bbox": [
    -122.55548,
    37.19651,
    -121.25065,
    37.66469
  ],
  "geometry": {"coordinates":[[-122.40242,37.63016],[-122.41366,37.63509],[-122.45388,37.65277],[-122.46923,37.65921],[-122.53074,37.66469],[-122.54169,37.65854],[-122.55548,37.63925],[-122.54311,37.60528],[-122.51606,37.57653],[-122.49295,37.54234],[-122.44658,37.50999],[-122.43057,37.49934],[-122.40754,37.48384],[-122.38076,37.46597],[-122.36222,37.45359],[-122.31099,37.41929],[-122.28587,37.40246],[-122.25527,37.38198],[-122.19128,37.33914],[-122.13296,37.30057],[-122.04462,37.27727],[-122.00812,37.27381],[-121.9638,37.26945],[-121.93408,37.26656],[-121.8594,37.25904],[-121.73987,37.24677],[-121.64731,37.23742],[-121.60823,37.23343],[-121.52215,37.22466],[-121.49016,37.22137],[-121.40978,37.21306],[-121.33369,37.20516],[-121.25065,37.19651]],"type":"LineString"}
}
