{
  "id": 2031142625,
  "type": "Feature",
  "properties": {
    "geom:area": 0,
    "geom:bbox": "-122.380000,37.620000,-73.780000,41.740000",
    "geom:latitude": 39.66869160406329,
    "geom:longitude": -97.93776062219051,
    "src:alt_label": "swim-route",
    "src:geom": "swim",
    "swim:geom": "route",
    "wof:geomhash": "62e68c084e2f323b858c702b7dd92e67",
    "wof:id": 2031142625,
    "wof:repo": "sfomuseum-data-flights-2026-04"
  },
  "bbox": [
    -122.38,
    37.62,
    -73.78,
    41.74
  ],
  "geometry": {"coordinates":[[-122.38,37.62],[-122.27,37.69],[-122.22,37.72],[-122.21,37.72],[-122.16,37.75],[-122.12,37.76],[-122.09,37.78],[-122.02,37.82],[-122.01,37.82],[-122,37.83],[-121.94,37.84],[-121.73,37.88],[-121.7,37.88],[-121.59,37.9],[-121.46,37.93],[-121.41,37.94],[-121.34,37.95],[-121.17,37.98],[-121.16,37.98],[-121.1,37.99],[-120.89,38.02],[-120.7,38.05],[-120.66,38.06],[-120.54,38.08],[-120.12,38.14],[-119.96,38.16],[-119.8,38.19],[-119.65,38.21],[-119.18,38.27],[-119.15,38.28],[-118.96,38.3],[-117.29,38.52],[-117.28,38.52],[-117.02,38.5],[-116.93,38.49],[-116.76,38.48],[-115,38.53],[-114.1,38.63],[-113.7,38.59],[-113.01,38.75],[-112.08,38.84],[-111.78,38.81],[-111.7,38.88],[-110.99,38.94],[-110.19,39.01],[-109.98,39.02],[-109.35,39.07],[-108.73,39.11],[-108.28,39.14],[-107.38,39.19],[-106.84,39.22],[-106.24,39.24],[-105.11,39.29],[-104.28,39.31],[-104.19,39.31],[-103.94,39.32],[-103.23,39.33],[-102.34,39.34],[-100.85,39.35],[-99.94,39.35],[-99.08,39.33],[-98.96,39.33],[-97.68,39.39],[-96.68,39.48],[-96.2,39.56],[-95.34,39.61],[-93.9,39.69],[-91.95,39.77],[-90.87,39.78],[-89.87,39.82],[-88.45,39.82],[-88.15,39.83],[-87.13,39.82],[-86.37,39.81],[-85.31,40.13],[-84.74,40.3],[-84.52,40.37],[-84.51,40.36],[-84.01,40.58],[-83.61,40.73],[-83.04,40.96],[-82.05,41.34],[-81.41,41.55],[-80.95,41.7],[-80.94,41.71],[-80.72,41.74],[-78.88,41.72],[-77.76,41.7],[-77.53,41.69],[-77.15,41.68],[-77.06,41.65],[-76.67,41.55],[-76.6,41.53],[-76.33,41.45],[-76.13,41.4],[-76.03,41.37],[-75.87,41.32],[-75.79,41.3],[-75.75,41.29],[-75.69,41.27],[-75.58,41.24],[-75.57,41.23],[-75.49,41.21],[-75.49,41.2],[-75.34,41.16],[-75.33,41.15],[-75.26,41.13],[-75.2,41.11],[-75.13,41.09],[-75.09,41.07],[-75.06,41.06],[-75.06,41.06],[-75,41.04],[-74.99,41.04],[-74.87,41],[-74.83,40.99],[-74.67,40.97],[-74.6,40.96],[-74.52,40.96],[-74.51,40.95],[-74.5,40.95],[-74.49,40.95],[-74.49,40.95],[-74.48,40.95],[-74.46,40.95],[-74.46,40.95],[-74.45,40.95],[-74.44,40.95],[-74.38,40.94],[-74.32,40.93],[-74.28,40.93],[-74.23,40.92],[-74.2,40.92],[-74.18,40.91],[-74.16,40.91],[-74.12,40.91],[-74.1,40.9],[-74.04,40.87],[-74.03,40.86],[-74.01,40.85],[-73.98,40.84],[-73.97,40.83],[-73.95,40.82],[-73.93,40.81],[-73.9,40.8],[-73.88,40.79],[-73.87,40.79],[-73.87,40.78],[-73.84,40.73],[-73.83,40.72],[-73.83,40.71],[-73.78,40.64]],"type":"LineString"}
}
