{
  "id": 2031121225,
  "type": "Feature",
  "properties": {
    "geom:area": 0,
    "geom:bbox": "-122.390000,37.620000,-87.750000,42.880000",
    "geom:latitude": 40.36390841001156,
    "geom:longitude": -104.91261394697247,
    "src:alt_label": "swim-route",
    "src:geom": "swim",
    "swim:geom": "route",
    "wof:geomhash": "8ce9045d21bb2de033f9b63b8e13be97",
    "wof:id": 2031121225,
    "wof:repo": "sfomuseum-data-flights-2026-04"
  },
  "bbox": [
    -122.39,
    37.62,
    -87.75,
    42.88
  ],
  "geometry": {"coordinates":[[-122.38,37.62],[-122.3,37.68],[-122.31,37.7],[-122.31,37.7],[-122.34,37.75],[-122.34,37.76],[-122.35,37.76],[-122.36,37.79],[-122.38,37.83],[-122.39,37.85],[-122.39,37.85],[-122.38,37.94],[-122.31,37.96],[-122.15,37.99],[-122.1,37.99],[-122.02,37.99],[-121.95,37.99],[-121.81,37.99],[-121.79,37.99],[-121.68,37.99],[-121.55,37.99],[-121.52,37.99],[-121.44,37.99],[-121.18,37.99],[-121.1,37.99],[-121.08,37.99],[-120.99,38.01],[-120.93,38.02],[-120.89,38.02],[-120.47,38.09],[-120.23,38.12],[-119.18,38.27],[-119.06,38.28],[-117.29,38.65],[-116.16,38.87],[-115.31,39.03],[-115.03,39.08],[-113.32,39.37],[-112.75,39.46],[-111.32,39.68],[-109.3,39.95],[-107.27,40.19],[-105.08,40.4],[-104.63,40.44],[-104.07,40.49],[-102.68,40.59],[-101.29,40.67],[-100.75,40.71],[-100.7,40.72],[-99.84,40.92],[-99.07,41.13],[-99.03,41.15],[-96.36,41.85],[-96.09,41.91],[-95.28,42.11],[-95,42.18],[-93.9,42.43],[-93.08,42.61],[-92.38,42.75],[-92.03,42.83],[-91.76,42.88],[-91.7,42.84],[-91.65,42.8],[-91.54,42.7],[-91.46,42.64],[-90.92,42.18],[-90.9,42.16],[-90.87,42.14],[-90.73,42.02],[-90.71,42],[-90.54,41.86],[-90.29,41.64],[-89.99,41.38],[-89.95,41.34],[-89.87,41.27],[-89.82,41.23],[-89.72,41.14],[-89.65,41.14],[-89.42,41.16],[-89.35,41.16],[-89.26,41.17],[-89.13,41.18],[-89.06,41.19],[-88.97,41.21],[-88.92,41.23],[-88.9,41.24],[-88.9,41.24],[-88.79,41.27],[-88.51,41.37],[-88.46,41.41],[-88.44,41.41],[-88.42,41.43],[-88.29,41.51],[-88.1,41.55],[-88.02,41.57],[-87.99,41.6],[-87.92,41.65],[-87.85,41.71],[-87.77,41.77],[-87.75,41.79]],"type":"LineString"}
}
