{
  "id": 2015256031,
  "type": "Feature",
  "properties": {
    "date:cessation_lower": "2026-04-10",
    "date:cessation_upper": "2026-04-10",
    "date:inception_lower": "2026-04-10",
    "date:inception_upper": "2026-04-10",
    "edtf:cessation": "2026-04-10T18:35:02Z",
    "edtf:inception": "2026-04-10T15:29:00Z",
    "flysfo:actual_timestamp": -1,
    "flysfo:airline": "AS",
    "flysfo:base_airline": "",
    "flysfo:base_flight_number": "7012",
    "flysfo:date": "2026-04-10",
    "flysfo:estimated_timestamp": 1775834700,
    "flysfo:event": "D",
    "flysfo:flight_number": "AS689",
    "flysfo:gate": "B13",
    "flysfo:journey": "SFO-PVR",
    "flysfo:scheduled_timestamp": 1775834400,
    "flysfo:timestamp": 1775834700,
    "geom:area": 0,
    "geom:bbox": "-122.370943,20.660734,-105.250456,37.617990",
    "geom:latitude": 29.139362,
    "geom:longitude": -113.8106995,
    "iata:airline": "AS",
    "iata:base_airline": "",
    "icao:aircraft": "B738",
    "icao:airline": "ASA",
    "icao:base_airline": "HAL",
    "lbl:latitude": 37.61799,
    "lbl:longitude": -122.370943,
    "sfomuseum:aircraft_id": 1159289871,
    "sfomuseum:airline_id": 1159283813,
    "sfomuseum:arrival_id": 102536481,
    "sfomuseum:base_flight_id": "20260410-D-HAL-7012",
    "sfomuseum:departure_id": 102527513,
    "sfomuseum:flight_id": "20260410-D-ASA-689",
    "sfomuseum:flight_number": [
      "ASA689",
      "AS689"
    ],
    "sfomuseum:placetype": "flight",
    "src:geom": "flysfo",
    "src:geom_alt": [
      "swim-route"
    ],
    "swim:tail_number": "N560AS",
    "wof:belongsto": [
      1947304067,
      102527513,
      1947304261,
      102191575,
      85633793,
      102087579,
      85922583,
      554784711,
      85688637,
      1947304267,
      1947304259,
      102085387
    ],
    "wof:concordances": {
      "swim:flight_ref": "143810875"
    },
    "wof:country": "US",
    "wof:created": 1775923958,
    "wof:geomhash": "ae49e61cad725fa4577f8355bb7297ad",
    "wof:hierarchy": [
      {
        "building_id": 1947304067,
        "campus_id": 102527513,
        "concourse_id": 1947304261,
        "continent_id": 102191575,
        "country_id": 85633793,
        "county_id": 102087579,
        "custom_id": 2015256031,
        "flight_id": 2015256031,
        "locality_id": 85922583,
        "postalcode_id": 554784711,
        "region_id": 85688637,
        "venue_id": 1947304267,
        "wing_id": 1947304259
      },
      {
        "building_id": 1947304067,
        "campus_id": 102527513,
        "concourse_id": 1947304261,
        "continent_id": 102191575,
        "country_id": 85633793,
        "county_id": 102085387,
        "custom_id": 2015256031,
        "flight_id": 2015256031,
        "region_id": 85688637,
        "venue_id": 1947304267,
        "wing_id": 1947304259
      }
    ],
    "wof:id": 2015256031,
    "wof:involves": [
      1947304267,
      1159284489,
      1159289871,
      102536481,
      102527513,
      1159283813
    ],
    "wof:lastmodified": 1775924327,
    "wof:name": "AS689 (SFO-PVR)",
    "wof:parent_id": 1947304267,
    "wof:placetype": "custom",
    "wof:placetype_alt": [
      "flight"
    ],
    "wof:repo": "sfomuseum-data-flights-2026-04",
    "wof:superseded_by": [],
    "wof:supersedes": []
  },
  "bbox": [
    -122.370943,
    20.660734,
    -105.250456,
    37.61799
  ],
  "geometry": {"coordinates":[[-122.370943,37.61799],[-105.250456,20.660734]],"type":"MultiPoint"}
}
