{
  "id": 2015338281,
  "type": "Feature",
  "properties": {
    "geom:area": 0,
    "geom:bbox": "-122.502470,37.079920,-122.003080,37.608780",
    "geom:latitude": 37.358564623132615,
    "geom:longitude": -122.26343332002858,
    "src:alt_label": "swim-approach",
    "src:geom": "swim",
    "swim:elevations": [
      3318,
      3203,
      3047,
      3040,
      3017,
      2971,
      2874,
      2738,
      2607,
      2438,
      2438,
      2434,
      2414,
      2377,
      2206,
      2156,
      2134,
      2117,
      2088,
      2013,
      1999,
      1954,
      1859,
      1829,
      1829,
      1829,
      1829,
      1787,
      1651,
      1564,
      1375,
      1207,
      1150,
      1055,
      954,
      716,
      506,
      428,
      309,
      174,
      39
    ],
    "swim:geom": "approach",
    "swim:timestamps": [
      1776704001,
      1776704017,
      1776704062,
      1776704096,
      1776704101,
      1776704115,
      1776704137,
      1776704165,
      1776704194,
      1776704224,
      1776704252,
      1776704276,
      1776704280,
      1776704293,
      1776704331,
      1776704347,
      1776704389,
      1776704419,
      1776704432,
      1776704458,
      1776704463,
      1776704476,
      1776704513,
      1776704546,
      1776704559,
      1776704578,
      1776704624,
      1776704654,
      1776704689,
      1776704716,
      1776704744,
      1776704815,
      1776704822,
      1776704832,
      1776704851,
      1776704888,
      1776704939,
      1776704955,
      1776704986,
      1776705021,
      1776705055
    ],
    "wof:geomhash": "7163a4aabd878dde2cc021b8c4f7fc0b",
    "wof:id": 2015338281,
    "wof:repo": "sfomuseum-data-flights-2026-04"
  },
  "bbox": [
    -122.50247,
    37.07992,
    -122.00308,
    37.60878
  ],
  "geometry": {"coordinates":[[-122.00308,37.07992],[-122.01278,37.10469],[-122.06868,37.14843],[-122.11508,37.17185],[-122.1212,37.17498],[-122.13931,37.18428],[-122.16645,37.19793],[-122.20235,37.21567],[-122.23886,37.23367],[-122.27788,37.25221],[-122.3143,37.26401],[-122.34692,37.27434],[-122.35249,37.27606],[-122.37043,37.28174],[-122.42281,37.29839],[-122.44379,37.30501],[-122.49579,37.32868],[-122.50247,37.36424],[-122.49309,37.37811],[-122.4603,37.39231],[-122.45369,37.39372],[-122.43672,37.39758],[-122.38573,37.40921],[-122.34201,37.41907],[-122.32375,37.42159],[-122.29786,37.42053],[-122.2358,37.41712],[-122.19813,37.41517],[-122.15728,37.41398],[-122.1339,37.43088],[-122.12273,37.45757],[-122.14762,37.52143],[-122.15397,37.52565],[-122.16445,37.53042],[-122.18408,37.53835],[-122.21834,37.55281],[-122.26063,37.57066],[-122.27399,37.57635],[-122.29827,37.58649],[-122.3257,37.59797],[-122.35144,37.60878]],"type":"LineString"}
}
