{
  "id": 2031093431,
  "type": "Feature",
  "properties": {
    "geom:area": 0,
    "geom:bbox": "-122.390000,37.620000,-87.910000,41.980000",
    "geom:latitude": 39.30367813552456,
    "geom:longitude": -105.11195684740699,
    "src:alt_label": "swim-route",
    "src:geom": "swim",
    "swim:geom": "route",
    "wof:geomhash": "fc4b2bae504b18cb24cd6020d111281e",
    "wof:id": 2031093431,
    "wof:repo": "sfomuseum-data-flights-2026-04"
  },
  "bbox": [
    -122.39,
    37.62,
    -87.91,
    41.98
  ],
  "geometry": {"coordinates":[[-122.38,37.62],[-122.3,37.68],[-122.31,37.7],[-122.31,37.7],[-122.34,37.75],[-122.34,37.76],[-122.35,37.76],[-122.36,37.79],[-122.38,37.83],[-122.39,37.85],[-122.39,37.85],[-122.38,37.94],[-122.31,37.96],[-122.15,37.99],[-122.1,37.99],[-122.02,37.99],[-121.95,37.99],[-121.81,37.99],[-121.79,37.99],[-121.68,37.99],[-121.55,37.99],[-121.52,37.99],[-121.44,37.99],[-121.18,37.99],[-121.1,37.99],[-121.08,37.99],[-120.99,38.01],[-120.93,38.02],[-120.89,38.02],[-120.47,38.09],[-119.18,38.27],[-118.94,38.31],[-118.31,38.39],[-117.29,38.52],[-117.28,38.52],[-113.85,38.78],[-113.52,38.79],[-111.78,38.81],[-109.98,38.8],[-109.58,38.8],[-107.51,38.8],[-106.73,38.79],[-105.85,38.86],[-105.41,38.89],[-104.9,38.93],[-104.63,38.94],[-104.16,39],[-103.41,39.08],[-102.66,39.15],[-100.01,39.37],[-99.84,39.38],[-99.58,39.4],[-98.83,39.45],[-96.12,39.91],[-95.01,40.08],[-93.91,40.24],[-91.4,40.55],[-91.35,40.57],[-91.27,40.6],[-91.23,40.61],[-90.6,40.83],[-90.54,40.84],[-89.97,41.03],[-89.59,41.16],[-89.54,41.19],[-89.52,41.21],[-89.46,41.26],[-89.2,41.47],[-89.18,41.52],[-89.17,41.56],[-89.14,41.64],[-89.12,41.68],[-89.12,41.69],[-89.11,41.72],[-89.06,41.82],[-89.03,41.84],[-89.03,41.85],[-88.96,41.92],[-88.83,41.93],[-88.82,41.93],[-88.71,41.93],[-88.38,41.95],[-88.21,41.96],[-88.16,41.96],[-88.05,41.97],[-87.93,41.98],[-87.91,41.98]],"type":"LineString"}
}
