{
  "id": 2031145589,
  "type": "Feature",
  "properties": {
    "geom:area": 0,
    "geom:bbox": "-122.533333,34.050000,-117.216667,37.650000",
    "geom:latitude": 35.753200241041185,
    "geom:longitude": -119.76060577779342,
    "src:alt_label": "swim-path",
    "src:geom": "swim",
    "swim:altitudes": [
      "068",
      "068",
      "068",
      "068",
      "068",
      "098",
      "098",
      "098",
      "123",
      "123",
      "268",
      "268",
      "268",
      "268",
      "268",
      "268",
      "268",
      "290C",
      "290C",
      "290C",
      "290C",
      "290C",
      "290C",
      "290C",
      "290C",
      "290C",
      "290C",
      "290C",
      "290C",
      "290C",
      "290C",
      "290C",
      "290C",
      "290C",
      "290C",
      "290C",
      "290C",
      "290C",
      "290C",
      "290C",
      "290C",
      "290C",
      "290C",
      "290C",
      "290C",
      "290C",
      "290C",
      "290C",
      "290C",
      "290C",
      "290C",
      "290C",
      "290C",
      "290C",
      "290C",
      "290C",
      "290C",
      "290C",
      "290C",
      "290C",
      "290C",
      "290C",
      "290",
      "289",
      "281",
      "281",
      "279",
      "279",
      "271C",
      "271C",
      "270C",
      "270C",
      "270",
      "270",
      "270",
      "268",
      "268",
      "257",
      "257",
      "257",
      "257",
      "257",
      "257",
      "192",
      "192",
      "192",
      "192",
      "192",
      "141",
      "130",
      "130",
      "130",
      "130",
      "115",
      "115",
      "115",
      "115",
      "102",
      "102",
      "102",
      "102",
      "079",
      "079",
      "079",
      "062",
      "062",
      "060",
      "060",
      "060",
      "040",
      "040",
      "040",
      "027",
      "027",
      "027",
      "027",
      "013",
      "013",
      "013",
      "013",
      "013",
      "013"
    ],
    "swim:geom": "path",
    "swim:speeds": [
      279,
      279,
      279,
      279,
      279,
      302,
      302,
      302,
      337,
      337,
      424,
      424,
      424,
      424,
      424,
      424,
      424,
      434,
      434,
      434,
      434,
      434,
      434,
      434,
      437,
      437,
      437,
      436,
      436,
      436,
      436,
      436,
      436,
      437,
      437,
      437,
      437,
      437,
      438,
      437,
      437,
      437,
      437,
      437,
      437,
      435,
      435,
      435,
      435,
      433,
      433,
      433,
      433,
      433,
      433,
      432,
      432,
      432,
      432,
      432,
      431,
      431,
      432,
      432,
      434,
      434,
      434,
      434,
      436,
      436,
      437,
      437,
      440,
      439,
      439,
      438,
      438,
      436,
      436,
      436,
      436,
      436,
      436,
      406,
      406,
      406,
      406,
      406,
      352,
      327,
      327,
      327,
      327,
      316,
      316,
      316,
      316,
      307,
      307,
      307,
      307,
      265,
      265,
      265,
      256,
      256,
      258,
      258,
      258,
      197,
      197,
      197,
      171,
      171,
      171,
      171,
      142,
      142,
      142,
      142,
      142,
      142
    ],
    "swim:timestamps": [
      1777506078,
      1777506078,
      1777506078,
      1777506078,
      1777506078,
      1777506138,
      1777506138,
      1777506138,
      1777506198,
      1777506198,
      1777506603,
      1777506603,
      1777506603,
      1777506603,
      1777506603,
      1777506603,
      1777506603,
      1777506843,
      1777506843,
      1777506909,
      1777506909,
      1777506909,
      1777506909,
      1777506909,
      1777507089,
      1777507089,
      1777507089,
      1777507149,
      1777507149,
      1777507149,
      1777507209,
      1777507209,
      1777507209,
      1777507329,
      1777507329,
      1777507329,
      1777507329,
      1777507336,
      1777507389,
      1777507449,
      1777507449,
      1777507456,
      1777507510,
      1777507510,
      1777507510,
      1777507576,
      1777507576,
      1777507576,
      1777507576,
      1777507636,
      1777507636,
      1777507696,
      1777507696,
      1777507696,
      1777507696,
      1777507750,
      1777507750,
      1777507756,
      1777507817,
      1777507817,
      1777507870,
      1777507870,
      1777507990,
      1777507997,
      1777508050,
      1777508050,
      1777508057,
      1777508057,
      1777508110,
      1777508110,
      1777508117,
      1777508117,
      1777508177,
      1777508237,
      1777508237,
      1777508291,
      1777508291,
      1777508351,
      1777508351,
      1777508351,
      1777508351,
      1777508351,
      1777508351,
      1777508591,
      1777508591,
      1777508591,
      1777508591,
      1777508591,
      1777508764,
      1777508823,
      1777508823,
      1777508823,
      1777508823,
      1777508892,
      1777508892,
      1777508892,
      1777508892,
      1777508952,
      1777508952,
      1777508952,
      1777508952,
      1777509124,
      1777509124,
      1777509124,
      1777509184,
      1777509184,
      1777509192,
      1777509192,
      1777509192,
      1777509304,
      1777509304,
      1777509304,
      1777509372,
      1777509372,
      1777509372,
      1777509372,
      1777509493,
      1777509493,
      1777509493,
      1777509493,
      1777509493,
      1777509493
    ],
    "wof:geomhash": "78ef89a5294b75ac24ed3347375c6f2b",
    "wof:id": 2031145589,
    "wof:repo": "sfomuseum-data-flights-2026-04"
  },
  "bbox": [
    -122.53333333333333,
    34.05,
    -117.21666666666667,
    37.65
  ],
  "geometry": {"coordinates":[[-122.53333333333333,37.65],[-122.53333333333333,37.65],[-122.53333333333333,37.65],[-122.53333333333333,37.65],[-122.53333333333333,37.65],[-122.51666666666667,37.583333333333336],[-122.51666666666667,37.583333333333336],[-122.51666666666667,37.583333333333336],[-122.46666666666667,37.5],[-122.46666666666667,37.5],[-121.77638888888889,37.03722222222222],[-121.77638888888889,37.03722222222222],[-121.77638888888889,37.03722222222222],[-121.77638888888889,37.03722222222222],[-121.77638888888889,37.03722222222222],[-121.77638888888889,37.03722222222222],[-121.77638888888889,37.03722222222222],[-121.31333333333333,36.73166666666667],[-121.31333333333333,36.73166666666667],[-121.2038888888889,36.656666666666666],[-121.2038888888889,36.656666666666666],[-121.2038888888889,36.656666666666666],[-121.2038888888889,36.656666666666666],[-121.2038888888889,36.656666666666666],[-120.85416666666666,36.425],[-120.85416666666666,36.425],[-120.85416666666666,36.425],[-120.73861111111111,36.347500000000004],[-120.73861111111111,36.347500000000004],[-120.73861111111111,36.347500000000004],[-120.62388888888889,36.270833333333336],[-120.62388888888889,36.270833333333336],[-120.62388888888889,36.270833333333336],[-120.39055555555557,36.11333333333334],[-120.39055555555557,36.11333333333334],[-120.39055555555557,36.11333333333334],[-120.39055555555557,36.11333333333334],[-120.36555555555555,36.096111111111114],[-120.27444444444444,36.03472222222222],[-120.16000000000001,35.95666666666667],[-120.16000000000001,35.95666666666667],[-120.13361111111112,35.93861111111111],[-120.04638888888888,35.87888888888889],[-120.04638888888888,35.87888888888889],[-120.04638888888888,35.87888888888889],[-119.88777777777779,35.80277777777778],[-119.88777777777779,35.80277777777778],[-119.88777777777779,35.80277777777778],[-119.88777777777779,35.80277777777778],[-119.75583333333333,35.75],[-119.75583333333333,35.75],[-119.62277777777777,35.69694444444444],[-119.62277777777777,35.69694444444444],[-119.62277777777777,35.69694444444444],[-119.62277777777777,35.69694444444444],[-119.51916666666666,35.655277777777776],[-119.51916666666666,35.655277777777776],[-119.49055555555556,35.64388888888889],[-119.3586111111111,35.59055555555556],[-119.3586111111111,35.59055555555556],[-119.25611111111111,35.549166666666665],[-119.25611111111111,35.549166666666665],[-119.02361111111111,35.407222222222224],[-119.00361111111111,35.38638888888889],[-118.93305555555555,35.31222222222222],[-118.93305555555555,35.31222222222222],[-118.91222222222223,35.290277777777774],[-118.91222222222223,35.290277777777774],[-118.8411111111111,35.215],[-118.8411111111111,35.215],[-118.81972222222223,35.192499999999995],[-118.81972222222223,35.192499999999995],[-118.7275,35.095],[-118.61888888888888,35.01416666666667],[-118.61888888888888,35.01416666666667],[-118.53055555555555,34.953611111111115],[-118.53055555555555,34.953611111111115],[-118.41222222222223,34.87222222222222],[-118.41222222222223,34.87222222222222],[-118.41222222222223,34.87222222222222],[-118.41222222222223,34.87222222222222],[-118.41222222222223,34.87222222222222],[-118.41222222222223,34.87222222222222],[-117.97333333333333,34.59],[-117.97333333333333,34.59],[-117.97333333333333,34.59],[-117.97333333333333,34.59],[-117.97333333333333,34.59],[-117.63333333333334,34.43333333333333],[-117.55,34.4],[-117.55,34.4],[-117.55,34.4],[-117.55,34.4],[-117.44444444444444,34.34722222222222],[-117.44444444444444,34.34722222222222],[-117.44444444444444,34.34722222222222],[-117.44444444444444,34.34722222222222],[-117.35555555555555,34.30416666666667],[-117.35555555555555,34.30416666666667],[-117.35555555555555,34.30416666666667],[-117.35555555555555,34.30416666666667],[-117.21666666666667,34.13333333333333],[-117.21666666666667,34.13333333333333],[-117.21666666666667,34.13333333333333],[-117.25,34.06666666666667],[-117.25,34.06666666666667],[-117.25361111111111,34.06638888888889],[-117.25361111111111,34.06638888888889],[-117.25361111111111,34.06638888888889],[-117.4,34.05],[-117.4,34.05],[-117.4,34.05],[-117.46388888888889,34.056666666666665],[-117.46388888888889,34.056666666666665],[-117.46388888888889,34.056666666666665],[-117.46388888888889,34.056666666666665],[-117.55833333333334,34.056666666666665],[-117.55833333333334,34.056666666666665],[-117.55833333333334,34.056666666666665],[-117.55833333333334,34.056666666666665],[-117.55833333333334,34.056666666666665],[-117.55833333333334,34.056666666666665]],"type":"LineString"}
}
