{
  "id": 2015214627,
  "type": "Feature",
  "properties": {
    "geom:area": 0,
    "geom:bbox": "-122.534610,36.742830,-121.470880,37.667800",
    "geom:latitude": 37.22111405404218,
    "geom:longitude": -122.07984009852353,
    "src:alt_label": "swim-takeoff",
    "src:geom": "swim",
    "swim:elevations": [
      213,
      684,
      945,
      1119,
      1160,
      1421,
      1554,
      1641,
      2394,
      2988,
      3236,
      3803,
      3866,
      4194,
      4325,
      4888,
      5492,
      5719,
      6171,
      6305,
      6580,
      6814,
      6989,
      7385,
      7590,
      7858,
      7983,
      8259,
      8484,
      8744,
      8896,
      9103,
      9240,
      9325,
      9437,
      9519
    ],
    "swim:geom": "takeoff",
    "swim:timestamps": [
      1775426498,
      1775426538,
      1775426559,
      1775426576,
      1775426580,
      1775426615,
      1775426631,
      1775426640,
      1775426682,
      1775426721,
      1775426740,
      1775426787,
      1775426790,
      1775426813,
      1775426823,
      1775426864,
      1775426905,
      1775426925,
      1775426961,
      1775426972,
      1775426998,
      1775427022,
      1775427039,
      1775427081,
      1775427100,
      1775427124,
      1775427136,
      1775427178,
      1775427208,
      1775427238,
      1775427252,
      1775427293,
      1775427318,
      1775427330,
      1775427349,
      1775427363
    ],
    "wof:geomhash": "894d47e284e80dac32d279ad279ea84e",
    "wof:id": 2015214627,
    "wof:repo": "sfomuseum-data-flights-2026-04"
  },
  "bbox": [
    -122.53461,
    36.74283,
    -121.47088,
    37.6678
  ],
  "geometry": {"coordinates":[[-122.38639,37.62336],[-122.41675,37.63626],[-122.43419,37.64436],[-122.44811,37.65058],[-122.45221,37.65238],[-122.48799,37.66719],[-122.5107,37.6678],[-122.52289,37.66306],[-122.53461,37.61602],[-122.51161,37.57161],[-122.50006,37.54732],[-122.4664,37.48335],[-122.46244,37.47995],[-122.42744,37.45567],[-122.41308,37.44516],[-122.35099,37.39922],[-122.28649,37.35161],[-122.25462,37.32813],[-122.19714,37.28565],[-122.17815,37.27155],[-122.13548,37.23995],[-122.09586,37.21052],[-122.06575,37.18816],[-121.99364,37.13452],[-121.95926,37.10892],[-121.91719,37.07748],[-121.89671,37.06209],[-121.82158,37.00608],[-121.76531,36.96415],[-121.70943,36.92305],[-121.6835,36.90387],[-121.60532,36.84551],[-121.5575,36.80944],[-121.53444,36.79181],[-121.49794,36.76441],[-121.47088,36.74283]],"type":"LineString"}
}
