{
  "id": 2015193669,
  "type": "Feature",
  "properties": {
    "geom:area": 0,
    "geom:bbox": "-122.925760,37.413500,-122.139810,38.423770",
    "geom:latitude": 37.80933022334108,
    "geom:longitude": -122.50420026507777,
    "src:alt_label": "swim-approach",
    "src:geom": "swim",
    "swim:elevations": [
      7385,
      7340,
      7294,
      6993,
      6788,
      6318,
      6048,
      5691,
      5446,
      5261,
      5196,
      4852,
      4575,
      4382,
      4106,
      3889,
      3742,
      3476,
      3363,
      3353,
      3353,
      3172,
      3157,
      2974,
      2663,
      2319,
      2232,
      2081,
      1901,
      1798,
      1538,
      1523,
      1524,
      1411,
      1108,
      997,
      835,
      699,
      540,
      392,
      273,
      183,
      152,
      249
    ],
    "swim:geom": "approach",
    "swim:timestamps": [
      1775215498,
      1775215502,
      1775215507,
      1775215537,
      1775215562,
      1775215617,
      1775215645,
      1775215678,
      1775215705,
      1775215732,
      1775215741,
      1775215781,
      1775215817,
      1775215844,
      1775215882,
      1775215910,
      1775215931,
      1775215965,
      1775215984,
      1775216022,
      1775216059,
      1775216094,
      1775216100,
      1775216139,
      1775216170,
      1775216210,
      1775216223,
      1775216245,
      1775216274,
      1775216289,
      1775216338,
      1775216345,
      1775216371,
      1775216405,
      1775216469,
      1775216497,
      1775216539,
      1775216565,
      1775216597,
      1775216637,
      1775216664,
      1775216695,
      1775216700,
      1775216743
    ],
    "wof:geomhash": "29f12923527641dd4b0c6f9e07a7f984",
    "wof:id": 2015193669,
    "wof:repo": "sfomuseum-data-flights-2026-04"
  },
  "bbox": [
    -122.92576,
    37.4135,
    -122.13981,
    38.42377
  ],
  "geometry": {"coordinates":[[-122.92576,38.42377],[-122.92057,38.41719],[-122.91427,38.40921],[-122.87539,38.36031],[-122.8434,38.32014],[-122.77934,38.23741],[-122.75931,38.1937],[-122.74321,38.13954],[-122.73079,38.09695],[-122.71818,38.05608],[-122.71398,38.0421],[-122.69608,37.97986],[-122.68076,37.92535],[-122.66184,37.88964],[-122.61647,37.84586],[-122.58382,37.81509],[-122.56003,37.79253],[-122.52099,37.75542],[-122.50003,37.73544],[-122.46176,37.70002],[-122.42481,37.66616],[-122.39177,37.63476],[-122.38617,37.62953],[-122.35408,37.59154],[-122.33854,37.55844],[-122.31258,37.51629],[-122.30426,37.50287],[-122.29067,37.48078],[-122.27328,37.45219],[-122.25995,37.4409],[-122.20179,37.41715],[-122.19359,37.41374],[-122.16234,37.4135],[-122.14319,37.44184],[-122.13981,37.50158],[-122.16161,37.52119],[-122.19665,37.54369],[-122.22278,37.55468],[-122.25284,37.56733],[-122.28459,37.58077],[-122.30578,37.58962],[-122.32959,37.59966],[-122.33363,37.60136],[-122.36511,37.61509]],"type":"LineString"}
}
