{
  "id": 2015283593,
  "type": "Feature",
  "properties": {
    "geom:area": 0,
    "geom:bbox": "-122.559830,36.718920,-122.252640,37.663880",
    "geom:latitude": 37.19895901458885,
    "geom:longitude": -122.48612394877766,
    "src:alt_label": "swim-takeoff",
    "src:geom": "swim",
    "swim:elevations": [
      500,
      881,
      1034,
      1480,
      1623,
      2075,
      2608,
      2652,
      3185,
      3401,
      3758,
      4004,
      4613,
      4763,
      5016,
      5221,
      5543,
      5857,
      6015,
      6334,
      6601,
      6738,
      7058,
      7138,
      7302,
      7556,
      7704,
      7898
    ],
    "swim:geom": "takeoff",
    "swim:timestamps": [
      1776070858,
      1776070886,
      1776070897,
      1776070943,
      1776070954,
      1776070982,
      1776071018,
      1776071021,
      1776071055,
      1776071084,
      1776071123,
      1776071144,
      1776071187,
      1776071198,
      1776071215,
      1776071231,
      1776071271,
      1776071307,
      1776071319,
      1776071350,
      1776071372,
      1776071388,
      1776071418,
      1776071427,
      1776071447,
      1776071486,
      1776071502,
      1776071526
    ],
    "wof:geomhash": "bd5af436e20aaa9a79a9fe3067a7e274",
    "wof:id": 2015283593,
    "wof:repo": "sfomuseum-data-flights-2026-04"
  },
  "bbox": [
    -122.55983,
    36.71892,
    -122.25264,
    37.66388
  ],
  "geometry": {"coordinates":[[-122.41303,37.63726],[-122.43888,37.64753],[-122.44918,37.65171],[-122.50447,37.66388],[-122.51709,37.65755],[-122.53183,37.62593],[-122.53244,37.57798],[-122.53244,37.57391],[-122.53385,37.52832],[-122.53663,37.48596],[-122.54068,37.42134],[-122.54298,37.38525],[-122.54683,37.30882],[-122.54761,37.28847],[-122.54836,37.25727],[-122.54964,37.22905],[-122.55517,37.15414],[-122.55922,37.08327],[-122.55983,37.05971],[-122.53759,37.00049],[-122.50417,36.96626],[-122.48031,36.94305],[-122.43163,36.89418],[-122.41761,36.88011],[-122.3868,36.84942],[-122.32069,36.78474],[-122.29291,36.75821],[-122.25264,36.71892]],"type":"LineString"}
}
