{
  "id": 2015191455,
  "type": "Feature",
  "properties": {
    "geom:area": 0,
    "geom:bbox": "-122.397360,37.624750,-121.253650,38.121890",
    "geom:latitude": 37.8843164303947,
    "geom:longitude": -121.8404383600507,
    "src:alt_label": "swim-takeoff",
    "src:geom": "swim",
    "swim:elevations": [
      244,
      426,
      771,
      1232,
      2204,
      2375,
      3112,
      3372,
      3727,
      3841,
      4262,
      4451,
      4656,
      4932,
      5238,
      5373,
      5531,
      5607,
      5821,
      5907,
      5916
    ],
    "swim:geom": "takeoff",
    "swim:timestamps": [
      1775149163,
      1775149175,
      1775149204,
      1775149258,
      1775149347,
      1775149360,
      1775149426,
      1775149478,
      1775149551,
      1775149571,
      1775149616,
      1775149638,
      1775149661,
      1775149697,
      1775149728,
      1775149748,
      1775149775,
      1775149784,
      1775149819,
      1775149828,
      1775149831
    ],
    "wof:geomhash": "ec14631bbe5190fea3daffe13632bbe4",
    "wof:id": 2015191455,
    "wof:repo": "sfomuseum-data-flights-2026-04"
  },
  "bbox": [
    -122.39736,
    37.62475,
    -121.25365,
    38.12189
  ],
  "geometry": {"coordinates":[[-122.38928,37.62475],[-122.39736,37.6303],[-122.39678,37.64992],[-122.34492,37.67013],[-122.2298,37.71193],[-122.2117,37.71916],[-122.12301,37.76524],[-122.04361,37.80639],[-121.90296,37.86684],[-121.86089,37.88359],[-121.76003,37.92361],[-121.71041,37.94318],[-121.65872,37.96343],[-121.57492,37.99643],[-121.50307,38.02461],[-121.45496,38.04343],[-121.39187,38.06808],[-121.36802,38.07733],[-121.28487,38.10974],[-121.26104,38.11905],[-121.25365,38.12189]],"type":"LineString"}
}
