{
  "id": 2015359393,
  "type": "Feature",
  "properties": {
    "geom:area": 0,
    "geom:bbox": "-170.000000,1.360000,180.000000,39.410000",
    "geom:latitude": 28.946933911991607,
    "geom:longitude": 12.901793905882895,
    "src:alt_label": "swim-route",
    "src:geom": "swim",
    "swim:geom": "route",
    "wof:geomhash": "5c890d14f59bbda7f3326874b4949994",
    "wof:id": 2015359393,
    "wof:repo": "sfomuseum-data-flights-2026-04"
  },
  "bbox": [
    -170,
    1.36,
    180,
    39.41
  ],
  "geometry": {"coordinates":[[[-122.38,37.62],[-122.5,37.67],[-122.5,37.67],[-122.5,37.67],[-122.61,37.68],[-122.61,37.68],[-122.66,37.68],[-122.74,37.69],[-122.75,37.69],[-122.86,37.7],[-122.88,37.7],[-123,37.7],[-123.09,37.71],[-123.53,37.73],[-123.54,37.73],[-123.8,37.75],[-124.01,37.76],[-124.12,37.76],[-124.32,37.77],[-124.4,37.78],[-124.57,37.78],[-124.76,37.79],[-124.94,37.8],[-125.47,37.82],[-125.83,37.83],[-125.88,37.84],[-126.08,37.9],[-126.99,38.13],[-127,38.13],[-127.34,38.23],[-130,39],[-134.97,39.41],[-140,39],[-145.03,38.61],[-150,38],[-152.06,37.47],[-154.09,36.9],[-160,35],[-170,31]],[[180,30],[170,29],[161.93,27.45],[160,27],[152.64,24.87],[151.97,24.66],[150,24],[143.79,21],[143.16,20.68],[141.57,19.85],[140,19],[130,12],[125.49,8.96],[122.06,6.92],[121.65,6.82],[121,6.66],[119.77,6.34],[118.54,6.03],[118.07,5.91],[117.27,5.65],[114.88,4.88],[110.71,3.55],[106.55,2.2],[106.16,2.07],[105.92,1.99],[105.84,1.96],[105.79,1.95],[105.59,1.88],[105.3,1.79],[105.05,1.71],[104.75,1.61],[104.59,1.56],[104.39,1.49],[104.35,1.47],[104.23,1.44],[104.15,1.41],[104.07,1.38],[103.99,1.36]]],"type":"MultiLineString"}
}
