{
  "id": 2031126861,
  "type": "Feature",
  "properties": {
    "geom:area": 0,
    "geom:bbox": "-122.393330,37.626440,-121.286810,37.968260",
    "geom:latitude": 37.863909407985375,
    "geom:longitude": -121.90598954867147,
    "src:alt_label": "swim-takeoff",
    "src:geom": "swim",
    "swim:elevations": [
      213,
      610,
      668,
      887,
      1513,
      1695,
      1938,
      2368,
      2750,
      3119,
      3364,
      3451,
      3496,
      3542,
      3879,
      4215,
      4376,
      4681,
      4846,
      5144,
      5308,
      5501,
      5711,
      6180,
      6190,
      6380,
      6444,
      6558
    ],
    "swim:geom": "takeoff",
    "swim:timestamps": [
      1777273570,
      1777273618,
      1777273636,
      1777273662,
      1777273711,
      1777273725,
      1777273742,
      1777273770,
      1777273813,
      1777273842,
      1777273883,
      1777273903,
      1777273913,
      1777273924,
      1777273962,
      1777273993,
      1777274015,
      1777274050,
      1777274067,
      1777274098,
      1777274120,
      1777274145,
      1777274172,
      1777274218,
      1777274221,
      1777274263,
      1777274271,
      1777274291
    ],
    "wof:geomhash": "8a21a27036b595246f5d0098c1717b19",
    "wof:id": 2031126861,
    "wof:repo": "sfomuseum-data-flights-2026-04"
  },
  "bbox": [
    -122.39333,
    37.62644,
    -121.28681,
    37.96826
  ],
  "geometry": {"coordinates":[[-122.39333,37.62644],[-122.39292,37.65875],[-122.3721,37.6661],[-122.33415,37.6772],[-122.28566,37.7176],[-122.28872,37.7343],[-122.29548,37.75376],[-122.30841,37.78673],[-122.29254,37.83414],[-122.2473,37.84404],[-122.1782,37.85324],[-122.14172,37.85815],[-122.12244,37.86081],[-122.09981,37.86383],[-122.02243,37.874],[-121.95776,37.88253],[-121.91154,37.88857],[-121.83667,37.8983],[-121.79711,37.90345],[-121.7307,37.91199],[-121.6816,37.91834],[-121.62342,37.92581],[-121.56188,37.93359],[-121.45894,37.94665],[-121.45215,37.94753],[-121.35339,37.96002],[-121.33359,37.9625],[-121.28681,37.96826]],"type":"LineString"}
}
