{
  "id": 2015362499,
  "type": "Feature",
  "properties": {
    "geom:area": 0,
    "geom:bbox": "-122.770000,37.620000,-73.780000,44.000000",
    "geom:latitude": 42.37803791358397,
    "geom:longitude": -98.2373421252888,
    "src:alt_label": "swim-route",
    "src:geom": "swim",
    "swim:geom": "route",
    "wof:geomhash": "c51fb7be94739d3d4b313b178cce6bcb",
    "wof:id": 2015362499,
    "wof:repo": "sfomuseum-data-flights-2026-04"
  },
  "bbox": [
    -122.77,
    37.62,
    -73.78,
    44
  ],
  "geometry": {"coordinates":[[-73.78,40.64],[-73.91,40.71],[-73.94,40.73],[-74.04,40.78],[-74.06,40.79],[-74.06,40.8],[-74.1,40.82],[-74.12,40.83],[-74.16,40.85],[-74.19,40.87],[-74.23,40.88],[-74.26,40.9],[-74.29,40.92],[-74.31,40.93],[-74.35,40.95],[-74.38,40.97],[-74.4,40.98],[-74.41,40.98],[-74.47,41.02],[-73.8,41.03],[-73.81,41.03],[-73.88,41.05],[-73.97,41.08],[-74.32,41.17],[-74.83,41.19],[-75.06,41.28],[-76.43,41.74],[-76.52,41.77],[-76.79,41.84],[-76.93,41.88],[-77.2,41.96],[-77.32,41.99],[-77.35,41.99],[-77.41,42.01],[-78.27,42.24],[-78.91,42.4],[-79.62,42.57],[-79.79,42.61],[-80.5,42.64],[-80.6,42.65],[-81.27,42.67],[-82.48,42.8],[-82.55,42.81],[-82.58,42.81],[-82.71,42.83],[-83.3,42.91],[-84.58,43.02],[-84.59,43.02],[-85,43.06],[-86.27,43.2],[-87,43.17],[-88.28,43.12],[-89.33,43.13],[-89.86,43.13],[-89.9,43.13],[-90.39,43.13],[-91.17,43.13],[-91.32,43.13],[-91.47,43.13],[-92.76,43.11],[-93.33,43.09],[-93.99,43.21],[-94.51,43.3],[-95.32,43.43],[-95.41,43.44],[-96.48,43.61],[-96.66,43.63],[-96.78,43.65],[-97.31,43.69],[-97.75,43.72],[-98.37,43.77],[-98.38,43.77],[-98.82,43.79],[-99.29,43.82],[-99.99,43.86],[-100.27,43.87],[-101.42,43.93],[-101.95,43.94],[-102.95,43.97],[-103.01,43.98],[-104.3,44],[-106.17,44],[-106.44,44],[-106.5,43.98],[-107.26,43.77],[-108.06,43.53],[-108.3,43.46],[-108.83,43.31],[-110.14,42.93],[-112.04,42.33],[-112.45,42.2],[-113.3,41.91],[-113.47,41.85],[-113.98,41.67],[-114.11,41.63],[-114.49,41.49],[-115.22,41.22],[-115.43,41.14],[-116.28,40.82],[-116.92,40.57],[-117.19,40.5],[-117.57,40.4],[-118.03,40.27],[-118.57,40.13],[-118.58,40.13],[-120.5,39.53],[-121,39.37],[-121.1,39.34],[-121.1,39.33],[-121.36,39.18],[-121.58,39.05],[-121.73,38.96],[-121.81,38.92],[-122.01,38.8],[-122.07,38.76],[-122.16,38.71],[-122.6,38.38],[-122.65,38.34],[-122.69,38.3],[-122.77,38.22],[-122.75,38.16],[-122.7,37.99],[-122.7,37.97],[-122.69,37.95],[-122.69,37.95],[-122.67,37.9],[-122.67,37.9],[-122.65,37.87],[-122.59,37.82],[-122.58,37.81],[-122.55,37.79],[-122.55,37.78],[-122.51,37.74],[-122.5,37.73],[-122.44,37.68],[-122.37,37.62],[-122.38,37.62]],"type":"LineString"}
}
