{
  "id": 2031130025,
  "type": "Feature",
  "properties": {
    "geom:area": 0,
    "geom:bbox": "-122.380000,37.620000,-74.170000,42.820000",
    "geom:latitude": 41.250245500071884,
    "geom:longitude": -97.67773353642399,
    "src:alt_label": "swim-route",
    "src:geom": "swim",
    "swim:geom": "route",
    "wof:geomhash": "aabdb5d9bda9cbb923174a9c97cd9f4c",
    "wof:id": 2031130025,
    "wof:repo": "sfomuseum-data-flights-2026-04"
  },
  "bbox": [
    -122.38,
    37.62,
    -74.17,
    42.82
  ],
  "geometry": {"coordinates":[[-122.38,37.62],[-122.27,37.69],[-122.26,37.69],[-122.26,37.69],[-122.21,37.72],[-122.2,37.73],[-122.2,37.73],[-122.17,37.74],[-122.17,37.74],[-122.16,37.75],[-122.11,37.77],[-122.1,37.78],[-122,37.83],[-121.94,37.85],[-121.77,37.92],[-121.75,37.93],[-121.57,38],[-121.41,38.06],[-121.39,38.07],[-121.19,38.15],[-121.06,38.2],[-121.04,38.21],[-121.03,38.21],[-120.94,38.22],[-120.63,38.26],[-120.54,38.28],[-120.53,38.28],[-120.42,38.29],[-120.31,38.31],[-120.01,38.35],[-119.6,38.4],[-119.22,38.45],[-118.97,38.48],[-118.43,38.55],[-118.23,38.57],[-118,38.6],[-117.3,38.68],[-117.29,38.68],[-117.18,38.69],[-117.12,38.71],[-113.56,39.26],[-113.32,39.29],[-113.25,39.3],[-112.44,39.52],[-111.08,39.86],[-110.81,39.93],[-110.26,40.07],[-110.06,40.12],[-109.62,40.22],[-109.44,40.26],[-109.14,40.33],[-105.73,41.05],[-104.52,41.27],[-103.39,41.44],[-102.24,41.61],[-101.96,41.65],[-101.78,41.67],[-99.69,41.93],[-99.02,42],[-96.31,42.26],[-95.97,42.29],[-95.14,42.35],[-94.98,42.36],[-93.58,42.45],[-93.13,42.48],[-90.63,42.59],[-90.59,42.59],[-89.56,42.62],[-89.39,42.62],[-88.9,42.63],[-88.42,42.64],[-87.69,42.65],[-87.54,42.65],[-87.13,42.65],[-87,42.65],[-86.71,42.65],[-86.6,42.65],[-85.87,42.64],[-85.52,42.64],[-85,42.63],[-84.92,42.63],[-83.95,42.61],[-83.4,42.6],[-83.08,42.59],[-81.97,42.54],[-81.45,42.52],[-81.02,42.52],[-80.73,42.55],[-80.41,42.56],[-79.52,42.6],[-79.05,42.61],[-78.72,42.67],[-78.41,42.75],[-78.38,42.76],[-78.23,42.79],[-78.06,42.82],[-77.98,42.81],[-77.9,42.8],[-77.73,42.79],[-76.84,42.68],[-76.84,42.68],[-76.75,42.67],[-76.62,42.66],[-76.2,42.47],[-76.02,42.39],[-75.32,42.06],[-74.98,41.94],[-74.77,41.86],[-74.49,41.75],[-74.35,41.7],[-74.29,41.67],[-74.28,41.67],[-74.32,41.57],[-74.33,41.54],[-74.35,41.5],[-74.39,41.42],[-74.41,41.36],[-74.42,41.34],[-74.44,41.29],[-74.45,41.27],[-74.48,41.2],[-74.52,41.11],[-74.54,41.07],[-74.54,41.04],[-74.56,40.83],[-74.56,40.79],[-74.56,40.78],[-74.55,40.66],[-74.49,40.66],[-74.38,40.67],[-74.27,40.68],[-74.17,40.69]],"type":"LineString"}
}
