{
  "id": 2031134423,
  "type": "Feature",
  "properties": {
    "geom:area": 0,
    "geom:bbox": "-123.286310,37.428360,-122.116780,38.516360",
    "geom:latitude": 37.91231116773845,
    "geom:longitude": -122.61415058635103,
    "src:alt_label": "swim-approach",
    "src:geom": "swim",
    "swim:elevations": [
      7529,
      7346,
      7315,
      7295,
      6890,
      6717,
      6468,
      6353,
      6083,
      5842,
      5654,
      5535,
      5380,
      5106,
      4896,
      4625,
      4408,
      4375,
      3958,
      3684,
      3492,
      3407,
      3353,
      3353,
      3353,
      3344,
      3100,
      2932,
      2733,
      2560,
      2505,
      2177,
      2002,
      1712,
      1555,
      1494,
      1335,
      1120,
      968,
      706,
      308,
      226,
      85
    ],
    "swim:geom": "approach",
    "swim:timestamps": [
      1777383108,
      1777383142,
      1777383175,
      1777383189,
      1777383235,
      1777383254,
      1777383293,
      1777383310,
      1777383345,
      1777383378,
      1777383418,
      1777383430,
      1777383459,
      1777383495,
      1777383526,
      1777383565,
      1777383596,
      1777383601,
      1777383643,
      1777383682,
      1777383710,
      1777383722,
      1777383758,
      1777383805,
      1777383827,
      1777383861,
      1777383895,
      1777383920,
      1777383952,
      1777383981,
      1777383990,
      1777384046,
      1777384074,
      1777384122,
      1777384154,
      1777384172,
      1777384206,
      1777384241,
      1777384263,
      1777384299,
      1777384371,
      1777384388,
      1777384430
    ],
    "wof:geomhash": "3df76fa3d13169cb4b51fb39c1cfe65a",
    "wof:id": 2031134423,
    "wof:repo": "sfomuseum-data-flights-2026-04"
  },
  "bbox": [
    -123.28631,
    37.42836,
    -122.11678,
    38.51636
  ],
  "geometry": {"coordinates":[[-123.28631,38.51636],[-123.22106,38.48122],[-123.15853,38.4459],[-123.13254,38.43201],[-123.04574,38.38215],[-123.01057,38.36233],[-122.93972,38.32227],[-122.90941,38.30525],[-122.84687,38.26973],[-122.79069,38.23592],[-122.75311,38.17667],[-122.7468,38.15623],[-122.73363,38.10988],[-122.71719,38.05075],[-122.70267,38.00052],[-122.68519,37.94025],[-122.66437,37.89386],[-122.65902,37.88726],[-122.60784,37.83767],[-122.56072,37.79342],[-122.52755,37.76211],[-122.51359,37.74887],[-122.47115,37.70874],[-122.41932,37.66003],[-122.39739,37.6394],[-122.36559,37.6094],[-122.34591,37.57282],[-122.33144,37.54585],[-122.31205,37.51299],[-122.29364,37.48432],[-122.28815,37.47558],[-122.22909,37.44045],[-122.19547,37.42836],[-122.13844,37.42976],[-122.12046,37.46105],[-122.11678,37.48047],[-122.13905,37.51093],[-122.17235,37.53588],[-122.19714,37.54598],[-122.23789,37.56335],[-122.30566,37.59197],[-122.31851,37.5973],[-122.34748,37.60948]],"type":"LineString"}
}
