{
  "id": 2031142613,
  "type": "Feature",
  "properties": {
    "geom:area": 0,
    "geom:bbox": "-122.384722,32.633333,-97.050000,38.488056",
    "geom:latitude": 36.62177206814796,
    "geom:longitude": -109.30264133764761,
    "src:alt_label": "swim-path",
    "src:geom": "swim",
    "swim:altitudes": [
      "071",
      "071",
      "071",
      "071",
      "071",
      "071",
      "089",
      "098",
      "098",
      "098",
      "098",
      "203",
      "203",
      "203",
      "203",
      "203",
      "203",
      "203",
      "241",
      "241",
      "241",
      "241",
      "252",
      "252",
      "252",
      "304",
      "304",
      "304",
      "304",
      "304",
      "329",
      "329",
      "329",
      "329",
      "329",
      "334",
      "334",
      "334",
      "334",
      "338",
      "341",
      "341",
      "341",
      "341",
      "345",
      "347",
      "347",
      "350C",
      "350C",
      "350C",
      "350C",
      "350C",
      "350C",
      "350C",
      "350C",
      "350C",
      "350C",
      "350C",
      "350C",
      "350C",
      "350C",
      "350C",
      "350C",
      "350C",
      "350C",
      "350C",
      "350C",
      "350C",
      "350C",
      "350C",
      "350C",
      "350C",
      "350C",
      "350C",
      "350C",
      "350C",
      "350C",
      "350C",
      "350C",
      "350C",
      "350C",
      "350C",
      "350C",
      "350C",
      "350C",
      "350C",
      "350C",
      "350C",
      "350C",
      "350C",
      "350C",
      "350C",
      "350C",
      "350C",
      "350C",
      "350C",
      "350C",
      "350C",
      "350C",
      "350C",
      "350C",
      "350C",
      "350C",
      "350C",
      "350C",
      "350C",
      "350C",
      "350C",
      "350C",
      "350C",
      "350C",
      "350C",
      "350C",
      "350C",
      "350C",
      "350C",
      "350C",
      "350C",
      "350C",
      "350C",
      "350C",
      "350C",
      "350C",
      "350C",
      "350C",
      "350C",
      "350C",
      "350C",
      "350C",
      "350C",
      "350C",
      "350C",
      "350C",
      "350C",
      "350C",
      "350C",
      "350C",
      "350C",
      "350C",
      "350C",
      "350C",
      "350C",
      "350C",
      "350C",
      "350C",
      "350C",
      "350C",
      "350C",
      "350C",
      "350C",
      "350C",
      "350C",
      "350C",
      "350C",
      "350C",
      "350C",
      "350C",
      "350C",
      "350C",
      "350C",
      "350C",
      "350C",
      "350C",
      "350C",
      "350C",
      "350C",
      "350C",
      "350C",
      "350C",
      "350C",
      "350C",
      "350C",
      "350C",
      "350C",
      "350C",
      "350C",
      "350C",
      "350C",
      "350C",
      "350C",
      "350C",
      "350C",
      "350C",
      "350C",
      "350C",
      "350C",
      "350C",
      "350C",
      "350C",
      "350C",
      "350C",
      "350C",
      "350C",
      "350C",
      "350C",
      "350C",
      "350C",
      "350C",
      "350C",
      "350C",
      "350C",
      "350C",
      "350C",
      "350C",
      "350C",
      "350C",
      "350C",
      "350C",
      "350C",
      "350C",
      "350C",
      "350C",
      "350C",
      "350C",
      "350C",
      "350C",
      "350C",
      "350C",
      "350C",
      "350C",
      "350C",
      "350C",
      "350C",
      "350C",
      "350C",
      "350C",
      "350C",
      "350C",
      "350C",
      "350C",
      "350C",
      "350C",
      "350C",
      "350C",
      "350C",
      "350C",
      "350C",
      "350C",
      "350C",
      "350C",
      "350C",
      "350C",
      "350C",
      "350C",
      "350C",
      "350C",
      "350C",
      "350C",
      "350C",
      "350C",
      "350C",
      "350C",
      "350C",
      "350C",
      "350C",
      "350C",
      "350C",
      "350C",
      "350C",
      "350C",
      "350C",
      "350C",
      "350C",
      "350C",
      "350C",
      "350C",
      "350C",
      "350C",
      "350C",
      "350C",
      "350C",
      "350C",
      "350C",
      "350C",
      "350C",
      "350C",
      "350C",
      "350C",
      "350C",
      "350C",
      "350C",
      "350C",
      "350C",
      "350C",
      "350C",
      "351C",
      "351C",
      "351C",
      "350C",
      "350C",
      "350C",
      "350C",
      "350C",
      "350C",
      "350C",
      "350C",
      "350C",
      "350C",
      "350C",
      "350C",
      "350C",
      "350C",
      "350C",
      "350C",
      "350C",
      "350C",
      "350C",
      "350C",
      "350C",
      "351C",
      "351C",
      "351C",
      "350C",
      "350C",
      "350C",
      "350C",
      "350C",
      "350C",
      "350",
      "350",
      "324",
      "324",
      "324",
      "321",
      "321",
      "321",
      "310C",
      "310C",
      "310C",
      "310C",
      "310C",
      "310C",
      "310C",
      "310C",
      "310C",
      "310C",
      "310C",
      "310C",
      "310C",
      "310C",
      "310C",
      "292",
      "292",
      "292",
      "292",
      "292",
      "272",
      "272",
      "272",
      "272",
      "262",
      "262",
      "262",
      "253",
      "253",
      "253",
      "237",
      "237",
      "237",
      "237",
      "199",
      "199",
      "199",
      "199",
      "199",
      "180",
      "180",
      "180",
      "180",
      "174",
      "174",
      "174",
      "174",
      "174",
      "174",
      "149",
      "143",
      "143",
      "143",
      "137",
      "137",
      "128",
      "128",
      "123",
      "123",
      "123",
      "123",
      "120",
      "120",
      "120",
      "120",
      "120",
      "117",
      "117",
      "117",
      "096",
      "096",
      "096",
      "096",
      "096",
      "076",
      "076",
      "068",
      "068",
      "049",
      "049",
      "049",
      "049",
      "049",
      "039",
      "039",
      "039",
      "039",
      "039",
      "039",
      "033",
      "033",
      "030",
      "030",
      "023",
      "023",
      "023",
      "023",
      "023",
      "023",
      "020",
      "020",
      "020",
      "020",
      "009",
      "009",
      "009",
      "009"
    ],
    "swim:geom": "path",
    "swim:speeds": [
      266,
      266,
      266,
      266,
      266,
      266,
      287,
      283,
      283,
      283,
      283,
      408,
      408,
      408,
      408,
      408,
      408,
      408,
      444,
      444,
      444,
      444,
      457,
      457,
      457,
      477,
      477,
      477,
      477,
      477,
      468,
      468,
      468,
      468,
      468,
      468,
      468,
      468,
      468,
      471,
      470,
      470,
      470,
      470,
      472,
      472,
      472,
      475,
      475,
      475,
      475,
      475,
      478,
      477,
      477,
      477,
      479,
      479,
      481,
      481,
      481,
      481,
      484,
      484,
      484,
      486,
      486,
      486,
      486,
      489,
      489,
      489,
      489,
      489,
      495,
      495,
      495,
      496,
      496,
      496,
      497,
      497,
      497,
      497,
      497,
      499,
      499,
      499,
      499,
      501,
      501,
      502,
      502,
      502,
      504,
      504,
      504,
      504,
      508,
      508,
      508,
      512,
      512,
      512,
      512,
      512,
      512,
      510,
      510,
      510,
      510,
      510,
      514,
      514,
      514,
      514,
      514,
      517,
      517,
      521,
      521,
      521,
      521,
      521,
      521,
      521,
      522,
      522,
      522,
      522,
      521,
      521,
      521,
      522,
      522,
      522,
      522,
      522,
      525,
      525,
      525,
      525,
      525,
      525,
      525,
      529,
      529,
      530,
      530,
      530,
      530,
      530,
      531,
      531,
      531,
      531,
      531,
      533,
      533,
      533,
      533,
      535,
      535,
      535,
      535,
      537,
      537,
      541,
      541,
      547,
      547,
      547,
      547,
      547,
      555,
      555,
      555,
      554,
      554,
      554,
      554,
      553,
      553,
      553,
      555,
      555,
      553,
      553,
      553,
      553,
      553,
      553,
      555,
      555,
      555,
      555,
      555,
      555,
      555,
      555,
      555,
      555,
      555,
      563,
      563,
      564,
      564,
      564,
      564,
      565,
      565,
      565,
      565,
      565,
      565,
      566,
      566,
      566,
      566,
      566,
      566,
      566,
      566,
      566,
      565,
      565,
      561,
      561,
      561,
      561,
      562,
      562,
      562,
      562,
      562,
      562,
      562,
      562,
      555,
      555,
      555,
      555,
      555,
      553,
      553,
      553,
      551,
      551,
      551,
      551,
      551,
      551,
      549,
      549,
      549,
      549,
      549,
      549,
      549,
      548,
      548,
      548,
      548,
      548,
      548,
      545,
      545,
      544,
      543,
      543,
      543,
      543,
      543,
      541,
      541,
      541,
      541,
      542,
      542,
      542,
      542,
      544,
      544,
      544,
      544,
      545,
      545,
      545,
      545,
      545,
      545,
      545,
      545,
      544,
      544,
      544,
      544,
      544,
      541,
      541,
      541,
      540,
      540,
      540,
      540,
      540,
      540,
      540,
      540,
      540,
      540,
      540,
      540,
      540,
      540,
      540,
      540,
      540,
      541,
      541,
      536,
      536,
      536,
      536,
      536,
      536,
      538,
      538,
      538,
      541,
      541,
      541,
      543,
      544,
      544,
      544,
      544,
      544,
      544,
      544,
      544,
      526,
      526,
      526,
      526,
      526,
      519,
      519,
      519,
      519,
      509,
      509,
      509,
      499,
      499,
      499,
      480,
      480,
      480,
      480,
      445,
      445,
      445,
      445,
      445,
      434,
      434,
      434,
      434,
      428,
      428,
      428,
      428,
      428,
      428,
      381,
      366,
      366,
      366,
      354,
      354,
      323,
      323,
      315,
      315,
      315,
      315,
      318,
      317,
      317,
      317,
      317,
      275,
      275,
      275,
      239,
      239,
      239,
      239,
      239,
      234,
      234,
      229,
      229,
      217,
      217,
      217,
      217,
      217,
      211,
      211,
      211,
      211,
      211,
      211,
      202,
      202,
      196,
      196,
      144,
      144,
      144,
      144,
      144,
      144,
      133,
      133,
      133,
      133,
      134,
      134,
      134,
      134
    ],
    "swim:timestamps": [
      1777467072,
      1777467072,
      1777467072,
      1777467072,
      1777467072,
      1777467072,
      1777467114,
      1777467132,
      1777467132,
      1777467132,
      1777467132,
      1777467493,
      1777467493,
      1777467493,
      1777467493,
      1777467493,
      1777467493,
      1777467493,
      1777467673,
      1777467673,
      1777467673,
      1777467673,
      1777467733,
      1777467733,
      1777467733,
      1777468033,
      1777468033,
      1777468033,
      1777468033,
      1777468033,
      1777468174,
      1777468174,
      1777468174,
      1777468174,
      1777468174,
      1777468234,
      1777468234,
      1777468234,
      1777468234,
      1777468273,
      1777468294,
      1777468294,
      1777468294,
      1777468294,
      1777468333,
      1777468354,
      1777468354,
      1777468393,
      1777468393,
      1777468393,
      1777468453,
      1777468453,
      1777468573,
      1777468595,
      1777468595,
      1777468595,
      1777468655,
      1777468655,
      1777468715,
      1777468715,
      1777468715,
      1777468715,
      1777468874,
      1777468874,
      1777468874,
      1777468895,
      1777468895,
      1777468895,
      1777468895,
      1777469015,
      1777469015,
      1777469015,
      1777469015,
      1777469015,
      1777469294,
      1777469294,
      1777469294,
      1777469315,
      1777469315,
      1777469315,
      1777469376,
      1777469376,
      1777469376,
      1777469376,
      1777469376,
      1777469474,
      1777469474,
      1777469474,
      1777469474,
      1777469534,
      1777469534,
      1777469556,
      1777469556,
      1777469556,
      1777469616,
      1777469616,
      1777469616,
      1777469616,
      1777469796,
      1777469796,
      1777469796,
      1777470036,
      1777470036,
      1777470036,
      1777470036,
      1777470036,
      1777470036,
      1777470157,
      1777470217,
      1777470217,
      1777470217,
      1777470217,
      1777470337,
      1777470337,
      1777470337,
      1777470337,
      1777470337,
      1777470397,
      1777470397,
      1777470481,
      1777470517,
      1777470517,
      1777470517,
      1777470517,
      1777470517,
      1777470517,
      1777470722,
      1777470722,
      1777470722,
      1777470722,
      1777470757,
      1777470757,
      1777470757,
      1777470782,
      1777470782,
      1777470842,
      1777470842,
      1777470842,
      1777470962,
      1777470962,
      1777470962,
      1777470962,
      1777470962,
      1777470962,
      1777470962,
      1777471190,
      1777471190,
      1777471250,
      1777471250,
      1777471263,
      1777471263,
      1777471263,
      1777471310,
      1777471323,
      1777471323,
      1777471323,
      1777471323,
      1777471370,
      1777471370,
      1777471370,
      1777471383,
      1777471443,
      1777471443,
      1777471443,
      1777471443,
      1777471550,
      1777471550,
      1777471683,
      1777471683,
      1777471743,
      1777471743,
      1777471743,
      1777471743,
      1777471743,
      1777471803,
      1777471803,
      1777471803,
      1777472044,
      1777472044,
      1777472044,
      1777472044,
      1777472104,
      1777472104,
      1777472104,
      1777472155,
      1777472155,
      1777472164,
      1777472164,
      1777472164,
      1777472224,
      1777472224,
      1777472224,
      1777472395,
      1777472395,
      1777472395,
      1777472395,
      1777472395,
      1777472404,
      1777472404,
      1777472404,
      1777472404,
      1777472455,
      1777472455,
      1777472576,
      1777472576,
      1777472584,
      1777472584,
      1777472636,
      1777472636,
      1777472644,
      1777472644,
      1777472696,
      1777472696,
      1777472696,
      1777472696,
      1777472756,
      1777472765,
      1777472765,
      1777472765,
      1777472765,
      1777472765,
      1777472825,
      1777472825,
      1777472825,
      1777472885,
      1777472885,
      1777472945,
      1777472945,
      1777472945,
      1777472945,
      1777473177,
      1777473177,
      1777473177,
      1777473177,
      1777473177,
      1777473177,
      1777473177,
      1777473177,
      1777473417,
      1777473417,
      1777473417,
      1777473417,
      1777473417,
      1777473477,
      1777473477,
      1777473477,
      1777473537,
      1777473537,
      1777473537,
      1777473537,
      1777473537,
      1777473537,
      1777473657,
      1777473657,
      1777473657,
      1777473706,
      1777473706,
      1777473706,
      1777473706,
      1777473717,
      1777473717,
      1777473778,
      1777473778,
      1777473778,
      1777473778,
      1777473887,
      1777473887,
      1777473898,
      1777473947,
      1777473947,
      1777473947,
      1777473947,
      1777473947,
      1777474007,
      1777474007,
      1777474007,
      1777474007,
      1777474138,
      1777474138,
      1777474138,
      1777474138,
      1777474187,
      1777474187,
      1777474187,
      1777474187,
      1777474258,
      1777474258,
      1777474258,
      1777474307,
      1777474307,
      1777474307,
      1777474318,
      1777474318,
      1777474367,
      1777474367,
      1777474367,
      1777474367,
      1777474367,
      1777474427,
      1777474438,
      1777474438,
      1777474487,
      1777474487,
      1777474487,
      1777474487,
      1777474487,
      1777474559,
      1777474559,
      1777474559,
      1777474608,
      1777474608,
      1777474608,
      1777474668,
      1777474668,
      1777474679,
      1777474679,
      1777474679,
      1777474679,
      1777474739,
      1777474739,
      1777474848,
      1777474848,
      1777474848,
      1777474859,
      1777474859,
      1777474859,
      1777474908,
      1777474908,
      1777474908,
      1777474919,
      1777474919,
      1777474919,
      1777474979,
      1777475028,
      1777475028,
      1777475028,
      1777475028,
      1777475028,
      1777475028,
      1777475028,
      1777475028,
      1777475329,
      1777475329,
      1777475329,
      1777475329,
      1777475329,
      1777475449,
      1777475449,
      1777475449,
      1777475449,
      1777475509,
      1777475509,
      1777475509,
      1777475569,
      1777475569,
      1777475569,
      1777475689,
      1777475689,
      1777475689,
      1777475689,
      1777475805,
      1777475805,
      1777475805,
      1777475805,
      1777475805,
      1777475869,
      1777475869,
      1777475869,
      1777475869,
      1777475891,
      1777475891,
      1777475891,
      1777475891,
      1777475891,
      1777475891,
      1777475990,
      1777476012,
      1777476012,
      1777476012,
      1777476050,
      1777476050,
      1777476110,
      1777476110,
      1777476132,
      1777476132,
      1777476132,
      1777476132,
      1777476170,
      1777476190,
      1777476190,
      1777476190,
      1777476190,
      1777476251,
      1777476251,
      1777476251,
      1777476350,
      1777476350,
      1777476350,
      1777476350,
      1777476350,
      1777476410,
      1777476410,
      1777476432,
      1777476432,
      1777476493,
      1777476493,
      1777476493,
      1777476493,
      1777476493,
      1777476613,
      1777476613,
      1777476613,
      1777476613,
      1777476613,
      1777476613,
      1777476650,
      1777476650,
      1777476673,
      1777476673,
      1777476831,
      1777476831,
      1777476831,
      1777476831,
      1777476831,
      1777476831,
      1777476850,
      1777476850,
      1777476850,
      1777476850,
      1777476951,
      1777476951,
      1777476951,
      1777476951
    ],
    "wof:geomhash": "cc2cec6607efa9728c094684fe0ff726",
    "wof:id": 2031142613,
    "wof:repo": "sfomuseum-data-flights-2026-04"
  },
  "bbox": [
    -122.38472222222222,
    32.63333333333333,
    -97.05,
    38.488055555555555
  ],
  "geometry": {"coordinates":[[-122.36444444444444,37.80166666666666],[-122.36444444444444,37.80166666666666],[-122.36444444444444,37.80166666666666],[-122.36444444444444,37.80166666666666],[-122.36444444444444,37.80166666666666],[-122.36444444444444,37.80166666666666],[-122.38333333333334,37.85],[-122.38472222222222,37.87694444444445],[-122.38472222222222,37.87694444444445],[-122.38472222222222,37.87694444444445],[-122.38472222222222,37.87694444444445],[-121.69,37.990833333333335],[-121.69,37.990833333333335],[-121.69,37.990833333333335],[-121.69,37.990833333333335],[-121.69,37.990833333333335],[-121.69,37.990833333333335],[-121.69,37.990833333333335],[-121.24138888888889,37.99138888888889],[-121.24138888888889,37.99138888888889],[-121.24138888888889,37.99138888888889],[-121.24138888888889,37.99138888888889],[-121.08083333333333,37.995555555555555],[-121.08083333333333,37.995555555555555],[-121.08083333333333,37.995555555555555],[-120.27222222222223,38.117777777777775],[-120.27222222222223,38.117777777777775],[-120.27222222222223,38.117777777777775],[-120.27222222222223,38.117777777777775],[-120.27222222222223,38.117777777777775],[-119.88166666666666,38.17361111111111],[-119.88166666666666,38.17361111111111],[-119.88166666666666,38.17361111111111],[-119.88166666666666,38.17361111111111],[-119.88166666666666,38.17361111111111],[-119.71944444444445,38.19694444444444],[-119.71944444444445,38.19694444444444],[-119.71944444444445,38.19694444444444],[-119.71944444444445,38.19694444444444],[-119.6236111111111,38.21222222222222],[-119.55555555555556,38.220555555555556],[-119.55555555555556,38.220555555555556],[-119.55555555555556,38.220555555555556],[-119.55555555555556,38.220555555555556],[-119.45972222222223,38.23555555555556],[-119.39111111111112,38.24444444444445],[-119.39111111111112,38.24444444444445],[-119.29166666666667,38.259166666666665],[-119.29166666666667,38.259166666666665],[-119.29166666666667,38.259166666666665],[-119.1275,38.281666666666666],[-119.1275,38.281666666666666],[-118.79527777777777,38.32694444444445],[-118.72805555555556,38.33555555555556],[-118.72805555555556,38.33555555555556],[-118.72805555555556,38.33555555555556],[-118.56083333333333,38.358333333333334],[-118.56083333333333,38.358333333333334],[-118.39666666666668,38.38027777777778],[-118.39666666666668,38.38027777777778],[-118.39666666666668,38.38027777777778],[-118.39666666666668,38.38027777777778],[-117.92972222222222,38.44083333333333],[-117.92972222222222,38.44083333333333],[-117.92972222222222,38.44083333333333],[-117.86611111111111,38.448611111111106],[-117.86611111111111,38.448611111111106],[-117.86611111111111,38.448611111111106],[-117.86611111111111,38.448611111111106],[-117.55333333333333,38.488055555555555],[-117.55333333333333,38.488055555555555],[-117.55333333333333,38.488055555555555],[-117.55333333333333,38.488055555555555],[-117.55333333333333,38.488055555555555],[-116.74083333333333,38.472500000000004],[-116.74083333333333,38.472500000000004],[-116.74083333333333,38.472500000000004],[-116.6725,38.46666666666667],[-116.6725,38.46666666666667],[-116.6725,38.46666666666667],[-116.4961111111111,38.45138888888889],[-116.4961111111111,38.45138888888889],[-116.4961111111111,38.45138888888889],[-116.4961111111111,38.45138888888889],[-116.4961111111111,38.45138888888889],[-116.21111111111111,38.42666666666666],[-116.21111111111111,38.42666666666666],[-116.21111111111111,38.42666666666666],[-116.21111111111111,38.42666666666666],[-116.03194444444445,38.41027777777778],[-116.03194444444445,38.41027777777778],[-115.96361111111112,38.40416666666667],[-115.96361111111112,38.40416666666667],[-115.96361111111112,38.40416666666667],[-115.78388888888888,38.38777777777778],[-115.78388888888888,38.38777777777778],[-115.78388888888888,38.38777777777778],[-115.78388888888888,38.38777777777778],[-115.25138888888888,38.33722222222222],[-115.25138888888888,38.33722222222222],[-115.25138888888888,38.33722222222222],[-114.53472222222221,38.265],[-114.53472222222221,38.265],[-114.53472222222221,38.265],[-114.53472222222221,38.265],[-114.53472222222221,38.265],[-114.53472222222221,38.265],[-114.18555555555555,38.205000000000005],[-114.01027777777777,38.16638888888889],[-114.01027777777777,38.16638888888889],[-114.01027777777777,38.16638888888889],[-114.01027777777777,38.16638888888889],[-113.66000000000001,38.08861111111111],[-113.66000000000001,38.08861111111111],[-113.66000000000001,38.08861111111111],[-113.66000000000001,38.08861111111111],[-113.66000000000001,38.08861111111111],[-113.48472222222222,38.04972222222222],[-113.48472222222222,38.04972222222222],[-113.21305555555556,37.988055555555555],[-113.12805555555555,37.968611111111116],[-113.12805555555555,37.968611111111116],[-113.12805555555555,37.968611111111116],[-113.12805555555555,37.968611111111116],[-113.12805555555555,37.968611111111116],[-113.12805555555555,37.968611111111116],[-112.52361111111111,37.82833333333333],[-112.52361111111111,37.82833333333333],[-112.52361111111111,37.82833333333333],[-112.52361111111111,37.82833333333333],[-112.41638888888889,37.80333333333333],[-112.41638888888889,37.80333333333333],[-112.41638888888889,37.80333333333333],[-112.34944444444444,37.7875],[-112.34944444444444,37.7875],[-112.17222222222223,37.74527777777778],[-112.17222222222223,37.74527777777778],[-112.17222222222223,37.74527777777778],[-111.81916666666666,37.660555555555554],[-111.81916666666666,37.660555555555554],[-111.81916666666666,37.660555555555554],[-111.81916666666666,37.660555555555554],[-111.81916666666666,37.660555555555554],[-111.81916666666666,37.660555555555554],[-111.81916666666666,37.660555555555554],[-111.1438888888889,37.495],[-111.1438888888889,37.495],[-110.96722222222222,37.450833333333335],[-110.96722222222222,37.450833333333335],[-110.93305555555555,37.442499999999995],[-110.93305555555555,37.442499999999995],[-110.93305555555555,37.442499999999995],[-110.79166666666667,37.40694444444444],[-110.75611111111111,37.39805555555556],[-110.75611111111111,37.39805555555556],[-110.75611111111111,37.39805555555556],[-110.75611111111111,37.39805555555556],[-110.61166666666666,37.36138888888889],[-110.61166666666666,37.36138888888889],[-110.61166666666666,37.36138888888889],[-110.57777777777777,37.35277777777778],[-110.39888888888889,37.30722222222222],[-110.39888888888889,37.30722222222222],[-110.39888888888889,37.30722222222222],[-110.39888888888889,37.30722222222222],[-110.07694444444444,37.22416666666667],[-110.07694444444444,37.22416666666667],[-109.67555555555556,37.119166666666665],[-109.67555555555556,37.119166666666665],[-109.495,37.07138888888889],[-109.495,37.07138888888889],[-109.495,37.07138888888889],[-109.495,37.07138888888889],[-109.495,37.07138888888889],[-109.30972222222222,37.02194444444444],[-109.30972222222222,37.02194444444444],[-109.30972222222222,37.02194444444444],[-108.57694444444444,36.82333333333334],[-108.57694444444444,36.82333333333334],[-108.57694444444444,36.82333333333334],[-108.57694444444444,36.82333333333334],[-108.39305555555556,36.772777777777776],[-108.39305555555556,36.772777777777776],[-108.39305555555556,36.772777777777776],[-108.24972222222222,36.73305555555556],[-108.24972222222222,36.73305555555556],[-108.2125,36.72277777777778],[-108.2125,36.72277777777778],[-108.2125,36.72277777777778],[-108.03027777777778,36.67166666666667],[-108.03027777777778,36.67166666666667],[-108.03027777777778,36.67166666666667],[-107.525,36.52861111111111],[-107.525,36.52861111111111],[-107.525,36.52861111111111],[-107.525,36.52861111111111],[-107.525,36.52861111111111],[-107.48611111111111,36.5175],[-107.48611111111111,36.5175],[-107.48611111111111,36.5175],[-107.48611111111111,36.5175],[-107.34388888888888,36.4775],[-107.34388888888888,36.4775],[-106.96055555555556,36.41888888888889],[-106.96055555555556,36.41888888888889],[-106.92222222222223,36.413888888888884],[-106.92222222222223,36.413888888888884],[-106.76611111111112,36.393055555555556],[-106.76611111111112,36.393055555555556],[-106.72722222222222,36.38777777777778],[-106.72722222222222,36.38777777777778],[-106.57222222222222,36.36666666666667],[-106.57222222222222,36.36666666666667],[-106.57222222222222,36.36666666666667],[-106.57222222222222,36.36666666666667],[-106.3775,36.34],[-106.34833333333333,36.33583333333333],[-106.34833333333333,36.33583333333333],[-106.34833333333333,36.33583333333333],[-106.34833333333333,36.33583333333333],[-106.34833333333333,36.33583333333333],[-106.15166666666667,36.308611111111105],[-106.15166666666667,36.308611111111105],[-106.15166666666667,36.308611111111105],[-105.95555555555556,36.28],[-105.95555555555556,36.28],[-105.78055555555555,36.24138888888889],[-105.78055555555555,36.24138888888889],[-105.78055555555555,36.24138888888889],[-105.78055555555555,36.24138888888889],[-105.08805555555556,36.0825],[-105.08805555555556,36.0825],[-105.08805555555556,36.0825],[-105.08805555555556,36.0825],[-105.08805555555556,36.0825],[-105.08805555555556,36.0825],[-105.08805555555556,36.0825],[-105.08805555555556,36.0825],[-104.35638888888889,35.90861111111111],[-104.35638888888889,35.90861111111111],[-104.35638888888889,35.90861111111111],[-104.35638888888889,35.90861111111111],[-104.35638888888889,35.90861111111111],[-104.17416666666666,35.86472222222223],[-104.17416666666666,35.86472222222223],[-104.17416666666666,35.86472222222223],[-103.99555555555555,35.82138888888889],[-103.99555555555555,35.82138888888889],[-103.99555555555555,35.82138888888889],[-103.99555555555555,35.82138888888889],[-103.99555555555555,35.82138888888889],[-103.99555555555555,35.82138888888889],[-103.63277777777778,35.73222222222223],[-103.63277777777778,35.73222222222223],[-103.63277777777778,35.73222222222223],[-103.47583333333334,35.69166666666666],[-103.47583333333334,35.69166666666666],[-103.47583333333334,35.69166666666666],[-103.47583333333334,35.69166666666666],[-103.4525,35.6875],[-103.4525,35.6875],[-103.275,35.643055555555556],[-103.275,35.643055555555556],[-103.275,35.643055555555556],[-103.275,35.643055555555556],[-102.94694444444445,35.547777777777775],[-102.94694444444445,35.547777777777775],[-102.9238888888889,35.54],[-102.77722222222222,35.48972222222222],[-102.77722222222222,35.48972222222222],[-102.77722222222222,35.48972222222222],[-102.77722222222222,35.48972222222222],[-102.77722222222222,35.48972222222222],[-102.61,35.43194444444444],[-102.61,35.43194444444444],[-102.61,35.43194444444444],[-102.61,35.43194444444444],[-102.2363888888889,35.30138888888889],[-102.2363888888889,35.30138888888889],[-102.2363888888889,35.30138888888889],[-102.2363888888889,35.30138888888889],[-102.10138888888888,35.25388888888889],[-102.10138888888888,35.25388888888889],[-102.10138888888888,35.25388888888889],[-102.10138888888888,35.25388888888889],[-101.90333333333334,35.18416666666666],[-101.90333333333334,35.18416666666666],[-101.90333333333334,35.18416666666666],[-101.76583333333333,35.13527777777778],[-101.76583333333333,35.13527777777778],[-101.76583333333333,35.13527777777778],[-101.735,35.12416666666667],[-101.735,35.12416666666667],[-101.60444444444444,35.0775],[-101.60444444444444,35.0775],[-101.60444444444444,35.0775],[-101.60444444444444,35.0775],[-101.60444444444444,35.0775],[-101.43805555555556,35.01777777777777],[-101.39916666666667,35.00361111111111],[-101.39916666666667,35.00361111111111],[-101.27277777777778,34.95805555555556],[-101.27277777777778,34.95805555555556],[-101.27277777777778,34.95805555555556],[-101.27277777777778,34.95805555555556],[-101.27277777777778,34.95805555555556],[-101.07027777777778,34.88444444444444],[-101.07027777777778,34.88444444444444],[-101.07027777777778,34.88444444444444],[-100.90722222222223,34.825],[-100.90722222222223,34.825],[-100.90722222222223,34.825],[-100.74138888888889,34.76416666666667],[-100.74138888888889,34.76416666666667],[-100.73861111111111,34.76305555555555],[-100.73861111111111,34.76305555555555],[-100.73861111111111,34.76305555555555],[-100.73861111111111,34.76305555555555],[-100.57194444444444,34.70138888888889],[-100.57194444444444,34.70138888888889],[-100.26194444444444,34.58638888888889],[-100.26194444444444,34.58638888888889],[-100.26194444444444,34.58638888888889],[-100.24166666666667,34.578611111111115],[-100.24166666666667,34.578611111111115],[-100.24166666666667,34.578611111111115],[-100.09833333333333,34.525277777777774],[-100.09833333333333,34.525277777777774],[-100.09833333333333,34.525277777777774],[-100.07666666666667,34.51694444444444],[-100.07666666666667,34.51694444444444],[-100.07666666666667,34.51694444444444],[-99.91000000000001,34.45416666666667],[-99.7625,34.39833333333333],[-99.7625,34.39833333333333],[-99.7625,34.39833333333333],[-99.7625,34.39833333333333],[-99.7625,34.39833333333333],[-99.7625,34.39833333333333],[-99.7625,34.39833333333333],[-99.7625,34.39833333333333],[-98.97055555555556,34.03777777777778],[-98.97055555555556,34.03777777777778],[-98.97055555555556,34.03777777777778],[-98.97055555555556,34.03777777777778],[-98.97055555555556,34.03777777777778],[-98.66777777777779,33.89138888888889],[-98.66777777777779,33.89138888888889],[-98.66777777777779,33.89138888888889],[-98.66777777777779,33.89138888888889],[-98.52027777777778,33.81944444444445],[-98.52027777777778,33.81944444444445],[-98.52027777777778,33.81944444444445],[-98.37805555555555,33.749722222222225],[-98.37805555555555,33.749722222222225],[-98.37805555555555,33.749722222222225],[-98.1,33.61277777777778],[-98.1,33.61277777777778],[-98.1,33.61277777777778],[-98.1,33.61277777777778],[-97.83333333333333,33.483333333333334],[-97.83333333333333,33.483333333333334],[-97.83333333333333,33.483333333333334],[-97.83333333333333,33.483333333333334],[-97.83333333333333,33.483333333333334],[-97.70583333333333,33.41611111111111],[-97.70583333333333,33.41611111111111],[-97.70583333333333,33.41611111111111],[-97.70583333333333,33.41611111111111],[-97.66666666666667,33.4],[-97.66666666666667,33.4],[-97.66666666666667,33.4],[-97.66666666666667,33.4],[-97.66666666666667,33.4],[-97.66666666666667,33.4],[-97.50222222222222,33.26555555555556],[-97.46666666666667,33.233333333333334],[-97.46666666666667,33.233333333333334],[-97.46666666666667,33.233333333333334],[-97.41916666666667,33.19472222222222],[-97.41916666666667,33.19472222222222],[-97.34194444444444,33.12888888888889],[-97.34194444444444,33.12888888888889],[-97.31666666666666,33.1],[-97.31666666666666,33.1],[-97.31666666666666,33.1],[-97.31666666666666,33.1],[-97.26861111111111,33.06583333333333],[-97.25,33.05],[-97.25,33.05],[-97.25,33.05],[-97.25,33.05],[-97.18333333333334,32.983333333333334],[-97.18333333333334,32.983333333333334],[-97.18333333333334,32.983333333333334],[-97.165,32.87361111111111],[-97.165,32.87361111111111],[-97.165,32.87361111111111],[-97.165,32.87361111111111],[-97.165,32.87361111111111],[-97.16083333333334,32.808611111111105],[-97.16083333333334,32.808611111111105],[-97.16666666666667,32.78333333333333],[-97.16666666666667,32.78333333333333],[-97.16666666666667,32.733333333333334],[-97.16666666666667,32.733333333333334],[-97.16666666666667,32.733333333333334],[-97.16666666666667,32.733333333333334],[-97.16666666666667,32.733333333333334],[-97.1,32.63333333333333],[-97.1,32.63333333333333],[-97.1,32.63333333333333],[-97.1,32.63333333333333],[-97.1,32.63333333333333],[-97.1,32.63333333333333],[-97.07138888888889,32.65222222222222],[-97.07138888888889,32.65222222222222],[-97.06666666666666,32.666666666666664],[-97.06666666666666,32.666666666666664],[-97.05527777777777,32.79472222222222],[-97.05527777777777,32.79472222222222],[-97.05527777777777,32.79472222222222],[-97.05527777777777,32.79472222222222],[-97.05527777777777,32.79472222222222],[-97.05527777777777,32.79472222222222],[-97.05,32.8],[-97.05,32.8],[-97.05,32.8],[-97.05,32.8],[-97.05499999999999,32.86805555555556],[-97.05499999999999,32.86805555555556],[-97.05499999999999,32.86805555555556],[-97.05499999999999,32.86805555555556]],"type":"LineString"}
}
