{
  "id": 2015333597,
  "type": "Feature",
  "properties": {
    "geom:area": 0,
    "geom:bbox": "-122.404950,37.623500,-121.275310,37.991790",
    "geom:latitude": 37.93283685429953,
    "geom:longitude": -121.95514138309328,
    "src:alt_label": "swim-takeoff",
    "src:geom": "swim",
    "swim:elevations": [
      152,
      508,
      572,
      975,
      1256,
      1605,
      2241,
      2927,
      3125,
      3367,
      4133,
      4690,
      4955,
      5205,
      5565,
      5900,
      6485,
      6847,
      6895,
      7180,
      7471,
      7855,
      7937,
      8330,
      8636,
      8804,
      8952,
      9066,
      9113,
      9296
    ],
    "swim:geom": "takeoff",
    "swim:timestamps": [
      1776640585,
      1776640618,
      1776640628,
      1776640660,
      1776640682,
      1776640712,
      1776640757,
      1776640798,
      1776640810,
      1776640838,
      1776640885,
      1776640915,
      1776640929,
      1776640946,
      1776640973,
      1776640995,
      1776641035,
      1776641067,
      1776641072,
      1776641097,
      1776641122,
      1776641156,
      1776641163,
      1776641196,
      1776641229,
      1776641251,
      1776641269,
      1776641283,
      1776641289,
      1776641312
    ],
    "wof:geomhash": "798097d922a06975184479c2393f8d44",
    "wof:id": 2015333597,
    "wof:repo": "sfomuseum-data-flights-2026-04"
  },
  "bbox": [
    -122.40495,
    37.6235,
    -121.27531,
    37.99179
  ],
  "geometry": {"coordinates":[[-122.38686,37.6235],[-122.40495,37.64585],[-122.40194,37.65557],[-122.37515,37.68409],[-122.35537,37.70362],[-122.3405,37.73967],[-122.36329,37.79869],[-122.38476,37.856],[-122.38566,37.87378],[-122.37642,37.91597],[-122.3001,37.95691],[-122.24091,37.96819],[-122.21211,37.97384],[-122.17779,37.9806],[-122.12162,37.98667],[-122.07334,37.98735],[-121.98298,37.98904],[-121.90857,37.98969],[-121.89792,37.98974],[-121.83583,37.99011],[-121.77596,37.99036],[-121.68989,37.99094],[-121.67197,37.99084],[-121.58745,37.99101],[-121.50186,37.99126],[-121.44263,37.99141],[-121.39411,37.99153],[-121.35681,37.99179],[-121.34018,37.99174],[-121.27531,37.99159]],"type":"LineString"}
}
