{
  "id": 2031122047,
  "type": "Feature",
  "properties": {
    "geom:area": 0,
    "geom:bbox": "-122.500000,27.813333,-82.544722,37.666667",
    "geom:latitude": 31.82538785433972,
    "geom:longitude": -102.86922945630597,
    "src:alt_label": "swim-path",
    "src:geom": "swim",
    "swim:altitudes": [
      "040",
      "040",
      "040",
      "179",
      "179",
      "179",
      "215",
      "247",
      "247",
      "247",
      "260",
      "260",
      "260",
      "303",
      "303",
      "303",
      "337",
      "337",
      "337",
      "337",
      "337",
      "350C",
      "350C",
      "350C",
      "350C",
      "350C",
      "350C",
      "350C",
      "350C",
      "350C",
      "350C",
      "350C",
      "350C",
      "350C",
      "350C",
      "350C",
      "350C",
      "350C",
      "350C",
      "350C",
      "350C",
      "350C",
      "350C",
      "350C",
      "350C",
      "350C",
      "350C",
      "350C",
      "350C",
      "350C",
      "350C",
      "350C",
      "350C",
      "350C",
      "350C",
      "350C",
      "350C",
      "350C",
      "350C",
      "350C",
      "350C",
      "350C",
      "350C",
      "350C",
      "350C",
      "350C",
      "350C",
      "350C",
      "350C",
      "350C",
      "350C",
      "350C",
      "350C",
      "350C",
      "350C",
      "350C",
      "350C",
      "350C",
      "350C",
      "350C",
      "350C",
      "350C",
      "350C",
      "350C",
      "350C",
      "350C",
      "350C",
      "350C",
      "350C",
      "350C",
      "350C",
      "350C",
      "350C",
      "350C",
      "350C",
      "350C",
      "350C",
      "350C",
      "350C",
      "350C",
      "350C",
      "350C",
      "350C",
      "350C",
      "350C",
      "350C",
      "350C",
      "350C",
      "350C",
      "350C",
      "350C",
      "350C",
      "350C",
      "350C",
      "350C",
      "350C",
      "350C",
      "350C",
      "350C",
      "350C",
      "350C",
      "350C",
      "350C",
      "350C",
      "350C",
      "350C",
      "350C",
      "350C",
      "350C",
      "350C",
      "350C",
      "350C",
      "350C",
      "350C",
      "350C",
      "350C",
      "350C",
      "350C",
      "350C",
      "350C",
      "350C",
      "350C",
      "350C",
      "350C",
      "350C",
      "350C",
      "350C",
      "350C",
      "350C",
      "350C",
      "350C",
      "350C",
      "350C",
      "350C",
      "350C",
      "350C",
      "350C",
      "350C",
      "350C",
      "350C",
      "350C",
      "350C",
      "350C",
      "350C",
      "350C",
      "350C",
      "350C",
      "350C",
      "350C",
      "350C",
      "350C",
      "350C",
      "350C",
      "350C",
      "350C",
      "350C",
      "350C",
      "350C",
      "350C",
      "350C",
      "350C",
      "350C",
      "350C",
      "350C",
      "350C",
      "350C",
      "350C",
      "350C",
      "350C",
      "350C",
      "350C",
      "350C",
      "350C",
      "350C",
      "350C",
      "350C",
      "350C",
      "350C",
      "350C",
      "350C",
      "350C",
      "350C",
      "350C",
      "350C",
      "350C",
      "350C",
      "350C",
      "350C",
      "350C",
      "350C",
      "350C",
      "350C",
      "350C",
      "350C",
      "350C",
      "350C",
      "350C",
      "350C",
      "350C",
      "350C",
      "350C",
      "350C",
      "350C",
      "350C",
      "350C",
      "350C",
      "350C",
      "350C",
      "348",
      "348",
      "313",
      "313",
      "251",
      "244",
      "234",
      "230",
      "220",
      "130",
      "130",
      "118",
      "100",
      "100",
      "060",
      "060",
      "026",
      "013"
    ],
    "swim:geom": "path",
    "swim:speeds": [
      235,
      235,
      235,
      369,
      369,
      369,
      394,
      415,
      415,
      415,
      426,
      426,
      426,
      450,
      450,
      450,
      478,
      478,
      478,
      478,
      478,
      481,
      481,
      481,
      481,
      481,
      489,
      489,
      491,
      491,
      493,
      493,
      493,
      493,
      512,
      529,
      529,
      529,
      531,
      531,
      531,
      531,
      533,
      533,
      536,
      536,
      536,
      536,
      536,
      536,
      537,
      537,
      537,
      537,
      537,
      537,
      537,
      532,
      532,
      532,
      532,
      532,
      532,
      531,
      531,
      531,
      531,
      536,
      536,
      536,
      535,
      535,
      535,
      535,
      535,
      536,
      536,
      538,
      540,
      547,
      548,
      548,
      548,
      534,
      534,
      534,
      531,
      537,
      537,
      537,
      537,
      535,
      535,
      535,
      535,
      535,
      531,
      531,
      532,
      532,
      530,
      532,
      526,
      525,
      525,
      525,
      525,
      541,
      538,
      538,
      537,
      535,
      538,
      536,
      535,
      536,
      537,
      537,
      537,
      538,
      540,
      541,
      541,
      542,
      543,
      543,
      542,
      542,
      542,
      542,
      536,
      536,
      536,
      535,
      535,
      537,
      537,
      537,
      537,
      537,
      537,
      536,
      536,
      533,
      533,
      530,
      530,
      530,
      530,
      525,
      523,
      523,
      523,
      524,
      524,
      527,
      527,
      528,
      528,
      528,
      527,
      527,
      526,
      526,
      526,
      526,
      526,
      526,
      522,
      522,
      517,
      517,
      517,
      516,
      516,
      519,
      519,
      519,
      519,
      519,
      519,
      518,
      518,
      518,
      517,
      517,
      517,
      517,
      517,
      517,
      517,
      517,
      517,
      516,
      517,
      516,
      516,
      516,
      516,
      522,
      522,
      515,
      514,
      512,
      512,
      512,
      511,
      513,
      511,
      512,
      512,
      513,
      513,
      513,
      513,
      513,
      512,
      513,
      511,
      509,
      509,
      503,
      502,
      502,
      502,
      500,
      499,
      498,
      491,
      491,
      487,
      487,
      471,
      471,
      470,
      467,
      461,
      376,
      376,
      370,
      300,
      300,
      256,
      256,
      188,
      149
    ],
    "swim:timestamps": [
      1777264316,
      1777264316,
      1777264316,
      1777264697,
      1777264697,
      1777264697,
      1777264817,
      1777264938,
      1777264938,
      1777264938,
      1777264998,
      1777264998,
      1777264998,
      1777265238,
      1777265238,
      1777265238,
      1777265478,
      1777265478,
      1777265478,
      1777265478,
      1777265478,
      1777265779,
      1777265779,
      1777265779,
      1777265779,
      1777265779,
      1777266078,
      1777266078,
      1777266139,
      1777266139,
      1777266258,
      1777266258,
      1777266258,
      1777266258,
      1777266620,
      1777266740,
      1777266740,
      1777266740,
      1777266801,
      1777266801,
      1777266801,
      1777266801,
      1777266981,
      1777266981,
      1777267161,
      1777267161,
      1777267161,
      1777267221,
      1777267221,
      1777267221,
      1777267281,
      1777267281,
      1777267341,
      1777267341,
      1777267401,
      1777267401,
      1777267545,
      1777267605,
      1777267605,
      1777267605,
      1777267605,
      1777267605,
      1777267605,
      1777267665,
      1777267665,
      1777267665,
      1777267665,
      1777267822,
      1777267942,
      1777267942,
      1777267965,
      1777267965,
      1777268002,
      1777268002,
      1777268002,
      1777268087,
      1777268087,
      1777268147,
      1777268207,
      1777268387,
      1777268506,
      1777268506,
      1777268566,
      1777268927,
      1777268927,
      1777268927,
      1777269048,
      1777269348,
      1777269348,
      1777269348,
      1777269348,
      1777269409,
      1777269469,
      1777269529,
      1777269529,
      1777269529,
      1777269890,
      1777269890,
      1777269950,
      1777270070,
      1777270128,
      1777270248,
      1777270428,
      1777270488,
      1777270488,
      1777270488,
      1777270729,
      1777270849,
      1777270968,
      1777270968,
      1777271211,
      1777271329,
      1777271348,
      1777271468,
      1777271509,
      1777271629,
      1777271691,
      1777271751,
      1777271751,
      1777271812,
      1777272128,
      1777272188,
      1777272188,
      1777272291,
      1777272308,
      1777272308,
      1777272351,
      1777272351,
      1777272351,
      1777272368,
      1777272548,
      1777272608,
      1777272608,
      1777272728,
      1777272728,
      1777272848,
      1777272848,
      1777272908,
      1777272908,
      1777273028,
      1777273028,
      1777273088,
      1777273088,
      1777273268,
      1777273268,
      1777273448,
      1777273448,
      1777273448,
      1777273448,
      1777273689,
      1777273869,
      1777273869,
      1777273869,
      1777273929,
      1777273929,
      1777274049,
      1777274049,
      1777274109,
      1777274109,
      1777274109,
      1777274289,
      1777274349,
      1777274409,
      1777274409,
      1777274409,
      1777274409,
      1777274469,
      1777274589,
      1777274709,
      1777274709,
      1777274769,
      1777274769,
      1777274769,
      1777274889,
      1777274889,
      1777275189,
      1777275249,
      1777275249,
      1777275249,
      1777275369,
      1777275369,
      1777275489,
      1777275489,
      1777275549,
      1777275609,
      1777275669,
      1777275669,
      1777275669,
      1777275789,
      1777275789,
      1777275789,
      1777275909,
      1777275909,
      1777276029,
      1777276089,
      1777276149,
      1777276149,
      1777276149,
      1777276209,
      1777276235,
      1777276235,
      1777276269,
      1777276330,
      1777276450,
      1777276450,
      1777276450,
      1777276510,
      1777276535,
      1777276570,
      1777276630,
      1777276630,
      1777276655,
      1777276655,
      1777276715,
      1777276715,
      1777276715,
      1777276750,
      1777276775,
      1777276810,
      1777276930,
      1777276930,
      1777277255,
      1777277290,
      1777277290,
      1777277290,
      1777277650,
      1777277770,
      1777277855,
      1777278095,
      1777278095,
      1777278319,
      1777278319,
      1777278696,
      1777278740,
      1777278800,
      1777278816,
      1777278876,
      1777279236,
      1777279236,
      1777279280,
      1777279520,
      1777279520,
      1777279760,
      1777279760,
      1777279941,
      1777280061
    ],
    "wof:geomhash": "2242d02e0e6d770d52248d5bc6bff297",
    "wof:id": 2031122047,
    "wof:repo": "sfomuseum-data-flights-2026-04"
  },
  "bbox": [
    -122.5,
    27.813333333333333,
    -82.54472222222222,
    37.666666666666664
  ],
  "geometry": {"coordinates":[[-122.5,37.666666666666664],[-122.5,37.666666666666664],[-122.5,37.666666666666664],[-122.10972222222222,37.26694444444444],[-122.10972222222222,37.26694444444444],[-122.10972222222222,37.26694444444444],[-121.89888888888889,37.12638888888889],[-121.67472222222223,36.97777777777778],[-121.67472222222223,36.97777777777778],[-121.67472222222223,36.97777777777778],[-121.56083333333333,36.9],[-121.56083333333333,36.9],[-121.56083333333333,36.9],[-121.13083333333333,36.54138888888889],[-121.13083333333333,36.54138888888889],[-121.13083333333333,36.54138888888889],[-120.68111111111112,36.15694444444444],[-120.68111111111112,36.15694444444444],[-120.68111111111112,36.15694444444444],[-120.68111111111112,36.15694444444444],[-120.68111111111112,36.15694444444444],[-120.06166666666667,35.75],[-120.06166666666667,35.75],[-120.06166666666667,35.75],[-120.06166666666667,35.75],[-120.06166666666667,35.75],[-119.37666666666667,35.37083333333334],[-119.37666666666667,35.37083333333334],[-119.22833333333334,35.31777777777778],[-119.22833333333334,35.31777777777778],[-118.91583333333334,35.205000000000005],[-118.91583333333334,35.205000000000005],[-118.91583333333334,35.205000000000005],[-118.91583333333334,35.205000000000005],[-117.95861111111111,34.853611111111114],[-117.61333333333333,34.80333333333333],[-117.61333333333333,34.80333333333333],[-117.61333333333333,34.80333333333333],[-117.43777777777778,34.78138888888889],[-117.43777777777778,34.78138888888889],[-117.43777777777778,34.78138888888889],[-117.43777777777778,34.78138888888889],[-116.90416666666667,34.71361111111111],[-116.90416666666667,34.71361111111111],[-116.36833333333333,34.6425],[-116.36833333333333,34.6425],[-116.36833333333333,34.6425],[-116.19055555555556,34.618611111111115],[-116.19055555555556,34.618611111111115],[-116.19055555555556,34.618611111111115],[-116.01055555555556,34.593611111111116],[-116.01055555555556,34.593611111111116],[-115.83222222222221,34.56916666666667],[-115.83222222222221,34.56916666666667],[-115.65333333333334,34.54388888888889],[-115.65333333333334,34.54388888888889],[-115.23472222222222,34.48527777777778],[-115.06333333333333,34.45916666666667],[-115.06333333333333,34.45916666666667],[-115.06333333333333,34.45916666666667],[-115.06333333333333,34.45916666666667],[-115.06333333333333,34.45916666666667],[-115.06333333333333,34.45916666666667],[-114.8875,34.433611111111105],[-114.8875,34.433611111111105],[-114.8875,34.433611111111105],[-114.8875,34.433611111111105],[-114.40333333333334,34.36138888888889],[-114.04972222222221,34.30722222222222],[-114.04972222222221,34.30722222222222],[-114.00333333333333,34.3],[-114.00333333333333,34.3],[-113.87222222222222,34.279444444444444],[-113.87222222222222,34.279444444444444],[-113.87222222222222,34.279444444444444],[-113.65138888888889,34.245],[-113.65138888888889,34.245],[-113.45361111111112,34.21361111111111],[-113.27305555555556,34.18444444444444],[-112.73777777777778,34.09666666666667],[-112.37805555555555,34.03611111111111],[-112.37805555555555,34.03611111111111],[-112.1975,34.005],[-111.15527777777778,33.785555555555554],[-111.15527777777778,33.785555555555554],[-111.15527777777778,33.785555555555554],[-110.83333333333333,33.66361111111111],[-110.02166666666666,33.352222222222224],[-110.02166666666666,33.352222222222224],[-110.02166666666666,33.352222222222224],[-110.02166666666666,33.352222222222224],[-109.86222222222221,33.28972222222222],[-109.70083333333334,33.22666666666667],[-109.5425,33.16416666666667],[-109.5425,33.16416666666667],[-109.5425,33.16416666666667],[-108.57249999999999,32.77611111111111],[-108.57249999999999,32.77611111111111],[-108.41277777777778,32.711111111111116],[-108.1,32.583333333333336],[-107.94444444444444,32.51888888888889],[-107.61999999999999,32.38444444444444],[-107.15472222222223,32.18888888888888],[-107.01083333333334,32.128055555555555],[-107.01083333333334,32.128055555555555],[-107.01083333333334,32.128055555555555],[-106.4,31.866666666666667],[-106.06027777777777,31.794444444444448],[-105.71305555555556,31.759444444444444],[-105.71305555555556,31.759444444444444],[-105.0075,31.685833333333335],[-104.69361111111111,31.651666666666664],[-104.61611111111111,31.644166666666667],[-104.2713888888889,31.605833333333333],[-104.17333333333333,31.593333333333334],[-103.82583333333334,31.553611111111113],[-103.64333333333335,31.53222222222222],[-103.46972222222223,31.511111111111113],[-103.46972222222223,31.511111111111113],[-103.295,31.490000000000002],[-102.35499999999999,31.373055555555556],[-102.21083333333334,31.354166666666668],[-102.21083333333334,31.354166666666668],[-101.91416666666667,31.31416666666667],[-101.85527777777777,31.305833333333332],[-101.85527777777777,31.305833333333332],[-101.71444444444445,31.28666666666667],[-101.71444444444445,31.28666666666667],[-101.71444444444445,31.28666666666667],[-101.68083333333334,31.281944444444445],[-101.16861111111112,31.209722222222222],[-100.98444444444445,31.183611111111112],[-100.98444444444445,31.183611111111112],[-100.64222222222223,31.133888888888887],[-100.64222222222223,31.133888888888887],[-100.29805555555555,31.08277777777778],[-100.29805555555555,31.08277777777778],[-100.12833333333333,31.0575],[-100.12833333333333,31.0575],[-99.78472222222221,31.005],[-99.78472222222221,31.005],[-99.61305555555555,30.97833333333333],[-99.61305555555555,30.97833333333333],[-99.10305555555556,30.898055555555555],[-99.10305555555556,30.898055555555555],[-98.59805555555555,30.816666666666666],[-98.59805555555555,30.816666666666666],[-98.59805555555555,30.816666666666666],[-98.59805555555555,30.816666666666666],[-97.93388888888889,30.70611111111111],[-97.44444444444444,30.622222222222224],[-97.44444444444444,30.622222222222224],[-97.44444444444444,30.622222222222224],[-97.27833333333334,30.593055555555555],[-97.27833333333334,30.593055555555555],[-96.94972222222222,30.53527777777778],[-96.94972222222222,30.53527777777778],[-96.785,30.50611111111111],[-96.785,30.50611111111111],[-96.785,30.50611111111111],[-96.28722222222223,30.41611111111111],[-96.12444444444444,30.385833333333334],[-95.95583333333333,30.355],[-95.95583333333333,30.355],[-95.95583333333333,30.355],[-95.95583333333333,30.355],[-95.78972222222222,30.324166666666667],[-95.45916666666668,30.261944444444445],[-95.12972222222221,30.198611111111113],[-95.12972222222221,30.198611111111113],[-94.96555555555555,30.166666666666668],[-94.96555555555555,30.166666666666668],[-94.96555555555555,30.166666666666668],[-94.64333333333335,30.104166666666668],[-94.64333333333335,30.104166666666668],[-93.83138888888888,29.94388888888889],[-93.67083333333333,29.911666666666665],[-93.67083333333333,29.911666666666665],[-93.67083333333333,29.911666666666665],[-93.35027777777778,29.84722222222222],[-93.35027777777778,29.84722222222222],[-93.02972222222222,29.781388888888888],[-93.02972222222222,29.781388888888888],[-92.86861111111111,29.748333333333335],[-92.70833333333334,29.71527777777778],[-92.54666666666667,29.68111111111111],[-92.54666666666667,29.68111111111111],[-92.54666666666667,29.68111111111111],[-92.22777777777777,29.61416666666667],[-92.22777777777777,29.61416666666667],[-92.22777777777777,29.61416666666667],[-91.90666666666667,29.545555555555556],[-91.90666666666667,29.545555555555556],[-91.60305555555556,29.47972222222222],[-91.44444444444444,29.44527777777778],[-91.28611111111111,29.410555555555554],[-91.28611111111111,29.410555555555554],[-91.28611111111111,29.410555555555554],[-91.12583333333333,29.37527777777778],[-91.04527777777777,29.351666666666667],[-91.04527777777777,29.351666666666667],[-90.97,29.340555555555554],[-90.81166666666667,29.305],[-90.46611111111112,29.22722222222222],[-90.46611111111112,29.22722222222222],[-90.46611111111112,29.22722222222222],[-90.31138888888889,29.191666666666666],[-90.26138888888889,29.178055555555556],[-90.15527777777778,29.15611111111111],[-89.99638888888889,29.119722222222222],[-89.99638888888889,29.119722222222222],[-89.94694444444445,29.105833333333333],[-89.94694444444445,29.105833333333333],[-89.78972222222222,29.069444444444443],[-89.78972222222222,29.069444444444443],[-89.78972222222222,29.069444444444443],[-89.68583333333333,29.047777777777778],[-89.63416666666667,29.034166666666668],[-89.52805555555555,29.010833333333334],[-89.21888888888888,28.93722222222222],[-89.21888888888888,28.93722222222222],[-88.40583333333333,28.741111111111113],[-88.29888888888888,28.71527777777778],[-88.29888888888888,28.71527777777778],[-88.29888888888888,28.71527777777778],[-87.3888888888889,28.49888888888889],[-87.07777777777777,28.460555555555555],[-86.86222222222221,28.433333333333334],[-86.2525,28.35527777777778],[-86.2525,28.35527777777778],[-85.71666666666667,28.28388888888889],[-85.71666666666667,28.28388888888889],[-84.79277777777777,28.154999999999998],[-84.69222222222223,28.140555555555554],[-84.5475,28.12],[-84.48944444444444,28.111666666666668],[-84.35805555555555,28.092499999999998],[-83.59138888888889,27.97861111111111],[-83.59138888888889,27.97861111111111],[-83.5,27.966666666666665],[-83.1,27.95],[-83.1,27.95],[-82.76638888888888,27.861111111111114],[-82.76638888888888,27.861111111111114],[-82.57305555555556,27.813333333333333],[-82.54472222222222,27.8975]],"type":"LineString"}
}
