{
  "id": 2031092273,
  "type": "Feature",
  "properties": {
    "geom:area": 0,
    "geom:bbox": "-122.350000,24.987500,-96.957500,37.696667",
    "geom:latitude": 32.82796048504205,
    "geom:longitude": -108.92149068674475,
    "src:alt_label": "swim-path",
    "src:geom": "swim",
    "swim:altitudes": [
      "310C",
      "310C",
      "310C",
      "310C",
      "310C",
      "310",
      "310",
      "310",
      "310",
      "320C",
      "314",
      "300C",
      "300C",
      "300C",
      "300C",
      "300C",
      "300C",
      "300C",
      "300C",
      "300C",
      "300C",
      "300C",
      "300C",
      "300C",
      "300C",
      "300C",
      "300C",
      "300C",
      "300C",
      "300C",
      "300C",
      "300C",
      "300C",
      "300C",
      "300C",
      "300C",
      "300C",
      "300C",
      "300C",
      "300C",
      "300C",
      "300C",
      "300C",
      "300C",
      "300C",
      "300C",
      "300C",
      "300C",
      "300C",
      "300C",
      "300C",
      "300C",
      "300C",
      "300C",
      "300C",
      "300C",
      "300C",
      "300C",
      "300C",
      "300C",
      "300C",
      "300C",
      "300C",
      "300C",
      "300C",
      "300C",
      "300C",
      "300C",
      "300C",
      "300C",
      "300C",
      "300C",
      "300C",
      "300C",
      "300C",
      "300C",
      "300C",
      "300C",
      "300C",
      "300C",
      "300C",
      "300C",
      "300C",
      "300C",
      "300C",
      "300C",
      "300C",
      "300C",
      "300C",
      "300C",
      "300C",
      "300C",
      "300C",
      "300C",
      "300C",
      "300C",
      "300C",
      "300C",
      "300C",
      "300C",
      "300C",
      "300C",
      "300C",
      "300C",
      "300C",
      "300C",
      "300C",
      "300C",
      "300C",
      "300C",
      "300C",
      "300C",
      "300C",
      "300C",
      "300C",
      "300C",
      "300C",
      "300C",
      "300C",
      "300C",
      "300C",
      "300C",
      "300C",
      "300C",
      "300C",
      "300C",
      "300C",
      "300C",
      "300C",
      "300C",
      "300C",
      "300C",
      "300C",
      "300C",
      "300C",
      "300C",
      "300C",
      "300C",
      "300C",
      "300C",
      "300C",
      "300C",
      "300C",
      "300",
      "296",
      "229",
      "121",
      "078",
      "042",
      "026",
      "013",
      "002"
    ],
    "swim:geom": "path",
    "swim:speeds": [
      433,
      433,
      428,
      428,
      426,
      428,
      428,
      429,
      429,
      425,
      424,
      436,
      436,
      437,
      437,
      429,
      427,
      425,
      426,
      426,
      427,
      427,
      427,
      426,
      425,
      425,
      417,
      417,
      417,
      419,
      415,
      413,
      414,
      415,
      415,
      400,
      396,
      397,
      399,
      401,
      401,
      401,
      403,
      405,
      405,
      408,
      408,
      398,
      398,
      393,
      391,
      391,
      388,
      388,
      389,
      389,
      393,
      393,
      403,
      403,
      407,
      407,
      414,
      417,
      417,
      419,
      421,
      421,
      428,
      427,
      427,
      429,
      431,
      431,
      431,
      428,
      428,
      427,
      427,
      421,
      421,
      416,
      417,
      415,
      415,
      416,
      414,
      416,
      416,
      413,
      413,
      415,
      432,
      429,
      429,
      432,
      432,
      427,
      431,
      431,
      424,
      424,
      424,
      423,
      423,
      421,
      421,
      421,
      421,
      420,
      420,
      417,
      417,
      418,
      419,
      419,
      419,
      419,
      419,
      419,
      419,
      419,
      419,
      419,
      421,
      421,
      422,
      422,
      424,
      425,
      426,
      426,
      426,
      418,
      420,
      421,
      435,
      365,
      338,
      347,
      349,
      354,
      356,
      386,
      383,
      374,
      338,
      216,
      171,
      163,
      148,
      142
    ],
    "swim:timestamps": [
      1776988588,
      1776988588,
      1776988828,
      1776988828,
      1776989008,
      1776989129,
      1776989129,
      1776989429,
      1776989429,
      1776989609,
      1776989729,
      1776989910,
      1776989910,
      1776990030,
      1776990030,
      1776990270,
      1776990330,
      1776990390,
      1776990571,
      1776990571,
      1776990691,
      1776990871,
      1776990931,
      1776991111,
      1776991232,
      1776991232,
      1776991472,
      1776991472,
      1776991592,
      1776991652,
      1776991827,
      1776991893,
      1776992133,
      1776992187,
      1776992187,
      1776992433,
      1776992554,
      1776992614,
      1776992674,
      1776992728,
      1776992734,
      1776992734,
      1776992848,
      1776992968,
      1776992968,
      1776993089,
      1776993089,
      1776993509,
      1776993509,
      1776993689,
      1776993750,
      1776993750,
      1776993810,
      1776993870,
      1776993930,
      1776993930,
      1776994170,
      1776994170,
      1776994411,
      1776994411,
      1776994531,
      1776994531,
      1776994651,
      1776994771,
      1776994771,
      1776994891,
      1776994951,
      1776994951,
      1776995072,
      1776995132,
      1776995132,
      1776995252,
      1776995312,
      1776995312,
      1776995432,
      1776995552,
      1776995552,
      1776995612,
      1776995612,
      1776995973,
      1776995973,
      1776996056,
      1776996093,
      1776996153,
      1776996153,
      1776996176,
      1776996274,
      1776996296,
      1776996296,
      1776996454,
      1776996454,
      1776996537,
      1776996597,
      1776996634,
      1776996634,
      1776996657,
      1776996717,
      1776996754,
      1776996777,
      1776996777,
      1776996874,
      1776996874,
      1776996897,
      1776996935,
      1776996958,
      1776996995,
      1776996995,
      1776997055,
      1776997078,
      1776997138,
      1776997138,
      1776997295,
      1776997295,
      1776997355,
      1776997378,
      1776997415,
      1776997415,
      1776997535,
      1776997558,
      1776997558,
      1776997619,
      1776997739,
      1776997776,
      1776997836,
      1776997919,
      1776997919,
      1776997979,
      1776997979,
      1776998099,
      1776998159,
      1776998219,
      1776998219,
      1776998340,
      1776998700,
      1776998881,
      1776999277,
      1776999517,
      1776999698,
      1776999998,
      1777000058,
      1777000263,
      1777000623,
      1777001019,
      1777001237,
      1777001319,
      1777001500,
      1777001819,
      1777002100,
      1777002299,
      1777002420,
      1777002521,
      1777002600
    ],
    "wof:geomhash": "9b1f871bff650b361b2ac90962e00d57",
    "wof:id": 2031092273,
    "wof:repo": "sfomuseum-data-flights-2026-04"
  },
  "bbox": [
    -122.35,
    24.9875,
    -96.9575,
    37.696666666666665
  ],
  "geometry": {"coordinates":[[-96.9575,24.9875],[-96.9575,24.9875],[-97.27388888888889,25.36777777777778],[-97.27388888888889,25.36777777777778],[-97.51527777777778,25.655555555555555],[-97.6763888888889,25.846666666666664],[-97.6763888888889,25.846666666666664],[-98.0775,26.31833333333333],[-98.0775,26.31833333333333],[-98.32111111111111,26.602500000000003],[-98.48111111111112,26.78888888888889],[-98.7286111111111,27.074444444444445],[-98.7286111111111,27.074444444444445],[-98.89611111111111,27.26638888888889],[-98.89611111111111,27.26638888888889],[-99.23416666666667,27.651944444444442],[-99.31694444444445,27.745833333333334],[-99.39888888888889,27.83861111111111],[-99.64722222222223,28.118333333333332],[-99.64722222222223,28.118333333333332],[-99.81388888888888,28.305],[-100.06472222222222,28.583888888888886],[-100.14472222222223,28.672777777777778],[-100.39694444444446,28.950833333333332],[-100.56583333333333,29.13611111111111],[-100.56583333333333,29.13611111111111],[-100.92777777777778,29.481388888888887],[-100.92777777777778,29.481388888888887],[-101.12722222222222,29.634722222222223],[-101.22972222222222,29.713055555555556],[-101.52972222222222,29.911666666666665],[-101.66805555555555,29.970555555555553],[-102.14694444444446,30.173055555555557],[-102.24333333333334,30.21361111111111],[-102.24333333333334,30.21361111111111],[-102.7375,30.419444444444444],[-102.96611111111112,30.51361111111111],[-103.08444444444444,30.56222222222222],[-103.20055555555555,30.609722222222224],[-103.29555555555555,30.648611111111112],[-103.31833333333333,30.657777777777778],[-103.31833333333333,30.657777777777778],[-103.53166666666667,30.744444444444447],[-103.77083333333333,30.840833333333332],[-103.77083333333333,30.840833333333332],[-104.00944444444444,30.936666666666667],[-104.00944444444444,30.936666666666667],[-104.83722222222222,31.263333333333332],[-104.83722222222222,31.263333333333332],[-105.18333333333334,31.397777777777776],[-105.29722222222222,31.441944444444445],[-105.29722222222222,31.441944444444445],[-105.43416666666667,31.494444444444447],[-105.54861111111111,31.538333333333334],[-105.66472222222222,31.58277777777778],[-105.66472222222222,31.58277777777778],[-106.13,31.75888888888889],[-106.13,31.75888888888889],[-106.57722222222222,31.985833333333336],[-106.57722222222222,31.985833333333336],[-106.79888888888888,32.11277777777778],[-106.79888888888888,32.11277777777778],[-107.02416666666666,32.24055555555556],[-107.25583333333333,32.37166666666667],[-107.25583333333333,32.37166666666667],[-107.4863888888889,32.50111111111111],[-107.58527777777778,32.55611111111111],[-107.58527777777778,32.55611111111111],[-107.82055555555556,32.68722222222222],[-107.9388888888889,32.75277777777778],[-107.9388888888889,32.75277777777778],[-108.17944444444444,32.885555555555555],[-108.29944444444445,32.95138888888889],[-108.29944444444445,32.95138888888889],[-108.53694444444444,33.08111111111111],[-108.79527777777777,33.221111111111114],[-108.79527777777777,33.221111111111114],[-108.91472222222222,33.285555555555554],[-108.91472222222222,33.285555555555554],[-109.62222222222222,33.66305555555555],[-109.62222222222222,33.66305555555555],[-109.78555555555555,33.75],[-109.8561111111111,33.78611111111111],[-109.97444444444444,33.848333333333336],[-109.97444444444444,33.848333333333336],[-110.01861111111111,33.87305555555555],[-110.20722222222223,33.96944444444445],[-110.25222222222222,33.99388888888889],[-110.25222222222222,33.99388888888889],[-110.60027777777778,34.059999999999995],[-110.60027777777778,34.059999999999995],[-110.79138888888889,34.0825],[-110.90166666666667,34.16166666666666],[-110.9786111111111,34.20138888888889],[-110.9786111111111,34.20138888888889],[-111.0213888888889,34.225],[-111.14611111111111,34.285555555555554],[-111.22527777777778,34.32138888888889],[-111.26944444444445,34.344722222222224],[-111.26944444444445,34.344722222222224],[-111.46833333333333,34.43888888888888],[-111.46833333333333,34.43888888888888],[-111.52277777777778,34.46527777777778],[-111.58999999999999,34.49722222222222],[-111.635,34.51888888888889],[-111.71138888888889,34.55555555555555],[-111.71138888888889,34.55555555555555],[-111.83194444444445,34.61333333333334],[-111.8863888888889,34.63916666666667],[-112.0075,34.69638888888888],[-112.0075,34.69638888888888],[-112.32388888888889,34.84583333333334],[-112.32388888888889,34.84583333333334],[-112.44500000000001,34.90277777777778],[-112.49833333333333,34.92777777777778],[-112.57138888888889,34.96194444444445],[-112.57138888888889,34.96194444444445],[-112.81888888888888,35.07666666666667],[-112.86999999999999,35.10027777777778],[-112.86999999999999,35.10027777777778],[-112.99555555555555,35.15833333333333],[-113.23222222222222,35.26694444444444],[-113.31972222222223,35.30694444444444],[-113.44777777777779,35.36555555555556],[-113.62333333333332,35.44499999999999],[-113.62333333333332,35.44499999999999],[-113.75055555555555,35.5025],[-113.75055555555555,35.5025],[-114.00527777777778,35.61694444444444],[-114.13194444444444,35.67333333333333],[-114.23583333333333,35.71944444444445],[-114.23583333333333,35.71944444444445],[-114.49722222222222,35.83555555555556],[-115.25638888888889,36.16722222222222],[-115.64861111111112,36.336666666666666],[-116.51861111111111,36.61222222222222],[-116.97305555555556,36.863055555555555],[-117.21666666666667,37.14611111111111],[-117.685,37.396388888888886],[-117.80388888888889,37.41111111111111],[-118.21583333333334,37.46083333333333],[-118.95305555555557,37.545833333333334],[-119.76638888888888,37.63388888888889],[-120.23333333333333,37.68333333333333],[-120.41250000000001,37.696666666666665],[-120.80527777777777,37.65222222222222],[-121.46666666666667,37.56666666666667],[-121.88944444444445,37.49138888888889],[-122.1,37.5],[-122.21666666666667,37.55],[-122.28972222222222,37.58527777777778],[-122.35,37.61666666666667]],"type":"LineString"}
}
