{
  "id": 2015268271,
  "type": "Feature",
  "properties": {
    "geom:area": 0,
    "geom:bbox": "-122.359260,37.461600,-121.266580,37.612230",
    "geom:latitude": 37.53727734408274,
    "geom:longitude": -121.82184856347062,
    "src:alt_label": "swim-approach",
    "src:geom": "swim",
    "swim:elevations": [
      5139,
      5019,
      4867,
      4760,
      4590,
      4458,
      4352,
      4201,
      3948,
      3889,
      3565,
      3388,
      3313,
      3053,
      3038,
      2919,
      2794,
      2650,
      2494,
      2306,
      2243,
      2117,
      2040,
      1919,
      1866,
      1616,
      1482,
      1366,
      1357,
      1339,
      1286,
      1171,
      974,
      762,
      606,
      487,
      430,
      369,
      357,
      306,
      197,
      38,
      0
    ],
    "swim:geom": "approach",
    "swim:timestamps": [
      1776023338,
      1776023351,
      1776023366,
      1776023380,
      1776023403,
      1776023418,
      1776023436,
      1776023455,
      1776023486,
      1776023495,
      1776023539,
      1776023578,
      1776023593,
      1776023636,
      1776023642,
      1776023658,
      1776023681,
      1776023717,
      1776023751,
      1776023778,
      1776023787,
      1776023811,
      1776023824,
      1776023844,
      1776023859,
      1776023907,
      1776023934,
      1776023955,
      1776023967,
      1776023970,
      1776023985,
      1776024007,
      1776024042,
      1776024085,
      1776024118,
      1776024148,
      1776024163,
      1776024175,
      1776024181,
      1776024194,
      1776024225,
      1776024265,
      1776024273
    ],
    "wof:geomhash": "fe84e577803a32b0b311d0b5c047898c",
    "wof:id": 2015268271,
    "wof:repo": "sfomuseum-data-flights-2026-04"
  },
  "bbox": [
    -122.35926,
    37.4616,
    -121.26658,
    37.61223
  ],
  "geometry": {"coordinates":[[-121.26658,37.59229],[-121.28568,37.58987],[-121.30851,37.58755],[-121.32969,37.58525],[-121.36463,37.58133],[-121.38694,37.57863],[-121.41416,37.57549],[-121.44259,37.57214],[-121.4897,37.56666],[-121.50456,37.56493],[-121.57241,37.5568],[-121.63137,37.54925],[-121.65217,37.54434],[-121.7111,37.53028],[-121.71932,37.52837],[-121.74129,37.52312],[-121.77183,37.51583],[-121.81894,37.50438],[-121.86058,37.49422],[-121.89289,37.4865],[-121.90353,37.48365],[-121.93145,37.47578],[-121.94608,37.47192],[-121.96945,37.46583],[-121.98657,37.4616],[-122.04091,37.47784],[-122.07057,37.49041],[-122.09315,37.5],[-122.10523,37.50517],[-122.10811,37.50642],[-122.12239,37.5124],[-122.14213,37.52064],[-122.17417,37.53422],[-122.21233,37.55029],[-122.24242,37.56302],[-122.26707,37.57343],[-122.27833,37.5781],[-122.28702,37.58178],[-122.29137,37.58356],[-122.30056,37.58747],[-122.32364,37.59699],[-122.35363,37.60971],[-122.35926,37.61223]],"type":"LineString"}
}
