{
  "id": 2031133231,
  "type": "Feature",
  "properties": {
    "geom:area": 0,
    "geom:bbox": "-122.921680,37.403440,-122.123780,38.505420",
    "geom:latitude": 37.82572143775734,
    "geom:longitude": -122.50999106484255,
    "src:alt_label": "swim-approach",
    "src:geom": "swim",
    "swim:elevations": [
      7315,
      7282,
      6985,
      6635,
      6472,
      6186,
      5693,
      5501,
      5235,
      4957,
      4800,
      4532,
      4270,
      4011,
      3650,
      3464,
      3428,
      3353,
      3353,
      3353,
      3353,
      3273,
      3122,
      2751,
      2623,
      2279,
      2200,
      1990,
      1923,
      1645,
      1419,
      1288,
      1219,
      1187,
      1019,
      926,
      895,
      700,
      589,
      492,
      433,
      307,
      135,
      46
    ],
    "swim:geom": "approach",
    "swim:timestamps": [
      1777382048,
      1777382071,
      1777382107,
      1777382142,
      1777382161,
      1777382190,
      1777382245,
      1777382266,
      1777382296,
      1777382327,
      1777382347,
      1777382379,
      1777382412,
      1777382442,
      1777382486,
      1777382515,
      1777382520,
      1777382558,
      1777382593,
      1777382626,
      1777382661,
      1777382694,
      1777382714,
      1777382755,
      1777382770,
      1777382815,
      1777382826,
      1777382876,
      1777382884,
      1777382930,
      1777382958,
      1777382978,
      1777383049,
      1777383063,
      1777383108,
      1777383130,
      1777383165,
      1777383207,
      1777383232,
      1777383254,
      1777383272,
      1777383305,
      1777383357,
      1777383378
    ],
    "wof:geomhash": "87bced621539171fac479df0dffb9dd6",
    "wof:id": 2031133231,
    "wof:repo": "sfomuseum-data-flights-2026-04"
  },
  "bbox": [
    -122.92168,
    37.40344,
    -122.12378,
    38.50542
  ],
  "geometry": {"coordinates":[[-122.92168,38.50542],[-122.8989,38.46378],[-122.86352,38.39958],[-122.82842,38.33521],[-122.81043,38.30276],[-122.78357,38.25338],[-122.74878,38.15934],[-122.73833,38.12305],[-122.72335,38.07196],[-122.70798,38.01928],[-122.69832,37.98649],[-122.68364,37.93535],[-122.65956,37.8853],[-122.6211,37.85019],[-122.56653,37.79905],[-122.52996,37.76429],[-122.52398,37.75854],[-122.4815,37.7182],[-122.44548,37.68434],[-122.41394,37.6549],[-122.3811,37.62401],[-122.35277,37.59233],[-122.34152,37.57126],[-122.31934,37.52809],[-122.31025,37.51256],[-122.30883,37.46477],[-122.31192,37.45336],[-122.27216,37.41882],[-122.26086,37.41677],[-122.20488,37.40704],[-122.17376,37.40344],[-122.1556,37.41268],[-122.12378,37.47214],[-122.12426,37.48471],[-122.15135,37.51716],[-122.16513,37.53051],[-122.19403,37.54463],[-122.23028,37.56023],[-122.2509,37.56886],[-122.26894,37.57641],[-122.28272,37.58221],[-122.30565,37.59184],[-122.33984,37.60623],[-122.35355,37.612]],"type":"LineString"}
}
