{
  "id": 2015248631,
  "type": "Feature",
  "properties": {
    "geom:area": 0,
    "geom:bbox": "-122.650000,37.631860,-122.400310,38.501990",
    "geom:latitude": 38.02392150799659,
    "geom:longitude": -122.56514969934413,
    "src:alt_label": "swim-takeoff",
    "src:geom": "swim",
    "swim:elevations": [
      152,
      246,
      846,
      1128,
      1273,
      1325,
      1648,
      2232,
      2537,
      2853,
      3027,
      3175,
      3303,
      3712,
      3909,
      4472,
      4581,
      4984,
      5350,
      5690,
      6033,
      6389,
      6503
    ],
    "swim:geom": "takeoff",
    "swim:timestamps": [
      1775792545,
      1775792553,
      1775792605,
      1775792638,
      1775792665,
      1775792677,
      1775792707,
      1775792753,
      1775792777,
      1775792800,
      1775792812,
      1775792825,
      1775792853,
      1775792901,
      1775792913,
      1775792961,
      1775792973,
      1775793011,
      1775793041,
      1775793072,
      1775793106,
      1775793140,
      1775793152
    ],
    "wof:geomhash": "220f24c14b83b214706918f1f4fe9293",
    "wof:id": 2015248631,
    "wof:repo": "sfomuseum-data-flights-2026-04"
  },
  "bbox": [
    -122.65,
    37.63186,
    -122.40031,
    38.50199
  ],
  "geometry": {"coordinates":[[-122.40031,37.63186],[-122.40847,37.63531],[-122.46318,37.65833],[-122.49948,37.67316],[-122.53063,37.6903],[-122.54546,37.69898],[-122.58396,37.72333],[-122.60209,37.78359],[-122.59678,37.81797],[-122.58798,37.85099],[-122.58324,37.8684],[-122.57807,37.88749],[-122.56556,37.93134],[-122.54637,38.01496],[-122.54813,38.03688],[-122.56009,38.1258],[-122.56314,38.14861],[-122.57236,38.22211],[-122.57969,38.28121],[-122.5961,38.34203],[-122.61881,38.40922],[-122.64179,38.47767],[-122.65,38.50199]],"type":"LineString"}
}
