{
  "id": 2031109379,
  "type": "Feature",
  "properties": {
    "date:cessation_lower": "2026-04-25",
    "date:cessation_upper": "2026-04-25",
    "date:inception_lower": "2026-04-25",
    "date:inception_upper": "2026-04-25",
    "edtf:cessation": "2026-04-25T18:10:00Z",
    "edtf:inception": "2026-04-25T03:05:00Z",
    "flysfo:actual_timestamp": -1,
    "flysfo:airline": "UA",
    "flysfo:date": "2026-04-25",
    "flysfo:estimated_timestamp": 1777141380,
    "flysfo:event": "A",
    "flysfo:flight_number": "UA3968",
    "flysfo:gate": "B11",
    "flysfo:journey": "SIN-SFO",
    "flysfo:scheduled_timestamp": 1777143480,
    "flysfo:timestamp": 1777143480,
    "geom:area": 0,
    "geom:bbox": "-122.370943,1.347400,103.976839,37.617990",
    "geom:latitude": 19.482695,
    "geom:longitude": -9.197052,
    "iata:airline": "UA",
    "icao:aircraft": "B789",
    "icao:airline": "UAL",
    "lbl:latitude": 37.61799,
    "lbl:longitude": -122.370943,
    "sfomuseum:aircraft_id": 1159293215,
    "sfomuseum:airline_id": 1159285413,
    "sfomuseum:arrival_id": 102527513,
    "sfomuseum:departure_id": 102551593,
    "sfomuseum:flight_id": "20260425-A-UAL-3968",
    "sfomuseum:flight_number": [
      "UAL3968",
      "UA3968"
    ],
    "sfomuseum:placetype": "flight",
    "src:geom": "flysfo",
    "wof:belongsto": [
      1947304067,
      102527513,
      1947304261,
      102191575,
      85633793,
      102087579,
      85922583,
      554784711,
      85688637,
      1947304311,
      1947304259,
      102085387
    ],
    "wof:concordances": {
      "swim:flight_ref": "145086692",
      "swim:gufi": "KO587567pw"
    },
    "wof:country": "US",
    "wof:created": 1777219700,
    "wof:geomhash": "b883d8e3c3c604f714c4dc756f6c1133",
    "wof:hierarchy": [
      {
        "building_id": 1947304067,
        "campus_id": 102527513,
        "concourse_id": 1947304261,
        "continent_id": 102191575,
        "country_id": 85633793,
        "county_id": 102087579,
        "custom_id": 2031109379,
        "flight_id": 2031109379,
        "locality_id": 85922583,
        "postalcode_id": 554784711,
        "region_id": 85688637,
        "venue_id": 1947304311,
        "wing_id": 1947304259
      },
      {
        "building_id": 1947304067,
        "campus_id": 102527513,
        "concourse_id": 1947304261,
        "continent_id": 102191575,
        "country_id": 85633793,
        "county_id": 102085387,
        "custom_id": 2031109379,
        "flight_id": 2031109379,
        "region_id": 85688637,
        "venue_id": 1947304311,
        "wing_id": 1947304259
      }
    ],
    "wof:id": 2031109379,
    "wof:involves": [
      1159285413,
      1947304311,
      1159293215,
      102527513,
      102551593
    ],
    "wof:lastmodified": 1777220278,
    "wof:name": "UA3968 (SIN-SFO)",
    "wof:parent_id": 1947304311,
    "wof:placetype": "custom",
    "wof:placetype_alt": [
      "flight"
    ],
    "wof:repo": "sfomuseum-data-flights-2026-04",
    "wof:superseded_by": [],
    "wof:supersedes": []
  },
  "bbox": [
    -122.370943,
    1.3474,
    103.976839,
    37.61799
  ],
  "geometry": {"coordinates":[[103.976839,1.3474],[-122.370943,37.61799]],"type":"MultiPoint"}
}
