{
  "id": 2031125753,
  "type": "Feature",
  "properties": {
    "geom:area": 0,
    "geom:bbox": "-122.321111,29.828611,-95.424722,38.281667",
    "geom:latitude": 35.21907543914315,
    "geom:longitude": -108.59926603959957,
    "src:alt_label": "swim-path",
    "src:geom": "swim",
    "swim:altitudes": [
      "042",
      "049",
      "049",
      "049",
      "049",
      "083",
      "083",
      "090",
      "090",
      "109",
      "118",
      "118",
      "131",
      "131",
      "131",
      "131",
      "131",
      "243",
      "243",
      "243",
      "243",
      "243",
      "243",
      "243",
      "290",
      "290",
      "290",
      "290",
      "290",
      "300",
      "300",
      "300",
      "300",
      "300",
      "300",
      "300",
      "300",
      "300",
      "314",
      "314",
      "314",
      "314",
      "314",
      "314",
      "314",
      "320C",
      "320C",
      "320C",
      "340C",
      "340C",
      "340C",
      "340C",
      "340C",
      "340C",
      "340C",
      "340C",
      "340C",
      "340C",
      "340C",
      "340C",
      "340C",
      "340C",
      "340C",
      "340C",
      "340C",
      "340C",
      "340C",
      "340C",
      "340C",
      "340C",
      "340C",
      "340C",
      "340C",
      "340C",
      "340C",
      "340C",
      "340C",
      "340C",
      "340C",
      "340C",
      "340C",
      "340C",
      "340C",
      "340C",
      "340C",
      "340C",
      "340C",
      "340C",
      "340C",
      "340C",
      "340C",
      "340C",
      "340C",
      "340C",
      "340C",
      "340C",
      "340C",
      "340C",
      "340C",
      "340C",
      "340C",
      "340C",
      "340C",
      "340C",
      "340C",
      "340C",
      "340C",
      "340C",
      "340C",
      "340C",
      "340C",
      "340C",
      "340C",
      "340C",
      "340C",
      "340C",
      "340C",
      "340C",
      "340C",
      "340C",
      "340C",
      "340C",
      "340C",
      "340C",
      "340C",
      "340C",
      "340C",
      "340C",
      "340C",
      "340C",
      "340C",
      "340C",
      "340C",
      "340C",
      "340C",
      "340C",
      "340C",
      "340C",
      "340C",
      "340C",
      "340C",
      "340C",
      "340C",
      "340C",
      "340C",
      "340C",
      "340C",
      "340C",
      "340C",
      "340C",
      "340C",
      "340C",
      "340C",
      "340C",
      "340C",
      "340C",
      "340C",
      "340C",
      "340C",
      "340C",
      "340C",
      "340C",
      "340C",
      "340C",
      "340C",
      "340C",
      "340C",
      "340C",
      "340C",
      "340C",
      "340C",
      "340C",
      "340C",
      "340C",
      "340C",
      "340C",
      "340C",
      "340C",
      "340C",
      "340C",
      "340C",
      "340C",
      "340C",
      "340C",
      "340C",
      "340C",
      "340C",
      "340C",
      "340C",
      "340C",
      "340C",
      "340C",
      "340C",
      "340C",
      "340C",
      "340C",
      "340C",
      "340C",
      "340C",
      "340C",
      "340C",
      "340C",
      "340C",
      "340C",
      "340C",
      "340C",
      "340C",
      "340C",
      "340C",
      "340C",
      "340C",
      "340C",
      "340C",
      "340C",
      "340C",
      "340C",
      "340C",
      "340C",
      "340C",
      "340C",
      "340C",
      "340C",
      "340C",
      "340C",
      "340C",
      "340C",
      "340C",
      "340C",
      "340C",
      "340C",
      "340C",
      "340C",
      "340C",
      "340C",
      "340C",
      "340C",
      "340C",
      "340C",
      "340C",
      "340C",
      "340C",
      "340C",
      "340C",
      "340C",
      "340C",
      "340C",
      "340C",
      "340C",
      "340C",
      "340C",
      "340C",
      "340C",
      "340C",
      "340C",
      "340C",
      "340C",
      "340C",
      "340C",
      "340C",
      "340C",
      "340C",
      "340C",
      "340C",
      "340C",
      "340C",
      "340C",
      "340C",
      "340C",
      "340C",
      "340C",
      "340C",
      "340C",
      "340C",
      "340C",
      "340C",
      "340C",
      "340C",
      "340C",
      "340C",
      "340C",
      "340C",
      "340C",
      "340C",
      "340C",
      "340C",
      "340C",
      "340C",
      "340C",
      "340C",
      "340C",
      "340C",
      "340C",
      "340C",
      "340C",
      "340C",
      "340C",
      "340C",
      "340C",
      "340C",
      "340C",
      "340C",
      "340C",
      "340C",
      "340C",
      "340C",
      "340C",
      "340C",
      "340C",
      "340C",
      "340C",
      "340C",
      "340C",
      "340C",
      "340C",
      "340C",
      "340C",
      "340C",
      "340C",
      "340C",
      "340C",
      "340C",
      "340C",
      "340C",
      "340C",
      "340C",
      "340C",
      "340C",
      "340C",
      "340C",
      "340C",
      "340C",
      "340C",
      "340C",
      "340C",
      "340C",
      "340C",
      "340C",
      "340C",
      "340C",
      "340C",
      "340C",
      "340C",
      "340C",
      "340C",
      "340C",
      "340C",
      "340C",
      "340C",
      "340C",
      "340C",
      "340C",
      "340C",
      "340C",
      "340C",
      "340C",
      "340C",
      "340C",
      "340C",
      "340C",
      "340C",
      "340C",
      "340C",
      "340C",
      "340C",
      "340C",
      "340C",
      "340C",
      "340C",
      "340C",
      "340C",
      "340C",
      "340C",
      "340C",
      "340C",
      "340C",
      "340C",
      "340C",
      "340C",
      "340C",
      "340C",
      "340C",
      "340C",
      "340C",
      "340C",
      "340C",
      "340C",
      "340C",
      "340C",
      "340C",
      "340C",
      "340C",
      "340C",
      "340C",
      "340C",
      "340C",
      "340C",
      "340C",
      "340C",
      "340C",
      "340C",
      "340C",
      "340C",
      "340C",
      "340C",
      "340C",
      "340C",
      "340C",
      "340C",
      "340C",
      "340C",
      "340C",
      "340C",
      "340C",
      "340C",
      "340C",
      "340C",
      "340C",
      "340C",
      "340",
      "340",
      "340",
      "279",
      "279",
      "279",
      "279",
      "279",
      "257",
      "257",
      "241",
      "241",
      "223",
      "223",
      "220",
      "220",
      "220",
      "220",
      "220",
      "205",
      "205",
      "203",
      "203",
      "189",
      "189",
      "186",
      "186",
      "186",
      "186",
      "138",
      "138",
      "126",
      "112",
      "112",
      "112",
      "096",
      "087",
      "087",
      "087",
      "085",
      "085",
      "052",
      "052",
      "050",
      "050",
      "050",
      "033",
      "033",
      "031",
      "031",
      "031",
      "006",
      "006",
      "006",
      "006"
    ],
    "swim:geom": "path",
    "swim:speeds": [
      239,
      243,
      243,
      243,
      243,
      273,
      273,
      277,
      277,
      287,
      332,
      332,
      344,
      344,
      344,
      344,
      344,
      424,
      424,
      424,
      424,
      424,
      424,
      424,
      422,
      422,
      422,
      422,
      422,
      418,
      418,
      415,
      415,
      415,
      415,
      415,
      414,
      414,
      413,
      413,
      413,
      413,
      413,
      413,
      413,
      409,
      409,
      409,
      389,
      389,
      389,
      389,
      389,
      390,
      390,
      390,
      390,
      390,
      390,
      390,
      390,
      389,
      389,
      389,
      385,
      385,
      385,
      385,
      385,
      388,
      388,
      389,
      389,
      389,
      389,
      390,
      390,
      390,
      390,
      391,
      391,
      391,
      391,
      389,
      389,
      389,
      388,
      388,
      388,
      388,
      388,
      387,
      387,
      387,
      386,
      386,
      386,
      386,
      386,
      386,
      386,
      386,
      386,
      386,
      386,
      386,
      386,
      385,
      386,
      386,
      386,
      386,
      386,
      386,
      386,
      392,
      388,
      388,
      392,
      392,
      392,
      393,
      393,
      393,
      392,
      392,
      392,
      392,
      391,
      391,
      395,
      395,
      397,
      396,
      396,
      397,
      397,
      397,
      397,
      395,
      395,
      395,
      395,
      395,
      394,
      394,
      394,
      389,
      389,
      389,
      389,
      389,
      389,
      389,
      389,
      389,
      389,
      391,
      391,
      391,
      391,
      391,
      391,
      397,
      397,
      397,
      397,
      397,
      396,
      396,
      396,
      394,
      394,
      394,
      394,
      394,
      394,
      394,
      394,
      394,
      386,
      386,
      386,
      386,
      386,
      385,
      385,
      385,
      385,
      386,
      386,
      385,
      385,
      385,
      385,
      385,
      387,
      387,
      387,
      387,
      387,
      387,
      387,
      386,
      386,
      386,
      385,
      385,
      385,
      385,
      385,
      385,
      384,
      384,
      383,
      383,
      382,
      382,
      381,
      381,
      381,
      381,
      381,
      381,
      381,
      381,
      381,
      381,
      382,
      382,
      382,
      382,
      382,
      381,
      381,
      381,
      381,
      381,
      383,
      383,
      383,
      383,
      383,
      383,
      385,
      384,
      384,
      384,
      385,
      385,
      385,
      385,
      385,
      386,
      386,
      386,
      386,
      386,
      394,
      394,
      397,
      397,
      397,
      400,
      400,
      401,
      405,
      405,
      405,
      397,
      397,
      397,
      397,
      397,
      399,
      399,
      399,
      399,
      399,
      398,
      398,
      398,
      398,
      398,
      398,
      400,
      400,
      401,
      401,
      401,
      401,
      401,
      401,
      402,
      402,
      401,
      401,
      401,
      401,
      401,
      401,
      401,
      401,
      401,
      399,
      399,
      399,
      399,
      399,
      399,
      399,
      399,
      399,
      399,
      399,
      401,
      401,
      401,
      401,
      401,
      403,
      403,
      403,
      403,
      403,
      404,
      404,
      404,
      404,
      404,
      404,
      404,
      406,
      406,
      407,
      407,
      408,
      408,
      408,
      408,
      408,
      408,
      409,
      409,
      409,
      409,
      409,
      409,
      411,
      411,
      414,
      414,
      414,
      414,
      416,
      416,
      417,
      417,
      417,
      417,
      417,
      418,
      418,
      418,
      418,
      419,
      419,
      419,
      422,
      422,
      422,
      422,
      422,
      422,
      422,
      422,
      423,
      423,
      423,
      423,
      423,
      423,
      423,
      423,
      424,
      424,
      424,
      424,
      425,
      425,
      425,
      425,
      427,
      427,
      427,
      429,
      429,
      429,
      429,
      429,
      430,
      430,
      431,
      431,
      431,
      431,
      431,
      433,
      433,
      435,
      435,
      435,
      435,
      435,
      444,
      444,
      444,
      444,
      446,
      446,
      446,
      448,
      448,
      448,
      448,
      448,
      420,
      420,
      406,
      406,
      389,
      389,
      382,
      382,
      382,
      382,
      382,
      374,
      374,
      366,
      366,
      365,
      365,
      365,
      365,
      365,
      365,
      314,
      314,
      308,
      299,
      299,
      299,
      271,
      249,
      249,
      249,
      242,
      242,
      198,
      198,
      194,
      194,
      194,
      188,
      188,
      188,
      188,
      188,
      153,
      153,
      153,
      153
    ],
    "swim:timestamps": [
      1777296713,
      1777296736,
      1777296736,
      1777296736,
      1777296736,
      1777296828,
      1777296828,
      1777296856,
      1777296856,
      1777296916,
      1777296976,
      1777296976,
      1777297036,
      1777297036,
      1777297036,
      1777297036,
      1777297036,
      1777297517,
      1777297517,
      1777297517,
      1777297517,
      1777297517,
      1777297517,
      1777297517,
      1777297757,
      1777297757,
      1777297757,
      1777297757,
      1777297757,
      1777297818,
      1777297818,
      1777297878,
      1777297878,
      1777297878,
      1777297878,
      1777297878,
      1777297937,
      1777297937,
      1777298237,
      1777298237,
      1777298237,
      1777298237,
      1777298237,
      1777298237,
      1777298237,
      1777298297,
      1777298297,
      1777298297,
      1777298538,
      1777298538,
      1777298538,
      1777298538,
      1777298538,
      1777298718,
      1777298718,
      1777298718,
      1777298779,
      1777298779,
      1777298779,
      1777298779,
      1777298779,
      1777298838,
      1777298838,
      1777298838,
      1777298958,
      1777298958,
      1777298958,
      1777298958,
      1777298958,
      1777299200,
      1777299200,
      1777299319,
      1777299319,
      1777299319,
      1777299319,
      1777299439,
      1777299439,
      1777299439,
      1777299439,
      1777299559,
      1777299559,
      1777299559,
      1777299559,
      1777299679,
      1777299679,
      1777299679,
      1777299739,
      1777299739,
      1777299739,
      1777299739,
      1777299739,
      1777299799,
      1777299799,
      1777299799,
      1777299909,
      1777299909,
      1777299909,
      1777299909,
      1777299920,
      1777300100,
      1777300100,
      1777300100,
      1777300100,
      1777300160,
      1777300160,
      1777300160,
      1777300160,
      1777300220,
      1777300270,
      1777300390,
      1777300390,
      1777300390,
      1777300390,
      1777300390,
      1777300400,
      1777300450,
      1777300460,
      1777300460,
      1777300570,
      1777300570,
      1777300570,
      1777300701,
      1777300701,
      1777300701,
      1777300811,
      1777300811,
      1777300821,
      1777300821,
      1777300881,
      1777300881,
      1777301171,
      1777301171,
      1777301231,
      1777301241,
      1777301241,
      1777301291,
      1777301291,
      1777301291,
      1777301291,
      1777301482,
      1777301482,
      1777301482,
      1777301532,
      1777301532,
      1777301592,
      1777301592,
      1777301592,
      1777301832,
      1777301832,
      1777301842,
      1777301842,
      1777301842,
      1777301953,
      1777301953,
      1777301962,
      1777301962,
      1777301962,
      1777302073,
      1777302073,
      1777302073,
      1777302073,
      1777302193,
      1777302193,
      1777302313,
      1777302313,
      1777302313,
      1777302313,
      1777302313,
      1777302373,
      1777302373,
      1777302373,
      1777302554,
      1777302554,
      1777302566,
      1777302566,
      1777302566,
      1777302614,
      1777302614,
      1777302614,
      1777302614,
      1777302794,
      1777302794,
      1777302794,
      1777302794,
      1777302794,
      1777302987,
      1777302987,
      1777302987,
      1777302987,
      1777303047,
      1777303047,
      1777303094,
      1777303094,
      1777303094,
      1777303094,
      1777303094,
      1777303275,
      1777303275,
      1777303275,
      1777303275,
      1777303275,
      1777303275,
      1777303275,
      1777303407,
      1777303407,
      1777303407,
      1777303467,
      1777303467,
      1777303515,
      1777303515,
      1777303527,
      1777303527,
      1777303635,
      1777303635,
      1777303695,
      1777303695,
      1777303708,
      1777303815,
      1777303828,
      1777303828,
      1777303828,
      1777303828,
      1777303876,
      1777303876,
      1777303876,
      1777303948,
      1777303948,
      1777303948,
      1777303996,
      1777304008,
      1777304008,
      1777304008,
      1777304008,
      1777304236,
      1777304236,
      1777304236,
      1777304243,
      1777304243,
      1777304356,
      1777304356,
      1777304356,
      1777304356,
      1777304356,
      1777304363,
      1777304424,
      1777304489,
      1777304489,
      1777304489,
      1777304664,
      1777304664,
      1777304664,
      1777304664,
      1777304664,
      1777304784,
      1777304784,
      1777304844,
      1777304844,
      1777304844,
      1777304969,
      1777304969,
      1777305030,
      1777305030,
      1777305030,
      1777305084,
      1777305084,
      1777305090,
      1777305144,
      1777305144,
      1777305144,
      1777305325,
      1777305325,
      1777305325,
      1777305325,
      1777305325,
      1777305570,
      1777305570,
      1777305570,
      1777305570,
      1777305570,
      1777305625,
      1777305625,
      1777305625,
      1777305625,
      1777305625,
      1777305625,
      1777305926,
      1777305926,
      1777305986,
      1777305986,
      1777305986,
      1777305986,
      1777305986,
      1777305986,
      1777306046,
      1777306046,
      1777306106,
      1777306106,
      1777306106,
      1777306106,
      1777306106,
      1777306346,
      1777306346,
      1777306346,
      1777306346,
      1777306406,
      1777306406,
      1777306406,
      1777306466,
      1777306466,
      1777306466,
      1777306466,
      1777306466,
      1777306526,
      1777306526,
      1777306526,
      1777306647,
      1777306647,
      1777306647,
      1777306647,
      1777306647,
      1777306707,
      1777306707,
      1777306707,
      1777306707,
      1777306707,
      1777306887,
      1777306887,
      1777306887,
      1777306887,
      1777306887,
      1777306887,
      1777306887,
      1777307067,
      1777307067,
      1777307127,
      1777307127,
      1777307187,
      1777307187,
      1777307187,
      1777307187,
      1777307187,
      1777307187,
      1777307251,
      1777307251,
      1777307251,
      1777307251,
      1777307251,
      1777307251,
      1777307367,
      1777307367,
      1777307432,
      1777307432,
      1777307432,
      1777307432,
      1777307492,
      1777307492,
      1777307548,
      1777307548,
      1777307548,
      1777307548,
      1777307548,
      1777307668,
      1777307668,
      1777307668,
      1777307668,
      1777307728,
      1777307728,
      1777307728,
      1777307852,
      1777307852,
      1777307852,
      1777307852,
      1777307852,
      1777307908,
      1777307908,
      1777307908,
      1777307968,
      1777307968,
      1777307968,
      1777307968,
      1777307968,
      1777308028,
      1777308028,
      1777308028,
      1777308088,
      1777308088,
      1777308088,
      1777308088,
      1777308153,
      1777308153,
      1777308153,
      1777308153,
      1777308213,
      1777308213,
      1777308213,
      1777308329,
      1777308329,
      1777308329,
      1777308329,
      1777308329,
      1777308393,
      1777308393,
      1777308453,
      1777308453,
      1777308453,
      1777308453,
      1777308453,
      1777308513,
      1777308513,
      1777308573,
      1777308573,
      1777308573,
      1777308573,
      1777308573,
      1777308814,
      1777308814,
      1777308814,
      1777308814,
      1777308874,
      1777308874,
      1777308874,
      1777309114,
      1777309114,
      1777309114,
      1777309114,
      1777309114,
      1777309183,
      1777309183,
      1777309234,
      1777309234,
      1777309294,
      1777309294,
      1777309303,
      1777309303,
      1777309303,
      1777309303,
      1777309303,
      1777309354,
      1777309354,
      1777309363,
      1777309363,
      1777309415,
      1777309415,
      1777309423,
      1777309423,
      1777309423,
      1777309423,
      1777309603,
      1777309603,
      1777309655,
      1777309715,
      1777309715,
      1777309715,
      1777309783,
      1777309835,
      1777309835,
      1777309835,
      1777309844,
      1777309844,
      1777310075,
      1777310075,
      1777310083,
      1777310083,
      1777310083,
      1777310196,
      1777310196,
      1777310204,
      1777310204,
      1777310204,
      1777310376,
      1777310376,
      1777310376,
      1777310376
    ],
    "wof:geomhash": "cb6dc129e7496decf3ed0ecd6828369d",
    "wof:id": 2031125753,
    "wof:repo": "sfomuseum-data-flights-2026-04"
  },
  "bbox": [
    -122.32111111111111,
    29.828611111111112,
    -95.42472222222223,
    38.281666666666666
  ],
  "geometry": {"coordinates":[[-95.42472222222223,29.889444444444443],[-95.44388888888889,29.878055555555555],[-95.44388888888889,29.878055555555555],[-95.44388888888889,29.878055555555555],[-95.44388888888889,29.878055555555555],[-95.56444444444445,29.828611111111112],[-95.56444444444445,29.828611111111112],[-95.59583333333333,29.840277777777775],[-95.59583333333333,29.840277777777775],[-95.67527777777778,29.879444444444445],[-95.76472222222222,29.923333333333336],[-95.76472222222222,29.923333333333336],[-95.85055555555554,29.965833333333332],[-95.85055555555554,29.965833333333332],[-95.85055555555554,29.965833333333332],[-95.85055555555554,29.965833333333332],[-95.85055555555554,29.965833333333332],[-96.82944444444443,30.1875],[-96.82944444444443,30.1875],[-96.82944444444443,30.1875],[-96.82944444444443,30.1875],[-96.82944444444443,30.1875],[-96.82944444444443,30.1875],[-96.82944444444443,30.1875],[-97.3175,30.379722222222224],[-97.3175,30.379722222222224],[-97.3175,30.379722222222224],[-97.3175,30.379722222222224],[-97.3175,30.379722222222224],[-97.43,30.439722222222223],[-97.43,30.439722222222223],[-97.54472222222222,30.500555555555554],[-97.54472222222222,30.500555555555554],[-97.54472222222222,30.500555555555554],[-97.54472222222222,30.500555555555554],[-97.54472222222222,30.500555555555554],[-97.63555555555556,30.548333333333336],[-97.63555555555556,30.548333333333336],[-98.21138888888889,30.85027777777778],[-98.21138888888889,30.85027777777778],[-98.21138888888889,30.85027777777778],[-98.21138888888889,30.85027777777778],[-98.21138888888889,30.85027777777778],[-98.21138888888889,30.85027777777778],[-98.21138888888889,30.85027777777778],[-98.32444444444444,30.90888888888889],[-98.32444444444444,30.90888888888889],[-98.32444444444444,30.90888888888889],[-98.7625,31.134722222222223],[-98.7625,31.134722222222223],[-98.7625,31.134722222222223],[-98.7625,31.134722222222223],[-98.7625,31.134722222222223],[-99.08749999999999,31.30027777777778],[-99.08749999999999,31.30027777777778],[-99.08749999999999,31.30027777777778],[-99.19833333333334,31.35666666666667],[-99.19833333333334,31.35666666666667],[-99.19833333333334,31.35666666666667],[-99.19833333333334,31.35666666666667],[-99.19833333333334,31.35666666666667],[-99.30583333333333,31.41111111111111],[-99.30583333333333,31.41111111111111],[-99.30583333333333,31.41111111111111],[-99.52666666666667,31.522222222222222],[-99.52666666666667,31.522222222222222],[-99.52666666666667,31.522222222222222],[-99.52666666666667,31.522222222222222],[-99.52666666666667,31.522222222222222],[-99.97444444444444,31.746111111111112],[-99.97444444444444,31.746111111111112],[-100.18472222222222,31.85],[-100.18472222222222,31.85],[-100.18472222222222,31.85],[-100.18472222222222,31.85],[-100.40611111111112,31.959166666666665],[-100.40611111111112,31.959166666666665],[-100.40611111111112,31.959166666666665],[-100.40611111111112,31.959166666666665],[-100.62916666666666,32.068333333333335],[-100.62916666666666,32.068333333333335],[-100.62916666666666,32.068333333333335],[-100.62916666666666,32.068333333333335],[-100.84916666666666,32.17527777777777],[-100.84916666666666,32.17527777777777],[-100.84916666666666,32.17527777777777],[-100.96000000000001,32.22888888888889],[-100.96000000000001,32.22888888888889],[-100.96000000000001,32.22888888888889],[-100.96000000000001,32.22888888888889],[-100.96000000000001,32.22888888888889],[-101.07027777777778,32.282222222222224],[-101.07027777777778,32.282222222222224],[-101.07027777777778,32.282222222222224],[-101.25611111111111,32.37277777777778],[-101.25611111111111,32.37277777777778],[-101.25611111111111,32.37277777777778],[-101.25611111111111,32.37277777777778],[-101.30083333333333,32.393055555555556],[-101.63166666666666,32.551111111111105],[-101.63166666666666,32.551111111111105],[-101.63166666666666,32.551111111111105],[-101.63166666666666,32.551111111111105],[-101.74138888888889,32.60333333333333],[-101.74138888888889,32.60333333333333],[-101.74138888888889,32.60333333333333],[-101.74138888888889,32.60333333333333],[-101.85111111111111,32.65472222222222],[-101.93777777777778,32.69555555555555],[-102.16444444444446,32.80166666666666],[-102.16444444444446,32.80166666666666],[-102.16444444444446,32.80166666666666],[-102.16444444444446,32.80166666666666],[-102.16444444444446,32.80166666666666],[-102.18527777777778,32.81166666666666],[-102.27805555555555,32.855000000000004],[-102.2975,32.86416666666667],[-102.2975,32.86416666666667],[-102.49055555555556,32.95388888888889],[-102.49055555555556,32.95388888888889],[-102.49055555555556,32.95388888888889],[-102.74333333333334,33.07083333333334],[-102.74333333333334,33.07083333333334],[-102.74333333333334,33.07083333333334],[-102.94833333333334,33.164722222222224],[-102.94833333333334,33.164722222222224],[-102.97,33.17444444444444],[-102.97,33.17444444444444],[-103.08277777777778,33.226111111111116],[-103.08277777777778,33.226111111111116],[-103.63416666666667,33.475833333333334],[-103.63416666666667,33.475833333333334],[-103.76694444444445,33.535],[-103.77277777777778,33.5375],[-103.77277777777778,33.5375],[-103.8825,33.586666666666666],[-103.8825,33.586666666666666],[-103.8825,33.586666666666666],[-103.8825,33.586666666666666],[-104.23722222222223,33.744166666666665],[-104.23722222222223,33.744166666666665],[-104.23722222222223,33.744166666666665],[-104.34638888888888,33.79222222222222],[-104.34638888888888,33.79222222222222],[-104.46277777777777,33.843333333333334],[-104.46277777777777,33.843333333333334],[-104.46277777777777,33.843333333333334],[-104.9213888888889,34.043055555555554],[-104.9213888888889,34.043055555555554],[-104.94888888888889,34.055],[-104.94888888888889,34.055],[-104.94888888888889,34.055],[-105.155,34.14388888888889],[-105.155,34.14388888888889],[-105.18055555555556,34.15472222222222],[-105.18055555555556,34.15472222222222],[-105.18055555555556,34.15472222222222],[-105.38944444444445,34.244166666666665],[-105.38944444444445,34.244166666666665],[-105.38944444444445,34.244166666666665],[-105.38944444444445,34.244166666666665],[-105.62305555555555,34.34388888888889],[-105.62305555555555,34.34388888888889],[-105.83888888888889,34.47277777777778],[-105.83888888888889,34.47277777777778],[-105.83888888888889,34.47277777777778],[-105.83888888888889,34.47277777777778],[-105.83888888888889,34.47277777777778],[-105.94194444444445,34.54111111111111],[-105.94194444444445,34.54111111111111],[-105.94194444444445,34.54111111111111],[-106.2575,34.74805555555556],[-106.2575,34.74805555555556],[-106.28111111111112,34.763333333333335],[-106.28111111111112,34.763333333333335],[-106.28111111111112,34.763333333333335],[-106.36388888888888,34.816944444444445],[-106.36388888888888,34.816944444444445],[-106.36388888888888,34.816944444444445],[-106.36388888888888,34.816944444444445],[-106.67305555555556,35.01722222222222],[-106.67305555555556,35.01722222222222],[-106.67305555555556,35.01722222222222],[-106.67305555555556,35.01722222222222],[-106.67305555555556,35.01722222222222],[-106.99222222222222,35.22138888888889],[-106.99222222222222,35.22138888888889],[-106.99222222222222,35.22138888888889],[-106.99222222222222,35.22138888888889],[-107.09638888888888,35.28861111111111],[-107.09638888888888,35.28861111111111],[-107.18861111111111,35.346944444444446],[-107.18861111111111,35.346944444444446],[-107.18861111111111,35.346944444444446],[-107.18861111111111,35.346944444444446],[-107.18861111111111,35.346944444444446],[-107.49194444444444,35.53861111111111],[-107.49194444444444,35.53861111111111],[-107.49194444444444,35.53861111111111],[-107.49194444444444,35.53861111111111],[-107.49194444444444,35.53861111111111],[-107.49194444444444,35.53861111111111],[-107.49194444444444,35.53861111111111],[-107.72,35.68138888888889],[-107.72,35.68138888888889],[-107.72,35.68138888888889],[-107.82444444444444,35.746944444444445],[-107.82444444444444,35.746944444444445],[-107.90694444444445,35.79805555555556],[-107.90694444444445,35.79805555555556],[-107.92833333333334,35.811388888888885],[-107.92833333333334,35.811388888888885],[-108.11472222222221,35.92722222222222],[-108.11472222222221,35.92722222222222],[-108.21916666666667,35.99111111111111],[-108.21916666666667,35.99111111111111],[-108.24055555555556,36.004444444444445],[-108.4263888888889,36.118611111111115],[-108.4475,36.13166666666667],[-108.4475,36.13166666666667],[-108.4475,36.13166666666667],[-108.4475,36.13166666666667],[-108.52638888888889,36.17972222222222],[-108.52638888888889,36.17972222222222],[-108.52638888888889,36.17972222222222],[-108.6738888888889,36.26972222222222],[-108.6738888888889,36.26972222222222],[-108.6738888888889,36.26972222222222],[-108.735,36.306666666666665],[-108.77805555555555,36.33305555555556],[-108.77805555555555,36.33305555555556],[-108.77805555555555,36.33305555555556],[-108.77805555555555,36.33305555555556],[-109.17500000000001,36.57222222222222],[-109.17500000000001,36.57222222222222],[-109.17500000000001,36.57222222222222],[-109.17972222222222,36.57527777777778],[-109.17972222222222,36.57527777777778],[-109.38277777777778,36.69611111111111],[-109.38277777777778,36.69611111111111],[-109.38277777777778,36.69611111111111],[-109.38277777777778,36.69611111111111],[-109.38277777777778,36.69611111111111],[-109.38666666666667,36.69833333333333],[-109.49416666666667,36.761944444444445],[-109.62472222222222,36.839444444444446],[-109.62472222222222,36.839444444444446],[-109.62472222222222,36.839444444444446],[-109.92333333333333,37.015277777777776],[-109.92333333333333,37.015277777777776],[-109.92333333333333,37.015277777777776],[-109.92333333333333,37.015277777777776],[-109.92333333333333,37.015277777777776],[-110.16277777777778,37.15555555555555],[-110.16277777777778,37.15555555555555],[-110.27055555555556,37.21805555555556],[-110.27055555555556,37.21805555555556],[-110.27055555555556,37.21805555555556],[-110.49722222222222,37.34861111111111],[-110.49722222222222,37.34861111111111],[-110.60944444444443,37.41361111111111],[-110.60944444444443,37.41361111111111],[-110.60944444444443,37.41361111111111],[-110.7213888888889,37.477222222222224],[-110.7213888888889,37.477222222222224],[-110.72333333333333,37.478611111111114],[-110.83749999999999,37.54361111111111],[-110.83749999999999,37.54361111111111],[-110.83749999999999,37.54361111111111],[-111.22944444444444,37.65138888888889],[-111.22944444444444,37.65138888888889],[-111.22944444444444,37.65138888888889],[-111.22944444444444,37.65138888888889],[-111.22944444444444,37.65138888888889],[-111.76972222222223,37.77583333333333],[-111.76972222222223,37.77583333333333],[-111.76972222222223,37.77583333333333],[-111.76972222222223,37.77583333333333],[-111.76972222222223,37.77583333333333],[-111.89944444444446,37.80555555555555],[-111.89944444444446,37.80555555555555],[-111.89944444444446,37.80555555555555],[-111.89944444444446,37.80555555555555],[-111.89944444444446,37.80555555555555],[-111.89944444444446,37.80555555555555],[-112.57527777777777,37.93194444444444],[-112.57527777777777,37.93194444444444],[-112.71194444444444,37.95583333333334],[-112.71194444444444,37.95583333333334],[-112.71194444444444,37.95583333333334],[-112.71194444444444,37.95583333333334],[-112.71194444444444,37.95583333333334],[-112.71194444444444,37.95583333333334],[-112.85027777777778,37.98027777777778],[-112.85027777777778,37.98027777777778],[-112.985,38.00388888888889],[-112.985,38.00388888888889],[-112.985,38.00388888888889],[-112.985,38.00388888888889],[-112.985,38.00388888888889],[-113.53388888888888,38.09777777777778],[-113.53388888888888,38.09777777777778],[-113.53388888888888,38.09777777777778],[-113.53388888888888,38.09777777777778],[-113.6713888888889,38.12083333333334],[-113.6713888888889,38.12083333333334],[-113.6713888888889,38.12083333333334],[-113.80777777777777,38.14333333333333],[-113.80777777777777,38.14333333333333],[-113.80777777777777,38.14333333333333],[-113.80777777777777,38.14333333333333],[-113.80777777777777,38.14333333333333],[-113.94472222222223,38.16611111111111],[-113.94472222222223,38.16611111111111],[-113.94472222222223,38.16611111111111],[-114.22222222222223,38.21138888888889],[-114.22222222222223,38.21138888888889],[-114.22222222222223,38.21138888888889],[-114.22222222222223,38.21138888888889],[-114.22222222222223,38.21138888888889],[-114.36305555555555,38.23416666666667],[-114.36305555555555,38.23416666666667],[-114.36305555555555,38.23416666666667],[-114.36305555555555,38.23416666666667],[-114.36305555555555,38.23416666666667],[-114.78416666666666,38.281666666666666],[-114.78416666666666,38.281666666666666],[-114.78416666666666,38.281666666666666],[-114.78416666666666,38.281666666666666],[-114.78416666666666,38.281666666666666],[-114.78416666666666,38.281666666666666],[-114.78416666666666,38.281666666666666],[-115.21111111111111,38.24861111111111],[-115.21111111111111,38.24861111111111],[-115.35444444444444,38.23638888888889],[-115.35444444444444,38.23638888888889],[-115.50416666666666,38.22361111111111],[-115.50416666666666,38.22361111111111],[-115.50416666666666,38.22361111111111],[-115.50416666666666,38.22361111111111],[-115.50416666666666,38.22361111111111],[-115.50416666666666,38.22361111111111],[-115.65083333333334,38.21194444444445],[-115.65083333333334,38.21194444444445],[-115.65083333333334,38.21194444444445],[-115.65083333333334,38.21194444444445],[-115.65083333333334,38.21194444444445],[-115.65083333333334,38.21194444444445],[-115.9388888888889,38.18555555555555],[-115.9388888888889,38.18555555555555],[-116.08666666666666,38.17194444444444],[-116.08666666666666,38.17194444444444],[-116.08666666666666,38.17194444444444],[-116.08666666666666,38.17194444444444],[-116.23333333333333,38.15861111111111],[-116.23333333333333,38.15861111111111],[-116.37722222222222,38.144999999999996],[-116.37722222222222,38.144999999999996],[-116.37722222222222,38.144999999999996],[-116.37722222222222,38.144999999999996],[-116.37722222222222,38.144999999999996],[-116.67,38.1175],[-116.67,38.1175],[-116.67,38.1175],[-116.67,38.1175],[-116.8175,38.10277777777778],[-116.8175,38.10277777777778],[-116.8175,38.10277777777778],[-117.12027777777777,38.07277777777778],[-117.12027777777777,38.07277777777778],[-117.12027777777777,38.07277777777778],[-117.12027777777777,38.07277777777778],[-117.12027777777777,38.07277777777778],[-117.27277777777778,38.0575],[-117.27277777777778,38.0575],[-117.27277777777778,38.0575],[-117.4213888888889,38.04222222222222],[-117.4213888888889,38.04222222222222],[-117.4213888888889,38.04222222222222],[-117.4213888888889,38.04222222222222],[-117.4213888888889,38.04222222222222],[-117.57249999999999,38.02638888888889],[-117.57249999999999,38.02638888888889],[-117.57249999999999,38.02638888888889],[-117.71944444444445,38.01083333333333],[-117.71944444444445,38.01083333333333],[-117.71944444444445,38.01083333333333],[-117.71944444444445,38.01083333333333],[-117.87138888888889,37.99472222222222],[-117.87138888888889,37.99472222222222],[-117.87138888888889,37.99472222222222],[-117.87138888888889,37.99472222222222],[-118.02166666666666,37.97888888888889],[-118.02166666666666,37.97888888888889],[-118.02166666666666,37.97888888888889],[-118.31916666666666,37.94583333333333],[-118.31916666666666,37.94583333333333],[-118.31916666666666,37.94583333333333],[-118.31916666666666,37.94583333333333],[-118.31916666666666,37.94583333333333],[-118.47,37.928888888888885],[-118.47,37.928888888888885],[-118.62138888888889,37.911944444444444],[-118.62138888888889,37.911944444444444],[-118.62138888888889,37.911944444444444],[-118.62138888888889,37.911944444444444],[-118.62138888888889,37.911944444444444],[-118.7725,37.89472222222222],[-118.7725,37.89472222222222],[-118.92583333333334,37.8775],[-118.92583333333334,37.8775],[-118.92583333333334,37.8775],[-118.92583333333334,37.8775],[-118.92583333333334,37.8775],[-119.54166666666667,37.80555555555555],[-119.54166666666667,37.80555555555555],[-119.54166666666667,37.80555555555555],[-119.54166666666667,37.80555555555555],[-119.69777777777779,37.78666666666666],[-119.69777777777779,37.78666666666666],[-119.69777777777779,37.78666666666666],[-120.32555555555555,37.70944444444445],[-120.32555555555555,37.70944444444445],[-120.32555555555555,37.70944444444445],[-120.32555555555555,37.70944444444445],[-120.32555555555555,37.70944444444445],[-120.5,37.68333333333333],[-120.5,37.68333333333333],[-120.61722222222221,37.674166666666665],[-120.61722222222221,37.674166666666665],[-120.75333333333333,37.65833333333333],[-120.75333333333333,37.65833333333333],[-120.78333333333333,37.65],[-120.78333333333333,37.65],[-120.78333333333333,37.65],[-120.78333333333333,37.65],[-120.78333333333333,37.65],[-120.88305555555554,37.64277777777778],[-120.88305555555554,37.64277777777778],[-120.9,37.63333333333333],[-120.9,37.63333333333333],[-121.0075,37.6275],[-121.0075,37.6275],[-121.03333333333333,37.61666666666667],[-121.03333333333333,37.61666666666667],[-121.03333333333333,37.61666666666667],[-121.03333333333333,37.61666666666667],[-121.38333333333334,37.583333333333336],[-121.38333333333334,37.583333333333336],[-121.47194444444445,37.56888888888889],[-121.57472222222222,37.556666666666665],[-121.57472222222222,37.556666666666665],[-121.57472222222222,37.556666666666665],[-121.68333333333334,37.53333333333333],[-121.75527777777778,37.51972222222222],[-121.75527777777778,37.51972222222222],[-121.75527777777778,37.51972222222222],[-121.76666666666667,37.516666666666666],[-121.76666666666667,37.516666666666666],[-122.04972222222221,37.50083333333333],[-122.04972222222221,37.50083333333333],[-122.06666666666666,37.5],[-122.06666666666666,37.5],[-122.06666666666666,37.5],[-122.17194444444445,37.535555555555554],[-122.17194444444445,37.535555555555554],[-122.18333333333334,37.53333333333333],[-122.18333333333334,37.53333333333333],[-122.18333333333334,37.53333333333333],[-122.32111111111111,37.59861111111111],[-122.32111111111111,37.59861111111111],[-122.32111111111111,37.59861111111111],[-122.32111111111111,37.59861111111111]],"type":"LineString"}
}
