{
  "id": 2031117689,
  "type": "Feature",
  "properties": {
    "geom:area": 0,
    "geom:bbox": "-123.180000,37.620000,-76.620000,43.650000",
    "geom:latitude": 41.89283322517345,
    "geom:longitude": -100.74890594943467,
    "src:alt_label": "swim-route",
    "src:geom": "swim",
    "swim:geom": "route",
    "wof:geomhash": "061ab8bcf8414a11cbad0aedbe86ca24",
    "wof:id": 2031117689,
    "wof:repo": "sfomuseum-data-flights-2026-04"
  },
  "bbox": [
    -123.18,
    37.62,
    -76.62,
    43.65
  ],
  "geometry": {"coordinates":[[-76.67,39.18],[-76.62,39.17],[-76.67,39.18],[-76.69,39.18],[-76.7,39.18],[-76.73,39.18],[-76.76,39.19],[-76.78,39.19],[-76.79,39.19],[-76.8,39.19],[-76.82,39.19],[-76.86,39.19],[-76.89,39.19],[-76.91,39.19],[-76.97,39.2],[-77.1,39.22],[-77.14,39.22],[-77.25,39.32],[-77.25,39.33],[-77.28,39.35],[-77.3,39.37],[-77.31,39.37],[-77.35,39.38],[-77.36,39.39],[-77.47,39.42],[-77.54,39.44],[-77.59,39.46],[-77.6,39.46],[-77.66,39.48],[-77.74,39.5],[-77.78,39.51],[-77.86,39.54],[-77.87,39.54],[-77.88,39.54],[-77.9,39.55],[-78.02,39.59],[-78.09,39.61],[-78.18,39.64],[-78.27,39.66],[-78.43,39.71],[-78.92,39.86],[-79.41,40],[-79.59,40.09],[-80.06,40.33],[-80.33,40.47],[-80.58,40.6],[-80.72,40.66],[-80.74,40.67],[-80.95,40.77],[-81.02,40.81],[-81.52,41],[-82.75,41.42],[-84.09,41.86],[-85,42.15],[-85.76,42.39],[-85.81,42.4],[-85.98,42.45],[-87,42.75],[-87.39,42.87],[-88.28,43.12],[-90.2,43.29],[-90.26,43.3],[-90.44,43.31],[-90.91,43.35],[-91.09,43.36],[-91.79,43.41],[-92.03,43.43],[-93.84,43.54],[-96.41,43.64],[-96.78,43.65],[-97.01,43.65],[-98.44,43.61],[-100.45,43.53],[-100.78,43.51],[-101.72,43.46],[-102.56,43.41],[-103.55,43.33],[-106.28,43.09],[-107.14,42.99],[-107.36,42.96],[-107.41,42.95],[-108.11,42.81],[-108.32,42.7],[-108.44,42.64],[-108.71,42.61],[-109.36,42.56],[-109.72,42.48],[-111.09,42.13],[-113.02,41.72],[-114.48,41.39],[-115.03,41.26],[-115.21,41.25],[-115.31,41.19],[-115.58,41.12],[-118.3,40.41],[-118.37,40.39],[-119.42,39.96],[-119.69,39.86],[-120.51,39.56],[-121.1,39.34],[-121.13,39.32],[-121.23,39.57],[-121.68,39.56],[-121.8,39.56],[-121.97,39.55],[-122.5,39.45],[-122.54,39.39],[-122.58,39.35],[-122.57,39.2],[-123.16,39.1],[-123.18,39.08],[-123.18,39.08],[-123.05,38.81],[-122.84,38.37],[-122.83,38.37],[-122.82,38.33],[-122.81,38.32],[-122.77,38.22],[-122.75,38.16],[-122.7,38],[-122.69,37.95],[-122.67,37.9],[-122.65,37.87],[-122.59,37.82],[-122.58,37.81],[-122.53,37.77],[-122.51,37.74],[-122.5,37.74],[-122.5,37.73],[-122.44,37.68],[-122.37,37.62],[-122.38,37.62]],"type":"LineString"}
}
