{
  "id": 2031130029,
  "type": "Feature",
  "properties": {
    "geom:area": 0,
    "geom:bbox": "-122.386560,37.623500,-121.435510,38.515590",
    "geom:latitude": 38.059349211732034,
    "geom:longitude": -121.91132645433426,
    "src:alt_label": "swim-takeoff",
    "src:geom": "swim",
    "swim:elevations": [
      152,
      1156,
      1381,
      1701,
      1955,
      2339,
      2887,
      3200,
      3268,
      3477,
      3743,
      4139,
      4524,
      5144,
      5514,
      5594,
      5858,
      6251,
      6571,
      6646,
      6878,
      7138,
      7257,
      7897,
      8099,
      8393,
      8501
    ],
    "swim:geom": "takeoff",
    "swim:timestamps": [
      1777302305,
      1777302381,
      1777302403,
      1777302431,
      1777302447,
      1777302471,
      1777302507,
      1777302527,
      1777302535,
      1777302558,
      1777302587,
      1777302623,
      1777302656,
      1777302705,
      1777302737,
      1777302745,
      1777302768,
      1777302805,
      1777302836,
      1777302843,
      1777302865,
      1777302896,
      1777302909,
      1777302978,
      1777303001,
      1777303036,
      1777303048
    ],
    "wof:geomhash": "d92cbe9afba50a332fcfe2d8b910d39e",
    "wof:id": 2031130029,
    "wof:repo": "sfomuseum-data-flights-2026-04"
  },
  "bbox": [
    -122.38656,
    37.6235,
    -121.43551,
    38.51559
  ],
  "geometry": {"coordinates":[[-122.38656,37.6235],[-122.36957,37.66881],[-122.34311,37.67599],[-122.30495,37.68853],[-122.28346,37.69554],[-122.24737,37.70717],[-122.20205,37.73386],[-122.18268,37.75552],[-122.17491,37.76406],[-122.1516,37.78896],[-122.11771,37.82543],[-122.07495,37.87238],[-122.03403,37.91758],[-121.97024,37.98704],[-121.92723,38.03417],[-121.91725,38.04516],[-121.88564,38.07985],[-121.83371,38.13667],[-121.78992,38.18454],[-121.77965,38.19575],[-121.74693,38.2314],[-121.70172,38.28072],[-121.68156,38.3027],[-121.57592,38.41692],[-121.53474,38.45205],[-121.46173,38.49967],[-121.43551,38.51559]],"type":"LineString"}
}
