{
  "id": 2015177061,
  "type": "Feature",
  "properties": {
    "geom:area": 0,
    "geom:bbox": "-122.361620,37.491960,-121.259330,37.615370",
    "geom:latitude": 37.5427905407423,
    "geom:longitude": -121.81755198359556,
    "src:alt_label": "swim-approach",
    "src:geom": "swim",
    "swim:elevations": [
      4891,
      4857,
      4411,
      4191,
      3890,
      3781,
      3537,
      3357,
      3263,
      3083,
      3017,
      2690,
      2583,
      2457,
      2134,
      2004,
      1927,
      1829,
      1769,
      1511,
      1381,
      1249,
      1153,
      1058,
      888,
      668,
      629,
      471,
      328,
      206,
      158,
      261
    ],
    "swim:geom": "approach",
    "swim:timestamps": [
      1775054068,
      1775054071,
      1775054119,
      1775054141,
      1775054175,
      1775054192,
      1775054243,
      1775054276,
      1775054294,
      1775054335,
      1775054348,
      1775054394,
      1775054414,
      1775054432,
      1775054484,
      1775054508,
      1775054528,
      1775054567,
      1775054585,
      1775054618,
      1775054637,
      1775054663,
      1775054687,
      1775054705,
      1775054744,
      1775054786,
      1775054800,
      1775054839,
      1775054874,
      1775054908,
      1775054915,
      1775054960
    ],
    "wof:geomhash": "ca361a38c44e26a8d71b690ec0e457ce",
    "wof:id": 2015177061,
    "wof:repo": "sfomuseum-data-flights-2026-04"
  },
  "bbox": [
    -122.36162,
    37.49196,
    -121.25933,
    37.61537
  ],
  "geometry": {"coordinates":[[-121.25933,37.59334],[-121.2646,37.59266],[-121.34731,37.58317],[-121.3867,37.5786],[-121.4449,37.57195],[-121.47227,37.5687],[-121.55078,37.55937],[-121.59808,37.55398],[-121.62365,37.55091],[-121.67822,37.53794],[-121.69573,37.53369],[-121.75723,37.51918],[-121.78294,37.51287],[-121.80664,37.50723],[-121.8777,37.49196],[-121.91211,37.4928],[-121.93936,37.49451],[-121.99173,37.49757],[-122.01698,37.499],[-122.05896,37.50146],[-122.08236,37.50282],[-122.1136,37.51073],[-122.13844,37.52124],[-122.15803,37.52968],[-122.19601,37.54573],[-122.2325,37.56111],[-122.24326,37.56558],[-122.27227,37.57787],[-122.29764,37.58851],[-122.32184,37.59868],[-122.32738,37.60102],[-122.36162,37.61537]],"type":"LineString"}
}
