{
  "id": 2015338699,
  "type": "Feature",
  "properties": {
    "geom:area": 0,
    "geom:bbox": "-122.607500,37.629722,-88.016944,41.967500",
    "geom:latitude": 39.94573864771191,
    "geom:longitude": -105.52007975584938,
    "src:alt_label": "swim-path",
    "src:geom": "swim",
    "swim:altitudes": [
      "036",
      "036",
      "036",
      "036",
      "145",
      "145",
      "145",
      "145",
      "184",
      "184",
      "184",
      "232",
      "232",
      "232",
      "232",
      "232",
      "306",
      "306",
      "306",
      "320C",
      "320C",
      "320C",
      "320C",
      "320C",
      "320C",
      "320C",
      "320C",
      "320C",
      "320C",
      "320C",
      "320C",
      "320C",
      "320C",
      "320C",
      "340C",
      "340C",
      "340C",
      "340C",
      "340C",
      "340C",
      "340C",
      "340C",
      "340C",
      "340C",
      "340C",
      "340C",
      "340C",
      "340C",
      "340C",
      "340C",
      "340C",
      "340C",
      "340C",
      "340C",
      "340C",
      "340C",
      "340C",
      "340C",
      "340C",
      "340C",
      "340C",
      "340C",
      "340C",
      "340C",
      "340C",
      "340C",
      "340C",
      "340C",
      "340C",
      "340C",
      "340C",
      "340C",
      "340C",
      "340C",
      "340C",
      "340C",
      "340C",
      "340C",
      "340C",
      "340C",
      "340C",
      "340C",
      "340C",
      "340C",
      "340C",
      "340C",
      "340C",
      "340C",
      "340C",
      "340C",
      "340C",
      "340C",
      "340C",
      "340C",
      "340C",
      "340C",
      "340C",
      "340C",
      "340C",
      "340C",
      "340C",
      "340C",
      "340C",
      "340C",
      "340C",
      "340C",
      "340C",
      "340C",
      "340C",
      "340C",
      "340C",
      "340C",
      "340C",
      "340C",
      "340C",
      "340C",
      "340C",
      "340C",
      "340C",
      "340C",
      "340C",
      "340C",
      "340C",
      "340C",
      "340C",
      "340C",
      "340C",
      "340C",
      "340C",
      "340C",
      "340C",
      "340C",
      "340C",
      "340C",
      "340C",
      "340C",
      "340C",
      "340C",
      "340C",
      "340C",
      "340C",
      "340C",
      "340C",
      "340C",
      "340C",
      "340C",
      "340C",
      "340C",
      "340C",
      "340C",
      "340C",
      "340C",
      "340C",
      "340C",
      "340C",
      "340C",
      "340C",
      "340C",
      "340C",
      "340C",
      "340C",
      "340C",
      "340C",
      "340C",
      "340C",
      "340C",
      "340C",
      "340C",
      "340C",
      "340C",
      "340",
      "340",
      "340",
      "340",
      "340",
      "340",
      "340",
      "340",
      "340",
      "348",
      "355",
      "355",
      "355",
      "355",
      "360C",
      "360C",
      "360C",
      "360C",
      "360C",
      "360C",
      "360C",
      "360C",
      "360C",
      "360C",
      "360C",
      "360C",
      "360C",
      "360C",
      "360C",
      "360C",
      "360C",
      "360C",
      "360C",
      "360C",
      "360C",
      "360C",
      "360C",
      "360C",
      "360C",
      "360C",
      "360C",
      "360C",
      "360C",
      "360C",
      "360C",
      "360C",
      "360C",
      "360C",
      "360C",
      "360C",
      "360C",
      "360C",
      "360C",
      "360C",
      "360C",
      "360C",
      "360C",
      "360C",
      "360C",
      "360C",
      "360C",
      "360C",
      "360C",
      "360C",
      "360C",
      "360C",
      "360C",
      "360C",
      "360C",
      "360C",
      "360C",
      "364",
      "364",
      "364",
      "380C",
      "380C",
      "380C",
      "380C",
      "380C",
      "380C",
      "380C",
      "380C",
      "380C",
      "380C",
      "380C",
      "380C",
      "380C",
      "380C",
      "380C",
      "380C",
      "380C",
      "380C",
      "380C",
      "380C",
      "380C",
      "380C",
      "380C",
      "380C",
      "380C",
      "380C",
      "380C",
      "380C",
      "380C",
      "380C",
      "380C",
      "380",
      "380",
      "377",
      "375",
      "375",
      "375",
      "360C",
      "360C",
      "360C",
      "360C",
      "360C",
      "360C",
      "360C",
      "360C",
      "360C",
      "360C",
      "360C",
      "350",
      "350",
      "340C",
      "340C",
      "323",
      "323",
      "323",
      "270",
      "270",
      "268",
      "268",
      "254",
      "254",
      "217",
      "180",
      "180",
      "160",
      "127",
      "127",
      "127",
      "099",
      "096",
      "091",
      "091",
      "090",
      "080",
      "080",
      "080",
      "080",
      "070",
      "070",
      "070",
      "070",
      "070",
      "070",
      "070",
      "070",
      "050",
      "050",
      "050",
      "040",
      "032",
      "017",
      "017",
      "017",
      "009",
      "001",
      "001"
    ],
    "swim:geom": "path",
    "swim:speeds": [
      218,
      218,
      218,
      218,
      313,
      313,
      313,
      313,
      377,
      377,
      377,
      401,
      401,
      401,
      401,
      401,
      456,
      456,
      456,
      463,
      464,
      464,
      464,
      464,
      464,
      463,
      463,
      463,
      461,
      461,
      461,
      461,
      461,
      461,
      459,
      459,
      457,
      457,
      457,
      455,
      455,
      455,
      455,
      455,
      455,
      457,
      457,
      457,
      459,
      459,
      459,
      459,
      458,
      458,
      458,
      457,
      457,
      457,
      457,
      457,
      457,
      457,
      457,
      457,
      457,
      457,
      457,
      458,
      458,
      458,
      459,
      459,
      459,
      461,
      461,
      462,
      462,
      462,
      462,
      461,
      461,
      461,
      461,
      462,
      462,
      462,
      463,
      463,
      463,
      463,
      466,
      466,
      466,
      466,
      466,
      466,
      466,
      466,
      464,
      462,
      462,
      461,
      462,
      462,
      462,
      462,
      463,
      462,
      461,
      461,
      461,
      461,
      462,
      462,
      462,
      462,
      462,
      462,
      462,
      462,
      462,
      463,
      464,
      464,
      464,
      464,
      464,
      464,
      464,
      464,
      465,
      465,
      467,
      467,
      468,
      468,
      467,
      467,
      467,
      471,
      471,
      471,
      468,
      468,
      471,
      470,
      470,
      471,
      472,
      470,
      470,
      470,
      470,
      470,
      472,
      472,
      470,
      471,
      471,
      472,
      472,
      472,
      472,
      472,
      472,
      472,
      472,
      472,
      472,
      472,
      472,
      472,
      472,
      471,
      472,
      472,
      472,
      472,
      472,
      472,
      472,
      472,
      472,
      472,
      471,
      464,
      466,
      465,
      465,
      466,
      465,
      465,
      462,
      461,
      461,
      461,
      461,
      461,
      461,
      461,
      461,
      461,
      462,
      463,
      463,
      462,
      462,
      462,
      462,
      467,
      467,
      472,
      472,
      472,
      480,
      480,
      482,
      482,
      482,
      482,
      482,
      482,
      481,
      480,
      480,
      479,
      479,
      479,
      476,
      476,
      472,
      470,
      470,
      471,
      471,
      471,
      471,
      469,
      469,
      470,
      470,
      472,
      472,
      472,
      468,
      468,
      468,
      469,
      469,
      468,
      468,
      468,
      468,
      470,
      470,
      470,
      469,
      469,
      469,
      468,
      470,
      469,
      469,
      469,
      468,
      467,
      467,
      467,
      466,
      466,
      466,
      466,
      467,
      467,
      467,
      466,
      467,
      467,
      465,
      465,
      465,
      431,
      431,
      432,
      432,
      433,
      436,
      436,
      436,
      436,
      440,
      440,
      444,
      444,
      445,
      445,
      426,
      426,
      426,
      376,
      376,
      371,
      371,
      355,
      355,
      332,
      333,
      333,
      331,
      297,
      297,
      297,
      250,
      247,
      246,
      246,
      243,
      253,
      253,
      253,
      229,
      210,
      203,
      203,
      209,
      209,
      209,
      237,
      237,
      171,
      171,
      171,
      170,
      175,
      152,
      152,
      152,
      148,
      148,
      148
    ],
    "swim:timestamps": [
      1776705481,
      1776705481,
      1776705481,
      1776705481,
      1776705721,
      1776705721,
      1776705721,
      1776705721,
      1776705841,
      1776705841,
      1776705841,
      1776705962,
      1776705962,
      1776705962,
      1776705962,
      1776705962,
      1776706214,
      1776706214,
      1776706214,
      1776706274,
      1776706334,
      1776706334,
      1776706334,
      1776706334,
      1776706334,
      1776706506,
      1776706506,
      1776706506,
      1776706635,
      1776706635,
      1776706635,
      1776706686,
      1776706686,
      1776706686,
      1776706927,
      1776706927,
      1776706987,
      1776706995,
      1776706995,
      1776707107,
      1776707107,
      1776707107,
      1776707107,
      1776707107,
      1776707167,
      1776707296,
      1776707296,
      1776707296,
      1776707407,
      1776707407,
      1776707407,
      1776707467,
      1776707527,
      1776707536,
      1776707536,
      1776707588,
      1776707596,
      1776707648,
      1776707648,
      1776707648,
      1776707708,
      1776707717,
      1776707717,
      1776707717,
      1776707777,
      1776707777,
      1776707777,
      1776707828,
      1776707828,
      1776707828,
      1776707897,
      1776707897,
      1776707897,
      1776707948,
      1776707948,
      1776708008,
      1776708008,
      1776708008,
      1776708008,
      1776708309,
      1776708309,
      1776708309,
      1776708309,
      1776708489,
      1776708489,
      1776708489,
      1776708549,
      1776708549,
      1776708549,
      1776708549,
      1776708729,
      1776708729,
      1776708789,
      1776708789,
      1776708849,
      1776708849,
      1776708910,
      1776708910,
      1776709030,
      1776709142,
      1776709142,
      1776709150,
      1776709262,
      1776709262,
      1776709270,
      1776709270,
      1776709322,
      1776709382,
      1776709442,
      1776709442,
      1776709442,
      1776709450,
      1776709562,
      1776709622,
      1776709622,
      1776709622,
      1776709622,
      1776709751,
      1776709811,
      1776709811,
      1776709811,
      1776709871,
      1776709931,
      1776709931,
      1776709931,
      1776709983,
      1776709983,
      1776709983,
      1776710043,
      1776710043,
      1776710103,
      1776710103,
      1776710163,
      1776710163,
      1776710223,
      1776710223,
      1776710355,
      1776710355,
      1776710355,
      1776710522,
      1776710522,
      1776710522,
      1776710535,
      1776710535,
      1776710582,
      1776710595,
      1776710595,
      1776710643,
      1776710703,
      1776710716,
      1776710716,
      1776710776,
      1776710776,
      1776710776,
      1776710823,
      1776710823,
      1776710896,
      1776710968,
      1776710968,
      1776711003,
      1776711003,
      1776711003,
      1776711063,
      1776711063,
      1776711063,
      1776711123,
      1776711123,
      1776711183,
      1776711183,
      1776711183,
      1776711364,
      1776711364,
      1776711424,
      1776711449,
      1776711484,
      1776711509,
      1776711509,
      1776711544,
      1776711544,
      1776711569,
      1776711604,
      1776711604,
      1776711604,
      1776711604,
      1776711664,
      1776711689,
      1776711724,
      1776711856,
      1776711856,
      1776711869,
      1776711916,
      1776711916,
      1776711976,
      1776711989,
      1776712096,
      1776712096,
      1776712170,
      1776712170,
      1776712170,
      1776712170,
      1776712217,
      1776712337,
      1776712397,
      1776712410,
      1776712410,
      1776712517,
      1776712517,
      1776712517,
      1776712517,
      1776712709,
      1776712709,
      1776712769,
      1776712769,
      1776712769,
      1776712950,
      1776712950,
      1776713070,
      1776713070,
      1776713070,
      1776713070,
      1776713130,
      1776713130,
      1776713190,
      1776713310,
      1776713310,
      1776713370,
      1776713370,
      1776713370,
      1776713731,
      1776713731,
      1776713791,
      1776713851,
      1776713851,
      1776713911,
      1776713911,
      1776713911,
      1776713911,
      1776714331,
      1776714331,
      1776714392,
      1776714392,
      1776714452,
      1776714452,
      1776714452,
      1776714632,
      1776714692,
      1776714692,
      1776714752,
      1776714752,
      1776714812,
      1776714812,
      1776714812,
      1776714932,
      1776714992,
      1776714992,
      1776714992,
      1776715113,
      1776715233,
      1776715293,
      1776715353,
      1776715473,
      1776715593,
      1776715593,
      1776715593,
      1776715738,
      1776715773,
      1776715773,
      1776715773,
      1776715858,
      1776715894,
      1776715894,
      1776715918,
      1776715978,
      1776716014,
      1776716014,
      1776716074,
      1776716098,
      1776716134,
      1776716158,
      1776716158,
      1776716158,
      1776716314,
      1776716314,
      1776716339,
      1776716339,
      1776716399,
      1776716494,
      1776716494,
      1776716579,
      1776716579,
      1776716819,
      1776716819,
      1776716939,
      1776716939,
      1776716999,
      1776716999,
      1776717300,
      1776717300,
      1776717300,
      1776717420,
      1776717420,
      1776717426,
      1776717426,
      1776717475,
      1776717475,
      1776717600,
      1776717715,
      1776717715,
      1776717780,
      1776717900,
      1776717900,
      1776717900,
      1776718021,
      1776718081,
      1776718135,
      1776718135,
      1776718261,
      1776718381,
      1776718381,
      1776718381,
      1776718441,
      1776718561,
      1776718621,
      1776718621,
      1776718676,
      1776718676,
      1776718742,
      1776718796,
      1776718796,
      1776718982,
      1776718982,
      1776718982,
      1776719042,
      1776719102,
      1776719216,
      1776719216,
      1776719216,
      1776719282,
      1776719342,
      1776719342
    ],
    "wof:geomhash": "5d25ecace0fe2ed1c7c843afd5ed6c6d",
    "wof:id": 2015338699,
    "wof:repo": "sfomuseum-data-flights-2026-04"
  },
  "bbox": [
    -122.60749999999999,
    37.62972222222222,
    -88.01694444444445,
    41.9675
  ],
  "geometry": {"coordinates":[[-88.01694444444445,41.9675],[-88.01694444444445,41.9675],[-88.01694444444445,41.9675],[-88.01694444444445,41.9675],[-88.41611111111112,41.94222222222222],[-88.41611111111112,41.94222222222222],[-88.41611111111112,41.94222222222222],[-88.41611111111112,41.94222222222222],[-88.67777777777778,41.922777777777775],[-88.67777777777778,41.922777777777775],[-88.67777777777778,41.922777777777775],[-88.97194444444445,41.908055555555556],[-88.97194444444445,41.908055555555556],[-88.97194444444445,41.908055555555556],[-88.97194444444445,41.908055555555556],[-88.97194444444445,41.908055555555556],[-89.65138888888889,41.87916666666667],[-89.65138888888889,41.87916666666667],[-89.65138888888889,41.87916666666667],[-89.82527777777777,41.870555555555555],[-89.98194444444445,41.86277777777778],[-89.98194444444445,41.86277777777778],[-89.98194444444445,41.86277777777778],[-89.98194444444445,41.86277777777778],[-89.98194444444445,41.86277777777778],[-90.49638888888889,41.835],[-90.49638888888889,41.835],[-90.49638888888889,41.835],[-90.83805555555556,41.816111111111105],[-90.83805555555556,41.816111111111105],[-90.83805555555556,41.816111111111105],[-91.01,41.80611111111111],[-91.01,41.80611111111111],[-91.01,41.80611111111111],[-91.69250000000001,41.763333333333335],[-91.69250000000001,41.763333333333335],[-91.85972222222222,41.75222222222222],[-91.85972222222222,41.75222222222222],[-91.85972222222222,41.75222222222222],[-92.19555555555556,41.72916666666667],[-92.19555555555556,41.72916666666667],[-92.19555555555556,41.72916666666667],[-92.19555555555556,41.72916666666667],[-92.19555555555556,41.72916666666667],[-92.36694444444444,41.716944444444444],[-92.70361111111112,41.692499999999995],[-92.70361111111112,41.692499999999995],[-92.70361111111112,41.692499999999995],[-93.02027777777778,41.66833333333333],[-93.02027777777778,41.66833333333333],[-93.02027777777778,41.66833333333333],[-93.1888888888889,41.655],[-93.35916666666667,41.641666666666666],[-93.38972222222223,41.63916666666667],[-93.38972222222223,41.63916666666667],[-93.5275,41.62777777777778],[-93.55944444444444,41.625277777777775],[-93.69305555555556,41.614444444444445],[-93.69305555555556,41.614444444444445],[-93.69305555555556,41.614444444444445],[-93.86027777777777,41.60027777777778],[-93.89305555555556,41.597500000000004],[-93.89305555555556,41.597500000000004],[-93.89305555555556,41.597500000000004],[-94.06333333333333,41.5825],[-94.06333333333333,41.5825],[-94.06333333333333,41.5825],[-94.19638888888889,41.571111111111115],[-94.19638888888889,41.571111111111115],[-94.19638888888889,41.571111111111115],[-94.40083333333334,41.55305555555555],[-94.40083333333334,41.55305555555555],[-94.40083333333334,41.55305555555555],[-94.56166666666667,41.538333333333334],[-94.56166666666667,41.538333333333334],[-94.73055555555555,41.522777777777776],[-94.73055555555555,41.522777777777776],[-94.73055555555555,41.522777777777776],[-94.73055555555555,41.522777777777776],[-95.57638888888889,41.44138888888889],[-95.57638888888889,41.44138888888889],[-95.57638888888889,41.44138888888889],[-95.57638888888889,41.44138888888889],[-96.07138888888889,41.39055555555556],[-96.07138888888889,41.39055555555556],[-96.07138888888889,41.39055555555556],[-96.23944444444444,41.37277777777778],[-96.23944444444444,41.37277777777778],[-96.23944444444444,41.37277777777778],[-96.23944444444444,41.37277777777778],[-96.74694444444445,41.31777777777778],[-96.74694444444445,41.31777777777778],[-96.91777777777779,41.29888888888889],[-96.91777777777779,41.29888888888889],[-97.08944444444444,41.27916666666667],[-97.08944444444444,41.27916666666667],[-97.25722222222223,41.26],[-97.25722222222223,41.26],[-97.60222222222221,41.21944444444445],[-97.93416666666667,41.17972222222222],[-97.93416666666667,41.17972222222222],[-97.93555555555555,41.17944444444444],[-98.26944444444445,41.138333333333335],[-98.26944444444445,41.138333333333335],[-98.27083333333333,41.138333333333335],[-98.27083333333333,41.138333333333335],[-98.44,41.117222222222225],[-98.57388888888889,41.10027777777778],[-98.74277777777777,41.07833333333333],[-98.74277777777777,41.07833333333333],[-98.74277777777777,41.07833333333333],[-98.76583333333333,41.07527777777778],[-99.09222222222222,41.0325],[-99.25666666666666,41.01083333333333],[-99.25666666666666,41.01083333333333],[-99.25666666666666,41.01083333333333],[-99.25666666666666,41.01083333333333],[-99.625,40.96083333333333],[-99.79222222222222,40.937777777777775],[-99.79222222222222,40.937777777777775],[-99.79222222222222,40.937777777777775],[-99.95861111111111,40.91444444444444],[-100.12972222222221,40.89055555555556],[-100.12972222222221,40.89055555555556],[-100.12972222222221,40.89055555555556],[-100.26472222222222,40.87111111111111],[-100.26472222222222,40.87111111111111],[-100.26472222222222,40.87111111111111],[-100.43277777777779,40.846944444444446],[-100.43277777777779,40.846944444444446],[-100.6,40.822500000000005],[-100.6,40.822500000000005],[-100.78111111111112,40.79611111111111],[-100.78111111111112,40.79611111111111],[-100.95277777777778,40.77055555555555],[-100.95277777777778,40.77055555555555],[-101.2863888888889,40.72],[-101.2863888888889,40.72],[-101.2863888888889,40.72],[-101.78555555555555,40.6425],[-101.78555555555555,40.6425],[-101.78555555555555,40.6425],[-101.82416666666666,40.63666666666666],[-101.82416666666666,40.63666666666666],[-101.9538888888889,40.61611111111111],[-101.9925,40.61],[-101.9925,40.61],[-102.12305555555555,40.58833333333334],[-102.29388888888889,40.56055555555555],[-102.32916666666667,40.55583333333333],[-102.32916666666667,40.55583333333333],[-102.4961111111111,40.52861111111111],[-102.4961111111111,40.52861111111111],[-102.4961111111111,40.52861111111111],[-102.62972222222221,40.50527777777778],[-102.62972222222221,40.50527777777778],[-102.83388888888888,40.472500000000004],[-102.99916666666667,40.44499999999999],[-102.99916666666667,40.44499999999999],[-103.13083333333333,40.42111111111111],[-103.13083333333333,40.42111111111111],[-103.13083333333333,40.42111111111111],[-103.29888888888888,40.393055555555556],[-103.29888888888888,40.393055555555556],[-103.29888888888888,40.393055555555556],[-103.46527777777779,40.364444444444445],[-103.46527777777779,40.364444444444445],[-103.63222222222221,40.33555555555556],[-103.63222222222221,40.33555555555556],[-103.63222222222221,40.33555555555556],[-104.10138888888888,40.253055555555555],[-104.10138888888888,40.253055555555555],[-104.26777777777778,40.223055555555554],[-104.36277777777777,40.20583333333334],[-104.435,40.19305555555555],[-104.52944444444444,40.17527777777777],[-104.52944444444444,40.17527777777777],[-104.59944444444444,40.16222222222222],[-104.59944444444444,40.16222222222222],[-104.69500000000001,40.144999999999996],[-104.76388888888889,40.132222222222225],[-104.76388888888889,40.132222222222225],[-104.76388888888889,40.132222222222225],[-104.76388888888889,40.132222222222225],[-104.92888888888889,40.10055555555556],[-105.02,40.08416666666667],[-105.0936111111111,40.069722222222225],[-105.45527777777778,40.000277777777775],[-105.45527777777778,40.000277777777775],[-105.50833333333334,39.99111111111111],[-105.61694444444444,39.969166666666666],[-105.61694444444444,39.969166666666666],[-105.77694444444444,39.93833333333333],[-105.82944444444443,39.928888888888885],[-106.10027777777778,39.874722222222225],[-106.10027777777778,39.874722222222225],[-106.3111111111111,39.83305555555556],[-106.3111111111111,39.83305555555556],[-106.3111111111111,39.83305555555556],[-106.3111111111111,39.83305555555556],[-106.42194444444445,39.80972222222222],[-106.74944444444445,39.763888888888886],[-106.91527777777779,39.74583333333334],[-106.96027777777778,39.74166666666667],[-106.96027777777778,39.74166666666667],[-107.2461111111111,39.70888888888889],[-107.2461111111111,39.70888888888889],[-107.2461111111111,39.70888888888889],[-107.2461111111111,39.70888888888889],[-107.77916666666667,39.64694444444444],[-107.77916666666667,39.64694444444444],[-107.98083333333334,39.623333333333335],[-107.98083333333334,39.623333333333335],[-107.98083333333334,39.623333333333335],[-108.49166666666667,39.56055555555555],[-108.49166666666667,39.56055555555555],[-108.80666666666666,39.52055555555555],[-108.80666666666666,39.52055555555555],[-108.80666666666666,39.52055555555555],[-108.80666666666666,39.52055555555555],[-108.98277777777778,39.49805555555556],[-108.98277777777778,39.49805555555556],[-109.1538888888889,39.47555555555556],[-109.4925,39.43055555555555],[-109.4925,39.43055555555555],[-109.66194444444444,39.407777777777774],[-109.66194444444444,39.407777777777774],[-109.66194444444444,39.407777777777774],[-110.67083333333333,39.27027777777778],[-110.67083333333333,39.27027777777778],[-110.83583333333333,39.246944444444445],[-111.00055555555555,39.22361111111111],[-111.00055555555555,39.22361111111111],[-111.16611111111112,39.2],[-111.16611111111112,39.2],[-111.16611111111112,39.2],[-111.16611111111112,39.2],[-112.31416666666667,39.028888888888886],[-112.31416666666667,39.028888888888886],[-112.48,39.00333333333333],[-112.48,39.00333333333333],[-112.6438888888889,38.97777777777778],[-112.6438888888889,38.97777777777778],[-112.6438888888889,38.97777777777778],[-113.1363888888889,38.89888888888889],[-113.29861111111111,38.8725],[-113.29861111111111,38.8725],[-113.46166666666667,38.84583333333334],[-113.46166666666667,38.84583333333334],[-113.62583333333333,38.81861111111112],[-113.62583333333333,38.81861111111112],[-113.62583333333333,38.81861111111112],[-113.95111111111112,38.763888888888886],[-114.11527777777778,38.736111111111114],[-114.11527777777778,38.736111111111114],[-114.11527777777778,38.736111111111114],[-114.44111111111111,38.67972222222222],[-114.77416666666666,38.62111111111111],[-114.93555555555555,38.5925],[-115.09638888888888,38.56388888888888],[-115.43333333333334,38.50222222222222],[-115.75722222222223,38.442499999999995],[-115.75722222222223,38.442499999999995],[-115.75722222222223,38.442499999999995],[-116.14666666666668,38.36888888888889],[-116.24194444444444,38.350833333333334],[-116.24194444444444,38.350833333333334],[-116.24194444444444,38.350833333333334],[-116.46611111111112,38.303888888888885],[-116.55694444444444,38.283055555555556],[-116.55694444444444,38.283055555555556],[-116.62444444444444,38.26777777777777],[-116.78305555555555,38.23166666666667],[-116.87388888888889,38.21083333333333],[-116.87388888888889,38.21083333333333],[-117.03305555555555,38.17444444444444],[-117.09944444444444,38.159444444444446],[-117.19611111111111,38.136944444444445],[-117.25888888888889,38.12222222222222],[-117.25888888888889,38.12222222222222],[-117.25888888888889,38.12222222222222],[-117.62222222222222,38.03805555555555],[-117.62222222222222,38.03805555555555],[-117.6825,38.02388888888889],[-117.6825,38.02388888888889],[-117.83222222222221,37.99666666666667],[-118.07527777777777,37.971111111111114],[-118.07527777777777,37.971111111111114],[-118.28999999999999,37.948055555555555],[-118.28999999999999,37.948055555555555],[-118.90138888888889,37.88027777777778],[-118.90138888888889,37.88027777777778],[-119.21916666666667,37.843611111111116],[-119.21916666666667,37.843611111111116],[-119.37638888888888,37.825],[-119.37638888888888,37.825],[-120.1286111111111,37.73388888888889],[-120.1286111111111,37.73388888888889],[-120.1286111111111,37.73388888888889],[-120.40444444444445,37.69916666666666],[-120.40444444444445,37.69916666666666],[-120.41666666666667,37.7],[-120.41666666666667,37.7],[-120.51666666666667,37.68333333333333],[-120.51666666666667,37.68333333333333],[-120.76694444444445,37.656666666666666],[-120.98333333333333,37.63333333333333],[-120.98333333333333,37.63333333333333],[-121.1061111111111,37.66083333333333],[-121.31666666666666,37.7],[-121.31666666666666,37.7],[-121.31666666666666,37.7],[-121.51666666666667,37.733333333333334],[-121.58666666666666,37.74888888888889],[-121.66666666666667,37.766666666666666],[-121.66666666666667,37.766666666666666],[-121.83555555555554,37.794444444444444],[-121.97527777777778,37.88166666666667],[-121.97527777777778,37.88166666666667],[-121.97527777777778,37.88166666666667],[-122.05,37.9],[-122.18805555555556,37.87222222222222],[-122.23333333333333,37.81666666666667],[-122.23333333333333,37.81666666666667],[-122.26666666666667,37.78333333333333],[-122.26666666666667,37.78333333333333],[-122.31166666666667,37.72805555555556],[-122.38333333333334,37.733333333333334],[-122.38333333333334,37.733333333333334],[-122.57111111111111,37.78333333333333],[-122.57111111111111,37.78333333333333],[-122.57111111111111,37.78333333333333],[-122.60749999999999,37.74805555555556],[-122.57805555555555,37.71416666666667],[-122.48333333333333,37.666666666666664],[-122.48333333333333,37.666666666666664],[-122.48333333333333,37.666666666666664],[-122.44111111111111,37.650277777777774],[-122.39583333333334,37.62972222222222],[-122.39583333333334,37.62972222222222]],"type":"LineString"}
}
