{
  "id": 2015295317,
  "type": "Feature",
  "properties": {
    "geom:area": 0,
    "geom:bbox": "-122.359570,36.743560,-121.891870,37.611420",
    "geom:latitude": 37.10002215531591,
    "geom:longitude": -122.15402257317098,
    "src:alt_label": "swim-approach",
    "src:geom": "swim",
    "swim:elevations": [
      5483,
      5076,
      4846,
      4666,
      4571,
      4516,
      4439,
      4327,
      4212,
      4134,
      3888,
      3642,
      3556,
      3497,
      3329,
      3190,
      3048,
      3048,
      3052,
      3048,
      3057,
      3074,
      3048,
      3048,
      3048,
      3048,
      2904,
      2709,
      2532,
      2437,
      2438,
      2440,
      2438,
      2438,
      2438,
      2438,
      2438,
      2438,
      2336,
      2107,
      1918,
      1884,
      1829,
      1805,
      1530,
      1434,
      1321,
      1222,
      1219,
      1151,
      1056,
      925,
      913,
      914,
      914,
      810,
      633,
      585,
      539,
      394,
      341,
      245,
      137,
      51,
      9
    ],
    "swim:geom": "approach",
    "swim:timestamps": [
      1776283066,
      1776283109,
      1776283132,
      1776283154,
      1776283186,
      1776283200,
      1776283219,
      1776283256,
      1776283282,
      1776283298,
      1776283338,
      1776283375,
      1776283384,
      1776283394,
      1776283421,
      1776283447,
      1776283493,
      1776283508,
      1776283550,
      1776283572,
      1776283614,
      1776283621,
      1776283662,
      1776283688,
      1776283714,
      1776283734,
      1776283764,
      1776283787,
      1776283813,
      1776283833,
      1776283879,
      1776283900,
      1776283916,
      1776283944,
      1776283959,
      1776283996,
      1776284030,
      1776284065,
      1776284092,
      1776284128,
      1776284157,
      1776284162,
      1776284194,
      1776284207,
      1776284247,
      1776284267,
      1776284294,
      1776284322,
      1776284340,
      1776284398,
      1776284409,
      1776284428,
      1776284447,
      1776284462,
      1776284501,
      1776284530,
      1776284578,
      1776284584,
      1776284598,
      1776284634,
      1776284656,
      1776284676,
      1776284706,
      1776284727,
      1776284736
    ],
    "wof:geomhash": "187181c84153041b8b8680561d9432ac",
    "wof:id": 2015295317,
    "wof:repo": "sfomuseum-data-flights-2026-04"
  },
  "bbox": [
    -122.35957,
    36.74356,
    -121.89187,
    37.61142
  ],
  "geometry": {"coordinates":[[-121.89187,36.74356],[-121.95592,36.78505],[-122.00031,36.79313],[-122.04362,36.80056],[-122.10232,36.81018],[-122.12605,36.8142],[-122.15879,36.81985],[-122.21694,36.82963],[-122.25559,36.82729],[-122.27354,36.81476],[-122.27302,36.76794],[-122.22182,36.7502],[-122.20867,36.75322],[-122.1963,36.75924],[-122.16665,36.78225],[-122.1399,36.80328],[-122.09179,36.84157],[-122.07679,36.85342],[-122.03316,36.88771],[-122.01012,36.9058],[-121.97106,36.94416],[-121.96783,36.95166],[-121.97056,36.99655],[-121.9812,37.02403],[-121.99157,37.05083],[-122.00057,37.07163],[-122.02586,37.0943],[-122.04753,37.11151],[-122.07139,37.13017],[-122.09238,37.14106],[-122.14698,37.15928],[-122.17174,37.1676],[-122.19065,37.17402],[-122.223,37.18505],[-122.24071,37.19099],[-122.28353,37.20543],[-122.32369,37.21891],[-122.35428,37.24237],[-122.35957,37.2698],[-122.34528,37.30735],[-122.31429,37.32386],[-122.3063,37.32541],[-122.2638,37.3338],[-122.24797,37.34037],[-122.20477,37.36355],[-122.18666,37.37822],[-122.17281,37.4015],[-122.15906,37.42412],[-122.15033,37.43793],[-122.1229,37.48146],[-122.12018,37.48939],[-122.12669,37.50261],[-122.13697,37.51367],[-122.14719,37.52158],[-122.17798,37.53603],[-122.20131,37.54563],[-122.238,37.5612],[-122.24292,37.56331],[-122.25325,37.56766],[-122.2805,37.57901],[-122.29675,37.58579],[-122.31144,37.59203],[-122.33473,37.60177],[-122.35113,37.60869],[-122.35803,37.61142]],"type":"LineString"}
}
