{
  "id": 2015308007,
  "type": "Feature",
  "properties": {
    "geom:area": 0,
    "geom:bbox": "-122.403690,37.625310,-121.278290,38.016470",
    "geom:latitude": 37.85692100597897,
    "geom:longitude": -121.86187350951751,
    "src:alt_label": "swim-takeoff",
    "src:geom": "swim",
    "swim:elevations": [
      152,
      371,
      645,
      871,
      1282,
      1801,
      1935,
      2500,
      2717,
      3148,
      3472,
      3955,
      3990,
      4543,
      5071,
      5155,
      5407,
      5716,
      5878,
      6230,
      6622,
      6888,
      7182,
      7453,
      7568
    ],
    "swim:geom": "takeoff",
    "swim:timestamps": [
      1776331433,
      1776331449,
      1776331490,
      1776331505,
      1776331533,
      1776331584,
      1776331592,
      1776331632,
      1776331652,
      1776331684,
      1776331728,
      1776331767,
      1776331771,
      1776331812,
      1776331856,
      1776331864,
      1776331890,
      1776331916,
      1776331929,
      1776331960,
      1776332000,
      1776332029,
      1776332060,
      1776332088,
      1776332100
    ],
    "wof:geomhash": "90e2f5749fc0874525c55b68dcd60f45",
    "wof:id": 2015308007,
    "wof:repo": "sfomuseum-data-flights-2026-04"
  },
  "bbox": [
    -122.40369,
    37.62531,
    -121.27829,
    38.01647
  ],
  "geometry": {"coordinates":[[-122.39094,37.62531],[-122.40369,37.63297],[-122.38406,37.66044],[-122.36602,37.66511],[-122.3325,37.675],[-122.26387,37.70013],[-122.25273,37.70415],[-122.19661,37.72684],[-122.16983,37.7409],[-122.12421,37.76437],[-122.05701,37.79923],[-121.99177,37.83111],[-121.98543,37.8336],[-121.91,37.86358],[-121.82799,37.89646],[-121.81231,37.9026],[-121.76235,37.92206],[-121.70723,37.93644],[-121.67834,37.94171],[-121.60947,37.9546],[-121.51556,37.97241],[-121.44808,37.98501],[-121.37471,37.99866],[-121.30764,38.01101],[-121.27829,38.01647]],"type":"LineString"}
}
