{
  "id": 2015191155,
  "type": "Feature",
  "properties": {
    "geom:area": 0,
    "geom:bbox": "-122.546920,36.723840,-121.445050,37.667640",
    "geom:latitude": 37.21100308383762,
    "geom:longitude": -122.06956391360336,
    "src:alt_label": "swim-takeoff",
    "src:geom": "swim",
    "swim:elevations": [
      311,
      445,
      809,
      1093,
      1299,
      1736,
      2276,
      2675,
      3232,
      3382,
      3648,
      3700,
      4256,
      4799,
      5043,
      5462,
      5975,
      6417,
      6643,
      6690,
      6812,
      7151,
      7552,
      7792,
      7999,
      8466,
      8637,
      8893,
      9214,
      9430
    ],
    "swim:geom": "takeoff",
    "swim:timestamps": [
      1775126963,
      1775126971,
      1775126995,
      1775127026,
      1775127039,
      1775127067,
      1775127096,
      1775127121,
      1775127160,
      1775127178,
      1775127205,
      1775127212,
      1775127254,
      1775127286,
      1775127303,
      1775127337,
      1775127379,
      1775127418,
      1775127444,
      1775127447,
      1775127460,
      1775127495,
      1775127532,
      1775127553,
      1775127575,
      1775127626,
      1775127640,
      1775127662,
      1775127694,
      1775127721
    ],
    "wof:geomhash": "c27a04f3756dc5f527eb7b624711ee5c",
    "wof:id": 2015191155,
    "wof:repo": "sfomuseum-data-flights-2026-04"
  },
  "bbox": [
    -122.54692,
    36.72384,
    -121.44505,
    37.66764
  ],
  "geometry": {"coordinates":[[-122.40078,37.62952],[-122.40852,37.63282],[-122.43014,37.64254],[-122.46237,37.65666],[-122.47716,37.66297],[-122.51607,37.66764],[-122.54692,37.64179],[-122.54423,37.60659],[-122.51083,37.55569],[-122.49497,37.52807],[-122.46661,37.48704],[-122.45721,37.47804],[-122.38219,37.42293],[-122.32441,37.37999],[-122.29311,37.35657],[-122.23175,37.31048],[-122.15186,37.25152],[-122.07464,37.19493],[-122.02321,37.15704],[-122.01551,37.15132],[-121.99006,37.13233],[-121.91888,37.07847],[-121.841,37.01995],[-121.79722,36.98712],[-121.75184,36.95409],[-121.64207,36.87234],[-121.61269,36.85047],[-121.56647,36.81526],[-121.49992,36.7656],[-121.44505,36.72384]],"type":"LineString"}
}
