{
  "id": 2015242013,
  "type": "Feature",
  "properties": {
    "geom:area": 0,
    "geom:bbox": "-122.297500,35.175000,-81.022778,38.337778",
    "geom:latitude": 37.02412192765948,
    "geom:longitude": -101.64932413262628,
    "src:alt_label": "swim-path",
    "src:geom": "swim",
    "swim:altitudes": [
      "033",
      "055",
      "089",
      "126",
      "126",
      "146",
      "164",
      "164",
      "199",
      "199",
      "213",
      "236",
      "236",
      "243",
      "243",
      "261",
      "267",
      "267",
      "289",
      "297",
      "297",
      "314",
      "314",
      "316",
      "321C",
      "321C",
      "321C",
      "320C",
      "320C",
      "320C",
      "320C",
      "320C",
      "320C",
      "320C",
      "320C",
      "320C",
      "320C",
      "320C",
      "320C",
      "320C",
      "320C",
      "320C",
      "320C",
      "320C",
      "320C",
      "320C",
      "320C",
      "320C",
      "320C",
      "320C",
      "320C",
      "320C",
      "320C",
      "320C",
      "320C",
      "320C",
      "320C",
      "320C",
      "320C",
      "320C",
      "320C",
      "320C",
      "320C",
      "320C",
      "320C",
      "320C",
      "320C",
      "320C",
      "320C",
      "320C",
      "320C",
      "320C",
      "320C",
      "320C",
      "320C",
      "320C",
      "320C",
      "320C",
      "320C",
      "320C",
      "320C",
      "320C",
      "320C",
      "320C",
      "320C",
      "320C",
      "320C",
      "320C",
      "320C",
      "320C",
      "320C",
      "320C",
      "320C",
      "320C",
      "320C",
      "320C",
      "320C",
      "320C",
      "320C",
      "320C",
      "320C",
      "320C",
      "320C",
      "320C",
      "320C",
      "320C",
      "320C",
      "320C",
      "320C",
      "320C",
      "320C",
      "320C",
      "320C",
      "320C",
      "320C",
      "320C",
      "320C",
      "320C",
      "320C",
      "320C",
      "320C",
      "320C",
      "320C",
      "320C",
      "320C",
      "320C",
      "320C",
      "320C",
      "321",
      "324",
      "333",
      "333",
      "336",
      "338C",
      "340C",
      "340C",
      "340C",
      "340C",
      "340C",
      "340C",
      "340C",
      "340C",
      "340C",
      "340C",
      "340C",
      "340C",
      "340C",
      "340C",
      "340C",
      "340C",
      "340C",
      "340C",
      "340C",
      "340C",
      "340C",
      "340C",
      "340C",
      "340C",
      "340C",
      "340C",
      "340C",
      "340C",
      "340C",
      "340C",
      "340C",
      "340C",
      "340C",
      "340C",
      "340C",
      "340C",
      "340C",
      "340C",
      "340C",
      "341C",
      "340C",
      "340C",
      "340C",
      "340C",
      "340C",
      "340C",
      "340C",
      "340C",
      "340C",
      "340C",
      "340C",
      "340C",
      "340C",
      "340C",
      "340C",
      "340C",
      "340C",
      "341C",
      "341C",
      "340C",
      "340C",
      "340C",
      "340C",
      "340C",
      "340C",
      "340C",
      "340C",
      "340C",
      "340C",
      "340C",
      "340C",
      "340C",
      "340C",
      "340C",
      "340C",
      "340C",
      "340C",
      "340C",
      "341C",
      "340C",
      "340C",
      "340C",
      "340C",
      "340C",
      "340C",
      "340C",
      "340C",
      "340C",
      "340C",
      "340C",
      "340C",
      "340C",
      "341C",
      "340C",
      "340C",
      "340C",
      "340C",
      "340C",
      "340C",
      "340C",
      "340C",
      "340C",
      "340C",
      "340C",
      "340C",
      "340C",
      "340C",
      "340C",
      "340C",
      "340C",
      "340C",
      "340C",
      "340C",
      "340C",
      "340C",
      "340C",
      "340C",
      "340C",
      "340C",
      "340C",
      "340C",
      "340C",
      "340C",
      "340C",
      "340C",
      "340C",
      "340C",
      "340C",
      "340C",
      "340C",
      "341C",
      "341C",
      "340C",
      "319",
      "319",
      "319",
      "283",
      "262",
      "256",
      "256",
      "244",
      "204",
      "198",
      "198",
      "185",
      "164",
      "159",
      "146",
      "146",
      "133",
      "100",
      "100",
      "077",
      "077",
      "067",
      "059",
      "059",
      "057",
      "048",
      "039",
      "011",
      "011"
    ],
    "swim:geom": "path",
    "swim:speeds": [
      240,
      266,
      296,
      334,
      334,
      338,
      345,
      345,
      388,
      388,
      397,
      405,
      405,
      410,
      410,
      425,
      431,
      431,
      443,
      443,
      443,
      429,
      429,
      428,
      426,
      427,
      427,
      426,
      426,
      422,
      420,
      420,
      421,
      421,
      421,
      421,
      420,
      420,
      419,
      418,
      418,
      413,
      413,
      411,
      411,
      413,
      412,
      412,
      412,
      412,
      412,
      412,
      413,
      413,
      413,
      412,
      412,
      412,
      412,
      412,
      412,
      412,
      415,
      416,
      416,
      415,
      415,
      416,
      416,
      416,
      416,
      416,
      416,
      416,
      416,
      415,
      415,
      415,
      414,
      414,
      413,
      413,
      413,
      411,
      411,
      411,
      411,
      412,
      412,
      412,
      413,
      412,
      412,
      413,
      413,
      413,
      412,
      412,
      411,
      411,
      412,
      413,
      413,
      414,
      414,
      414,
      414,
      414,
      414,
      413,
      412,
      412,
      412,
      412,
      412,
      412,
      411,
      411,
      411,
      411,
      411,
      411,
      410,
      411,
      411,
      412,
      412,
      412,
      412,
      412,
      412,
      412,
      411,
      410,
      406,
      408,
      409,
      409,
      409,
      410,
      412,
      411,
      413,
      413,
      415,
      413,
      415,
      415,
      413,
      414,
      414,
      413,
      413,
      412,
      412,
      409,
      411,
      410,
      410,
      408,
      406,
      406,
      406,
      408,
      407,
      408,
      408,
      410,
      410,
      410,
      414,
      414,
      413,
      414,
      406,
      405,
      405,
      405,
      405,
      408,
      408,
      409,
      409,
      411,
      411,
      412,
      413,
      413,
      411,
      411,
      413,
      413,
      413,
      415,
      413,
      415,
      414,
      414,
      414,
      414,
      413,
      414,
      413,
      407,
      411,
      411,
      406,
      405,
      405,
      403,
      405,
      405,
      408,
      408,
      408,
      408,
      408,
      408,
      409,
      409,
      409,
      409,
      409,
      408,
      408,
      407,
      410,
      410,
      408,
      408,
      408,
      408,
      408,
      406,
      406,
      409,
      409,
      410,
      411,
      411,
      411,
      411,
      409,
      409,
      408,
      408,
      407,
      407,
      415,
      415,
      413,
      416,
      416,
      418,
      418,
      420,
      420,
      422,
      423,
      423,
      424,
      419,
      420,
      420,
      423,
      423,
      424,
      426,
      423,
      423,
      425,
      413,
      406,
      406,
      388,
      365,
      358,
      358,
      358,
      349,
      342,
      338,
      338,
      317,
      295,
      295,
      278,
      278,
      275,
      259,
      259,
      249,
      242,
      231,
      145,
      145
    ],
    "swim:timestamps": [
      1775755275,
      1775755335,
      1775755445,
      1775755576,
      1775755576,
      1775755636,
      1775755696,
      1775755696,
      1775755876,
      1775755876,
      1775755936,
      1775756056,
      1775756056,
      1775756117,
      1775756117,
      1775756237,
      1775756297,
      1775756297,
      1775756477,
      1775756537,
      1775756537,
      1775756657,
      1775756657,
      1775756679,
      1775756898,
      1775756919,
      1775756958,
      1775756979,
      1775756979,
      1775757100,
      1775757198,
      1775757198,
      1775757280,
      1775757318,
      1775757400,
      1775757400,
      1775757439,
      1775757460,
      1775757559,
      1775757580,
      1775757580,
      1775757760,
      1775757760,
      1775757821,
      1775757821,
      1775758181,
      1775758241,
      1775758241,
      1775758301,
      1775758361,
      1775758421,
      1775758421,
      1775758542,
      1775758542,
      1775758602,
      1775758782,
      1775758842,
      1775758842,
      1775758902,
      1775758902,
      1775759082,
      1775759082,
      1775759323,
      1775759383,
      1775759383,
      1775759413,
      1775759413,
      1775759443,
      1775759474,
      1775759623,
      1775759714,
      1775759714,
      1775759743,
      1775759774,
      1775759803,
      1775759834,
      1775759863,
      1775759863,
      1775759923,
      1775759954,
      1775759983,
      1775760044,
      1775760044,
      1775760404,
      1775760404,
      1775760435,
      1775760495,
      1775760584,
      1775760584,
      1775760615,
      1775760644,
      1775760675,
      1775760675,
      1775760795,
      1775760855,
      1775760855,
      1775760885,
      1775760915,
      1775761096,
      1775761096,
      1775761156,
      1775761245,
      1775761245,
      1775761486,
      1775761576,
      1775761606,
      1775761606,
      1775761726,
      1775761726,
      1775761817,
      1775762057,
      1775762057,
      1775762117,
      1775762177,
      1775762297,
      1775762297,
      1775762538,
      1775762658,
      1775762658,
      1775762778,
      1775762838,
      1775762838,
      1775763138,
      1775763198,
      1775763198,
      1775763319,
      1775763319,
      1775763345,
      1775763379,
      1775763406,
      1775763466,
      1775763466,
      1775763488,
      1775763499,
      1775763548,
      1775763559,
      1775763586,
      1775763619,
      1775763668,
      1775763706,
      1775763826,
      1775763849,
      1775763859,
      1775763859,
      1775763909,
      1775763946,
      1775763969,
      1775763969,
      1775763979,
      1775764029,
      1775764029,
      1775764067,
      1775764100,
      1775764209,
      1775764209,
      1775764280,
      1775764307,
      1775764367,
      1775764367,
      1775764487,
      1775764508,
      1775764508,
      1775764568,
      1775764607,
      1775764628,
      1775764688,
      1775764688,
      1775764728,
      1775764728,
      1775764809,
      1775764930,
      1775764930,
      1775764968,
      1775764990,
      1775765088,
      1775765110,
      1775765148,
      1775765148,
      1775765208,
      1775765591,
      1775765591,
      1775765651,
      1775765651,
      1775766072,
      1775766072,
      1775766192,
      1775766218,
      1775766279,
      1775766312,
      1775766312,
      1775766492,
      1775766519,
      1775766519,
      1775766552,
      1775766579,
      1775766612,
      1775766759,
      1775766759,
      1775766819,
      1775766853,
      1775766913,
      1775766939,
      1775767060,
      1775767093,
      1775767120,
      1775767120,
      1775767153,
      1775767213,
      1775767213,
      1775767240,
      1775767300,
      1775767300,
      1775767393,
      1775767420,
      1775767453,
      1775767453,
      1775767513,
      1775767694,
      1775767720,
      1775767781,
      1775767814,
      1775767841,
      1775767901,
      1775767934,
      1775767934,
      1775768021,
      1775768141,
      1775768261,
      1775768441,
      1775768441,
      1775768502,
      1775768562,
      1775768562,
      1775768802,
      1775768802,
      1775768982,
      1775768982,
      1775769102,
      1775769162,
      1775769223,
      1775769223,
      1775769283,
      1775769343,
      1775769343,
      1775769403,
      1775769463,
      1775769523,
      1775769523,
      1775769882,
      1775769882,
      1775769942,
      1775770064,
      1775770064,
      1775770364,
      1775770364,
      1775770603,
      1775770603,
      1775770783,
      1775770845,
      1775770845,
      1775770905,
      1775771205,
      1775771264,
      1775771264,
      1775771384,
      1775771384,
      1775771504,
      1775771917,
      1775771925,
      1775771925,
      1775772045,
      1775772105,
      1775772115,
      1775772115,
      1775772165,
      1775772285,
      1775772295,
      1775772295,
      1775772345,
      1775772406,
      1775772415,
      1775772466,
      1775772466,
      1775772526,
      1775772655,
      1775772655,
      1775772775,
      1775772775,
      1775772826,
      1775772886,
      1775772886,
      1775772895,
      1775772946,
      1775773006,
      1775773187,
      1775773187
    ],
    "wof:geomhash": "1995f1908f354441074f3bf9e58a1541",
    "wof:id": 2015242013,
    "wof:repo": "sfomuseum-data-flights-2026-04"
  },
  "bbox": [
    -122.2975,
    35.175,
    -81.02277777777778,
    38.33777777777778
  ],
  "geometry": {"coordinates":[[-81.02277777777778,35.286944444444444],[-81.1111111111111,35.29055555555556],[-81.29305555555555,35.253055555555555],[-81.51138888888889,35.21055555555556],[-81.51138888888889,35.21055555555556],[-81.62472222222222,35.187777777777775],[-81.74194444444444,35.183611111111105],[-81.74194444444444,35.183611111111105],[-82.1325,35.175],[-82.1325,35.175],[-82.26694444444445,35.18666666666666],[-82.53055555555555,35.248333333333335],[-82.53055555555555,35.248333333333335],[-82.64027777777778,35.27388888888889],[-82.64027777777778,35.27388888888889],[-82.94305555555556,35.344166666666666],[-83.08638888888889,35.37722222222222],[-83.08638888888889,35.37722222222222],[-83.505,35.47222222222222],[-83.65083333333334,35.50472222222222],[-83.65083333333334,35.50472222222222],[-83.93277777777779,35.56722222222223],[-83.93277777777779,35.56722222222223],[-83.99027777777778,35.57916666666667],[-84.49472222222222,35.68944444444444],[-84.55305555555556,35.70194444444445],[-84.63722222222223,35.72],[-84.69305555555556,35.73166666666667],[-84.69305555555556,35.73166666666667],[-84.97888888888889,35.7925],[-85.2038888888889,35.839444444444446],[-85.2038888888889,35.839444444444446],[-85.39944444444446,35.88],[-85.48472222222222,35.8975],[-85.67944444444444,35.93722222222222],[-85.67944444444444,35.93722222222222],[-85.76305555555555,35.95444444444445],[-85.82055555555556,35.965833333333336],[-86.04472222222222,36.01083333333333],[-86.10194444444444,36.02222222222222],[-86.10194444444444,36.02222222222222],[-86.515,36.10388888888889],[-86.515,36.10388888888889],[-86.65305555555557,36.13],[-86.65305555555557,36.13],[-87.48305555555555,36.13055555555555],[-87.62527777777777,36.12888888888889],[-87.62527777777777,36.12888888888889],[-87.76666666666667,36.12722222222222],[-87.9088888888889,36.125],[-88.05,36.12638888888889],[-88.05,36.12638888888889],[-88.34138888888889,36.12833333333333],[-88.34138888888889,36.12833333333333],[-88.48416666666667,36.12888888888889],[-88.91194444444444,36.13],[-89.05388888888889,36.13],[-89.05388888888889,36.13],[-89.19777777777779,36.129444444444445],[-89.19777777777779,36.129444444444445],[-89.62722222222222,36.12694444444445],[-89.62722222222222,36.12694444444445],[-90.19944444444445,36.12166666666667],[-90.31555555555555,36.12],[-90.31555555555555,36.12],[-90.40111111111112,36.11666666666667],[-90.40111111111112,36.11666666666667],[-90.45805555555556,36.11805555555556],[-90.54388888888889,36.11472222222223],[-90.8863888888889,36.11138888888889],[-91.11527777777778,36.11611111111111],[-91.11527777777778,36.11611111111111],[-91.17361111111111,36.11833333333333],[-91.25805555555556,36.12138888888889],[-91.31611111111111,36.12361111111111],[-91.40166666666667,36.12638888888889],[-91.4575,36.12833333333333],[-91.4575,36.12833333333333],[-91.6,36.13305555555556],[-91.68333333333334,36.132777777777775],[-91.74083333333333,36.13166666666667],[-91.88361111111112,36.12916666666667],[-91.88361111111112,36.12916666666667],[-92.73194444444445,36.10916666666667],[-92.73194444444445,36.10916666666667],[-92.81472222222222,36.106944444444444],[-92.95916666666668,36.10277777777778],[-93.16972222222223,36.096944444444446],[-93.16972222222223,36.096944444444446],[-93.22666666666667,36.095],[-93.3111111111111,36.0925],[-93.36722222222221,36.09055555555556],[-93.36722222222221,36.09055555555556],[-93.65305555555557,36.08361111111111],[-93.79333333333334,36.0925],[-93.79333333333334,36.0925],[-93.87916666666666,36.097500000000004],[-93.93611111111112,36.10111111111111],[-94.3586111111111,36.125277777777775],[-94.3586111111111,36.125277777777775],[-94.50194444444445,36.13305555555556],[-94.72777777777777,36.14527777777778],[-94.72777777777777,36.14527777777778],[-95.29694444444445,36.17388888888889],[-95.49888888888889,36.18333333333333],[-95.55833333333334,36.18611111111111],[-95.55833333333334,36.18611111111111],[-95.84222222222222,36.20444444444445],[-95.84222222222222,36.20444444444445],[-96.07111111111111,36.23777777777778],[-96.63166666666666,36.31722222222223],[-96.63166666666666,36.31722222222223],[-96.77305555555556,36.33694444444445],[-96.8938888888889,36.353611111111114],[-97.17361111111111,36.391666666666666],[-97.17361111111111,36.391666666666666],[-97.75777777777778,36.46888888888889],[-98.03527777777778,36.507222222222225],[-98.03527777777778,36.507222222222225],[-98.30027777777778,36.55888888888889],[-98.43916666666667,36.58583333333333],[-98.43916666666667,36.58583333333333],[-99.13277777777778,36.717222222222226],[-99.27638888888889,36.74388888888889],[-99.27638888888889,36.74388888888889],[-99.55444444444444,36.794999999999995],[-99.55444444444444,36.794999999999995],[-99.6111111111111,36.80472222222222],[-99.69250000000001,36.82027777777778],[-99.75138888888888,36.83083333333334],[-99.88694444444445,36.85527777777778],[-99.88694444444445,36.85527777777778],[-99.94361111111111,36.86694444444444],[-99.96972222222223,36.87],[-100.08027777777778,36.89055555555556],[-100.10916666666667,36.894999999999996],[-100.16722222222222,36.905277777777776],[-100.24722222222222,36.919444444444444],[-100.36055555555555,36.93944444444444],[-100.44638888888889,36.95444444444445],[-100.7275,37.00277777777778],[-100.78305555555555,37.0125],[-100.81083333333333,37.01722222222222],[-100.81083333333333,37.01722222222222],[-100.92527777777778,37.03611111111111],[-101.01166666666667,37.05138888888889],[-101.06583333333333,37.059999999999995],[-101.06583333333333,37.059999999999995],[-101.09305555555555,37.06583333333333],[-101.20722222222223,37.08555555555556],[-101.20722222222223,37.08555555555556],[-101.28888888888889,37.099722222222226],[-101.37583333333333,37.11472222222223],[-101.62722222222222,37.157777777777774],[-101.62722222222222,37.157777777777774],[-101.79472222222222,37.18583333333333],[-101.85249999999999,37.19555555555555],[-101.98583333333333,37.217777777777776],[-101.98583333333333,37.217777777777776],[-102.24722222222222,37.26111111111111],[-102.29305555555555,37.26861111111111],[-102.29305555555555,37.26861111111111],[-102.43111111111112,37.29111111111111],[-102.52527777777777,37.30611111111111],[-102.56944444444444,37.31333333333333],[-102.71055555555556,37.33583333333333],[-102.71055555555556,37.33583333333333],[-102.80499999999999,37.350833333333334],[-102.80499999999999,37.350833333333334],[-102.99472222222222,37.380833333333335],[-103.28666666666666,37.42638888888889],[-103.28666666666666,37.42638888888889],[-103.3711111111111,37.43944444444444],[-103.42972222222222,37.44833333333333],[-103.64777777777779,37.481388888888894],[-103.70527777777778,37.49],[-103.78888888888889,37.50277777777778],[-103.78888888888889,37.50277777777778],[-103.92916666666667,37.52361111111111],[-104.845,37.651944444444446],[-104.845,37.651944444444446],[-104.98666666666666,37.669444444444444],[-104.98666666666666,37.669444444444444],[-105.98388888888888,37.78777777777778],[-105.98388888888888,37.78777777777778],[-106.27111111111111,37.82027777777778],[-106.32111111111111,37.823055555555555],[-106.46388888888889,37.837500000000006],[-106.54583333333333,37.85055555555556],[-106.54583333333333,37.85055555555556],[-106.97666666666667,37.89666666666667],[-107.03583333333333,37.901111111111106],[-107.03583333333333,37.901111111111106],[-107.12166666666666,37.911944444444444],[-107.18194444444445,37.91722222222222],[-107.26833333333333,37.92722222222222],[-107.61722222222221,37.96027777777778],[-107.61722222222221,37.96027777777778],[-107.76222222222222,37.97527777777778],[-107.84472222222222,37.985],[-107.98722222222223,37.99888888888889],[-108.04916666666666,38.00472222222222],[-108.33138888888888,38.04694444444444],[-108.4088888888889,38.059999999999995],[-108.4713888888889,38.0675],[-108.4713888888889,38.0675],[-108.55055555555555,38.08027777777778],[-108.69250000000001,38.10055555555556],[-108.69250000000001,38.10055555555556],[-108.77666666666667,38.112500000000004],[-108.9175,38.132222222222225],[-108.9175,38.132222222222225],[-109.11666666666666,38.16],[-109.20194444444445,38.17166666666667],[-109.25833333333334,38.17944444444444],[-109.25833333333334,38.17944444444444],[-109.39944444444446,38.19944444444444],[-109.82666666666667,38.25972222222222],[-109.91250000000001,38.27166666666667],[-110.02555555555556,38.28805555555555],[-110.11083333333333,38.30027777777777],[-110.16722222222222,38.308611111111105],[-110.30888888888889,38.32944444444445],[-110.39555555555556,38.33777777777778],[-110.39555555555556,38.33777777777778],[-110.59555555555555,38.33694444444445],[-110.88722222222223,38.334722222222226],[-111.2,38.33166666666667],[-111.63444444444445,38.32555555555556],[-111.63444444444445,38.32555555555556],[-111.77722222222222,38.32333333333334],[-111.92277777777778,38.32083333333334],[-111.92277777777778,38.32083333333334],[-112.49777777777778,38.30888888888889],[-112.49777777777778,38.30888888888889],[-112.92944444444444,38.29833333333333],[-112.92944444444444,38.29833333333333],[-113.20416666666667,38.29055555555556],[-113.34805555555555,38.28638888888889],[-113.49222222222222,38.28194444444444],[-113.49222222222222,38.28194444444444],[-113.63777777777779,38.277499999999996],[-113.78111111111112,38.2725],[-113.78111111111112,38.2725],[-113.92361111111111,38.26777777777777],[-114.06611111111111,38.26277777777778],[-114.21138888888889,38.2575],[-114.21138888888889,38.2575],[-115.0736111111111,38.19916666666666],[-115.0736111111111,38.19916666666666],[-115.21694444444445,38.18861111111111],[-115.53916666666666,38.1625],[-115.53916666666666,38.1625],[-116.27333333333333,38.10027777777778],[-116.27333333333333,38.10027777777778],[-116.83749999999999,38.049166666666665],[-116.83749999999999,38.049166666666665],[-117.28972222222222,38.02166666666667],[-117.43972222222223,38.01611111111111],[-117.43972222222223,38.01611111111111],[-117.58888888888889,38.010555555555555],[-118.32444444444444,37.94444444444444],[-118.4738888888889,37.92805555555555],[-118.4738888888889,37.92805555555555],[-118.76944444444445,37.89527777777778],[-118.76944444444445,37.89527777777778],[-119.07805555555555,37.86],[-120.08333333333333,37.733333333333334],[-120.07666666666667,37.74027777777778],[-120.07666666666667,37.74027777777778],[-120.37249999999999,37.70333333333333],[-120.51638888888888,37.68611111111111],[-120.55,37.68333333333333],[-120.55,37.68333333333333],[-120.65277777777779,37.67027777777778],[-120.91083333333334,37.63944444444444],[-120.95,37.63333333333333],[-120.95,37.63333333333333],[-121.03277777777778,37.62388888888889],[-121.16388888888889,37.60611111111111],[-121.18333333333334,37.6],[-121.27972222222222,37.59055555555556],[-121.27972222222222,37.59055555555556],[-121.39222222222223,37.57777777777778],[-121.61666666666666,37.55],[-121.61666666666666,37.55],[-121.8,37.5],[-121.8,37.5],[-121.87694444444443,37.49138888888889],[-121.97055555555556,37.49638888888889],[-121.97055555555556,37.49638888888889],[-121.98333333333333,37.5],[-122.05444444444444,37.50111111111111],[-122.13194444444444,37.51861111111111],[-122.2975,37.58861111111111],[-122.2975,37.58861111111111]],"type":"LineString"}
}
