{
  "id": 2015252249,
  "type": "Feature",
  "properties": {
    "geom:area": 0,
    "geom:bbox": "-122.756980,37.552120,-122.103780,38.513630",
    "geom:latitude": 37.920944830887215,
    "geom:longitude": -122.48613562012585,
    "src:alt_label": "swim-approach",
    "src:geom": "swim",
    "swim:elevations": [
      7216,
      7099,
      7050,
      7010,
      6994,
      6889,
      6726,
      6650,
      6519,
      6442,
      5976,
      5712,
      5451,
      5190,
      4903,
      4525,
      4374,
      3998,
      3823,
      3647,
      3397,
      3353,
      3353,
      3248,
      2994,
      2974,
      2611,
      2217,
      1976,
      1922,
      1542,
      1290,
      1042,
      916,
      812,
      716,
      548,
      549,
      340,
      209,
      162,
      64,
      0
    ],
    "swim:geom": "approach",
    "swim:timestamps": [
      1775842406,
      1775842431,
      1775842443,
      1775842486,
      1775842500,
      1775842514,
      1775842548,
      1775842569,
      1775842608,
      1775842624,
      1775842670,
      1775842697,
      1775842724,
      1775842752,
      1775842784,
      1775842826,
      1775842842,
      1775842885,
      1775842909,
      1775842933,
      1775842971,
      1775842992,
      1775843034,
      1775843067,
      1775843097,
      1775843101,
      1775843139,
      1775843186,
      1775843218,
      1775843223,
      1775843270,
      1775843300,
      1775843331,
      1775843364,
      1775843397,
      1775843419,
      1775843457,
      1775843471,
      1775843512,
      1775843544,
      1775843556,
      1775843578,
      1775843592
    ],
    "wof:geomhash": "451b2a912d49e9f151acd786877f6d1f",
    "wof:id": 2015252249,
    "wof:repo": "sfomuseum-data-flights-2026-04"
  },
  "bbox": [
    -122.75698,
    37.55212,
    -122.10378,
    38.51363
  ],
  "geometry": {"coordinates":[[-122.46953,38.51363],[-122.5041,38.48037],[-122.52053,38.46446],[-122.58066,38.40612],[-122.60024,38.38715],[-122.61974,38.3683],[-122.66591,38.32334],[-122.69482,38.29518],[-122.74658,38.24154],[-122.75698,38.21662],[-122.74285,38.13882],[-122.73002,38.09507],[-122.71741,38.05162],[-122.70468,38.00763],[-122.69036,37.95846],[-122.66727,37.89709],[-122.64941,37.87717],[-122.59758,37.82798],[-122.5699,37.80182],[-122.54303,37.7764],[-122.50228,37.7379],[-122.47342,37.72287],[-122.41199,37.70993],[-122.36737,37.69699],[-122.3294,37.6838],[-122.32568,37.68248],[-122.27805,37.66536],[-122.22177,37.64519],[-122.18416,37.63229],[-122.17824,37.63031],[-122.12345,37.61177],[-122.10378,37.59095],[-122.11698,37.56436],[-122.14947,37.55231],[-122.18721,37.55212],[-122.21068,37.554],[-122.24803,37.56771],[-122.26208,37.57332],[-122.29865,37.58895],[-122.32304,37.59926],[-122.33207,37.603],[-122.3489,37.61001],[-122.35954,37.61447]],"type":"LineString"}
}
