{
  "id": 2031133935,
  "type": "Feature",
  "properties": {
    "geom:area": 0,
    "geom:bbox": "-122.286667,34.227778,-118.501389,37.580833",
    "geom:latitude": 35.818919803978176,
    "geom:longitude": -120.5064471544455,
    "src:alt_label": "swim-path",
    "src:geom": "swim",
    "swim:altitudes": [
      "098",
      "123",
      "180",
      "260C",
      "260C",
      "260C",
      "258",
      "240C",
      "240",
      "203",
      "109",
      "052",
      "013"
    ],
    "swim:geom": "path",
    "swim:speeds": [
      281,
      326,
      342,
      334,
      353,
      373,
      378,
      341,
      341,
      328,
      265,
      252,
      153
    ],
    "swim:timestamps": [
      1777425220,
      1777425280,
      1777425396,
      1777425877,
      1777426117,
      1777426237,
      1777426537,
      1777426657,
      1777427078,
      1777427498,
      1777427849,
      1777428159,
      1777428399
    ],
    "wof:geomhash": "aa89446f6d8d9231839a8ee079ba8a6a",
    "wof:id": 2031133935,
    "wof:repo": "sfomuseum-data-flights-2026-04"
  },
  "bbox": [
    -122.28666666666666,
    34.22777777777778,
    -118.50138888888888,
    37.58083333333334
  ],
  "geometry": {"coordinates":[[-118.50138888888888,34.22777777777778],[-118.5586111111111,34.29972222222222],[-118.67972222222222,34.45027777777778],[-119.22638888888889,35.099722222222226],[-119.61416666666666,35.303888888888885],[-119.82805555555555,35.41583333333333],[-120.39055555555557,35.70055555555556],[-120.6036111111111,35.78194444444444],[-121.34444444444443,36.06111111111111],[-121.79166666666667,36.61222222222222],[-122,37.083333333333336],[-122.13583333333334,37.42472222222222],[-122.28666666666666,37.58083333333334]],"type":"LineString"}
}
