{
  "id": 2015315115,
  "type": "Feature",
  "properties": {
    "geom:area": 0,
    "geom:bbox": "-122.542330,36.744780,-121.505610,37.669560",
    "geom:latitude": 37.23019770006162,
    "geom:longitude": -122.09536262765741,
    "src:alt_label": "swim-takeoff",
    "src:geom": "swim",
    "swim:elevations": [
      152,
      492,
      651,
      773,
      1032,
      1247,
      1582,
      1635,
      2326,
      2468,
      2902,
      3269,
      3474,
      3886,
      4157,
      4751,
      4944,
      5163,
      5285,
      5914,
      6133,
      6445,
      6849,
      7198,
      7496,
      7563,
      7914,
      8169,
      8339,
      8573,
      8726,
      8925
    ],
    "swim:geom": "takeoff",
    "swim:timestamps": [
      1776449744,
      1776449783,
      1776449813,
      1776449830,
      1776449857,
      1776449881,
      1776449906,
      1776449910,
      1776449966,
      1776449981,
      1776450015,
      1776450050,
      1776450071,
      1776450104,
      1776450126,
      1776450170,
      1776450184,
      1776450203,
      1776450212,
      1776450266,
      1776450286,
      1776450318,
      1776450354,
      1776450386,
      1776450416,
      1776450425,
      1776450468,
      1776450500,
      1776450521,
      1776450551,
      1776450573,
      1776450603
    ],
    "wof:geomhash": "08ad358089de6cbc31f62eea5265c699",
    "wof:id": 2015315115,
    "wof:repo": "sfomuseum-data-flights-2026-04"
  },
  "bbox": [
    -122.54233,
    36.74478,
    -121.50561,
    37.66956
  ],
  "geometry": {"coordinates":[[-122.38672,37.62369],[-122.41963,37.63805],[-122.45053,37.65176],[-122.47087,37.66073],[-122.50594,37.66956],[-122.53721,37.6544],[-122.54233,37.62419],[-122.53991,37.61891],[-122.50632,37.55244],[-122.49679,37.53339],[-122.47124,37.49015],[-122.42803,37.45556],[-122.39751,37.43284],[-122.34897,37.39715],[-122.31572,37.37276],[-122.24889,37.3237],[-122.22642,37.30713],[-122.19718,37.28554],[-122.18183,37.27418],[-122.09567,37.21043],[-122.06134,37.18489],[-122.00681,37.14435],[-121.94475,37.09827],[-121.89043,37.0577],[-121.83779,37.01842],[-121.82192,37.00657],[-121.74488,36.94635],[-121.68953,36.90042],[-121.65191,36.86868],[-121.59994,36.82467],[-121.55977,36.79046],[-121.50561,36.74478]],"type":"LineString"}
}
