{
  "id": 2031126809,
  "type": "Feature",
  "properties": {
    "geom:area": 0,
    "geom:bbox": "-122.752500,37.492222,-114.334444,50.482500",
    "geom:latitude": 44.05496417376523,
    "geom:longitude": -119.41668050684525,
    "src:alt_label": "swim-path",
    "src:geom": "swim",
    "swim:altitudes": [
      "239",
      "239",
      "239",
      "239",
      "239",
      "239",
      "305",
      "305",
      "305",
      "305",
      "305",
      "305",
      "345",
      "345",
      "345",
      "345",
      "345",
      "345",
      "380C",
      "380C",
      "380C",
      "380C",
      "380C",
      "380C",
      "380C",
      "380C",
      "380C",
      "380C",
      "380C",
      "380C",
      "380C",
      "380C",
      "380C",
      "380C",
      "380C",
      "380C",
      "380C",
      "380C",
      "380C",
      "380C",
      "380C",
      "380C",
      "380C",
      "380C",
      "380C",
      "380C",
      "380C",
      "380C",
      "380C",
      "380C",
      "380C",
      "380C",
      "380C",
      "380C",
      "380C",
      "380C",
      "380C",
      "380C",
      "380C",
      "380C",
      "380C",
      "380C",
      "380C",
      "380C",
      "380C",
      "380C",
      "380C",
      "380C",
      "380C",
      "380C",
      "380",
      "380",
      "380",
      "390C",
      "390C",
      "390C",
      "390C",
      "390C",
      "390C",
      "390C",
      "390C",
      "390C",
      "390C",
      "390C",
      "390C",
      "390C",
      "390C",
      "390C",
      "390C",
      "390C",
      "390C",
      "390C",
      "390C",
      "390C",
      "390C",
      "390C",
      "390C",
      "390C",
      "390C",
      "390C",
      "390C",
      "390C",
      "390C",
      "390C",
      "390C",
      "390C",
      "390C",
      "390C",
      "390C",
      "390C",
      "390C",
      "390C",
      "390C",
      "390C",
      "390C",
      "390C",
      "390C",
      "390C",
      "390C",
      "390C",
      "390C",
      "390C",
      "390C",
      "390C",
      "390C",
      "390C",
      "390C",
      "390C",
      "390C",
      "390C",
      "390C",
      "390C",
      "390C",
      "390C",
      "390C",
      "390C",
      "390C",
      "390C",
      "390C",
      "390C",
      "390C",
      "390C",
      "390C",
      "390C",
      "390C",
      "390C",
      "390C",
      "390C",
      "390C",
      "390C",
      "390C",
      "390C",
      "390C",
      "390C",
      "390C",
      "390C",
      "390C",
      "390C",
      "390C",
      "390C",
      "390C",
      "390C",
      "390C",
      "390C",
      "390C",
      "390C",
      "390C",
      "390C",
      "390C",
      "390C",
      "390C",
      "390C",
      "390C",
      "390C",
      "390C",
      "390C",
      "390C",
      "390C",
      "390C",
      "390C",
      "390C",
      "390C",
      "390C",
      "390C",
      "390C",
      "390C",
      "390",
      "390",
      "390",
      "390",
      "390",
      "390",
      "390",
      "390",
      "390",
      "390",
      "390",
      "390",
      "390",
      "390",
      "390",
      "290",
      "290",
      "290",
      "290",
      "246",
      "246",
      "246",
      "246",
      "246",
      "246",
      "164",
      "164",
      "164",
      "164",
      "164",
      "143",
      "143",
      "143",
      "110",
      "110",
      "110",
      "110",
      "110",
      "101",
      "101",
      "090",
      "090",
      "090",
      "090",
      "090",
      "047",
      "047",
      "047",
      "047",
      "047",
      "047",
      "034",
      "024",
      "024",
      "024",
      "024",
      "024",
      "007",
      "007",
      "007",
      "007",
      "007"
    ],
    "swim:geom": "path",
    "swim:speeds": [
      404,
      404,
      404,
      404,
      404,
      404,
      441,
      441,
      441,
      441,
      441,
      441,
      466,
      466,
      466,
      466,
      466,
      466,
      455,
      455,
      455,
      455,
      453,
      448,
      447,
      447,
      447,
      446,
      446,
      446,
      446,
      446,
      446,
      446,
      451,
      451,
      451,
      451,
      451,
      451,
      453,
      453,
      453,
      453,
      453,
      453,
      452,
      451,
      451,
      451,
      451,
      451,
      451,
      452,
      452,
      452,
      452,
      452,
      454,
      454,
      456,
      456,
      460,
      460,
      463,
      463,
      463,
      463,
      464,
      464,
      465,
      465,
      465,
      464,
      464,
      464,
      458,
      458,
      458,
      457,
      457,
      457,
      457,
      457,
      457,
      458,
      458,
      458,
      458,
      458,
      457,
      457,
      457,
      457,
      452,
      452,
      452,
      452,
      447,
      447,
      447,
      447,
      447,
      444,
      444,
      444,
      444,
      444,
      444,
      444,
      444,
      444,
      444,
      444,
      444,
      444,
      442,
      442,
      442,
      438,
      438,
      438,
      438,
      438,
      438,
      439,
      439,
      439,
      439,
      439,
      440,
      440,
      440,
      439,
      439,
      438,
      438,
      438,
      438,
      437,
      437,
      437,
      437,
      435,
      435,
      435,
      435,
      435,
      436,
      436,
      436,
      436,
      436,
      436,
      436,
      437,
      437,
      419,
      419,
      419,
      419,
      419,
      420,
      420,
      420,
      420,
      420,
      421,
      421,
      421,
      433,
      433,
      434,
      434,
      434,
      447,
      452,
      452,
      452,
      452,
      453,
      453,
      453,
      452,
      452,
      452,
      451,
      451,
      451,
      449,
      449,
      449,
      444,
      444,
      444,
      441,
      441,
      441,
      438,
      438,
      438,
      447,
      447,
      447,
      447,
      428,
      428,
      428,
      428,
      428,
      428,
      383,
      383,
      383,
      383,
      383,
      365,
      365,
      365,
      273,
      273,
      273,
      273,
      273,
      264,
      264,
      251,
      251,
      251,
      251,
      251,
      218,
      218,
      218,
      218,
      218,
      218,
      198,
      194,
      194,
      194,
      194,
      194,
      125,
      125,
      125,
      125,
      125
    ],
    "swim:timestamps": [
      1777311542,
      1777311542,
      1777311542,
      1777311542,
      1777311542,
      1777311542,
      1777311722,
      1777311722,
      1777311722,
      1777311722,
      1777311722,
      1777311722,
      1777311902,
      1777311902,
      1777311902,
      1777311902,
      1777311902,
      1777311902,
      1777312143,
      1777312143,
      1777312143,
      1777312143,
      1777312203,
      1777312323,
      1777312383,
      1777312383,
      1777312383,
      1777312443,
      1777312443,
      1777312443,
      1777312443,
      1777312503,
      1777312503,
      1777312563,
      1777312743,
      1777312743,
      1777312743,
      1777312743,
      1777312743,
      1777312743,
      1777312924,
      1777312924,
      1777312924,
      1777312924,
      1777312924,
      1777312924,
      1777313104,
      1777313224,
      1777313224,
      1777313224,
      1777313224,
      1777313284,
      1777313284,
      1777313404,
      1777313404,
      1777313404,
      1777313404,
      1777313404,
      1777313524,
      1777313524,
      1777313644,
      1777313644,
      1777313705,
      1777313705,
      1777313765,
      1777313765,
      1777313765,
      1777313765,
      1777313825,
      1777313825,
      1777313945,
      1777313945,
      1777313945,
      1777314005,
      1777314005,
      1777314005,
      1777314125,
      1777314125,
      1777314125,
      1777314305,
      1777314305,
      1777314305,
      1777314305,
      1777314305,
      1777314305,
      1777314425,
      1777314425,
      1777314425,
      1777314485,
      1777314485,
      1777314546,
      1777314546,
      1777314546,
      1777314546,
      1777314666,
      1777314666,
      1777314666,
      1777314666,
      1777314786,
      1777314786,
      1777314786,
      1777314786,
      1777314786,
      1777314966,
      1777314966,
      1777314966,
      1777314966,
      1777315086,
      1777315086,
      1777315086,
      1777315086,
      1777315086,
      1777315266,
      1777315266,
      1777315266,
      1777315266,
      1777315326,
      1777315326,
      1777315326,
      1777315447,
      1777315447,
      1777315447,
      1777315447,
      1777315447,
      1777315447,
      1777315928,
      1777315928,
      1777315928,
      1777315928,
      1777315928,
      1777315987,
      1777315987,
      1777315987,
      1777316047,
      1777316047,
      1777316108,
      1777316108,
      1777316167,
      1777316167,
      1777316228,
      1777316228,
      1777316228,
      1777316228,
      1777316408,
      1777316408,
      1777316408,
      1777316408,
      1777316408,
      1777316588,
      1777316588,
      1777316588,
      1777316588,
      1777316649,
      1777316649,
      1777316649,
      1777316708,
      1777316708,
      1777316829,
      1777316829,
      1777316829,
      1777316829,
      1777316829,
      1777316948,
      1777316948,
      1777316948,
      1777316948,
      1777316948,
      1777317009,
      1777317009,
      1777317009,
      1777317129,
      1777317129,
      1777317189,
      1777317189,
      1777317189,
      1777317249,
      1777317309,
      1777317309,
      1777317309,
      1777317309,
      1777317430,
      1777317430,
      1777317430,
      1777317489,
      1777317489,
      1777317489,
      1777317610,
      1777317610,
      1777317610,
      1777317670,
      1777317670,
      1777317670,
      1777317730,
      1777317730,
      1777317730,
      1777317790,
      1777317790,
      1777317790,
      1777317851,
      1777317851,
      1777317851,
      1777318151,
      1777318151,
      1777318151,
      1777318151,
      1777318271,
      1777318271,
      1777318271,
      1777318271,
      1777318271,
      1777318271,
      1777318511,
      1777318511,
      1777318511,
      1777318511,
      1777318511,
      1777318568,
      1777318568,
      1777318568,
      1777318748,
      1777318748,
      1777318748,
      1777318748,
      1777318748,
      1777318868,
      1777318868,
      1777318932,
      1777318932,
      1777318932,
      1777318932,
      1777318932,
      1777319112,
      1777319112,
      1777319112,
      1777319112,
      1777319112,
      1777319112,
      1777319172,
      1777319233,
      1777319233,
      1777319233,
      1777319233,
      1777319233,
      1777319349,
      1777319349,
      1777319349,
      1777319349,
      1777319349
    ],
    "wof:geomhash": "ee02a3bf369644330cf07c7895a63d27",
    "wof:id": 2031126809,
    "wof:repo": "sfomuseum-data-flights-2026-04"
  },
  "bbox": [
    -122.7525,
    37.492222222222225,
    -114.33444444444444,
    50.4825
  ],
  "geometry": {"coordinates":[[-114.33444444444444,50.4825],[-114.33444444444444,50.4825],[-114.33444444444444,50.4825],[-114.33444444444444,50.4825],[-114.33444444444444,50.4825],[-114.33444444444444,50.4825],[-114.67222222222223,50.19027777777777],[-114.67222222222223,50.19027777777777],[-114.67222222222223,50.19027777777777],[-114.67222222222223,50.19027777777777],[-114.67222222222223,50.19027777777777],[-114.67222222222223,50.19027777777777],[-115.02666666666667,49.89277777777778],[-115.02666666666667,49.89277777777778],[-115.02666666666667,49.89277777777778],[-115.02666666666667,49.89277777777778],[-115.02666666666667,49.89277777777778],[-115.02666666666667,49.89277777777778],[-115.50611111111111,49.48416666666667],[-115.50611111111111,49.48416666666667],[-115.50611111111111,49.48416666666667],[-115.50611111111111,49.48416666666667],[-115.62194444444444,49.38361111111111],[-115.84777777777778,49.18722222222222],[-115.96055555555556,49.08833333333334],[-115.96055555555556,49.08833333333334],[-115.96055555555556,49.08833333333334],[-116.07138888888889,48.99055555555556],[-116.07138888888889,48.99055555555556],[-116.07138888888889,48.99055555555556],[-116.07138888888889,48.99055555555556],[-116.18472222222222,48.89],[-116.18472222222222,48.89],[-116.30888888888889,48.778888888888886],[-116.60472222222222,48.46],[-116.60472222222222,48.46],[-116.60472222222222,48.46],[-116.60472222222222,48.46],[-116.60472222222222,48.46],[-116.60472222222222,48.46],[-116.85666666666665,48.12222222222222],[-116.85666666666665,48.12222222222222],[-116.85666666666665,48.12222222222222],[-116.85666666666665,48.12222222222222],[-116.85666666666665,48.12222222222222],[-116.85666666666665,48.12222222222222],[-117.10305555555556,47.78583333333333],[-117.26166666666667,47.566944444444445],[-117.26166666666667,47.566944444444445],[-117.26166666666667,47.566944444444445],[-117.26166666666667,47.566944444444445],[-117.34138888888889,47.45583333333334],[-117.34138888888889,47.45583333333334],[-117.50166666666667,47.231388888888894],[-117.50166666666667,47.231388888888894],[-117.50166666666667,47.231388888888894],[-117.50166666666667,47.231388888888894],[-117.50166666666667,47.231388888888894],[-117.66250000000001,47.004444444444445],[-117.66250000000001,47.004444444444445],[-117.82333333333332,46.77472222222222],[-117.82333333333332,46.77472222222222],[-117.90361111111112,46.659166666666664],[-117.90361111111112,46.659166666666664],[-117.98388888888888,46.54333333333333],[-117.98388888888888,46.54333333333333],[-117.98388888888888,46.54333333333333],[-117.98388888888888,46.54333333333333],[-118.06555555555555,46.425],[-118.06555555555555,46.425],[-118.22416666666666,46.19305555555555],[-118.22416666666666,46.19305555555555],[-118.22416666666666,46.19305555555555],[-118.30472222222222,46.075],[-118.30472222222222,46.075],[-118.30472222222222,46.075],[-118.45916666666668,45.846111111111114],[-118.45916666666668,45.846111111111114],[-118.45916666666668,45.846111111111114],[-118.69666666666667,45.489444444444445],[-118.69666666666667,45.489444444444445],[-118.69666666666667,45.489444444444445],[-118.69666666666667,45.489444444444445],[-118.69666666666667,45.489444444444445],[-118.69666666666667,45.489444444444445],[-118.84916666666666,45.25861111111111],[-118.84916666666666,45.25861111111111],[-118.84916666666666,45.25861111111111],[-118.9238888888889,45.144444444444446],[-118.9238888888889,45.144444444444446],[-118.99916666666667,45.02833333333333],[-118.99916666666667,45.02833333333333],[-118.99916666666667,45.02833333333333],[-118.99916666666667,45.02833333333333],[-119.14805555555556,44.79861111111111],[-119.14805555555556,44.79861111111111],[-119.14805555555556,44.79861111111111],[-119.14805555555556,44.79861111111111],[-119.29305555555555,44.57277777777778],[-119.29305555555555,44.57277777777778],[-119.29305555555555,44.57277777777778],[-119.29305555555555,44.57277777777778],[-119.29305555555555,44.57277777777778],[-119.50805555555556,44.234722222222224],[-119.50805555555556,44.234722222222224],[-119.50805555555556,44.234722222222224],[-119.50805555555556,44.234722222222224],[-119.64972222222222,44.00861111111111],[-119.64972222222222,44.00861111111111],[-119.64972222222222,44.00861111111111],[-119.64972222222222,44.00861111111111],[-119.64972222222222,44.00861111111111],[-119.85972222222222,43.670833333333334],[-119.85972222222222,43.670833333333334],[-119.85972222222222,43.670833333333334],[-119.85972222222222,43.670833333333334],[-119.92861111111111,43.55888888888889],[-119.92861111111111,43.55888888888889],[-119.92861111111111,43.55888888888889],[-120.06583333333333,43.33527777777778],[-120.06583333333333,43.33527777777778],[-120.06583333333333,43.33527777777778],[-120.06583333333333,43.33527777777778],[-120.06583333333333,43.33527777777778],[-120.06583333333333,43.33527777777778],[-120.58944444444444,42.463055555555556],[-120.58944444444444,42.463055555555556],[-120.58944444444444,42.463055555555556],[-120.58944444444444,42.463055555555556],[-120.58944444444444,42.463055555555556],[-120.66861111111112,42.32916666666667],[-120.66861111111112,42.32916666666667],[-120.66861111111112,42.32916666666667],[-120.73472222222222,42.21611111111111],[-120.73472222222222,42.21611111111111],[-120.78694444444444,42.12694444444445],[-120.78694444444444,42.12694444444445],[-120.86527777777778,41.993611111111115],[-120.86527777777778,41.993611111111115],[-120.93083333333334,41.88194444444444],[-120.93083333333334,41.88194444444444],[-120.93083333333334,41.88194444444444],[-120.93083333333334,41.88194444444444],[-121.11055555555555,41.56888888888889],[-121.11055555555555,41.56888888888889],[-121.11055555555555,41.56888888888889],[-121.11055555555555,41.56888888888889],[-121.11055555555555,41.56888888888889],[-121.3025,41.233333333333334],[-121.3025,41.233333333333334],[-121.3025,41.233333333333334],[-121.3025,41.233333333333334],[-121.36555555555555,41.12166666666667],[-121.36555555555555,41.12166666666667],[-121.36555555555555,41.12166666666667],[-121.42833333333334,41.01027777777778],[-121.42833333333334,41.01027777777778],[-121.66166666666668,40.843333333333334],[-121.66166666666668,40.843333333333334],[-121.66166666666668,40.843333333333334],[-121.66166666666668,40.843333333333334],[-121.66166666666668,40.843333333333334],[-121.96361111111112,40.806666666666665],[-121.96361111111112,40.806666666666665],[-121.96361111111112,40.806666666666665],[-121.96361111111112,40.806666666666665],[-121.96361111111112,40.806666666666665],[-122.11611111111111,40.788888888888884],[-122.11611111111111,40.788888888888884],[-122.11611111111111,40.788888888888884],[-122.39583333333334,40.698611111111106],[-122.39583333333334,40.698611111111106],[-122.51888888888888,40.62166666666667],[-122.51888888888888,40.62166666666667],[-122.51888888888888,40.62166666666667],[-122.6036111111111,40.52472222222222],[-122.61138888888888,40.39944444444444],[-122.61138888888888,40.39944444444444],[-122.61138888888888,40.39944444444444],[-122.61138888888888,40.39944444444444],[-122.63083333333333,40.14972222222222],[-122.63083333333333,40.14972222222222],[-122.63083333333333,40.14972222222222],[-122.63972222222223,40.026944444444446],[-122.63972222222223,40.026944444444446],[-122.63972222222223,40.026944444444446],[-122.65777777777778,39.77861111111111],[-122.65777777777778,39.77861111111111],[-122.65777777777778,39.77861111111111],[-122.66666666666667,39.655],[-122.66666666666667,39.655],[-122.66666666666667,39.655],[-122.67583333333334,39.532777777777774],[-122.67583333333334,39.532777777777774],[-122.67583333333334,39.532777777777774],[-122.68416666666667,39.41027777777778],[-122.68416666666667,39.41027777777778],[-122.68416666666667,39.41027777777778],[-122.69250000000001,39.290277777777774],[-122.69250000000001,39.290277777777774],[-122.69250000000001,39.290277777777774],[-122.73583333333333,38.683055555555555],[-122.73583333333333,38.683055555555555],[-122.73583333333333,38.683055555555555],[-122.73583333333333,38.683055555555555],[-122.7525,38.44166666666666],[-122.7525,38.44166666666666],[-122.7525,38.44166666666666],[-122.7525,38.44166666666666],[-122.7525,38.44166666666666],[-122.7525,38.44166666666666],[-122.70444444444445,38.006388888888885],[-122.70444444444445,38.006388888888885],[-122.70444444444445,38.006388888888885],[-122.70444444444445,38.006388888888885],[-122.70444444444445,38.006388888888885],[-122.66666666666667,37.9],[-122.66666666666667,37.9],[-122.66666666666667,37.9],[-122.45,37.68333333333333],[-122.45,37.68333333333333],[-122.45,37.68333333333333],[-122.45,37.68333333333333],[-122.45,37.68333333333333],[-122.35,37.56666666666667],[-122.35,37.56666666666667],[-122.30333333333333,37.50111111111111],[-122.30333333333333,37.50111111111111],[-122.30333333333333,37.50111111111111],[-122.30333333333333,37.50111111111111],[-122.30333333333333,37.50111111111111],[-122.13361111111112,37.492222222222225],[-122.13361111111112,37.492222222222225],[-122.13361111111112,37.492222222222225],[-122.13361111111112,37.492222222222225],[-122.13361111111112,37.492222222222225],[-122.13361111111112,37.492222222222225],[-122.16472222222222,37.532777777777774],[-122.22555555555556,37.558055555555555],[-122.22555555555556,37.558055555555555],[-122.22555555555556,37.558055555555555],[-122.22555555555556,37.558055555555555],[-122.22555555555556,37.558055555555555],[-122.31666666666666,37.6],[-122.31666666666666,37.6],[-122.31666666666666,37.6],[-122.31666666666666,37.6],[-122.31666666666666,37.6]],"type":"LineString"}
}
