{
  "id": 2015220779,
  "type": "Feature",
  "properties": {
    "geom:area": 0,
    "geom:bbox": "-123.507200,37.238740,-122.091680,37.684330",
    "geom:latitude": 37.41876573459742,
    "geom:longitude": -122.57721737729388,
    "src:alt_label": "swim-approach",
    "src:geom": "swim",
    "swim:elevations": [
      5340,
      5147,
      4849,
      4647,
      4287,
      4209,
      3976,
      3589,
      3363,
      3230,
      3143,
      3076,
      3048,
      3048,
      3048,
      3048,
      3048,
      3048,
      3048,
      3048,
      2767,
      2580,
      2486,
      2340,
      2134,
      2134,
      2131,
      1982,
      1716,
      1527,
      1526,
      1393,
      1178,
      1009,
      856,
      674,
      619,
      461,
      320,
      329,
      517,
      914,
      946,
      945,
      913,
      932,
      1055,
      1136,
      1432,
      1515,
      1524,
      1530,
      1675,
      1770,
      1810,
      1829,
      1829,
      1829,
      1829,
      1829,
      1829,
      1829,
      1829,
      1829,
      1829,
      1829,
      1829,
      1834,
      1829,
      1829,
      1832,
      1829,
      1829,
      1829,
      1765,
      1583,
      1317,
      1139,
      966,
      914,
      792,
      792,
      761,
      592,
      488,
      363,
      307,
      173,
      39
    ],
    "swim:geom": "approach",
    "swim:timestamps": [
      1775486421,
      1775486443,
      1775486478,
      1775486503,
      1775486543,
      1775486555,
      1775486580,
      1775486629,
      1775486656,
      1775486677,
      1775486712,
      1775486734,
      1775486769,
      1775486797,
      1775486838,
      1775486877,
      1775486905,
      1775486937,
      1775486963,
      1775486980,
      1775487028,
      1775487053,
      1775487066,
      1775487093,
      1775487141,
      1775487148,
      1775487159,
      1775487202,
      1775487238,
      1775487266,
      1775487275,
      1775487319,
      1775487349,
      1775487377,
      1775487405,
      1775487445,
      1775487461,
      1775487498,
      1775487533,
      1775487559,
      1775487573,
      1775487621,
      1775487647,
      1775487657,
      1775487683,
      1775487709,
      1775487738,
      1775487753,
      1775487807,
      1775487826,
      1775487844,
      1775487873,
      1775487924,
      1775487958,
      1775487971,
      1775488012,
      1775488032,
      1775488065,
      1775488084,
      1775488125,
      1775488149,
      1775488185,
      1775488216,
      1775488246,
      1775488264,
      1775488318,
      1775488341,
      1775488369,
      1775488401,
      1775488405,
      1775488421,
      1775488457,
      1775488472,
      1775488510,
      1775488545,
      1775488581,
      1775488615,
      1775488643,
      1775488665,
      1775488694,
      1775488726,
      1775488750,
      1775488791,
      1775488825,
      1775488849,
      1775488884,
      1775488893,
      1775488929,
      1775488968
    ],
    "wof:geomhash": "ae314c92b35b4d09fe52c4e2e087e961",
    "wof:id": 2015220779,
    "wof:repo": "sfomuseum-data-flights-2026-04"
  },
  "bbox": [
    -123.5072,
    37.23874,
    -122.09168,
    37.68433
  ],
  "geometry": {"coordinates":[[-123.5072,37.42853],[-123.45964,37.41593],[-123.38495,37.39636],[-123.33215,37.38253],[-123.2498,37.36072],[-123.22651,37.35445],[-123.17442,37.34061],[-123.07702,37.31486],[-123.02382,37.30066],[-122.98403,37.29001],[-122.9197,37.27277],[-122.88315,37.26313],[-122.82246,37.26734],[-122.77683,37.27789],[-122.70952,37.29361],[-122.64561,37.3085],[-122.59987,37.31915],[-122.54837,37.33104],[-122.50737,37.34051],[-122.48063,37.3467],[-122.40619,37.36384],[-122.36848,37.37246],[-122.34786,37.37723],[-122.30772,37.38642],[-122.24116,37.40165],[-122.23195,37.40374],[-122.2179,37.40691],[-122.15872,37.4204],[-122.11233,37.43184],[-122.09168,37.45655],[-122.09299,37.46556],[-122.1223,37.5034],[-122.1474,37.52498],[-122.17362,37.53638],[-122.19787,37.54647],[-122.23197,37.5609],[-122.24507,37.5664],[-122.2748,37.57898],[-122.30103,37.58998],[-122.3213,37.5985],[-122.33256,37.60315],[-122.37513,37.62172],[-122.40223,37.63415],[-122.41251,37.63876],[-122.43959,37.65101],[-122.46648,37.66335],[-122.49632,37.67724],[-122.5116,37.68433],[-122.5631,37.67451],[-122.56905,37.65603],[-122.57387,37.6373],[-122.58181,37.60629],[-122.59592,37.55149],[-122.60507,37.51564],[-122.60884,37.50044],[-122.61973,37.45552],[-122.62501,37.43362],[-122.63365,37.3978],[-122.63883,37.37634],[-122.64973,37.3312],[-122.65609,37.30503],[-122.66454,37.26674],[-122.64307,37.23874],[-122.60407,37.24093],[-122.58794,37.25674],[-122.53039,37.29275],[-122.50246,37.30394],[-122.46696,37.31788],[-122.42699,37.33365],[-122.422,37.33563],[-122.40205,37.3436],[-122.35746,37.3614],[-122.33911,37.36875],[-122.29123,37.3879],[-122.24809,37.40515],[-122.20599,37.42231],[-122.17047,37.43705],[-122.14886,37.45363],[-122.14184,37.47382],[-122.1511,37.4976],[-122.17071,37.52105],[-122.1855,37.53878],[-122.2193,37.55563],[-122.24807,37.56764],[-122.26777,37.57594],[-122.2945,37.58724],[-122.30174,37.59022],[-122.32791,37.60125],[-122.35414,37.6123]],"type":"LineString"}
}
