{
  "id": 2031148595,
  "type": "Feature",
  "properties": {
    "geom:area": 0,
    "geom:bbox": "-122.763056,37.377500,-73.483333,45.413333",
    "geom:latitude": 42.937745714562915,
    "geom:longitude": -99.00557880681643,
    "src:alt_label": "swim-path",
    "src:geom": "swim",
    "swim:altitudes": [
      "029",
      "035",
      "035",
      "050",
      "050",
      "065",
      "088",
      "097",
      "097",
      "110",
      "110",
      "117",
      "168",
      "170",
      "170",
      "170",
      "170",
      "170",
      "171",
      "171",
      "235",
      "235",
      "250",
      "250",
      "250",
      "266",
      "300C",
      "300C",
      "304",
      "325",
      "325",
      "329",
      "329",
      "340C",
      "340C",
      "340C",
      "340C",
      "340C",
      "340C",
      "340C",
      "340C",
      "340C",
      "340C",
      "340C",
      "340C",
      "340C",
      "340C",
      "340C",
      "340C",
      "340C",
      "340C",
      "340C",
      "340C",
      "340C",
      "340C",
      "340C",
      "340C",
      "340C",
      "340C",
      "340C",
      "340C",
      "340C",
      "340C",
      "340C",
      "340C",
      "360C",
      "360C",
      "360C",
      "360C",
      "360C",
      "360C",
      "360C",
      "360C",
      "360C",
      "360C",
      "360C",
      "360C",
      "360C",
      "360C",
      "360C",
      "360C",
      "360C",
      "360C",
      "360C",
      "360C",
      "360C",
      "360C",
      "360C",
      "360C",
      "360C",
      "360C",
      "360C",
      "360C",
      "360C",
      "360C",
      "360C",
      "360C",
      "360C",
      "360C",
      "360C",
      "360C",
      "360C",
      "360C",
      "360C",
      "360C",
      "360C",
      "360C",
      "360C",
      "360C",
      "360C",
      "360C",
      "360C",
      "360C",
      "360C",
      "360C",
      "360C",
      "360C",
      "360C",
      "360C",
      "360C",
      "360C",
      "360C",
      "360C",
      "360C",
      "360C",
      "360C",
      "360C",
      "360C",
      "360C",
      "360C",
      "360C",
      "360C",
      "360C",
      "360C",
      "360C",
      "360C",
      "360C",
      "360C",
      "360C",
      "360C",
      "360C",
      "360C",
      "360C",
      "360C",
      "360C",
      "360C",
      "360C",
      "360C",
      "360C",
      "360C",
      "360C",
      "360C",
      "360C",
      "360C",
      "360C",
      "360C",
      "360C",
      "360C",
      "360C",
      "360C",
      "360C",
      "360C",
      "360C",
      "360C",
      "360C",
      "360C",
      "360C",
      "360C",
      "360C",
      "360C",
      "360C",
      "360C",
      "360C",
      "360C",
      "360C",
      "360C",
      "360C",
      "360C",
      "360C",
      "360C",
      "360C",
      "360C",
      "360C",
      "360C",
      "360C",
      "360C",
      "360C",
      "360C",
      "360C",
      "360C",
      "360C",
      "360C",
      "360C",
      "360C",
      "360C",
      "360C",
      "360C",
      "360C",
      "360C",
      "360C",
      "360C",
      "360C",
      "360C",
      "360C",
      "360C",
      "360C",
      "360C",
      "360C",
      "360C",
      "360C",
      "360C",
      "360C",
      "360C",
      "360C",
      "360C",
      "360C",
      "360C",
      "360C",
      "360C",
      "360C",
      "360C",
      "360C",
      "360C",
      "360C",
      "360C",
      "360C",
      "360C",
      "360C",
      "360C",
      "360C",
      "360C",
      "360C",
      "360C",
      "360C",
      "360C",
      "360C",
      "360C",
      "360C",
      "360C",
      "360C",
      "360C",
      "360C",
      "360C",
      "360C",
      "360C",
      "360C",
      "360C",
      "360C",
      "360C",
      "360C",
      "360C",
      "360C",
      "360C",
      "360C",
      "360C",
      "360C",
      "360C",
      "360C",
      "360C",
      "360C",
      "360C",
      "360C",
      "360C",
      "360C",
      "360C",
      "360C",
      "360C",
      "360C",
      "360C",
      "360C",
      "360C",
      "360C",
      "360C",
      "360C",
      "360C",
      "360C",
      "360C",
      "360C",
      "360C",
      "360C",
      "360C",
      "360C",
      "360C",
      "360C",
      "360C",
      "360C",
      "360C",
      "360C",
      "360C",
      "360C",
      "360C",
      "360C",
      "360C",
      "360C",
      "360C",
      "360C",
      "360C",
      "360C",
      "360C",
      "360C",
      "360C",
      "360C",
      "360C",
      "360C",
      "360C",
      "360C",
      "360C",
      "360C",
      "360C",
      "360C",
      "360C",
      "360C",
      "360C",
      "360C",
      "360C",
      "360C",
      "360C",
      "360C",
      "340C",
      "340C",
      "340C",
      "340C",
      "340C",
      "340C",
      "340C",
      "340C",
      "340C",
      "340C",
      "340C",
      "340C",
      "340C",
      "340C",
      "340C",
      "340C",
      "340C",
      "340C",
      "340C",
      "340C",
      "340C",
      "340C",
      "340C",
      "340C",
      "340C",
      "340C",
      "340C",
      "340C",
      "340C",
      "340C",
      "340C",
      "340C",
      "340C",
      "340C",
      "340C",
      "340C",
      "340C",
      "340C",
      "340C",
      "340C",
      "340C",
      "340C",
      "340C",
      "340C",
      "340C",
      "340C",
      "340C",
      "340C",
      "340C",
      "340C",
      "340C",
      "340C",
      "340C",
      "340C",
      "340C",
      "340C",
      "340C",
      "340C",
      "340C",
      "340C",
      "340C",
      "340C",
      "340C",
      "340C",
      "340C",
      "340C",
      "340C",
      "340C",
      "340C",
      "340C",
      "340C",
      "340C",
      "340C",
      "340C",
      "340C",
      "340C",
      "340C",
      "340C",
      "340C",
      "340C",
      "340C",
      "340C",
      "340C",
      "340C",
      "340C",
      "340C",
      "340C",
      "340C",
      "340C",
      "340C",
      "340C",
      "340C",
      "340C",
      "340C",
      "340C",
      "340C",
      "340C",
      "340C",
      "340C",
      "340C",
      "340C",
      "340C",
      "340C",
      "340C",
      "340C",
      "340C",
      "340C",
      "340C",
      "340C",
      "340C",
      "340C",
      "340C",
      "340C",
      "340C",
      "340C",
      "340C",
      "340C",
      "340C",
      "340C",
      "340C",
      "340C",
      "340C",
      "340C",
      "340C",
      "340C",
      "340C",
      "340C",
      "340C",
      "340C",
      "340C",
      "340C",
      "340C",
      "340C",
      "340C",
      "340C",
      "340C",
      "340C",
      "340C",
      "340C",
      "340C",
      "340C",
      "340C",
      "340C",
      "340C",
      "340C",
      "340C",
      "340C",
      "340C",
      "340C",
      "340C",
      "340C",
      "340C",
      "340C",
      "340C",
      "340C",
      "340C",
      "340C",
      "340C",
      "340C",
      "340C",
      "340C",
      "340C",
      "340C",
      "340C",
      "340C",
      "340C",
      "340C",
      "340C",
      "340C",
      "340C",
      "340C",
      "340C",
      "340C",
      "340C",
      "340C",
      "340C",
      "340C",
      "340C",
      "340C",
      "340C",
      "340C",
      "340C",
      "340C",
      "340C",
      "340",
      "340",
      "340",
      "340",
      "317",
      "317",
      "317",
      "317",
      "317",
      "283",
      "283",
      "283",
      "272",
      "272",
      "272",
      "272",
      "253",
      "253",
      "253",
      "253",
      "253",
      "245",
      "245",
      "231",
      "231",
      "231",
      "191",
      "191",
      "191",
      "191",
      "148",
      "148",
      "132",
      "132",
      "132",
      "132",
      "132",
      "115",
      "110",
      "110",
      "110",
      "111C",
      "111C",
      "111C",
      "110C",
      "110C",
      "110C",
      "100",
      "100",
      "100",
      "071",
      "071",
      "071",
      "071",
      "061",
      "061",
      "061",
      "061",
      "061",
      "055",
      "055",
      "055",
      "040",
      "040",
      "040",
      "040",
      "040",
      "008",
      "008",
      "008",
      "008",
      "001",
      "001",
      "001",
      "001"
    ],
    "swim:geom": "path",
    "swim:speeds": [
      213,
      226,
      226,
      281,
      281,
      278,
      309,
      309,
      309,
      354,
      354,
      372,
      425,
      436,
      436,
      411,
      411,
      411,
      408,
      408,
      428,
      428,
      444,
      444,
      444,
      448,
      443,
      443,
      443,
      442,
      442,
      440,
      440,
      419,
      419,
      423,
      427,
      427,
      433,
      433,
      433,
      435,
      434,
      434,
      434,
      433,
      432,
      432,
      432,
      432,
      432,
      432,
      432,
      434,
      434,
      435,
      435,
      435,
      436,
      436,
      436,
      435,
      435,
      435,
      435,
      422,
      422,
      422,
      423,
      423,
      423,
      425,
      425,
      425,
      426,
      426,
      425,
      425,
      425,
      425,
      425,
      425,
      423,
      423,
      423,
      423,
      423,
      424,
      424,
      424,
      422,
      422,
      422,
      422,
      422,
      422,
      421,
      421,
      421,
      421,
      422,
      423,
      423,
      423,
      423,
      423,
      423,
      423,
      423,
      422,
      422,
      422,
      422,
      422,
      422,
      422,
      422,
      422,
      422,
      422,
      422,
      423,
      423,
      425,
      425,
      425,
      425,
      424,
      424,
      424,
      424,
      427,
      427,
      427,
      427,
      426,
      426,
      426,
      426,
      427,
      427,
      426,
      426,
      426,
      426,
      426,
      426,
      426,
      426,
      426,
      425,
      425,
      425,
      425,
      423,
      423,
      423,
      423,
      422,
      422,
      422,
      422,
      422,
      421,
      421,
      421,
      421,
      420,
      420,
      420,
      420,
      420,
      420,
      420,
      420,
      420,
      420,
      420,
      421,
      421,
      421,
      421,
      422,
      422,
      422,
      422,
      423,
      423,
      423,
      423,
      423,
      423,
      423,
      424,
      424,
      426,
      426,
      425,
      425,
      425,
      425,
      425,
      424,
      424,
      424,
      424,
      424,
      423,
      422,
      422,
      422,
      422,
      422,
      423,
      423,
      429,
      429,
      429,
      429,
      429,
      429,
      427,
      427,
      427,
      427,
      431,
      431,
      431,
      431,
      433,
      433,
      434,
      434,
      435,
      435,
      435,
      436,
      436,
      436,
      436,
      436,
      436,
      436,
      436,
      436,
      436,
      435,
      435,
      435,
      435,
      435,
      435,
      435,
      435,
      435,
      435,
      435,
      434,
      434,
      434,
      434,
      434,
      434,
      434,
      434,
      434,
      434,
      434,
      434,
      437,
      437,
      437,
      438,
      438,
      438,
      440,
      440,
      440,
      440,
      443,
      443,
      443,
      443,
      445,
      443,
      443,
      444,
      444,
      444,
      445,
      445,
      445,
      445,
      445,
      445,
      444,
      445,
      445,
      442,
      442,
      443,
      443,
      443,
      442,
      442,
      441,
      441,
      440,
      442,
      442,
      444,
      444,
      447,
      447,
      447,
      447,
      447,
      447,
      449,
      449,
      449,
      449,
      449,
      447,
      447,
      447,
      447,
      447,
      447,
      447,
      447,
      447,
      447,
      449,
      449,
      449,
      449,
      449,
      450,
      450,
      450,
      450,
      450,
      450,
      450,
      450,
      450,
      450,
      450,
      450,
      450,
      450,
      454,
      454,
      454,
      454,
      456,
      456,
      456,
      457,
      457,
      457,
      457,
      458,
      458,
      458,
      458,
      458,
      459,
      459,
      459,
      459,
      459,
      464,
      464,
      464,
      464,
      464,
      465,
      465,
      465,
      462,
      462,
      462,
      460,
      460,
      460,
      458,
      454,
      454,
      452,
      452,
      452,
      452,
      450,
      449,
      449,
      451,
      451,
      451,
      458,
      458,
      458,
      458,
      458,
      460,
      460,
      460,
      460,
      460,
      460,
      460,
      460,
      460,
      458,
      458,
      458,
      457,
      457,
      457,
      457,
      455,
      455,
      455,
      454,
      454,
      454,
      453,
      453,
      453,
      453,
      453,
      452,
      451,
      448,
      448,
      448,
      448,
      446,
      446,
      446,
      446,
      445,
      445,
      446,
      446,
      445,
      445,
      444,
      444,
      443,
      442,
      442,
      442,
      442,
      442,
      442,
      443,
      443,
      443,
      443,
      443,
      443,
      444,
      444,
      444,
      445,
      445,
      445,
      445,
      446,
      446,
      446,
      446,
      447,
      447,
      447,
      447,
      447,
      441,
      441,
      441,
      441,
      441,
      441,
      433,
      433,
      433,
      433,
      431,
      431,
      431,
      431,
      431,
      431,
      432,
      432,
      432,
      432,
      432,
      432,
      432,
      443,
      443,
      443,
      443,
      435,
      435,
      435,
      435,
      435,
      446,
      446,
      446,
      445,
      445,
      445,
      445,
      438,
      438,
      438,
      438,
      438,
      432,
      432,
      423,
      423,
      423,
      407,
      407,
      407,
      407,
      380,
      380,
      353,
      353,
      353,
      353,
      353,
      351,
      298,
      298,
      298,
      261,
      261,
      261,
      259,
      259,
      259,
      254,
      254,
      254,
      238,
      238,
      238,
      238,
      228,
      228,
      228,
      228,
      228,
      226,
      226,
      226,
      199,
      199,
      199,
      199,
      199,
      154,
      154,
      154,
      154,
      140,
      140,
      140,
      140
    ],
    "swim:timestamps": [
      1777547871,
      1777547890,
      1777547890,
      1777547925,
      1777547925,
      1777547950,
      1777547991,
      1777548010,
      1777548010,
      1777548044,
      1777548044,
      1777548070,
      1777548190,
      1777548231,
      1777548231,
      1777548291,
      1777548291,
      1777548291,
      1777548310,
      1777548310,
      1777548671,
      1777548671,
      1777548731,
      1777548731,
      1777548731,
      1777548791,
      1777548911,
      1777548911,
      1777548971,
      1777549031,
      1777549031,
      1777549051,
      1777549051,
      1777549171,
      1777549171,
      1777549231,
      1777549272,
      1777549272,
      1777549392,
      1777549392,
      1777549392,
      1777549472,
      1777549532,
      1777549532,
      1777549532,
      1777549572,
      1777549632,
      1777549632,
      1777549632,
      1777549692,
      1777549692,
      1777549772,
      1777549813,
      1777549892,
      1777549933,
      1777549953,
      1777549953,
      1777549953,
      1777550073,
      1777550073,
      1777550073,
      1777550173,
      1777550193,
      1777550193,
      1777550193,
      1777551022,
      1777551022,
      1777551022,
      1777551082,
      1777551082,
      1777551082,
      1777551203,
      1777551203,
      1777551203,
      1777551263,
      1777551263,
      1777551443,
      1777551503,
      1777551503,
      1777551503,
      1777551503,
      1777551563,
      1777551595,
      1777551595,
      1777551655,
      1777551655,
      1777551655,
      1777551743,
      1777551743,
      1777551743,
      1777551836,
      1777551864,
      1777551864,
      1777551864,
      1777551864,
      1777551896,
      1777551924,
      1777551924,
      1777551924,
      1777551924,
      1777551956,
      1777552104,
      1777552104,
      1777552104,
      1777552104,
      1777552136,
      1777552164,
      1777552164,
      1777552164,
      1777552316,
      1777552316,
      1777552316,
      1777552316,
      1777552497,
      1777552497,
      1777552557,
      1777552645,
      1777552645,
      1777552645,
      1777552705,
      1777552705,
      1777552797,
      1777552825,
      1777552857,
      1777552857,
      1777552857,
      1777552857,
      1777552885,
      1777552885,
      1777552885,
      1777552885,
      1777552977,
      1777552977,
      1777552977,
      1777552977,
      1777553005,
      1777553005,
      1777553005,
      1777553005,
      1777553037,
      1777553037,
      1777553097,
      1777553097,
      1777553126,
      1777553126,
      1777553158,
      1777553158,
      1777553158,
      1777553158,
      1777553218,
      1777553306,
      1777553306,
      1777553306,
      1777553306,
      1777553458,
      1777553458,
      1777553518,
      1777553518,
      1777553578,
      1777553578,
      1777553578,
      1777553578,
      1777553578,
      1777553698,
      1777553698,
      1777553698,
      1777553698,
      1777553819,
      1777553819,
      1777553879,
      1777553879,
      1777553939,
      1777553939,
      1777553939,
      1777553999,
      1777553999,
      1777553999,
      1777553999,
      1777554119,
      1777554119,
      1777554119,
      1777554119,
      1777554239,
      1777554239,
      1777554239,
      1777554299,
      1777554359,
      1777554359,
      1777554359,
      1777554419,
      1777554419,
      1777554419,
      1777554419,
      1777554480,
      1777554480,
      1777554780,
      1777554780,
      1777554840,
      1777554840,
      1777554900,
      1777554900,
      1777554900,
      1777554960,
      1777554960,
      1777554960,
      1777554960,
      1777554960,
      1777555020,
      1777555201,
      1777555201,
      1777555201,
      1777555201,
      1777555201,
      1777555261,
      1777555261,
      1777555501,
      1777555501,
      1777555501,
      1777555501,
      1777555501,
      1777555501,
      1777555982,
      1777555982,
      1777555982,
      1777555982,
      1777556102,
      1777556102,
      1777556102,
      1777556102,
      1777556162,
      1777556162,
      1777556222,
      1777556222,
      1777556282,
      1777556282,
      1777556282,
      1777556463,
      1777556463,
      1777556463,
      1777556463,
      1777556523,
      1777556523,
      1777556523,
      1777556583,
      1777556583,
      1777556583,
      1777556703,
      1777556703,
      1777556703,
      1777556703,
      1777556883,
      1777556943,
      1777556943,
      1777556943,
      1777557003,
      1777557003,
      1777557003,
      1777557063,
      1777557063,
      1777557063,
      1777557063,
      1777557124,
      1777557124,
      1777557124,
      1777557484,
      1777557484,
      1777557484,
      1777557484,
      1777557484,
      1777557724,
      1777557724,
      1777557724,
      1777557785,
      1777557785,
      1777557785,
      1777557845,
      1777557845,
      1777557845,
      1777557845,
      1777558122,
      1777558122,
      1777558122,
      1777558122,
      1777558190,
      1777558205,
      1777558205,
      1777558265,
      1777558265,
      1777558265,
      1777558310,
      1777558310,
      1777558370,
      1777558430,
      1777558430,
      1777558430,
      1777558483,
      1777558490,
      1777558490,
      1777558626,
      1777558626,
      1777558723,
      1777558723,
      1777558723,
      1777558843,
      1777558843,
      1777558866,
      1777558866,
      1777558903,
      1777558971,
      1777558971,
      1777559031,
      1777559046,
      1777559167,
      1777559331,
      1777559331,
      1777559331,
      1777559331,
      1777559331,
      1777559572,
      1777559572,
      1777559572,
      1777559572,
      1777559572,
      1777559752,
      1777559812,
      1777559812,
      1777559828,
      1777559828,
      1777559828,
      1777560112,
      1777560112,
      1777560112,
      1777560112,
      1777560417,
      1777560417,
      1777560417,
      1777560417,
      1777560417,
      1777560598,
      1777560598,
      1777560598,
      1777560653,
      1777560653,
      1777560653,
      1777560773,
      1777560773,
      1777560773,
      1777560773,
      1777560953,
      1777560953,
      1777560953,
      1777560953,
      1777561259,
      1777561259,
      1777561259,
      1777561259,
      1777561439,
      1777561439,
      1777561439,
      1777561559,
      1777561559,
      1777561559,
      1777561559,
      1777561799,
      1777561799,
      1777561799,
      1777561799,
      1777561799,
      1777561859,
      1777561859,
      1777561859,
      1777561859,
      1777561859,
      1777562100,
      1777562100,
      1777562100,
      1777562160,
      1777562160,
      1777562340,
      1777562340,
      1777562340,
      1777562520,
      1777562520,
      1777562580,
      1777562701,
      1777562701,
      1777562701,
      1777562761,
      1777562881,
      1777562881,
      1777562941,
      1777562941,
      1777562941,
      1777562941,
      1777563121,
      1777563181,
      1777563241,
      1777563361,
      1777563361,
      1777563361,
      1777563722,
      1777563722,
      1777563722,
      1777563722,
      1777563722,
      1777563842,
      1777563842,
      1777563842,
      1777563842,
      1777564022,
      1777564022,
      1777564022,
      1777564022,
      1777564022,
      1777564154,
      1777564154,
      1777564154,
      1777564215,
      1777564215,
      1777564215,
      1777564215,
      1777564395,
      1777564395,
      1777564395,
      1777564455,
      1777564455,
      1777564455,
      1777564515,
      1777564515,
      1777564515,
      1777564523,
      1777564523,
      1777564583,
      1777564643,
      1777564695,
      1777564695,
      1777564695,
      1777564704,
      1777564755,
      1777564755,
      1777564764,
      1777564764,
      1777564815,
      1777564815,
      1777564824,
      1777564824,
      1777564884,
      1777564884,
      1777564935,
      1777564935,
      1777565056,
      1777565116,
      1777565116,
      1777565116,
      1777565116,
      1777565184,
      1777565184,
      1777565304,
      1777565304,
      1777565304,
      1777565304,
      1777565364,
      1777565364,
      1777565425,
      1777565425,
      1777565425,
      1777565545,
      1777565545,
      1777565545,
      1777565545,
      1777565668,
      1777565668,
      1777565668,
      1777565668,
      1777565785,
      1777565785,
      1777565785,
      1777565785,
      1777565785,
      1777566206,
      1777566206,
      1777566206,
      1777566206,
      1777566206,
      1777566206,
      1777566326,
      1777566326,
      1777566326,
      1777566326,
      1777566506,
      1777566506,
      1777566506,
      1777566506,
      1777566506,
      1777566506,
      1777566626,
      1777566626,
      1777566746,
      1777566746,
      1777566746,
      1777566746,
      1777566746,
      1777566867,
      1777566867,
      1777566867,
      1777566867,
      1777566987,
      1777566987,
      1777566987,
      1777566987,
      1777566987,
      1777567167,
      1777567167,
      1777567167,
      1777567227,
      1777567227,
      1777567227,
      1777567227,
      1777567347,
      1777567347,
      1777567347,
      1777567347,
      1777567347,
      1777567407,
      1777567407,
      1777567467,
      1777567467,
      1777567467,
      1777567588,
      1777567588,
      1777567588,
      1777567588,
      1777567714,
      1777567714,
      1777567768,
      1777567768,
      1777567768,
      1777567768,
      1777567768,
      1777567828,
      1777567882,
      1777567882,
      1777567882,
      1777567948,
      1777567948,
      1777567948,
      1777568008,
      1777568008,
      1777568008,
      1777568068,
      1777568068,
      1777568068,
      1777568188,
      1777568188,
      1777568188,
      1777568188,
      1777568309,
      1777568309,
      1777568309,
      1777568309,
      1777568309,
      1777568369,
      1777568369,
      1777568369,
      1777568489,
      1777568489,
      1777568489,
      1777568489,
      1777568489,
      1777568669,
      1777568669,
      1777568669,
      1777568669,
      1777568729,
      1777568729,
      1777568729,
      1777568729
    ],
    "wof:geomhash": "0aa749cb27046abaaf9c462efe25f666",
    "wof:id": 2031148595,
    "wof:repo": "sfomuseum-data-flights-2026-04"
  },
  "bbox": [
    -122.76305555555555,
    37.3775,
    -73.48333333333333,
    45.413333333333334
  ],
  "geometry": {"coordinates":[[-73.81666666666666,40.583333333333336],[-73.82,40.56777777777778],[-73.82,40.56777777777778],[-73.78333333333333,40.53333333333333],[-73.78333333333333,40.53333333333333],[-73.74805555555555,40.52444444444444],[-73.66666666666667,40.53333333333333],[-73.65361111111112,40.54888888888889],[-73.65361111111112,40.54888888888889],[-73.6,40.583333333333336],[-73.6,40.583333333333336],[-73.5611111111111,40.61527777777778],[-73.48361111111112,40.83583333333333],[-73.48333333333333,40.916666666666664],[-73.48333333333333,40.916666666666664],[-73.5,41.03333333333333],[-73.5,41.03333333333333],[-73.5,41.03333333333333],[-73.51805555555555,41.064166666666665],[-73.51805555555555,41.064166666666665],[-74.27388888888889,41.37416666666667],[-74.27388888888889,41.37416666666667],[-74.41861111111112,41.43194444444444],[-74.41861111111112,41.43194444444444],[-74.41861111111112,41.43194444444444],[-74.58888888888889,41.507222222222225],[-74.8711111111111,41.62861111111111],[-74.8711111111111,41.62861111111111],[-75.01277777777777,41.68833333333333],[-75.15444444444445,41.74888888888889],[-75.15444444444445,41.74888888888889],[-75.20027777777779,41.768055555555556],[-75.20027777777779,41.768055555555556],[-75.47361111111111,41.88305555555556],[-75.47361111111111,41.88305555555556],[-75.61222222222221,41.94083333333333],[-75.7063888888889,41.980000000000004],[-75.7063888888889,41.980000000000004],[-75.97472222222223,42.09111111111111],[-75.97472222222223,42.09111111111111],[-75.97472222222223,42.09111111111111],[-76.18444444444445,42.172777777777775],[-76.33222222222221,42.220555555555556],[-76.33222222222221,42.220555555555556],[-76.33222222222221,42.220555555555556],[-76.41166666666668,42.24583333333334],[-76.5625,42.29361111111111],[-76.5625,42.29361111111111],[-76.5625,42.29361111111111],[-76.71055555555556,42.34055555555556],[-76.71055555555556,42.34055555555556],[-76.92083333333333,42.406388888888884],[-77.00694444444444,42.433611111111105],[-77.22111111111111,42.5],[-77.30833333333334,42.526944444444446],[-77.37194444444444,42.54666666666667],[-77.37194444444444,42.54666666666667],[-77.37194444444444,42.54666666666667],[-77.68527777777778,42.64222222222222],[-77.68527777777778,42.64222222222222],[-77.68527777777778,42.64222222222222],[-77.935,42.71333333333334],[-77.96527777777779,42.72166666666667],[-77.96527777777779,42.72166666666667],[-77.96527777777779,42.72166666666667],[-80.14333333333335,43.02444444444444],[-80.14333333333335,43.02444444444444],[-80.14333333333335,43.02444444444444],[-80.30305555555556,43.032222222222224],[-80.30305555555556,43.032222222222224],[-80.30305555555556,43.032222222222224],[-80.62444444444444,43.04666666666667],[-80.62444444444444,43.04666666666667],[-80.62444444444444,43.04666666666667],[-80.7863888888889,43.05361111111111],[-80.7863888888889,43.05361111111111],[-81.29722222222222,43.1025],[-81.4538888888889,43.13055555555555],[-81.4538888888889,43.13055555555555],[-81.4538888888889,43.13055555555555],[-81.4538888888889,43.13055555555555],[-81.58749999999999,43.15416666666667],[-81.68472222222222,43.17111111111111],[-81.68472222222222,43.17111111111111],[-81.8386111111111,43.198055555555555],[-81.8386111111111,43.198055555555555],[-81.8386111111111,43.198055555555555],[-82.05722222222222,43.23583333333333],[-82.05722222222222,43.23583333333333],[-82.05722222222222,43.23583333333333],[-82.32111111111111,43.269444444444446],[-82.3736111111111,43.26916666666666],[-82.3736111111111,43.26916666666666],[-82.3736111111111,43.26916666666666],[-82.3736111111111,43.26916666666666],[-82.47944444444444,43.26722222222222],[-82.53333333333333,43.26611111111111],[-82.53333333333333,43.26611111111111],[-82.53333333333333,43.26611111111111],[-82.53333333333333,43.26611111111111],[-82.64055555555557,43.26361111111111],[-82.99777777777778,43.33777777777778],[-82.99777777777778,43.33777777777778],[-82.99777777777778,43.33777777777778],[-82.99777777777778,43.33777777777778],[-83.10027777777778,43.36472222222223],[-83.14916666666667,43.37722222222222],[-83.14916666666667,43.37722222222222],[-83.14916666666667,43.37722222222222],[-83.55499999999999,43.48222222222223],[-83.55499999999999,43.48222222222223],[-83.55499999999999,43.48222222222223],[-83.55499999999999,43.48222222222223],[-84.01138888888889,43.59777777777778],[-84.01138888888889,43.59777777777778],[-84.15916666666668,43.635],[-84.37472222222222,43.68833333333333],[-84.37472222222222,43.68833333333333],[-84.37472222222222,43.68833333333333],[-84.52555555555556,43.72555555555556],[-84.52555555555556,43.72555555555556],[-84.77361111111111,43.78611111111111],[-84.83388888888888,43.80083333333333],[-84.93,43.823888888888895],[-84.93,43.823888888888895],[-84.93,43.823888888888895],[-84.93,43.823888888888895],[-84.9863888888889,43.837500000000006],[-84.9863888888889,43.837500000000006],[-84.9863888888889,43.837500000000006],[-84.9863888888889,43.837500000000006],[-85.24027777777778,43.89833333333333],[-85.24027777777778,43.89833333333333],[-85.24027777777778,43.89833333333333],[-85.24027777777778,43.89833333333333],[-85.29888888888888,43.91222222222222],[-85.29888888888888,43.91222222222222],[-85.29888888888888,43.91222222222222],[-85.29888888888888,43.91222222222222],[-85.39583333333334,43.934999999999995],[-85.39583333333334,43.934999999999995],[-85.55055555555555,43.97166666666667],[-85.55055555555555,43.97166666666667],[-85.60972222222222,43.98527777777778],[-85.60972222222222,43.98527777777778],[-85.70555555555556,44.007777777777775],[-85.70555555555556,44.007777777777775],[-85.70555555555556,44.007777777777775],[-85.70555555555556,44.007777777777775],[-85.86083333333333,44.04388888888889],[-86.07444444444444,44.09305555555556],[-86.07444444444444,44.09305555555556],[-86.07444444444444,44.09305555555556],[-86.07444444444444,44.09305555555556],[-86.49861111111112,44.189166666666665],[-86.49861111111112,44.189166666666665],[-86.65305555555557,44.22361111111111],[-86.65305555555557,44.22361111111111],[-86.81,44.25861111111111],[-86.81,44.25861111111111],[-86.81,44.25861111111111],[-86.81,44.25861111111111],[-86.81,44.25861111111111],[-87.12222222222222,44.327222222222225],[-87.12222222222222,44.327222222222225],[-87.12222222222222,44.327222222222225],[-87.12222222222222,44.327222222222225],[-87.43444444444445,44.39472222222222],[-87.43444444444445,44.39472222222222],[-87.5886111111111,44.42777777777778],[-87.5886111111111,44.42777777777778],[-87.74444444444444,44.46083333333333],[-87.74444444444444,44.46083333333333],[-87.74444444444444,44.46083333333333],[-87.90305555555557,44.494166666666665],[-87.90305555555557,44.494166666666665],[-87.90305555555557,44.494166666666665],[-87.90305555555557,44.494166666666665],[-88.21361111111112,44.55722222222222],[-88.21361111111112,44.55722222222222],[-88.21361111111112,44.55722222222222],[-88.21361111111112,44.55722222222222],[-88.53361111111111,44.60138888888889],[-88.53361111111111,44.60138888888889],[-88.53361111111111,44.60138888888889],[-88.69500000000001,44.62305555555555],[-88.85694444444444,44.644444444444446],[-88.85694444444444,44.644444444444446],[-88.85694444444444,44.644444444444446],[-89.01777777777778,44.66555555555556],[-89.01777777777778,44.66555555555556],[-89.01777777777778,44.66555555555556],[-89.01777777777778,44.66555555555556],[-89.18222222222222,44.68694444444444],[-89.18222222222222,44.68694444444444],[-89.99666666666667,44.78861111111111],[-89.99666666666667,44.78861111111111],[-90.16000000000001,44.80833333333333],[-90.16000000000001,44.80833333333333],[-90.32194444444444,44.82777777777778],[-90.32194444444444,44.82777777777778],[-90.32194444444444,44.82777777777778],[-90.47916666666667,44.846111111111114],[-90.47916666666667,44.846111111111114],[-90.47916666666667,44.846111111111114],[-90.47916666666667,44.846111111111114],[-90.47916666666667,44.846111111111114],[-90.64444444444445,44.86527777777778],[-91.13055555555555,44.92027777777778],[-91.13055555555555,44.92027777777778],[-91.13055555555555,44.92027777777778],[-91.13055555555555,44.92027777777778],[-91.13055555555555,44.92027777777778],[-91.29472222222222,44.93833333333333],[-91.29472222222222,44.93833333333333],[-91.9588888888889,45.00888888888889],[-91.9588888888889,45.00888888888889],[-91.9588888888889,45.00888888888889],[-91.9588888888889,45.00888888888889],[-91.9588888888889,45.00888888888889],[-91.9588888888889,45.00888888888889],[-93.3125,45.14],[-93.3125,45.14],[-93.3125,45.14],[-93.3125,45.14],[-93.64916666666667,45.16638888888889],[-93.64916666666667,45.16638888888889],[-93.64916666666667,45.16638888888889],[-93.64916666666667,45.16638888888889],[-93.81694444444445,45.17861111111111],[-93.81694444444445,45.17861111111111],[-93.98722222222223,45.19083333333333],[-93.98722222222223,45.19083333333333],[-94.1575,45.20305555555556],[-94.1575,45.20305555555556],[-94.1575,45.20305555555556],[-94.66888888888889,45.237500000000004],[-94.66888888888889,45.237500000000004],[-94.66888888888889,45.237500000000004],[-94.66888888888889,45.237500000000004],[-94.84472222222222,45.24861111111111],[-94.84472222222222,45.24861111111111],[-94.84472222222222,45.24861111111111],[-95.01416666666667,45.25944444444445],[-95.01416666666667,45.25944444444445],[-95.01416666666667,45.25944444444445],[-95.35583333333332,45.28],[-95.35583333333332,45.28],[-95.35583333333332,45.28],[-95.35583333333332,45.28],[-95.86555555555555,45.30888888888889],[-96.03833333333333,45.31805555555556],[-96.03833333333333,45.31805555555556],[-96.03833333333333,45.31805555555556],[-96.20833333333334,45.32694444444445],[-96.20833333333334,45.32694444444445],[-96.20833333333334,45.32694444444445],[-96.37472222222222,45.33527777777778],[-96.37472222222222,45.33527777777778],[-96.37472222222222,45.33527777777778],[-96.37472222222222,45.33527777777778],[-96.54444444444444,45.343611111111116],[-96.54444444444444,45.343611111111116],[-96.54444444444444,45.343611111111116],[-97.56611111111111,45.38861111111111],[-97.56611111111111,45.38861111111111],[-97.56611111111111,45.38861111111111],[-97.56611111111111,45.38861111111111],[-97.56611111111111,45.38861111111111],[-98.25083333333333,45.413333333333334],[-98.25083333333333,45.413333333333334],[-98.25083333333333,45.413333333333334],[-98.42361111111111,45.4125],[-98.42361111111111,45.4125],[-98.42361111111111,45.4125],[-98.59666666666666,45.397777777777776],[-98.59666666666666,45.397777777777776],[-98.59666666666666,45.397777777777776],[-98.59666666666666,45.397777777777776],[-99.38722222222223,45.32527777777778],[-99.38722222222223,45.32527777777778],[-99.38722222222223,45.32527777777778],[-99.38722222222223,45.32527777777778],[-99.59472222222222,45.30472222222222],[-99.63083333333333,45.30138888888889],[-99.63083333333333,45.30138888888889],[-99.80333333333333,45.28444444444444],[-99.80333333333333,45.28444444444444],[-99.80333333333333,45.28444444444444],[-99.93722222222223,45.270833333333336],[-99.93722222222223,45.270833333333336],[-100.12527777777777,45.25222222222222],[-100.2825,45.23583333333333],[-100.2825,45.23583333333333],[-100.2825,45.23583333333333],[-100.4375,45.218611111111116],[-100.4525,45.21805555555556],[-100.4525,45.21805555555556],[-100.86083333333333,45.17444444444444],[-100.86083333333333,45.17444444444444],[-101.12388888888889,45.14388888888889],[-101.12388888888889,45.14388888888889],[-101.12388888888889,45.14388888888889],[-101.46611111111112,45.10527777777778],[-101.46611111111112,45.10527777777778],[-101.545,45.09777777777778],[-101.545,45.09777777777778],[-101.63583333333334,45.087500000000006],[-101.815,45.05777777777777],[-101.815,45.05777777777777],[-101.98305555555555,45.02333333333333],[-102.05138888888888,45.00888888888889],[-102.38194444444444,44.94],[-102.85472222222222,44.83916666666667],[-102.85472222222222,44.83916666666667],[-102.85472222222222,44.83916666666667],[-102.85472222222222,44.83916666666667],[-102.85472222222222,44.83916666666667],[-103.51916666666666,44.693888888888885],[-103.51916666666666,44.693888888888885],[-103.51916666666666,44.693888888888885],[-103.51916666666666,44.693888888888885],[-103.51916666666666,44.693888888888885],[-104.01722222222222,44.58166666666667],[-104.1825,44.54388888888889],[-104.1825,44.54388888888889],[-104.21333333333334,44.53666666666666],[-104.21333333333334,44.53666666666666],[-104.21333333333334,44.53666666666666],[-105.00472222222223,44.35166666666667],[-105.00472222222223,44.35166666666667],[-105.00472222222223,44.35166666666667],[-105.00472222222223,44.35166666666667],[-105.82444444444444,44.15277777777778],[-105.82444444444444,44.15277777777778],[-105.82444444444444,44.15277777777778],[-105.82444444444444,44.15277777777778],[-105.82444444444444,44.15277777777778],[-106.335,44.025277777777774],[-106.335,44.025277777777774],[-106.335,44.025277777777774],[-106.4786111111111,43.98861111111111],[-106.4786111111111,43.98861111111111],[-106.4786111111111,43.98861111111111],[-106.80138888888888,43.89722222222222],[-106.80138888888888,43.89722222222222],[-106.80138888888888,43.89722222222222],[-106.80138888888888,43.89722222222222],[-107.27472222222222,43.76305555555555],[-107.27472222222222,43.76305555555555],[-107.27472222222222,43.76305555555555],[-107.27472222222222,43.76305555555555],[-108.1125,43.51888888888889],[-108.1125,43.51888888888889],[-108.1125,43.51888888888889],[-108.1125,43.51888888888889],[-108.56944444444444,43.38722222222222],[-108.56944444444444,43.38722222222222],[-108.56944444444444,43.38722222222222],[-108.92416666666666,43.28611111111111],[-108.92416666666666,43.28611111111111],[-108.92416666666666,43.28611111111111],[-108.92416666666666,43.28611111111111],[-109.54027777777777,43.10666666666667],[-109.54027777777777,43.10666666666667],[-109.54027777777777,43.10666666666667],[-109.54027777777777,43.10666666666667],[-109.54027777777777,43.10666666666667],[-109.7038888888889,43.05833333333333],[-109.7038888888889,43.05833333333333],[-109.7038888888889,43.05833333333333],[-109.7038888888889,43.05833333333333],[-109.7038888888889,43.05833333333333],[-110.38222222222221,42.85472222222222],[-110.38222222222221,42.85472222222222],[-110.38222222222221,42.85472222222222],[-110.54388888888889,42.80555555555555],[-110.54388888888889,42.80555555555555],[-111.0213888888889,42.658055555555556],[-111.0213888888889,42.658055555555556],[-111.0213888888889,42.658055555555556],[-111.49972222222222,42.5075],[-111.49972222222222,42.5075],[-111.65944444444445,42.45666666666667],[-111.97527777777778,42.355000000000004],[-111.97527777777778,42.355000000000004],[-111.97527777777778,42.355000000000004],[-112.13,42.305],[-112.43777777777778,42.20444444444445],[-112.43777777777778,42.20444444444445],[-112.59083333333332,42.15277777777778],[-112.59083333333332,42.15277777777778],[-112.59083333333332,42.15277777777778],[-112.59083333333332,42.15277777777778],[-113.04833333333333,41.996944444444445],[-113.19916666666667,41.94472222222222],[-113.34944444444444,41.8925],[-113.6525,41.78666666666666],[-113.6525,41.78666666666666],[-113.6525,41.78666666666666],[-114.56861111111111,41.45944444444445],[-114.56861111111111,41.45944444444445],[-114.56861111111111,41.45944444444445],[-114.56861111111111,41.45944444444445],[-114.56861111111111,41.45944444444445],[-114.87305555555555,41.348333333333336],[-114.87305555555555,41.348333333333336],[-114.87305555555555,41.348333333333336],[-114.87305555555555,41.348333333333336],[-115.33,41.17916666666667],[-115.33,41.17916666666667],[-115.33,41.17916666666667],[-115.33,41.17916666666667],[-115.33,41.17916666666667],[-115.66250000000001,41.05444444444444],[-115.66250000000001,41.05444444444444],[-115.66250000000001,41.05444444444444],[-115.81194444444444,40.99805555555556],[-115.81194444444444,40.99805555555556],[-115.81194444444444,40.99805555555556],[-115.81194444444444,40.99805555555556],[-116.27055555555556,40.82277777777778],[-116.27055555555556,40.82277777777778],[-116.27055555555556,40.82277777777778],[-116.42,40.765],[-116.42,40.765],[-116.42,40.765],[-116.56722222222221,40.70777777777778],[-116.56722222222221,40.70777777777778],[-116.56722222222221,40.70777777777778],[-116.59888888888888,40.69555555555555],[-116.59888888888888,40.69555555555555],[-116.74333333333334,40.63916666666667],[-116.89027777777778,40.58166666666667],[-117.00944444444444,40.54611111111111],[-117.00944444444444,40.54611111111111],[-117.00944444444444,40.54611111111111],[-117.03972222222222,40.53805555555555],[-117.16000000000001,40.50694444444444],[-117.16000000000001,40.50694444444444],[-117.19472222222223,40.49805555555556],[-117.19472222222223,40.49805555555556],[-117.31444444444445,40.46666666666667],[-117.31444444444445,40.46666666666667],[-117.34722222222221,40.45805555555556],[-117.34722222222221,40.45805555555556],[-117.49861111111112,40.41777777777777],[-117.49861111111112,40.41777777777777],[-117.61944444444444,40.385555555555555],[-117.61944444444444,40.385555555555555],[-117.92194444444445,40.30444444444444],[-118.07305555555556,40.26361111111111],[-118.07305555555556,40.26361111111111],[-118.07305555555556,40.26361111111111],[-118.07305555555556,40.26361111111111],[-118.25444444444445,40.21416666666667],[-118.25444444444445,40.21416666666667],[-118.55722222222222,40.130833333333335],[-118.55722222222222,40.130833333333335],[-118.55722222222222,40.130833333333335],[-118.55722222222222,40.130833333333335],[-118.70444444444445,40.087500000000006],[-118.70444444444445,40.087500000000006],[-118.8536111111111,40.04194444444444],[-118.8536111111111,40.04194444444444],[-118.8536111111111,40.04194444444444],[-119.15222222222222,39.95166666666667],[-119.15222222222222,39.95166666666667],[-119.15222222222222,39.95166666666667],[-119.15222222222222,39.95166666666667],[-119.44861111111112,39.86055555555556],[-119.44861111111112,39.86055555555556],[-119.44861111111112,39.86055555555556],[-119.44861111111112,39.86055555555556],[-119.74888888888889,39.7675],[-119.74888888888889,39.7675],[-119.74888888888889,39.7675],[-119.74888888888889,39.7675],[-119.74888888888889,39.7675],[-120.78916666666666,39.450833333333335],[-120.78916666666666,39.450833333333335],[-120.78916666666666,39.450833333333335],[-120.78916666666666,39.450833333333335],[-120.78916666666666,39.450833333333335],[-120.78916666666666,39.450833333333335],[-121.07888888888888,39.53444444444444],[-121.07888888888888,39.53444444444444],[-121.07888888888888,39.53444444444444],[-121.07888888888888,39.53444444444444],[-121.50888888888889,39.68472222222222],[-121.50888888888889,39.68472222222222],[-121.50888888888889,39.68472222222222],[-121.50888888888889,39.68472222222222],[-121.50888888888889,39.68472222222222],[-121.50888888888889,39.68472222222222],[-121.815,39.67111111111111],[-121.815,39.67111111111111],[-122.12472222222222,39.632222222222225],[-122.12472222222222,39.632222222222225],[-122.12472222222222,39.632222222222225],[-122.12472222222222,39.632222222222225],[-122.12472222222222,39.632222222222225],[-122.37666666666667,39.481944444444444],[-122.37666666666667,39.481944444444444],[-122.37666666666667,39.481944444444444],[-122.37666666666667,39.481944444444444],[-122.61583333333333,39.32555555555556],[-122.61583333333333,39.32555555555556],[-122.61583333333333,39.32555555555556],[-122.61583333333333,39.32555555555556],[-122.61583333333333,39.32555555555556],[-122.74861111111112,39.01],[-122.74861111111112,39.01],[-122.74861111111112,39.01],[-122.75083333333333,38.879444444444445],[-122.75083333333333,38.879444444444445],[-122.75083333333333,38.879444444444445],[-122.75083333333333,38.879444444444445],[-122.75722222222223,38.6375],[-122.75722222222223,38.6375],[-122.75722222222223,38.6375],[-122.75722222222223,38.6375],[-122.75722222222223,38.6375],[-122.76027777777777,38.51722222222222],[-122.76027777777777,38.51722222222222],[-122.76305555555555,38.39972222222222],[-122.76305555555555,38.39972222222222],[-122.76305555555555,38.39972222222222],[-122.75333333333333,38.175],[-122.75333333333333,38.175],[-122.75333333333333,38.175],[-122.75333333333333,38.175],[-122.68333333333334,37.93333333333333],[-122.68333333333334,37.93333333333333],[-122.63194444444444,37.861111111111114],[-122.63194444444444,37.861111111111114],[-122.63194444444444,37.861111111111114],[-122.63194444444444,37.861111111111114],[-122.63194444444444,37.861111111111114],[-122.55583333333333,37.78861111111111],[-122.48333333333333,37.733333333333334],[-122.48333333333333,37.733333333333334],[-122.48333333333333,37.733333333333334],[-122.42333333333333,37.663888888888884],[-122.42333333333333,37.663888888888884],[-122.42333333333333,37.663888888888884],[-122.36583333333333,37.609722222222224],[-122.36583333333333,37.609722222222224],[-122.36583333333333,37.609722222222224],[-122.33055555555555,37.54416666666666],[-122.33055555555555,37.54416666666666],[-122.33055555555555,37.54416666666666],[-122.31222222222222,37.41972222222222],[-122.31222222222222,37.41972222222222],[-122.31222222222222,37.41972222222222],[-122.31222222222222,37.41972222222222],[-122.19222222222223,37.3775],[-122.19222222222223,37.3775],[-122.19222222222223,37.3775],[-122.19222222222223,37.3775],[-122.19222222222223,37.3775],[-122.11944444444444,37.41694444444444],[-122.11944444444444,37.41694444444444],[-122.11944444444444,37.41694444444444],[-122.14555555555556,37.525555555555556],[-122.14555555555556,37.525555555555556],[-122.14555555555556,37.525555555555556],[-122.14555555555556,37.525555555555556],[-122.14555555555556,37.525555555555556],[-122.31805555555555,37.59722222222222],[-122.31805555555555,37.59722222222222],[-122.31805555555555,37.59722222222222],[-122.31805555555555,37.59722222222222],[-122.36166666666666,37.61555555555556],[-122.36166666666666,37.61555555555556],[-122.36166666666666,37.61555555555556],[-122.36166666666666,37.61555555555556]],"type":"LineString"}
}
