{
  "id": 2015358801,
  "type": "Feature",
  "properties": {
    "geom:area": 0,
    "geom:bbox": "-122.530000,37.620000,-73.780000,42.550000",
    "geom:latitude": 41.06452080982646,
    "geom:longitude": -98.25879782841156,
    "src:alt_label": "swim-route",
    "src:geom": "swim",
    "swim:geom": "route",
    "wof:geomhash": "05fba02bf417a29d98852e6a8efc6f7b",
    "wof:id": 2015358801,
    "wof:repo": "sfomuseum-data-flights-2026-04"
  },
  "bbox": [
    -122.53,
    37.62,
    -73.78,
    42.55
  ],
  "geometry": {"coordinates":[[-122.38,37.62],[-122.52,37.68],[-122.52,37.71],[-122.52,37.71],[-122.53,37.8],[-122.53,37.8],[-122.53,37.8],[-122.49,37.82],[-122.43,37.84],[-122.42,37.84],[-122.41,37.84],[-122.34,37.85],[-122.13,37.87],[-121.99,37.89],[-121.86,37.91],[-121.86,37.91],[-121.8,37.91],[-121.77,37.92],[-121.56,37.94],[-121.55,37.94],[-121.34,37.96],[-121.27,37.97],[-121.1,37.99],[-121.09,37.99],[-121.04,38],[-120.92,38.02],[-120.5,38.08],[-120.35,38.11],[-120.19,38.13],[-120.03,38.15],[-119.7,38.2],[-119.18,38.27],[-118.75,38.33],[-118.47,38.37],[-117.38,38.51],[-117.29,38.52],[-117.28,38.52],[-117.1,38.51],[-116.79,38.51],[-115.76,38.8],[-113.32,39.29],[-113.25,39.3],[-113.15,39.33],[-112.9,39.39],[-111.54,39.73],[-110.82,39.91],[-110.1,40.08],[-109.74,40.16],[-109.32,40.25],[-109.15,40.29],[-107.99,40.54],[-107.47,40.64],[-105.63,41],[-105.36,41.05],[-104.55,41.19],[-101.95,41.62],[-101.08,41.74],[-99.03,42.02],[-97.3,42.22],[-96.3,42.32],[-95.02,42.44],[-93.12,42.51],[-93.08,42.51],[-92.9,42.49],[-92.72,42.49],[-91.59,42.53],[-90.3,42.54],[-88.75,42.55],[-88,42.55],[-87,42.53],[-85,42.48],[-84.87,42.48],[-84.46,42.46],[-84.33,42.46],[-83.26,42.41],[-82.69,42.38],[-81.58,42.33],[-81,42.3],[-80.75,42.29],[-80.27,42.26],[-80.04,42.22],[-79.37,42.1],[-79.26,42.08],[-79.01,42.03],[-78.81,42],[-78.7,41.98],[-77.5,41.75],[-77.49,41.75],[-77.19,41.69],[-77.15,41.68],[-76.6,41.53],[-76.3,41.45],[-76.01,41.36],[-76,41.36],[-75.69,41.27],[-75.62,41.25],[-75.58,41.24],[-75.57,41.23],[-75.49,41.21],[-75.49,41.2],[-75.34,41.16],[-75.33,41.15],[-75.26,41.13],[-75.2,41.11],[-75.13,41.09],[-75.09,41.07],[-75.06,41.06],[-75.06,41.06],[-75,41.04],[-74.94,41.02],[-74.92,41.01],[-74.9,41.01],[-74.87,41],[-74.84,40.99],[-74.78,40.99],[-74.74,40.98],[-74.68,40.97],[-74.66,40.97],[-74.44,40.95],[-74.38,40.94],[-74.32,40.93],[-74.28,40.93],[-74.23,40.92],[-74.2,40.92],[-74.18,40.91],[-74.16,40.91],[-74.12,40.91],[-74.1,40.9],[-74.04,40.87],[-74.03,40.86],[-74.01,40.85],[-73.98,40.84],[-73.97,40.83],[-73.95,40.82],[-73.93,40.81],[-73.9,40.8],[-73.88,40.79],[-73.87,40.79],[-73.87,40.78],[-73.84,40.73],[-73.83,40.72],[-73.83,40.71],[-73.78,40.64]],"type":"LineString"}
}
