{
  "id": 2015348501,
  "type": "Feature",
  "properties": {
    "geom:area": 0,
    "geom:bbox": "-122.400790,37.628090,-121.292400,38.244350",
    "geom:latitude": 38.01226165010238,
    "geom:longitude": -121.95398650322704,
    "src:alt_label": "swim-takeoff",
    "src:geom": "swim",
    "swim:elevations": [
      293,
      553,
      690,
      936,
      1374,
      1592,
      1915,
      2190,
      2937,
      3165,
      3387,
      3469,
      3948,
      4243,
      4546,
      4828,
      5043,
      5386,
      5515,
      5624,
      5774,
      6146,
      6338,
      6451,
      6682,
      6784,
      6997
    ],
    "swim:geom": "takeoff",
    "swim:timestamps": [
      1776810535,
      1776810568,
      1776810592,
      1776810625,
      1776810656,
      1776810671,
      1776810695,
      1776810715,
      1776810769,
      1776810790,
      1776810835,
      1776810850,
      1776810898,
      1776810924,
      1776810954,
      1776810984,
      1776811004,
      1776811038,
      1776811056,
      1776811071,
      1776811089,
      1776811137,
      1776811161,
      1776811176,
      1776811222,
      1776811244,
      1776811278
    ],
    "wof:geomhash": "01c71fc120d58be1f5befe5404c1220c",
    "wof:id": 2015348501,
    "wof:repo": "sfomuseum-data-flights-2026-04"
  },
  "bbox": [
    -122.40079,
    37.62809,
    -121.2924,
    38.24435
  ],
  "geometry": {"coordinates":[[-122.39655,37.62809],[-122.40079,37.6528],[-122.38348,37.67225],[-122.35569,37.70231],[-122.33746,37.73712],[-122.34245,37.75498],[-122.35655,37.78314],[-122.36778,37.80609],[-122.3859,37.87436],[-122.3837,37.90277],[-122.32857,37.95204],[-122.29729,37.95843],[-122.19395,37.97874],[-122.13369,37.98877],[-122.06742,38.00711],[-122.00083,38.02798],[-121.95703,38.04151],[-121.87858,38.06572],[-121.83729,38.07847],[-121.80261,38.08905],[-121.7604,38.10206],[-121.64609,38.13708],[-121.58777,38.15484],[-121.55122,38.166],[-121.4368,38.20076],[-121.38123,38.21761],[-121.2924,38.24435]],"type":"LineString"}
}
