{
  "id": 2031110115,
  "type": "Feature",
  "properties": {
    "geom:area": 0,
    "geom:bbox": "-122.533333,33.280278,-111.766667,37.666667",
    "geom:latitude": 34.786294068191,
    "geom:longitude": -117.33818220758249,
    "src:alt_label": "swim-path",
    "src:geom": "swim",
    "swim:altitudes": [
      "026",
      "026",
      "026",
      "052",
      "052",
      "052",
      "052",
      "052",
      "162",
      "162",
      "162",
      "162",
      "162",
      "162",
      "182",
      "182",
      "182",
      "182",
      "206",
      "206",
      "206",
      "237",
      "237",
      "237",
      "237",
      "237",
      "269",
      "269",
      "269",
      "284",
      "284",
      "284",
      "284",
      "290C",
      "290C",
      "290C",
      "290C",
      "290C",
      "290C",
      "290C",
      "290C",
      "290C",
      "290C",
      "290C",
      "290C",
      "290C",
      "290C",
      "290C",
      "290C",
      "290C",
      "290C",
      "301",
      "301",
      "301",
      "313",
      "313",
      "313",
      "330C",
      "330C",
      "330C",
      "330C",
      "330C",
      "330C",
      "330C",
      "330C",
      "330C",
      "330C",
      "330C",
      "330C",
      "330C",
      "330C",
      "330C",
      "330C",
      "330C",
      "330C",
      "330C",
      "330C",
      "330C",
      "330C",
      "330C",
      "330C",
      "330C",
      "330C",
      "330C",
      "330C",
      "330C",
      "330C",
      "330C",
      "330C",
      "330C",
      "330C",
      "330C",
      "330C",
      "330C",
      "330C",
      "330C",
      "330C",
      "330C",
      "330C",
      "330C",
      "330C",
      "330C",
      "330C",
      "330C",
      "330C",
      "330C",
      "330C",
      "330C",
      "330C",
      "330C",
      "330C",
      "330C",
      "330C",
      "330C",
      "330C",
      "330C",
      "330C",
      "330C",
      "330C",
      "330C",
      "330C",
      "330C",
      "330C",
      "330C",
      "330C",
      "330C",
      "330C",
      "330C",
      "330C",
      "330C",
      "330C",
      "330C",
      "330C",
      "330C",
      "330C",
      "330C",
      "330C",
      "330C",
      "330C",
      "330C",
      "330C",
      "330C",
      "330C",
      "330C",
      "330C",
      "330C",
      "330",
      "330",
      "329",
      "329",
      "321",
      "321",
      "321",
      "301",
      "301",
      "290",
      "290",
      "290",
      "290",
      "290",
      "290",
      "232",
      "232",
      "232",
      "232",
      "209",
      "209",
      "198",
      "198",
      "198",
      "198",
      "198",
      "179",
      "179",
      "179",
      "179",
      "179",
      "179",
      "179",
      "149",
      "149",
      "143",
      "143",
      "143",
      "143",
      "131",
      "131",
      "131",
      "131",
      "131",
      "125",
      "125",
      "123",
      "123",
      "123",
      "123",
      "105",
      "105",
      "105",
      "105",
      "096",
      "096",
      "096",
      "083",
      "083",
      "066",
      "066",
      "066",
      "066",
      "066",
      "051",
      "051",
      "051",
      "051",
      "046",
      "046",
      "046",
      "046",
      "043",
      "043",
      "024",
      "024",
      "024",
      "016",
      "016"
    ],
    "swim:geom": "path",
    "swim:speeds": [
      217,
      217,
      217,
      267,
      267,
      267,
      267,
      267,
      342,
      342,
      342,
      342,
      342,
      342,
      343,
      343,
      343,
      343,
      371,
      371,
      371,
      388,
      388,
      388,
      388,
      388,
      416,
      416,
      416,
      421,
      421,
      421,
      421,
      423,
      423,
      423,
      423,
      423,
      423,
      423,
      423,
      423,
      423,
      423,
      423,
      423,
      425,
      425,
      425,
      425,
      425,
      435,
      435,
      435,
      440,
      440,
      440,
      435,
      435,
      435,
      435,
      434,
      434,
      434,
      434,
      434,
      435,
      435,
      436,
      436,
      436,
      436,
      437,
      437,
      437,
      437,
      437,
      439,
      442,
      442,
      442,
      442,
      442,
      446,
      446,
      446,
      446,
      447,
      447,
      453,
      453,
      453,
      453,
      453,
      455,
      455,
      455,
      455,
      459,
      459,
      459,
      484,
      484,
      484,
      484,
      484,
      485,
      485,
      485,
      485,
      485,
      485,
      485,
      485,
      482,
      482,
      482,
      482,
      482,
      482,
      482,
      484,
      484,
      484,
      484,
      484,
      484,
      485,
      485,
      487,
      487,
      487,
      487,
      487,
      487,
      492,
      492,
      492,
      492,
      492,
      492,
      492,
      492,
      492,
      492,
      492,
      492,
      492,
      493,
      493,
      496,
      496,
      496,
      497,
      497,
      486,
      486,
      486,
      486,
      486,
      486,
      440,
      440,
      440,
      440,
      433,
      433,
      424,
      424,
      424,
      424,
      424,
      408,
      408,
      408,
      408,
      408,
      408,
      408,
      361,
      361,
      350,
      350,
      350,
      350,
      337,
      337,
      337,
      337,
      337,
      333,
      333,
      336,
      336,
      336,
      336,
      309,
      309,
      309,
      309,
      274,
      274,
      274,
      270,
      270,
      229,
      229,
      229,
      229,
      229,
      225,
      225,
      225,
      225,
      214,
      214,
      214,
      214,
      212,
      212,
      159,
      159,
      159,
      145,
      145
    ],
    "swim:timestamps": [
      1777134593,
      1777134593,
      1777134593,
      1777134653,
      1777134653,
      1777134653,
      1777134653,
      1777134653,
      1777134887,
      1777134887,
      1777134887,
      1777134887,
      1777134887,
      1777134887,
      1777134950,
      1777134950,
      1777134950,
      1777134950,
      1777135007,
      1777135007,
      1777135007,
      1777135130,
      1777135130,
      1777135130,
      1777135130,
      1777135130,
      1777135247,
      1777135247,
      1777135247,
      1777135307,
      1777135307,
      1777135307,
      1777135307,
      1777135428,
      1777135428,
      1777135428,
      1777135428,
      1777135428,
      1777135488,
      1777135488,
      1777135488,
      1777135488,
      1777135488,
      1777135551,
      1777135551,
      1777135551,
      1777135608,
      1777135608,
      1777135608,
      1777135608,
      1777135608,
      1777135788,
      1777135788,
      1777135788,
      1777135848,
      1777135848,
      1777135848,
      1777135968,
      1777135968,
      1777135968,
      1777135968,
      1777136028,
      1777136028,
      1777136028,
      1777136028,
      1777136028,
      1777136148,
      1777136148,
      1777136209,
      1777136209,
      1777136209,
      1777136209,
      1777136272,
      1777136272,
      1777136272,
      1777136272,
      1777136272,
      1777136389,
      1777136452,
      1777136452,
      1777136452,
      1777136452,
      1777136452,
      1777136632,
      1777136632,
      1777136632,
      1777136632,
      1777136689,
      1777136689,
      1777136993,
      1777136993,
      1777136993,
      1777136993,
      1777136993,
      1777137053,
      1777137053,
      1777137053,
      1777137053,
      1777137113,
      1777137113,
      1777137113,
      1777137293,
      1777137293,
      1777137293,
      1777137293,
      1777137293,
      1777137353,
      1777137353,
      1777137353,
      1777137414,
      1777137414,
      1777137414,
      1777137414,
      1777137414,
      1777137594,
      1777137594,
      1777137594,
      1777137594,
      1777137594,
      1777137594,
      1777137594,
      1777137894,
      1777137894,
      1777137894,
      1777137894,
      1777137894,
      1777137894,
      1777137954,
      1777137954,
      1777138014,
      1777138014,
      1777138014,
      1777138014,
      1777138014,
      1777138014,
      1777138171,
      1777138171,
      1777138171,
      1777138171,
      1777138195,
      1777138195,
      1777138231,
      1777138231,
      1777138231,
      1777138255,
      1777138255,
      1777138351,
      1777138351,
      1777138435,
      1777138435,
      1777138471,
      1777138471,
      1777138471,
      1777138531,
      1777138531,
      1777138555,
      1777138555,
      1777138555,
      1777138555,
      1777138555,
      1777138555,
      1777138796,
      1777138796,
      1777138796,
      1777138796,
      1777138916,
      1777138916,
      1777138976,
      1777138976,
      1777138976,
      1777138976,
      1777138976,
      1777139072,
      1777139072,
      1777139072,
      1777139072,
      1777139072,
      1777139072,
      1777139072,
      1777139252,
      1777139252,
      1777139288,
      1777139288,
      1777139288,
      1777139288,
      1777139372,
      1777139372,
      1777139372,
      1777139372,
      1777139372,
      1777139408,
      1777139408,
      1777139433,
      1777139433,
      1777139433,
      1777139433,
      1777139553,
      1777139553,
      1777139553,
      1777139553,
      1777139613,
      1777139613,
      1777139613,
      1777139733,
      1777139733,
      1777139829,
      1777139829,
      1777139829,
      1777139829,
      1777139829,
      1777139913,
      1777139913,
      1777139913,
      1777139913,
      1777139948,
      1777139948,
      1777139948,
      1777139948,
      1777139973,
      1777139973,
      1777140123,
      1777140123,
      1777140123,
      1777140189,
      1777140189
    ],
    "wof:geomhash": "84e95b9ba9f2891bb88f5325c8e858ae",
    "wof:id": 2031110115,
    "wof:repo": "sfomuseum-data-flights-2026-04"
  },
  "bbox": [
    -122.53333333333333,
    33.280277777777776,
    -111.76666666666667,
    37.666666666666664
  ],
  "geometry": {"coordinates":[[-122.45,37.65],[-122.45,37.65],[-122.45,37.65],[-122.53333333333333,37.666666666666664],[-122.53333333333333,37.666666666666664],[-122.53333333333333,37.666666666666664],[-122.53333333333333,37.666666666666664],[-122.53333333333333,37.666666666666664],[-122.33111111111111,37.39694444444444],[-122.33111111111111,37.39694444444444],[-122.33111111111111,37.39694444444444],[-122.33111111111111,37.39694444444444],[-122.33111111111111,37.39694444444444],[-122.33111111111111,37.39694444444444],[-122.24277777777777,37.342222222222226],[-122.24277777777777,37.342222222222226],[-122.24277777777777,37.342222222222226],[-122.24277777777777,37.342222222222226],[-122.13388888888889,37.26972222222222],[-122.13388888888889,37.26972222222222],[-122.13388888888889,37.26972222222222],[-121.92833333333334,37.140277777777776],[-121.92833333333334,37.140277777777776],[-121.92833333333334,37.140277777777776],[-121.92833333333334,37.140277777777776],[-121.92833333333334,37.140277777777776],[-121.69888888888889,36.98638888888889],[-121.69888888888889,36.98638888888889],[-121.69888888888889,36.98638888888889],[-121.58472222222221,36.91111111111111],[-121.58472222222221,36.91111111111111],[-121.58472222222221,36.91111111111111],[-121.58472222222221,36.91111111111111],[-121.36388888888888,36.765277777777776],[-121.36388888888888,36.765277777777776],[-121.36388888888888,36.765277777777776],[-121.36388888888888,36.765277777777776],[-121.36388888888888,36.765277777777776],[-121.24972222222222,36.689166666666665],[-121.24972222222222,36.689166666666665],[-121.24972222222222,36.689166666666665],[-121.24972222222222,36.689166666666665],[-121.24972222222222,36.689166666666665],[-121.13972222222223,36.619166666666665],[-121.13972222222223,36.619166666666665],[-121.13972222222223,36.619166666666665],[-121.02527777777777,36.53944444444444],[-121.02527777777777,36.53944444444444],[-121.02527777777777,36.53944444444444],[-121.02527777777777,36.53944444444444],[-121.02527777777777,36.53944444444444],[-120.68277777777779,36.31055555555555],[-120.68277777777779,36.31055555555555],[-120.68277777777779,36.31055555555555],[-120.56555555555555,36.23166666666667],[-120.56555555555555,36.23166666666667],[-120.56555555555555,36.23166666666667],[-120.3325,36.07416666666667],[-120.3325,36.07416666666667],[-120.3325,36.07416666666667],[-120.3325,36.07416666666667],[-120.21861111111112,35.99666666666667],[-120.21861111111112,35.99666666666667],[-120.21861111111112,35.99666666666667],[-120.21861111111112,35.99666666666667],[-120.21861111111112,35.99666666666667],[-119.98833333333333,35.839444444444446],[-119.98833333333333,35.839444444444446],[-119.8736111111111,35.75861111111111],[-119.8736111111111,35.75861111111111],[-119.8736111111111,35.75861111111111],[-119.8736111111111,35.75861111111111],[-119.76277777777777,35.68055555555555],[-119.76277777777777,35.68055555555555],[-119.76277777777777,35.68055555555555],[-119.76277777777777,35.68055555555555],[-119.76277777777777,35.68055555555555],[-119.5325,35.5175],[-119.42166666666667,35.43861111111111],[-119.42166666666667,35.43861111111111],[-119.42166666666667,35.43861111111111],[-119.42166666666667,35.43861111111111],[-119.42166666666667,35.43861111111111],[-119.07805555555555,35.19222222222222],[-119.07805555555555,35.19222222222222],[-119.07805555555555,35.19222222222222],[-119.07805555555555,35.19222222222222],[-118.96000000000001,35.10722222222223],[-118.96000000000001,35.10722222222223],[-118.38944444444445,34.69138888888889],[-118.38944444444445,34.69138888888889],[-118.38944444444445,34.69138888888889],[-118.38944444444445,34.69138888888889],[-118.38944444444445,34.69138888888889],[-118.26972222222223,34.60305555555556],[-118.26972222222223,34.60305555555556],[-118.26972222222223,34.60305555555556],[-118.26972222222223,34.60305555555556],[-118.15472222222223,34.51833333333333],[-118.15472222222223,34.51833333333333],[-118.15472222222223,34.51833333333333],[-117.71972222222223,34.349444444444444],[-117.71972222222223,34.349444444444444],[-117.71972222222223,34.349444444444444],[-117.71972222222223,34.349444444444444],[-117.71972222222223,34.349444444444444],[-117.5625,34.31166666666666],[-117.5625,34.31166666666666],[-117.5625,34.31166666666666],[-117.40666666666667,34.27361111111111],[-117.40666666666667,34.27361111111111],[-117.40666666666667,34.27361111111111],[-117.40666666666667,34.27361111111111],[-117.40666666666667,34.27361111111111],[-116.92527777777778,34.15555555555555],[-116.92527777777778,34.15555555555555],[-116.92527777777778,34.15555555555555],[-116.92527777777778,34.15555555555555],[-116.92527777777778,34.15555555555555],[-116.92527777777778,34.15555555555555],[-116.92527777777778,34.15555555555555],[-116.15333333333334,33.961111111111116],[-116.15333333333334,33.961111111111116],[-116.15333333333334,33.961111111111116],[-116.15333333333334,33.961111111111116],[-116.15333333333334,33.961111111111116],[-116.15333333333334,33.961111111111116],[-115.99972222222222,33.92194444444444],[-115.99972222222222,33.92194444444444],[-115.84222222222222,33.88111111111111],[-115.84222222222222,33.88111111111111],[-115.84222222222222,33.88111111111111],[-115.84222222222222,33.88111111111111],[-115.84222222222222,33.88111111111111],[-115.84222222222222,33.88111111111111],[-115.44916666666667,33.77833333333333],[-115.44916666666667,33.77833333333333],[-115.44916666666667,33.77833333333333],[-115.44916666666667,33.77833333333333],[-115.36944444444444,33.75805555555556],[-115.36944444444444,33.75805555555556],[-115.29194444444444,33.73722222222222],[-115.29194444444444,33.73722222222222],[-115.29194444444444,33.73722222222222],[-115.21305555555556,33.71666666666667],[-115.21305555555556,33.71666666666667],[-114.98333333333333,33.65555555555555],[-114.98333333333333,33.65555555555555],[-114.74277777777777,33.59277777777778],[-114.74277777777777,33.59277777777778],[-114.66277777777778,33.577222222222225],[-114.66277777777778,33.577222222222225],[-114.66277777777778,33.577222222222225],[-114.50722222222223,33.54694444444444],[-114.50722222222223,33.54694444444444],[-114.42083333333333,33.53],[-114.42083333333333,33.53],[-114.42083333333333,33.53],[-114.42083333333333,33.53],[-114.42083333333333,33.53],[-114.42083333333333,33.53],[-113.84472222222222,33.415277777777774],[-113.84472222222222,33.415277777777774],[-113.84472222222222,33.415277777777774],[-113.84472222222222,33.415277777777774],[-113.56777777777778,33.35944444444445],[-113.56777777777778,33.35944444444445],[-113.43111111111112,33.33222222222223],[-113.43111111111112,33.33222222222223],[-113.43111111111112,33.33222222222223],[-113.43111111111112,33.33222222222223],[-113.43111111111112,33.33222222222223],[-113.21583333333334,33.29527777777778],[-113.21583333333334,33.29527777777778],[-113.21583333333334,33.29527777777778],[-113.21583333333334,33.29527777777778],[-113.21583333333334,33.29527777777778],[-113.21583333333334,33.29527777777778],[-113.21583333333334,33.29527777777778],[-112.83972222222222,33.280277777777776],[-112.83972222222222,33.280277777777776],[-112.75,33.28333333333333],[-112.75,33.28333333333333],[-112.75,33.28333333333333],[-112.75,33.28333333333333],[-112.6125,33.30027777777777],[-112.6125,33.30027777777777],[-112.6125,33.30027777777777],[-112.6125,33.30027777777777],[-112.6125,33.30027777777777],[-112.53333333333333,33.3],[-112.53333333333333,33.3],[-112.51222222222222,33.309444444444445],[-112.51222222222222,33.309444444444445],[-112.51222222222222,33.309444444444445],[-112.51222222222222,33.309444444444445],[-112.29888888888888,33.32888888888889],[-112.29888888888888,33.32888888888889],[-112.29888888888888,33.32888888888889],[-112.29888888888888,33.32888888888889],[-112.2063888888889,33.337500000000006],[-112.2063888888889,33.337500000000006],[-112.2063888888889,33.337500000000006],[-112.02972222222222,33.34666666666667],[-112.02972222222222,33.34666666666667],[-111.88333333333334,33.35],[-111.88333333333334,33.35],[-111.88333333333334,33.35],[-111.88333333333334,33.35],[-111.88333333333334,33.35],[-111.77944444444444,33.348333333333336],[-111.77944444444444,33.348333333333336],[-111.77944444444444,33.348333333333336],[-111.77944444444444,33.348333333333336],[-111.76666666666667,33.38333333333333],[-111.76666666666667,33.38333333333333],[-111.76666666666667,33.38333333333333],[-111.76666666666667,33.38333333333333],[-111.77416666666666,33.40222222222222],[-111.77416666666666,33.40222222222222],[-111.91666666666667,33.43333333333333],[-111.91666666666667,33.43333333333333],[-111.91666666666667,33.43333333333333],[-111.98333333333333,33.43333333333333],[-111.98333333333333,33.43333333333333]],"type":"LineString"}
}
