{
  "id": 2031121505,
  "type": "Feature",
  "properties": {
    "geom:area": 0,
    "geom:bbox": "-122.751111,37.650000,-122.120556,45.565833",
    "geom:latitude": 41.65412412491695,
    "geom:longitude": -122.42945894309065,
    "src:alt_label": "swim-path",
    "src:geom": "swim",
    "swim:altitudes": [
      "027",
      "027",
      "027",
      "033",
      "033",
      "033",
      "033",
      "033",
      "040",
      "040",
      "040",
      "040",
      "040",
      "066",
      "066",
      "066",
      "066",
      "066",
      "125",
      "125",
      "125",
      "125",
      "125",
      "155",
      "155",
      "155",
      "155",
      "155",
      "234",
      "234",
      "234",
      "234",
      "234",
      "234",
      "234",
      "234",
      "234",
      "288",
      "288",
      "288",
      "288",
      "288",
      "288",
      "288",
      "288",
      "288",
      "325",
      "325",
      "325",
      "325",
      "325",
      "325",
      "325",
      "325",
      "325",
      "360C",
      "360C",
      "360C",
      "360C",
      "360C",
      "360C",
      "361C",
      "361C",
      "361C",
      "361C",
      "360C",
      "360C",
      "360C",
      "360C",
      "360C",
      "360C",
      "360C",
      "360C",
      "360C",
      "360C",
      "360C",
      "360C",
      "360C",
      "360C",
      "360C",
      "360C",
      "360C",
      "360C",
      "360C",
      "360C",
      "360C",
      "360C",
      "360C",
      "360C",
      "360C",
      "360C",
      "360C",
      "360C",
      "360C",
      "360C",
      "360C",
      "360C",
      "360C",
      "360C",
      "360C",
      "360C",
      "360C",
      "360C",
      "360C",
      "360C",
      "360C",
      "360C",
      "360C",
      "360C",
      "360C",
      "360C",
      "360C",
      "360C",
      "360C",
      "360C",
      "360C",
      "360C",
      "360C",
      "360C",
      "360C",
      "360C",
      "360C",
      "360C",
      "360C",
      "360C",
      "360C",
      "360C",
      "360C",
      "360C",
      "360C",
      "360",
      "360",
      "360",
      "360",
      "360",
      "360",
      "360",
      "360",
      "360",
      "298",
      "298",
      "298",
      "298",
      "298",
      "277",
      "277",
      "277",
      "277",
      "277",
      "277",
      "221",
      "221",
      "221",
      "221",
      "200",
      "200",
      "200",
      "200",
      "200",
      "200",
      "170",
      "170",
      "152",
      "152",
      "152",
      "152",
      "152",
      "152",
      "139",
      "139",
      "137",
      "137",
      "137",
      "117",
      "117",
      "117",
      "117",
      "117",
      "105",
      "105",
      "105",
      "088",
      "088",
      "088",
      "088",
      "088",
      "088",
      "074",
      "074",
      "074",
      "074",
      "074",
      "074",
      "044",
      "044",
      "044",
      "044",
      "044",
      "044",
      "025",
      "025",
      "025",
      "025",
      "025",
      "025",
      "025",
      "025",
      "025",
      "024",
      "009",
      "009",
      "009",
      "008",
      "008",
      "008",
      "008",
      "008"
    ],
    "swim:geom": "path",
    "swim:speeds": [
      180,
      180,
      180,
      177,
      177,
      177,
      177,
      177,
      241,
      241,
      241,
      241,
      241,
      281,
      281,
      281,
      281,
      281,
      346,
      346,
      346,
      346,
      346,
      353,
      353,
      353,
      353,
      353,
      402,
      402,
      402,
      402,
      402,
      402,
      402,
      402,
      402,
      430,
      430,
      430,
      430,
      430,
      430,
      430,
      430,
      430,
      444,
      444,
      444,
      444,
      444,
      444,
      444,
      444,
      444,
      433,
      433,
      434,
      434,
      434,
      434,
      436,
      436,
      436,
      436,
      439,
      439,
      439,
      439,
      439,
      439,
      439,
      439,
      439,
      439,
      439,
      439,
      439,
      438,
      438,
      438,
      438,
      438,
      438,
      438,
      438,
      438,
      438,
      436,
      436,
      436,
      436,
      436,
      436,
      432,
      432,
      432,
      432,
      432,
      432,
      428,
      428,
      428,
      428,
      428,
      426,
      426,
      426,
      426,
      426,
      426,
      426,
      421,
      421,
      421,
      421,
      421,
      421,
      420,
      420,
      420,
      420,
      420,
      421,
      421,
      421,
      421,
      421,
      421,
      421,
      423,
      423,
      423,
      423,
      423,
      423,
      423,
      423,
      423,
      403,
      403,
      403,
      403,
      403,
      393,
      393,
      393,
      393,
      393,
      393,
      364,
      364,
      364,
      364,
      364,
      364,
      364,
      364,
      364,
      364,
      336,
      336,
      328,
      328,
      328,
      328,
      328,
      328,
      319,
      319,
      316,
      316,
      316,
      295,
      295,
      295,
      295,
      295,
      283,
      283,
      283,
      286,
      286,
      286,
      286,
      286,
      286,
      283,
      283,
      283,
      283,
      283,
      283,
      274,
      274,
      274,
      274,
      274,
      274,
      223,
      223,
      223,
      223,
      190,
      190,
      190,
      190,
      190,
      190,
      142,
      142,
      142,
      139,
      139,
      139,
      139,
      139
    ],
    "swim:timestamps": [
      1777233901,
      1777233901,
      1777233901,
      1777233927,
      1777233927,
      1777233927,
      1777233927,
      1777233927,
      1777233960,
      1777233960,
      1777233960,
      1777233960,
      1777233960,
      1777234014,
      1777234014,
      1777234014,
      1777234014,
      1777234014,
      1777234167,
      1777234167,
      1777234167,
      1777234167,
      1777234167,
      1777234227,
      1777234227,
      1777234227,
      1777234227,
      1777234227,
      1777234467,
      1777234467,
      1777234467,
      1777234467,
      1777234467,
      1777234467,
      1777234467,
      1777234467,
      1777234467,
      1777234706,
      1777234706,
      1777234706,
      1777234706,
      1777234706,
      1777234706,
      1777234706,
      1777234706,
      1777234706,
      1777234886,
      1777234886,
      1777234886,
      1777234886,
      1777234886,
      1777234886,
      1777234886,
      1777234886,
      1777234886,
      1777235186,
      1777235186,
      1777235246,
      1777235246,
      1777235246,
      1777235246,
      1777235306,
      1777235306,
      1777235306,
      1777235306,
      1777235426,
      1777235426,
      1777235426,
      1777235426,
      1777235426,
      1777235426,
      1777235426,
      1777235547,
      1777235547,
      1777235547,
      1777235547,
      1777235547,
      1777235547,
      1777235667,
      1777235667,
      1777235667,
      1777235727,
      1777235727,
      1777235727,
      1777235727,
      1777235727,
      1777235727,
      1777235727,
      1777235967,
      1777235967,
      1777235967,
      1777235967,
      1777235967,
      1777235967,
      1777236087,
      1777236087,
      1777236087,
      1777236087,
      1777236087,
      1777236087,
      1777236207,
      1777236207,
      1777236207,
      1777236207,
      1777236207,
      1777236267,
      1777236267,
      1777236267,
      1777236267,
      1777236267,
      1777236267,
      1777236267,
      1777236628,
      1777236628,
      1777236628,
      1777236628,
      1777236628,
      1777236628,
      1777236688,
      1777236688,
      1777236688,
      1777236688,
      1777236688,
      1777236808,
      1777236808,
      1777236808,
      1777236808,
      1777236808,
      1777236808,
      1777236808,
      1777236928,
      1777236928,
      1777236928,
      1777236928,
      1777236928,
      1777236928,
      1777236928,
      1777236928,
      1777236928,
      1777237289,
      1777237289,
      1777237289,
      1777237289,
      1777237289,
      1777237349,
      1777237349,
      1777237349,
      1777237349,
      1777237349,
      1777237349,
      1777237529,
      1777237529,
      1777237529,
      1777237529,
      1777237589,
      1777237589,
      1777237589,
      1777237589,
      1777237589,
      1777237589,
      1777237709,
      1777237709,
      1777237769,
      1777237769,
      1777237769,
      1777237769,
      1777237769,
      1777237769,
      1777237805,
      1777237805,
      1777237829,
      1777237829,
      1777237829,
      1777237902,
      1777237902,
      1777237902,
      1777237902,
      1777237902,
      1777237956,
      1777237956,
      1777237956,
      1777238016,
      1777238016,
      1777238016,
      1777238016,
      1777238016,
      1777238016,
      1777238069,
      1777238069,
      1777238069,
      1777238069,
      1777238069,
      1777238069,
      1777238190,
      1777238190,
      1777238190,
      1777238190,
      1777238190,
      1777238190,
      1777238310,
      1777238310,
      1777238310,
      1777238310,
      1777238370,
      1777238370,
      1777238370,
      1777238370,
      1777238370,
      1777238377,
      1777238490,
      1777238490,
      1777238490,
      1777238497,
      1777238497,
      1777238497,
      1777238497,
      1777238497
    ],
    "wof:geomhash": "a6837f00ff74955933a45bd737fb4a08",
    "wof:id": 2031121505,
    "wof:repo": "sfomuseum-data-flights-2026-04"
  },
  "bbox": [
    -122.75111111111111,
    37.65,
    -122.12055555555555,
    45.56583333333333
  ],
  "geometry": {"coordinates":[[-122.38333333333334,37.65],[-122.38333333333334,37.65],[-122.38333333333334,37.65],[-122.36027777777777,37.66361111111111],[-122.36027777777777,37.66361111111111],[-122.36027777777777,37.66361111111111],[-122.36027777777777,37.66361111111111],[-122.36027777777777,37.66361111111111],[-122.31666666666666,37.68333333333333],[-122.31666666666666,37.68333333333333],[-122.31666666666666,37.68333333333333],[-122.31666666666666,37.68333333333333],[-122.31666666666666,37.68333333333333],[-122.23333333333333,37.71666666666667],[-122.23333333333333,37.71666666666667],[-122.23333333333333,37.71666666666667],[-122.23333333333333,37.71666666666667],[-122.23333333333333,37.71666666666667],[-122.21888888888888,37.911944444444444],[-122.21888888888888,37.911944444444444],[-122.21888888888888,37.911944444444444],[-122.21888888888888,37.911944444444444],[-122.21888888888888,37.911944444444444],[-122.22194444444445,38.01138888888889],[-122.22194444444445,38.01138888888889],[-122.22194444444445,38.01138888888889],[-122.22194444444445,38.01138888888889],[-122.22194444444445,38.01138888888889],[-122.15416666666667,38.433611111111105],[-122.15416666666667,38.433611111111105],[-122.15416666666667,38.433611111111105],[-122.15416666666667,38.433611111111105],[-122.15416666666667,38.433611111111105],[-122.15416666666667,38.433611111111105],[-122.15416666666667,38.433611111111105],[-122.15416666666667,38.433611111111105],[-122.15416666666667,38.433611111111105],[-122.12055555555555,38.89333333333333],[-122.12055555555555,38.89333333333333],[-122.12055555555555,38.89333333333333],[-122.12055555555555,38.89333333333333],[-122.12055555555555,38.89333333333333],[-122.12055555555555,38.89333333333333],[-122.12055555555555,38.89333333333333],[-122.12055555555555,38.89333333333333],[-122.12055555555555,38.89333333333333],[-122.1613888888889,39.26166666666666],[-122.1613888888889,39.26166666666666],[-122.1613888888889,39.26166666666666],[-122.1613888888889,39.26166666666666],[-122.1613888888889,39.26166666666666],[-122.1613888888889,39.26166666666666],[-122.1613888888889,39.26166666666666],[-122.1613888888889,39.26166666666666],[-122.1613888888889,39.26166666666666],[-122.23361111111112,39.88611111111111],[-122.23361111111112,39.88611111111111],[-122.24861111111112,40.013888888888886],[-122.24861111111112,40.013888888888886],[-122.24861111111112,40.013888888888886],[-122.24861111111112,40.013888888888886],[-122.26194444444444,40.13194444444444],[-122.26194444444444,40.13194444444444],[-122.26194444444444,40.13194444444444],[-122.26194444444444,40.13194444444444],[-122.28916666666666,40.36972222222222],[-122.28916666666666,40.36972222222222],[-122.28916666666666,40.36972222222222],[-122.28916666666666,40.36972222222222],[-122.28916666666666,40.36972222222222],[-122.28916666666666,40.36972222222222],[-122.28916666666666,40.36972222222222],[-122.31722222222221,40.61027777777778],[-122.31722222222221,40.61027777777778],[-122.31722222222221,40.61027777777778],[-122.31722222222221,40.61027777777778],[-122.31722222222221,40.61027777777778],[-122.31722222222221,40.61027777777778],[-122.34555555555555,40.8525],[-122.34555555555555,40.8525],[-122.34555555555555,40.8525],[-122.36,40.97416666666667],[-122.36,40.97416666666667],[-122.36,40.97416666666667],[-122.36,40.97416666666667],[-122.36,40.97416666666667],[-122.36,40.97416666666667],[-122.36,40.97416666666667],[-122.41833333333334,41.465],[-122.41833333333334,41.465],[-122.41833333333334,41.465],[-122.41833333333334,41.465],[-122.41833333333334,41.465],[-122.41833333333334,41.465],[-122.44694444444445,41.70416666666667],[-122.44694444444445,41.70416666666667],[-122.44694444444445,41.70416666666667],[-122.44694444444445,41.70416666666667],[-122.44694444444445,41.70416666666667],[-122.44694444444445,41.70416666666667],[-122.47583333333334,41.941111111111105],[-122.47583333333334,41.941111111111105],[-122.47583333333334,41.941111111111105],[-122.47583333333334,41.941111111111105],[-122.47583333333334,41.941111111111105],[-122.49027777777778,42.061388888888885],[-122.49027777777778,42.061388888888885],[-122.49027777777778,42.061388888888885],[-122.49027777777778,42.061388888888885],[-122.49027777777778,42.061388888888885],[-122.49027777777778,42.061388888888885],[-122.49027777777778,42.061388888888885],[-122.57666666666667,42.764722222222225],[-122.57666666666667,42.764722222222225],[-122.57666666666667,42.764722222222225],[-122.57666666666667,42.764722222222225],[-122.57666666666667,42.764722222222225],[-122.57666666666667,42.764722222222225],[-122.5911111111111,42.87888888888889],[-122.5911111111111,42.87888888888889],[-122.5911111111111,42.87888888888889],[-122.5911111111111,42.87888888888889],[-122.5911111111111,42.87888888888889],[-122.61999999999999,43.111666666666665],[-122.61999999999999,43.111666666666665],[-122.61999999999999,43.111666666666665],[-122.61999999999999,43.111666666666665],[-122.61999999999999,43.111666666666665],[-122.61999999999999,43.111666666666665],[-122.61999999999999,43.111666666666665],[-122.65,43.34722222222222],[-122.65,43.34722222222222],[-122.65,43.34722222222222],[-122.65,43.34722222222222],[-122.65,43.34722222222222],[-122.65,43.34722222222222],[-122.65,43.34722222222222],[-122.65,43.34722222222222],[-122.65,43.34722222222222],[-122.73777777777778,44.031666666666666],[-122.73777777777778,44.031666666666666],[-122.73777777777778,44.031666666666666],[-122.73777777777778,44.031666666666666],[-122.73777777777778,44.031666666666666],[-122.75111111111111,44.13916666666667],[-122.75111111111111,44.13916666666667],[-122.75111111111111,44.13916666666667],[-122.75111111111111,44.13916666666667],[-122.75111111111111,44.13916666666667],[-122.75111111111111,44.13916666666667],[-122.72444444444444,44.44444444444444],[-122.72444444444444,44.44444444444444],[-122.72444444444444,44.44444444444444],[-122.72444444444444,44.44444444444444],[-122.71444444444445,44.544999999999995],[-122.71444444444445,44.544999999999995],[-122.71444444444445,44.544999999999995],[-122.71444444444445,44.544999999999995],[-122.71444444444445,44.544999999999995],[-122.71444444444445,44.544999999999995],[-122.69555555555556,44.73527777777778],[-122.69555555555556,44.73527777777778],[-122.6863888888889,44.825],[-122.6863888888889,44.825],[-122.6863888888889,44.825],[-122.6863888888889,44.825],[-122.6863888888889,44.825],[-122.6863888888889,44.825],[-122.68111111111112,44.88944444444444],[-122.68111111111112,44.88944444444444],[-122.67722222222223,44.91361111111111],[-122.67722222222223,44.91361111111111],[-122.67722222222223,44.91361111111111],[-122.66777777777779,45.02111111111111],[-122.66777777777779,45.02111111111111],[-122.66777777777779,45.02111111111111],[-122.66777777777779,45.02111111111111],[-122.66777777777779,45.02111111111111],[-122.66027777777778,45.09305555555556],[-122.66027777777778,45.09305555555556],[-122.66027777777778,45.09305555555556],[-122.65194444444445,45.17388888888889],[-122.65194444444445,45.17388888888889],[-122.65194444444445,45.17388888888889],[-122.65194444444445,45.17388888888889],[-122.65194444444445,45.17388888888889],[-122.65194444444445,45.17388888888889],[-122.6325,45.23694444444445],[-122.6325,45.23694444444445],[-122.6325,45.23694444444445],[-122.6325,45.23694444444445],[-122.6325,45.23694444444445],[-122.6325,45.23694444444445],[-122.4713888888889,45.33916666666667],[-122.4713888888889,45.33916666666667],[-122.4713888888889,45.33916666666667],[-122.4713888888889,45.33916666666667],[-122.4713888888889,45.33916666666667],[-122.4713888888889,45.33916666666667],[-122.38111111111111,45.46333333333334],[-122.38111111111111,45.46333333333334],[-122.38111111111111,45.46333333333334],[-122.38111111111111,45.46333333333334],[-122.40444444444445,45.513333333333335],[-122.40444444444445,45.513333333333335],[-122.40444444444445,45.513333333333335],[-122.40444444444445,45.513333333333335],[-122.40444444444445,45.513333333333335],[-122.41250000000001,45.51972222222222],[-122.51361111111112,45.562777777777775],[-122.51361111111112,45.562777777777775],[-122.51361111111112,45.562777777777775],[-122.52305555555556,45.56583333333333],[-122.52305555555556,45.56583333333333],[-122.52305555555556,45.56583333333333],[-122.52305555555556,45.56583333333333],[-122.52305555555556,45.56583333333333]],"type":"LineString"}
}
