{
  "id": 2031121199,
  "type": "Feature",
  "properties": {
    "geom:area": 0,
    "geom:bbox": "-122.480000,30.190000,-97.670000,37.660000",
    "geom:latitude": 33.47568064535217,
    "geom:longitude": -110.29175141732458,
    "src:alt_label": "swim-route",
    "src:geom": "swim",
    "swim:geom": "route",
    "wof:geomhash": "cf06ad1c42a0aee0a49210b3d49c876a",
    "wof:id": 2031121199,
    "wof:repo": "sfomuseum-data-flights-2026-04"
  },
  "bbox": [
    -122.48,
    30.19,
    -97.67,
    37.66
  ],
  "geometry": {"coordinates":[[-122.38,37.62],[-122.48,37.66],[-122.48,37.66],[-122.48,37.65],[-122.48,37.59],[-122.48,37.59],[-122.48,37.56],[-122.48,37.51],[-122.47,37.5],[-122.47,37.49],[-122.43,37.46],[-122.33,37.4],[-122.17,37.29],[-122.14,37.27],[-122.11,37.25],[-122.05,37.21],[-121.93,37.14],[-121.92,37.13],[-121.85,37.08],[-121.68,37.02],[-121.68,37.02],[-121.67,37.02],[-121.59,36.97],[-121.58,36.96],[-121.51,36.93],[-121.45,36.89],[-121.39,36.85],[-121.25,36.77],[-121.19,36.72],[-121.11,36.67],[-120.99,36.6],[-120.96,36.58],[-120.95,36.57],[-120.71,36.45],[-120.61,36.39],[-120.42,36.26],[-120.42,36.26],[-119.83,35.87],[-119.75,35.81],[-119.5,35.76],[-119.43,35.67],[-118.58,35.55],[-116.86,35.14],[-116.8,35.12],[-116.79,35.12],[-116.35,35.01],[-115.06,34.67],[-114.99,34.66],[-114,34.39],[-113.18,34.01],[-112.6,33.96],[-111.81,33.67],[-111.41,33.53],[-110.5,33.27],[-110.04,33.13],[-107.96,32.5],[-107.75,32.43],[-107.54,32.37],[-107.33,32.3],[-106.27,31.95],[-106.23,31.95],[-105.33,31.93],[-104.36,31.82],[-103.38,31.69],[-102,31.5],[-101.29,31.45],[-101.08,31.43],[-100.45,31.37],[-100.23,31.34],[-100.08,31.32],[-100.02,31.29],[-99.98,31.28],[-99.87,31.23],[-99.55,31.1],[-99.47,31.07],[-99.31,31.01],[-99.15,30.94],[-99.09,30.92],[-98.85,30.82],[-98.79,30.8],[-98.45,30.76],[-98.43,30.76],[-98.4,30.75],[-98.28,30.7],[-98.15,30.65],[-98.12,30.64],[-98.1,30.63],[-97.94,30.56],[-97.93,30.56],[-97.89,30.53],[-97.84,30.49],[-97.75,30.43],[-97.75,30.41],[-97.73,30.37],[-97.73,30.36],[-97.72,30.33],[-97.69,30.25],[-97.67,30.19]],"type":"LineString"}
}
