{
  "id": 2015176429,
  "type": "Feature",
  "properties": {
    "geom:area": 0,
    "geom:bbox": "-122.428910,36.732840,-121.885660,37.610900",
    "geom:latitude": 37.2425310617414,
    "geom:longitude": -122.17691518263247,
    "src:alt_label": "swim-approach",
    "src:geom": "swim",
    "swim:elevations": [
      5773,
      5454,
      5320,
      4853,
      4735,
      4355,
      4017,
      3755,
      3536,
      3503,
      3411,
      3351,
      3231,
      3130,
      2989,
      2845,
      2507,
      2340,
      2157,
      1982,
      1930,
      1853,
      1828,
      1829,
      1829,
      1829,
      1829,
      1829,
      1829,
      1829,
      1829,
      1829,
      1583,
      1496,
      1388,
      1219,
      1218,
      1218,
      1219,
      1202,
      1074,
      1007,
      946,
      914,
      877,
      698,
      516,
      419,
      289,
      178,
      33,
      36
    ],
    "swim:geom": "approach",
    "swim:timestamps": [
      1775082597,
      1775082628,
      1775082643,
      1775082688,
      1775082700,
      1775082735,
      1775082768,
      1775082800,
      1775082838,
      1775082856,
      1775082893,
      1775082917,
      1775082945,
      1775082960,
      1775082981,
      1775083002,
      1775083048,
      1775083072,
      1775083105,
      1775083137,
      1775083148,
      1775083167,
      1775083187,
      1775083215,
      1775083256,
      1775083279,
      1775083318,
      1775083322,
      1775083340,
      1775083352,
      1775083385,
      1775083413,
      1775083466,
      1775083480,
      1775083500,
      1775083531,
      1775083587,
      1775083615,
      1775083625,
      1775083670,
      1775083697,
      1775083717,
      1775083734,
      1775083756,
      1775083774,
      1775083812,
      1775083851,
      1775083874,
      1775083907,
      1775083942,
      1775083978,
      1775083981
    ],
    "wof:geomhash": "f6a4fd4e78813e043337b8f2422aa43d",
    "wof:id": 2015176429,
    "wof:repo": "sfomuseum-data-flights-2026-04"
  },
  "bbox": [
    -122.42891,
    36.73284,
    -121.88566,
    37.6109
  ],
  "geometry": {"coordinates":[[-121.88566,36.73284],[-121.90461,36.77906],[-121.91139,36.80323],[-121.93081,36.87264],[-121.93599,36.89104],[-121.9506,36.94417],[-121.9686,36.99156],[-122.00885,37.02206],[-122.06998,37.034],[-122.09715,37.03907],[-122.14844,37.04903],[-122.17672,37.06081],[-122.2004,37.08263],[-122.21285,37.09427],[-122.2294,37.10991],[-122.24715,37.12669],[-122.28486,37.16242],[-122.30488,37.18118],[-122.33236,37.20708],[-122.35851,37.23192],[-122.36738,37.24028],[-122.38245,37.25435],[-122.3989,37.26936],[-122.42157,37.29026],[-122.42891,37.33054],[-122.4132,37.35355],[-122.3866,37.39232],[-122.38412,37.39573],[-122.36423,37.40922],[-122.34813,37.41155],[-122.30426,37.41109],[-122.26831,37.41073],[-122.20125,37.40885],[-122.18415,37.40842],[-122.16013,37.40782],[-122.12134,37.4068],[-122.07095,37.43531],[-122.06527,37.46059],[-122.06995,37.46785],[-122.09675,37.49951],[-122.12013,37.5116],[-122.1384,37.51941],[-122.15324,37.52555],[-122.17214,37.53324],[-122.18784,37.53998],[-122.22329,37.55498],[-122.2592,37.57003],[-122.27831,37.57812],[-122.30334,37.58869],[-122.32773,37.59883],[-122.3543,37.61],[-122.35661,37.6109]],"type":"LineString"}
}
