{
  "id": 2015253475,
  "type": "Feature",
  "properties": {
    "geom:area": 0,
    "geom:bbox": "-123.463940,37.268410,-122.148740,37.630070",
    "geom:latitude": 37.46156013241664,
    "geom:longitude": -122.7103506870442,
    "src:alt_label": "swim-approach",
    "src:geom": "swim",
    "swim:elevations": [
      5693,
      5465,
      5326,
      4924,
      4859,
      4818,
      4412,
      4319,
      4061,
      3963,
      3857,
      3788,
      3659,
      3569,
      3496,
      3412,
      3251,
      3167,
      3169,
      3020,
      3010,
      2811,
      2662,
      2545,
      2475,
      2408,
      2189,
      2133,
      1883,
      1829,
      1829,
      1829,
      1610,
      1525,
      1386,
      1307,
      1278,
      1162,
      1004,
      861,
      792,
      792,
      637,
      511,
      482,
      336,
      209,
      87,
      26
    ],
    "swim:geom": "approach",
    "swim:timestamps": [
      1775832718,
      1775832739,
      1775832753,
      1775832798,
      1775832808,
      1775832814,
      1775832868,
      1775832883,
      1775832922,
      1775832940,
      1775832955,
      1775832965,
      1775833013,
      1775833045,
      1775833072,
      1775833096,
      1775833138,
      1775833166,
      1775833170,
      1775833212,
      1775833236,
      1775833273,
      1775833299,
      1775833324,
      1775833339,
      1775833354,
      1775833402,
      1775833410,
      1775833460,
      1775833491,
      1775833512,
      1775833533,
      1775833587,
      1775833602,
      1775833645,
      1775833673,
      1775833681,
      1775833708,
      1775833731,
      1775833751,
      1775833782,
      1775833806,
      1775833843,
      1775833870,
      1775833879,
      1775833909,
      1775833942,
      1775833969,
      1775833985
    ],
    "wof:geomhash": "7e7419f168a2056c790e88ba7d0877e8",
    "wof:id": 2015253475,
    "wof:repo": "sfomuseum-data-flights-2026-04"
  },
  "bbox": [
    -123.46394,
    37.26841,
    -122.14874,
    37.63007
  ],
  "geometry": {"coordinates":[[-123.46394,37.57515],[-123.41656,37.58736],[-123.38506,37.59554],[-123.28703,37.62117],[-123.26506,37.62688],[-123.25219,37.63007],[-123.14733,37.60211],[-123.12989,37.58146],[-123.08478,37.52719],[-123.06538,37.50345],[-123.04866,37.48312],[-123.03641,37.47002],[-122.95642,37.42389],[-122.89841,37.40041],[-122.85005,37.38086],[-122.80999,37.3647],[-122.74073,37.33662],[-122.69861,37.31934],[-122.69253,37.31693],[-122.63171,37.29266],[-122.59864,37.27964],[-122.54748,37.26841],[-122.51718,37.28628],[-122.50872,37.31617],[-122.50724,37.33423],[-122.50584,37.35213],[-122.48656,37.40524],[-122.4807,37.41301],[-122.42634,37.44144],[-122.38462,37.43687],[-122.35729,37.43363],[-122.32959,37.43045],[-122.25681,37.4219],[-122.23728,37.41932],[-122.18454,37.42648],[-122.16549,37.44933],[-122.16157,37.45676],[-122.14945,37.48045],[-122.14874,37.50165],[-122.16053,37.51763],[-122.1842,37.54034],[-122.20632,37.55021],[-122.23887,37.5638],[-122.26264,37.57383],[-122.2701,37.57692],[-122.29457,37.58729],[-122.32095,37.59831],[-122.34224,37.60732],[-122.3544,37.61238]],"type":"LineString"}
}
