{
  "id": 2031100523,
  "type": "Feature",
  "properties": {
    "geom:area": 0,
    "geom:bbox": "-122.380000,36.120000,-86.680000,39.700000",
    "geom:latitude": 38.475638511934626,
    "geom:longitude": -104.62391377012612,
    "src:alt_label": "swim-route",
    "src:geom": "swim",
    "swim:geom": "route",
    "wof:geomhash": "5a90e4f76343a945713fc7e6ac11060b",
    "wof:id": 2031100523,
    "wof:repo": "sfomuseum-data-flights-2026-04"
  },
  "bbox": [
    -122.38,
    36.12,
    -86.68,
    39.7
  ],
  "geometry": {"coordinates":[[-86.68,36.12],[-86.78,36.15],[-86.86,36.17],[-86.93,36.19],[-87.1,36.21],[-87.16,36.23],[-87.35,36.29],[-87.5,36.33],[-87.75,36.41],[-87.84,36.44],[-87.91,36.46],[-88.12,36.52],[-88.19,36.55],[-88.25,36.56],[-88.33,36.59],[-88.61,36.67],[-88.61,36.67],[-88.68,36.69],[-88.96,36.77],[-89.07,36.81],[-89.34,36.89],[-89.57,36.95],[-90.4,37.19],[-90.7,37.23],[-90.85,37.27],[-91.26,37.4],[-91.84,37.52],[-92.63,37.73],[-94.02,38.1],[-94.59,38.24],[-95.34,38.33],[-95.82,38.45],[-96.71,38.67],[-97.11,38.69],[-97.94,38.85],[-98.26,38.94],[-98.31,38.96],[-98.43,38.97],[-99.08,39.06],[-99.46,39.15],[-99.7,39.2],[-99.94,39.25],[-100.18,39.3],[-101.26,39.42],[-103.21,39.7],[-105.15,39.64],[-107.22,39.55],[-107.48,39.53],[-107.73,39.52],[-109.87,39.37],[-109.97,39.37],[-110.1,39.35],[-110.93,39.23],[-111.72,39.12],[-112.38,39.02],[-113.47,38.84],[-113.85,38.78],[-114.47,38.67],[-115.09,38.56],[-115.29,38.53],[-115.48,38.5],[-115.99,38.41],[-116.25,38.37],[-117.09,38.22],[-117.27,38.18],[-117.52,38.14],[-117.56,37.7],[-117.96,37.79],[-118.12,37.94],[-118.51,37.98],[-118.61,37.9],[-119.1,37.85],[-119.55,37.8],[-120.13,37.73],[-120.18,37.72],[-120.21,37.72],[-120.4,37.7],[-120.51,37.69],[-120.57,37.68],[-120.69,37.67],[-120.75,37.66],[-120.82,37.65],[-120.88,37.64],[-120.96,37.63],[-121,37.63],[-121.11,37.61],[-121.19,37.6],[-121.26,37.59],[-121.39,37.58],[-121.41,37.58],[-121.6,37.55],[-121.61,37.55],[-121.62,37.55],[-121.7,37.53],[-121.8,37.51],[-121.82,37.5],[-121.88,37.49],[-122.08,37.54],[-122.12,37.55],[-122.18,37.57],[-122.28,37.59],[-122.33,37.61],[-122.36,37.61],[-122.38,37.62]],"type":"LineString"}
}
