{
  "id": 2015191499,
  "type": "Feature",
  "properties": {
    "geom:area": 0,
    "geom:bbox": "-122.562050,36.724350,-122.283510,37.668900",
    "geom:latitude": 37.220299035720515,
    "geom:longitude": -122.49709615304455,
    "src:alt_label": "swim-takeoff",
    "src:geom": "swim",
    "swim:elevations": [
      152,
      275,
      634,
      979,
      1195,
      1292,
      1508,
      2055,
      2557,
      2770,
      3290,
      3555,
      4034,
      4361,
      4536,
      5239,
      5268,
      5452,
      5701,
      5966,
      6358,
      6603,
      6772,
      6960,
      7061,
      7313,
      7868,
      8157
    ],
    "swim:geom": "takeoff",
    "swim:timestamps": [
      1775154592,
      1775154602,
      1775154637,
      1775154668,
      1775154699,
      1775154713,
      1775154728,
      1775154772,
      1775154806,
      1775154819,
      1775154859,
      1775154891,
      1775154923,
      1775154947,
      1775154960,
      1775155019,
      1775155022,
      1775155043,
      1775155061,
      1775155086,
      1775155124,
      1775155151,
      1775155175,
      1775155196,
      1775155208,
      1775155233,
      1775155277,
      1775155303
    ],
    "wof:geomhash": "16fe0b7886642595f85a6ea46ea3cdc4",
    "wof:id": 2015191499,
    "wof:repo": "sfomuseum-data-flights-2026-04"
  },
  "bbox": [
    -122.56205,
    36.72435,
    -122.28351,
    37.6689
  ],
  "geometry": {"coordinates":[[-122.38181,37.62156],[-122.38852,37.62427],[-122.41345,37.63529],[-122.43805,37.64664],[-122.46562,37.65875],[-122.48068,37.66504],[-122.50073,37.6689],[-122.54272,37.63617],[-122.54267,37.59049],[-122.54234,37.57154],[-122.54426,37.51285],[-122.5459,37.4594],[-122.54867,37.4039],[-122.55057,37.36149],[-122.55145,37.33868],[-122.55549,37.23152],[-122.55566,37.22586],[-122.55713,37.18604],[-122.55841,37.15065],[-122.56033,37.10227],[-122.56205,37.02843],[-122.54066,36.97499],[-122.5034,36.93454],[-122.46612,36.90028],[-122.44459,36.87994],[-122.40149,36.83867],[-122.32717,36.76643],[-122.28351,36.72435]],"type":"LineString"}
}
