{
  "id": 2015348453,
  "type": "Feature",
  "properties": {
    "geom:area": 0,
    "geom:bbox": "-122.394167,32.917778,-97.050000,38.295278",
    "geom:latitude": 36.365115926981034,
    "geom:longitude": -109.61776721560324,
    "src:alt_label": "swim-path",
    "src:geom": "swim",
    "swim:altitudes": [
      "007",
      "007",
      "007",
      "010",
      "010",
      "104",
      "104",
      "117",
      "117",
      "117",
      "216",
      "216",
      "216",
      "267",
      "267",
      "276",
      "276",
      "276",
      "278",
      "278",
      "300",
      "309",
      "309",
      "339",
      "343",
      "344",
      "344",
      "344",
      "349C",
      "350C",
      "350C",
      "350C",
      "350C",
      "350C",
      "350C",
      "350C",
      "350C",
      "350C",
      "350C",
      "350C",
      "350C",
      "351C",
      "350C",
      "350C",
      "350C",
      "350C",
      "350C",
      "350C",
      "350C",
      "350C",
      "350C",
      "350C",
      "350C",
      "350C",
      "350C",
      "350C",
      "350C",
      "350C",
      "350C",
      "351C",
      "351C",
      "350C",
      "350C",
      "350C",
      "350C",
      "350C",
      "350C",
      "350C",
      "350C",
      "350C",
      "350C",
      "350C",
      "350C",
      "350C",
      "350C",
      "350C",
      "350C",
      "350C",
      "350C",
      "350C",
      "350C",
      "350C",
      "350C",
      "350C",
      "350C",
      "350C",
      "350C",
      "351C",
      "351C",
      "351C",
      "350C",
      "350C",
      "350C",
      "350C",
      "350C",
      "350C",
      "350C",
      "350C",
      "351C",
      "351C",
      "351C",
      "351C",
      "350C",
      "350C",
      "350C",
      "350C",
      "350C",
      "351C",
      "351C",
      "351C",
      "350C",
      "350C",
      "350C",
      "350C",
      "350C",
      "350C",
      "350C",
      "350C",
      "350C",
      "350C",
      "350C",
      "350C",
      "350C",
      "350C",
      "350C",
      "350C",
      "350C",
      "351C",
      "351C",
      "350C",
      "350C",
      "350C",
      "350C",
      "350C",
      "350C",
      "350C",
      "350C",
      "350C",
      "350C",
      "350C",
      "350C",
      "350C",
      "350C",
      "350C",
      "350C",
      "350C",
      "350C",
      "350C",
      "350C",
      "350C",
      "350C",
      "350C",
      "350C",
      "350C",
      "350C",
      "350C",
      "350C",
      "350C",
      "350C",
      "351C",
      "350C",
      "350C",
      "350C",
      "350C",
      "350C",
      "350C",
      "350C",
      "350C",
      "350C",
      "350C",
      "350C",
      "350C",
      "350C",
      "350C",
      "350C",
      "350C",
      "350C",
      "350C",
      "350C",
      "350C",
      "350C",
      "350C",
      "350C",
      "350C",
      "350C",
      "350C",
      "350C",
      "350C",
      "350C",
      "350C",
      "351C",
      "351C",
      "350C",
      "350C",
      "350C",
      "350C",
      "350C",
      "350C",
      "350C",
      "350C",
      "339",
      "310",
      "310",
      "300",
      "300",
      "300",
      "300",
      "300",
      "282",
      "282",
      "282",
      "282",
      "272",
      "272",
      "262",
      "253",
      "253",
      "253",
      "205",
      "205",
      "205",
      "205",
      "205",
      "130",
      "130",
      "130",
      "130",
      "130",
      "111",
      "099",
      "099",
      "081",
      "081",
      "081",
      "051",
      "051",
      "050",
      "050",
      "050",
      "050",
      "050",
      "043",
      "043",
      "043",
      "033",
      "030",
      "030",
      "030",
      "030",
      "030",
      "030",
      "013",
      "013",
      "008",
      "008",
      "008",
      "008"
    ],
    "swim:geom": "path",
    "swim:speeds": [
      170,
      170,
      170,
      167,
      167,
      306,
      306,
      340,
      340,
      340,
      372,
      372,
      372,
      448,
      448,
      454,
      454,
      454,
      488,
      488,
      495,
      495,
      495,
      474,
      476,
      472,
      472,
      472,
      472,
      472,
      472,
      472,
      473,
      472,
      470,
      470,
      465,
      463,
      463,
      463,
      468,
      469,
      467,
      467,
      466,
      466,
      465,
      465,
      465,
      465,
      467,
      467,
      463,
      461,
      461,
      461,
      461,
      461,
      460,
      460,
      460,
      464,
      464,
      464,
      464,
      464,
      463,
      461,
      453,
      453,
      451,
      451,
      453,
      453,
      453,
      455,
      455,
      456,
      456,
      456,
      456,
      456,
      454,
      454,
      452,
      452,
      452,
      454,
      454,
      453,
      453,
      453,
      452,
      452,
      452,
      452,
      454,
      454,
      457,
      457,
      458,
      458,
      458,
      458,
      458,
      458,
      457,
      458,
      458,
      459,
      452,
      452,
      455,
      455,
      455,
      459,
      454,
      446,
      446,
      446,
      446,
      448,
      448,
      451,
      451,
      451,
      454,
      456,
      456,
      459,
      459,
      458,
      458,
      460,
      460,
      461,
      461,
      461,
      461,
      462,
      462,
      462,
      462,
      462,
      462,
      461,
      460,
      460,
      469,
      469,
      469,
      469,
      466,
      466,
      466,
      474,
      474,
      474,
      474,
      478,
      478,
      478,
      479,
      479,
      480,
      480,
      480,
      480,
      486,
      486,
      486,
      486,
      484,
      484,
      484,
      479,
      479,
      475,
      475,
      472,
      472,
      472,
      472,
      463,
      463,
      463,
      463,
      458,
      458,
      459,
      460,
      460,
      462,
      462,
      462,
      462,
      462,
      462,
      462,
      462,
      462,
      462,
      462,
      463,
      463,
      463,
      463,
      463,
      459,
      459,
      459,
      459,
      463,
      463,
      464,
      445,
      445,
      445,
      405,
      405,
      405,
      405,
      405,
      361,
      361,
      361,
      361,
      361,
      359,
      315,
      315,
      299,
      299,
      299,
      270,
      270,
      266,
      266,
      268,
      267,
      267,
      268,
      268,
      268,
      224,
      177,
      177,
      177,
      171,
      171,
      171,
      136,
      136,
      138,
      138,
      138,
      138
    ],
    "swim:timestamps": [
      1776775183,
      1776775183,
      1776775183,
      1776775198,
      1776775198,
      1776775499,
      1776775499,
      1776775559,
      1776775559,
      1776775559,
      1776775859,
      1776775859,
      1776775859,
      1776776099,
      1776776099,
      1776776213,
      1776776213,
      1776776213,
      1776776219,
      1776776219,
      1776776339,
      1776776393,
      1776776393,
      1776776519,
      1776776573,
      1776776579,
      1776776579,
      1776776579,
      1776776633,
      1776776639,
      1776776639,
      1776776693,
      1776776699,
      1776776813,
      1776776819,
      1776776819,
      1776776994,
      1776777054,
      1776777054,
      1776777054,
      1776777114,
      1776777234,
      1776777294,
      1776777294,
      1776777311,
      1776777311,
      1776777414,
      1776777414,
      1776777431,
      1776777431,
      1776777534,
      1776777534,
      1776777792,
      1776777834,
      1776777834,
      1776777852,
      1776777852,
      1776777852,
      1776777894,
      1776777954,
      1776777954,
      1776778135,
      1776778135,
      1776778315,
      1776778315,
      1776778315,
      1776778435,
      1776778495,
      1776778555,
      1776778555,
      1776778615,
      1776778615,
      1776778675,
      1776778675,
      1776778675,
      1776778735,
      1776778735,
      1776778795,
      1776778976,
      1776778976,
      1776778976,
      1776778976,
      1776779036,
      1776779051,
      1776779111,
      1776779156,
      1776779156,
      1776779231,
      1776779231,
      1776779276,
      1776779291,
      1776779291,
      1776779336,
      1776779336,
      1776779336,
      1776779336,
      1776779532,
      1776779532,
      1776779592,
      1776779592,
      1776779652,
      1776779652,
      1776779696,
      1776779696,
      1776779696,
      1776779712,
      1776779772,
      1776779832,
      1776779832,
      1776779877,
      1776779937,
      1776779937,
      1776780012,
      1776780012,
      1776780012,
      1776780057,
      1776780117,
      1776780177,
      1776780177,
      1776780177,
      1776780193,
      1776780253,
      1776780253,
      1776780553,
      1776780553,
      1776780553,
      1776780613,
      1776780673,
      1776780673,
      1776780784,
      1776780784,
      1776780853,
      1776780853,
      1776780965,
      1776780974,
      1776781034,
      1776781034,
      1776781034,
      1776781085,
      1776781094,
      1776781094,
      1776781154,
      1776781154,
      1776781205,
      1776781205,
      1776781325,
      1776781334,
      1776781334,
      1776781686,
      1776781686,
      1776781686,
      1776781686,
      1776781866,
      1776781866,
      1776781866,
      1776782467,
      1776782467,
      1776782467,
      1776782467,
      1776782587,
      1776782707,
      1776782707,
      1776782773,
      1776782773,
      1776782828,
      1776782828,
      1776782828,
      1776782828,
      1776783013,
      1776783013,
      1776783073,
      1776783133,
      1776783188,
      1776783188,
      1776783188,
      1776783253,
      1776783253,
      1776783313,
      1776783313,
      1776783374,
      1776783374,
      1776783374,
      1776783374,
      1776783669,
      1776783669,
      1776783669,
      1776783669,
      1776783914,
      1776783914,
      1776783974,
      1776784029,
      1776784029,
      1776784095,
      1776784095,
      1776784095,
      1776784095,
      1776784215,
      1776784215,
      1776784215,
      1776784215,
      1776784335,
      1776784515,
      1776784515,
      1776784575,
      1776784575,
      1776784575,
      1776784575,
      1776784575,
      1776784695,
      1776784695,
      1776784695,
      1776784695,
      1776784755,
      1776784755,
      1776784816,
      1776784876,
      1776784876,
      1776784876,
      1776785056,
      1776785056,
      1776785056,
      1776785056,
      1776785056,
      1776785296,
      1776785296,
      1776785296,
      1776785296,
      1776785296,
      1776785356,
      1776785537,
      1776785537,
      1776785597,
      1776785597,
      1776785597,
      1776785717,
      1776785717,
      1776785727,
      1776785727,
      1776785777,
      1776785784,
      1776785784,
      1776785837,
      1776785837,
      1776785837,
      1776785904,
      1776785957,
      1776785957,
      1776785957,
      1776785964,
      1776785964,
      1776785964,
      1776786207,
      1776786207,
      1776786258,
      1776786258,
      1776786258,
      1776786258
    ],
    "wof:geomhash": "07aedb79f8cddb6a42bede3cc7050626",
    "wof:id": 2015348453,
    "wof:repo": "sfomuseum-data-flights-2026-04"
  },
  "bbox": [
    -122.39416666666668,
    32.91777777777777,
    -97.05,
    38.29527777777778
  ],
  "geometry": {"coordinates":[[-122.38333333333334,37.63333333333333],[-122.38333333333334,37.63333333333333],[-122.38333333333334,37.63333333333333],[-122.39416666666668,37.62722222222222],[-122.39416666666668,37.62722222222222],[-122.3436111111111,37.94833333333333],[-122.3436111111111,37.94833333333333],[-122.23222222222222,37.971111111111114],[-122.23222222222222,37.971111111111114],[-122.23222222222222,37.971111111111114],[-121.6061111111111,37.99111111111111],[-121.6061111111111,37.99111111111111],[-121.6061111111111,37.99111111111111],[-121.0025,38.00694444444444],[-121.0025,38.00694444444444],[-120.72361111111111,38.04138888888889],[-120.72361111111111,38.04138888888889],[-120.72361111111111,38.04138888888889],[-120.67305555555556,38.0575],[-120.67305555555556,38.0575],[-120.33277777777778,38.10888888888889],[-120.20805555555556,38.11805555555556],[-120.20805555555556,38.11805555555556],[-119.82166666666666,38.18388888888889],[-119.70222222222222,38.198611111111106],[-119.65972222222223,38.20722222222223],[-119.65972222222223,38.20722222222223],[-119.65972222222223,38.20722222222223],[-119.53861111111111,38.223055555555554],[-119.49333333333334,38.230555555555554],[-119.49333333333334,38.230555555555554],[-119.37305555555555,38.24611111111111],[-119.32972222222222,38.25361111111111],[-119.045,38.28805555555555],[-119.00361111111111,38.28777777777778],[-119.00361111111111,38.28777777777778],[-118.55722222222222,38.29194444444444],[-118.38694444444445,38.293055555555554],[-118.38694444444445,38.293055555555554],[-118.38694444444445,38.293055555555554],[-118.22111111111111,38.29388888888889],[-117.88972222222223,38.294999999999995],[-117.72361111111111,38.29527777777778],[-117.72361111111111,38.29527777777778],[-117.65416666666667,38.29527777777778],[-117.65416666666667,38.29527777777778],[-117.39361111111111,38.294999999999995],[-117.39361111111111,38.294999999999995],[-117.33027777777778,38.29472222222222],[-117.33027777777778,38.29472222222222],[-117.05361111111111,38.29388888888889],[-117.05361111111111,38.29388888888889],[-116.35472222222222,38.288333333333334],[-116.2286111111111,38.28666666666666],[-116.2286111111111,38.28666666666666],[-116.19416666666667,38.28638888888889],[-116.19416666666667,38.28638888888889],[-116.19416666666667,38.28638888888889],[-116.065,38.28472222222222],[-115.90138888888889,38.282222222222224],[-115.90138888888889,38.282222222222224],[-115.41000000000001,38.27388888888889],[-115.41000000000001,38.27388888888889],[-114.93111111111112,38.263888888888886],[-114.93111111111112,38.263888888888886],[-114.93111111111112,38.263888888888886],[-114.60416666666666,38.255833333333335],[-114.44333333333334,38.249722222222225],[-114.28694444444444,38.222500000000004],[-114.28694444444444,38.222500000000004],[-114.13944444444445,38.18416666666666],[-114.13944444444445,38.18416666666666],[-113.98611111111111,38.14416666666666],[-113.98611111111111,38.14416666666666],[-113.98611111111111,38.14416666666666],[-113.83388888888888,38.10416666666667],[-113.83388888888888,38.10416666666667],[-113.67833333333334,38.06305555555555],[-113.22333333333333,37.94138888888889],[-113.22333333333333,37.94138888888889],[-113.22333333333333,37.94138888888889],[-113.22333333333333,37.94138888888889],[-113.07055555555556,37.9],[-113.01,37.88361111111111],[-112.89027777777778,37.85111111111111],[-112.76888888888888,37.81777777777778],[-112.76888888888888,37.81777777777778],[-112.58666666666666,37.7675],[-112.58666666666666,37.7675],[-112.4625,37.73305555555556],[-112.43444444444445,37.72527777777778],[-112.43444444444445,37.72527777777778],[-112.315,37.69194444444444],[-112.315,37.69194444444444],[-112.315,37.69194444444444],[-112.315,37.69194444444444],[-111.8386111111111,37.55416666666667],[-111.8386111111111,37.55416666666667],[-111.68611111111112,37.50972222222222],[-111.68611111111112,37.50972222222222],[-111.5363888888889,37.465833333333336],[-111.5363888888889,37.465833333333336],[-111.41527777777779,37.43],[-111.41527777777779,37.43],[-111.41527777777779,37.43],[-111.38583333333334,37.42111111111111],[-111.23694444444445,37.37694444444445],[-111.08805555555556,37.3325],[-111.08805555555556,37.3325],[-110.9675,37.296388888888885],[-110.81861111111111,37.25138888888889],[-110.81861111111111,37.25138888888889],[-110.64194444444445,37.19777777777777],[-110.64194444444445,37.19777777777777],[-110.64194444444445,37.19777777777777],[-110.5213888888889,37.16111111111111],[-110.37305555555555,37.11555555555556],[-110.23027777777779,37.07138888888889],[-110.23027777777779,37.07138888888889],[-110.23027777777779,37.07138888888889],[-110.20055555555555,37.06222222222222],[-110.05111111111111,37.01583333333333],[-110.05111111111111,37.01583333333333],[-109.32833333333333,36.77861111111111],[-109.32833333333333,36.77861111111111],[-109.32833333333333,36.77861111111111],[-109.18083333333334,36.72916666666667],[-109.03583333333333,36.680277777777775],[-109.03583333333333,36.680277777777775],[-108.77194444444444,36.59111111111111],[-108.77194444444444,36.59111111111111],[-108.59305555555555,36.530277777777776],[-108.59305555555555,36.530277777777776],[-108.3275,36.439166666666665],[-108.29888888888888,36.42944444444444],[-108.15277777777779,36.37888888888889],[-108.15277777777779,36.37888888888889],[-108.15277777777779,36.37888888888889],[-108.03611111111111,36.33833333333334],[-108.00555555555556,36.32777777777778],[-108.00555555555556,36.32777777777778],[-107.85972222222222,36.276944444444446],[-107.85972222222222,36.276944444444446],[-107.74388888888889,36.236111111111114],[-107.74388888888889,36.236111111111114],[-107.45305555555557,36.129444444444445],[-107.42444444444445,36.11888888888889],[-107.42444444444445,36.11888888888889],[-106.58694444444444,35.80333333333333],[-106.58694444444444,35.80333333333333],[-106.58694444444444,35.80333333333333],[-106.58694444444444,35.80333333333333],[-106.15194444444445,35.63638888888889],[-106.15194444444445,35.63638888888889],[-106.15194444444445,35.63638888888889],[-104.77027777777778,34.990833333333335],[-104.77027777777778,34.990833333333335],[-104.77027777777778,34.990833333333335],[-104.77027777777778,34.990833333333335],[-104.52055555555556,34.825833333333335],[-104.26833333333333,34.66027777777778],[-104.26833333333333,34.66027777777778],[-104.11916666666666,34.56305555555555],[-104.11916666666666,34.56305555555555],[-104.015,34.495555555555555],[-104.015,34.495555555555555],[-104.015,34.495555555555555],[-104.015,34.495555555555555],[-103.57888888888888,34.28],[-103.57888888888888,34.28],[-103.41527777777779,34.282777777777774],[-103.25333333333333,34.285555555555554],[-103.12305555555555,34.28722222222222],[-103.12305555555555,34.28722222222222],[-103.12305555555555,34.28722222222222],[-102.93222222222222,34.29],[-102.93222222222222,34.29],[-102.775,34.29194444444444],[-102.775,34.29194444444444],[-102.61805555555554,34.29361111111111],[-102.61805555555554,34.29361111111111],[-102.61805555555554,34.29361111111111],[-102.61805555555554,34.29361111111111],[-101.87333333333332,34.29944444444444],[-101.87333333333332,34.29944444444444],[-101.87333333333332,34.29944444444444],[-101.87333333333332,34.29944444444444],[-101.23138888888889,34.301111111111105],[-101.23138888888889,34.301111111111105],[-101.07944444444443,34.29666666666667],[-100.92666666666668,34.26694444444444],[-100.92666666666668,34.26694444444444],[-100.77944444444444,34.22972222222222],[-100.77944444444444,34.22972222222222],[-100.77944444444444,34.22972222222222],[-100.77944444444444,34.22972222222222],[-100.47055555555556,34.15083333333333],[-100.47055555555556,34.15083333333333],[-100.47055555555556,34.15083333333333],[-100.47055555555556,34.15083333333333],[-100.17444444444445,34.07416666666667],[-99.72972222222222,33.9575],[-99.72972222222222,33.9575],[-99.5825,33.91833333333333],[-99.5825,33.91833333333333],[-99.5825,33.91833333333333],[-99.5825,33.91833333333333],[-99.5825,33.91833333333333],[-99.28805555555556,33.839444444444446],[-99.28805555555556,33.839444444444446],[-99.28805555555556,33.839444444444446],[-99.28805555555556,33.839444444444446],[-99.13694444444445,33.80555555555555],[-99.13694444444445,33.80555555555555],[-98.98611111111111,33.77611111111111],[-98.86999999999999,33.75277777777778],[-98.86999999999999,33.75277777777778],[-98.86999999999999,33.75277777777778],[-98.42972222222222,33.66611111111111],[-98.42972222222222,33.66611111111111],[-98.42972222222222,33.66611111111111],[-98.42972222222222,33.66611111111111],[-98.42972222222222,33.66611111111111],[-97.96166666666667,33.52194444444444],[-97.96166666666667,33.52194444444444],[-97.96166666666667,33.52194444444444],[-97.96166666666667,33.52194444444444],[-97.96166666666667,33.52194444444444],[-97.8461111111111,33.50194444444445],[-97.52777777777777,33.42388888888889],[-97.52777777777777,33.42388888888889],[-97.44444444444444,33.37638888888889],[-97.44444444444444,33.37638888888889],[-97.44444444444444,33.37638888888889],[-97.2936111111111,33.29],[-97.2936111111111,33.29],[-97.28333333333333,33.28333333333333],[-97.28333333333333,33.28333333333333],[-97.22,33.24722222222222],[-97.21666666666667,33.25],[-97.21666666666667,33.25],[-97.14666666666668,33.205000000000005],[-97.14666666666668,33.205000000000005],[-97.14666666666668,33.205000000000005],[-97.06666666666666,33.166666666666664],[-97.05416666666666,33.126666666666665],[-97.05416666666666,33.126666666666665],[-97.05416666666666,33.126666666666665],[-97.05,33.11666666666667],[-97.05,33.11666666666667],[-97.05,33.11666666666667],[-97.05,32.95],[-97.05,32.95],[-97.05472222222222,32.91777777777777],[-97.05472222222222,32.91777777777777],[-97.05472222222222,32.91777777777777],[-97.05472222222222,32.91777777777777]],"type":"LineString"}
}
