{
  "id": 2015348453,
  "type": "Feature",
  "properties": {
    "geom:area": 0,
    "geom:bbox": "-122.390000,32.900000,-97.040000,38.760000",
    "geom:latitude": 36.42985882578299,
    "geom:longitude": -109.89231247288446,
    "src:alt_label": "swim-route",
    "src:geom": "swim",
    "swim:geom": "route",
    "wof:geomhash": "38dac8628332e5542ea040b98843454c",
    "wof:id": 2015348453,
    "wof:repo": "sfomuseum-data-flights-2026-04"
  },
  "bbox": [
    -122.39,
    32.9,
    -97.04,
    38.76
  ],
  "geometry": {"coordinates":[[-122.38,37.62],[-122.3,37.68],[-122.34,37.75],[-122.34,37.75],[-122.34,37.75],[-122.38,37.83],[-122.38,37.84],[-122.39,37.85],[-122.39,37.87],[-122.38,37.93],[-122.38,37.94],[-122.31,37.96],[-122.15,37.99],[-122.1,37.99],[-121.96,37.99],[-121.83,37.99],[-121.81,37.99],[-121.77,37.99],[-121.53,37.99],[-121.52,37.99],[-121.36,37.99],[-121.24,37.99],[-121.1,37.99],[-121.05,38],[-121.01,38.01],[-120.89,38.02],[-120.47,38.09],[-120.31,38.11],[-120.16,38.13],[-120,38.16],[-119.5,38.23],[-119.42,38.53],[-119.37,38.68],[-119.35,38.76],[-119.2,38.36],[-119.17,38.29],[-118.27,38.29],[-117.28,38.3],[-115.97,38.28],[-114.39,38.25],[-114.07,38.17],[-113.22,37.94],[-112.79,37.82],[-112.3,37.69],[-111.66,37.5],[-110,37],[-109.21,36.74],[-108.99,36.67],[-107.69,36.22],[-107.58,36.18],[-107.41,36.12],[-106.43,35.74],[-105.46,35.37],[-105.23,35.28],[-104.55,35],[-104.37,34.73],[-104.31,34.9],[-104.12,34.56],[-103.77,34.33],[-102.78,34.33],[-101.06,34.3],[-100.59,34.24],[-100.25,34.2],[-99.66,34.02],[-99.54,33.99],[-99.49,33.97],[-99.23,33.89],[-99.05,33.84],[-98.96,33.81],[-98.76,33.74],[-98.71,33.73],[-98.61,33.69],[-98.6,33.69],[-98.55,33.67],[-98.48,33.65],[-98.47,33.65],[-98.26,33.58],[-98.2,33.56],[-98.14,33.55],[-98.08,33.52],[-98.07,33.52],[-98.02,33.51],[-97.92,33.47],[-97.78,33.43],[-97.72,33.41],[-97.64,33.38],[-97.6,33.36],[-97.55,33.33],[-97.46,33.27],[-97.36,33.18],[-97.29,33.11],[-97.27,33.09],[-97.24,33.06],[-97.23,33.05],[-97.18,33],[-97.16,32.99],[-97.16,32.99],[-97.09,32.94],[-97.04,32.9]],"type":"LineString"}
}
