{
  "id": 2031152729,
  "type": "Feature",
  "properties": {
    "geom:area": 0,
    "geom:bbox": "-122.404830,37.633680,-121.248350,37.991180",
    "geom:latitude": 37.93758322775003,
    "geom:longitude": -121.94139818220418,
    "src:alt_label": "swim-takeoff",
    "src:geom": "swim",
    "swim:elevations": [
      489,
      789,
      916,
      1126,
      1394,
      1589,
      1916,
      2315,
      2934,
      3221,
      3407,
      3499,
      3766,
      4142,
      4561,
      4894,
      4956,
      5343,
      5733,
      5806,
      6241,
      6434,
      6625,
      6928,
      7108,
      7249,
      7519
    ],
    "swim:geom": "takeoff",
    "swim:timestamps": [
      1777589278,
      1777589303,
      1777589312,
      1777589334,
      1777589368,
      1777589390,
      1777589414,
      1777589441,
      1777589485,
      1777589509,
      1777589536,
      1777589552,
      1777589590,
      1777589623,
      1777589665,
      1777589692,
      1777589701,
      1777589740,
      1777589784,
      1777589793,
      1777589841,
      1777589868,
      1777589890,
      1777589929,
      1777589950,
      1777589971,
      1777590013
    ],
    "wof:geomhash": "df70b27868754550fc7239ffb5e94630",
    "wof:id": 2031152729,
    "wof:repo": "sfomuseum-data-flights-2026-04"
  },
  "bbox": [
    -122.40483,
    37.63368,
    -121.24835,
    37.99118
  ],
  "geometry": {"coordinates":[[-122.40372,37.63368],[-122.40483,37.65352],[-122.39901,37.6599],[-122.38332,37.67508],[-122.35743,37.70388],[-122.34124,37.726],[-122.34352,37.75512],[-122.35965,37.78726],[-122.38338,37.84211],[-122.38508,37.87408],[-122.38297,37.91267],[-122.37162,37.93505],[-122.30314,37.96117],[-122.22991,37.9712],[-122.13661,37.98645],[-122.07382,37.98858],[-122.05411,37.989],[-121.95844,37.98992],[-121.85234,37.99006],[-121.82981,37.99007],[-121.70647,37.99032],[-121.63686,37.99055],[-121.57799,37.99075],[-121.47696,37.99101],[-121.41848,37.99111],[-121.36186,37.99116],[-121.24835,37.99118]],"type":"LineString"}
}
