{
  "id": 2015250457,
  "type": "Feature",
  "properties": {
    "geom:area": 0,
    "geom:bbox": "-122.359720,37.491510,-121.264020,37.614560",
    "geom:latitude": 37.54230500124113,
    "geom:longitude": -121.81893768113738,
    "src:alt_label": "swim-approach",
    "src:geom": "swim",
    "swim:elevations": [
      5157,
      4969,
      4437,
      4127,
      3943,
      3686,
      3542,
      3172,
      2984,
      2893,
      2676,
      2474,
      2345,
      2167,
      2103,
      2036,
      1830,
      1706,
      1470,
      1342,
      1295,
      1066,
      915,
      844,
      616,
      486,
      385,
      246,
      29,
      65
    ],
    "swim:geom": "approach",
    "swim:timestamps": [
      1775845853,
      1775845868,
      1775845918,
      1775845948,
      1775845967,
      1775846000,
      1775846020,
      1775846068,
      1775846094,
      1775846112,
      1775846150,
      1775846183,
      1775846206,
      1775846236,
      1775846248,
      1775846262,
      1775846298,
      1775846322,
      1775846367,
      1775846396,
      1775846405,
      1775846453,
      1775846482,
      1775846495,
      1775846538,
      1775846563,
      1775846586,
      1775846616,
      1775846668,
      1775846674
    ],
    "wof:geomhash": "383101a52303f8cb887d85793da0c832",
    "wof:id": 2015250457,
    "wof:repo": "sfomuseum-data-flights-2026-04"
  },
  "bbox": [
    -122.35972,
    37.49151,
    -121.26402,
    37.61456
  ],
  "geometry": {"coordinates":[[-121.26402,37.59265],[-121.29129,37.5891],[-121.38072,37.57921],[-121.43401,37.57326],[-121.46664,37.5694],[-121.52322,37.56267],[-121.55732,37.5588],[-121.63375,37.54858],[-121.6736,37.53902],[-121.69867,37.53303],[-121.7524,37.52038],[-121.79762,37.50925],[-121.82848,37.50166],[-121.86849,37.49273],[-121.88583,37.49151],[-121.90597,37.4924],[-121.9582,37.4955],[-121.99178,37.49748],[-122.05284,37.50104],[-122.09139,37.5036],[-122.10279,37.5065],[-122.1575,37.52965],[-122.18873,37.54272],[-122.20179,37.54821],[-122.24422,37.56609],[-122.26811,37.57613],[-122.28849,37.58457],[-122.31279,37.59502],[-122.35456,37.61241],[-122.35972,37.61456]],"type":"LineString"}
}
