{
  "id": 2015217817,
  "type": "Feature",
  "properties": {
    "geom:area": 0,
    "geom:bbox": "-122.380000,37.490000,-73.530000,42.510000",
    "geom:latitude": 40.50860677032862,
    "geom:longitude": -97.29008535615057,
    "src:alt_label": "swim-route",
    "src:geom": "swim",
    "swim:geom": "route",
    "wof:geomhash": "2277527c9dd1bbcb2f553a61a3641cde",
    "wof:id": 2015217817,
    "wof:repo": "sfomuseum-data-flights-2026-04"
  },
  "bbox": [
    -122.38,
    37.49,
    -73.53,
    42.51
  ],
  "geometry": {"coordinates":[[-73.78,40.64],[-73.91,40.71],[-73.94,40.73],[-74.04,40.78],[-74.06,40.79],[-74.06,40.8],[-74.1,40.82],[-74.12,40.83],[-74.16,40.85],[-74.19,40.87],[-73.53,40.87],[-73.59,40.88],[-73.82,41.07],[-73.83,41.07],[-73.88,41.09],[-73.94,41.1],[-74.2,41.18],[-74.42,41.24],[-74.47,41.25],[-74.59,41.29],[-74.62,41.16],[-74.62,41.17],[-74.63,41.18],[-74.63,41.18],[-74.63,41.18],[-74.63,41.19],[-74.65,41.23],[-74.67,41.24],[-74.74,41.26],[-74.82,41.28],[-74.92,41.31],[-75.1,41.37],[-75.23,41.4],[-75.45,41.47],[-75.46,41.47],[-75.48,41.48],[-75.73,41.55],[-75.86,41.58],[-75.87,41.59],[-76.03,41.63],[-76.22,41.69],[-76.34,41.72],[-76.52,41.77],[-76.86,41.86],[-76.93,41.88],[-77.2,41.95],[-77.35,41.99],[-77.41,42.01],[-78.27,42.24],[-78.91,42.4],[-79.83,42.46],[-79.9,42.46],[-80.68,42.51],[-80.79,42.5],[-80.8,42.5],[-81.49,42.46],[-82.3,42.41],[-82.69,42.38],[-82.82,42.38],[-83.25,42.4],[-83.59,42.41],[-83.81,42.38],[-84.47,42.29],[-84.64,42.28],[-85,42.26],[-85.74,42.21],[-85.83,42.21],[-87,42.12],[-88.55,41.99],[-88.63,41.98],[-90.02,41.84],[-91.31,41.7],[-92.91,41.5],[-93.51,41.42],[-93.63,41.4],[-94.27,41.31],[-94.65,41.25],[-94.84,41.23],[-95.23,41.17],[-95.87,41.07],[-96.74,40.92],[-96.87,40.9],[-97.13,40.86],[-98.55,40.6],[-99.05,40.51],[-100.59,40.2],[-103.19,40.06],[-105.1,39.92],[-106.53,39.79],[-106.56,39.78],[-107.22,39.71],[-107.48,39.68],[-107.55,39.67],[-108.27,39.59],[-108.83,39.52],[-109.83,39.39],[-110.1,39.35],[-111.72,39.12],[-113.47,38.84],[-113.85,38.78],[-115.09,38.56],[-116.33,38.33],[-117.27,38.12],[-117.27,38.12],[-118.76,37.9],[-119.1,37.86],[-119.12,37.85],[-119.38,37.82],[-119.72,37.78],[-119.82,37.77],[-119.92,37.76],[-120.02,37.75],[-120.31,37.71],[-120.4,37.7],[-120.4,37.7],[-120.57,37.68],[-120.69,37.67],[-120.75,37.66],[-120.79,37.65],[-120.8,37.65],[-120.96,37.63],[-121,37.63],[-121.01,37.63],[-121.07,37.62],[-121.17,37.61],[-121.26,37.59],[-121.39,37.58],[-121.41,37.58],[-121.6,37.55],[-121.61,37.55],[-121.62,37.55],[-121.72,37.53],[-121.8,37.51],[-121.88,37.49],[-121.89,37.49],[-122.01,37.53],[-122.08,37.54],[-122.18,37.57],[-122.18,37.57],[-122.28,37.59],[-122.33,37.61],[-122.36,37.61],[-122.38,37.62]],"type":"LineString"}
}
