{
  "id": 2015233391,
  "type": "Feature",
  "properties": {
    "date:cessation_lower": "2026-04-08",
    "date:cessation_upper": "2026-04-08",
    "date:inception_lower": "2026-04-07",
    "date:inception_upper": "2026-04-07",
    "edtf:cessation": "2026-04-08T10:40:40Z",
    "edtf:inception": "2026-04-07T20:36:00Z",
    "flysfo:actual_timestamp": -1,
    "flysfo:airline": "UA",
    "flysfo:date": "2026-04-07",
    "flysfo:estimated_timestamp": 1775592120,
    "flysfo:event": "D",
    "flysfo:flight_number": "UA869",
    "flysfo:gate": "F13",
    "flysfo:journey": "SFO-HKG",
    "flysfo:scheduled_timestamp": 1775591700,
    "flysfo:timestamp": 1775592120,
    "geom:area": 0,
    "geom:bbox": "-122.370943,22.307471,113.927436,37.617990",
    "geom:latitude": 29.9627305,
    "geom:longitude": -4.221753499999998,
    "iata:airline": "UA",
    "icao:aircraft": "B77W",
    "icao:airline": "UAL",
    "lbl:latitude": 37.620534,
    "lbl:longitude": -122.388506,
    "sfomuseum:aircraft_id": 1159289993,
    "sfomuseum:airline_id": 1159285413,
    "sfomuseum:arrival_id": 102541737,
    "sfomuseum:departure_id": 102527513,
    "sfomuseum:flight_id": "20260407-D-UAL-869",
    "sfomuseum:flight_number": [
      "UAL869",
      "UA869"
    ],
    "sfomuseum:placetype": "flight",
    "src:geom": "flysfo",
    "src:geom_alt": [
      "swim-route",
      "swim-path",
      "swim-takeoff"
    ],
    "swim:tail_number": "N2243U",
    "wof:belongsto": [
      1947304067,
      102527513,
      1947304451,
      102191575,
      85633793,
      102087579,
      85922583,
      554784711,
      85688637,
      1947304459,
      1947304447,
      102085387
    ],
    "wof:concordances": {
      "swim:flight_ref": "143570744",
      "swim:gufi": "KO608713ZY"
    },
    "wof:country": "US",
    "wof:created": 1775664954,
    "wof:geomhash": "b8fc8d95bb44b1c6b9f6cb201e4d2ca9",
    "wof:hierarchy": [
      {
        "building_id": 1947304067,
        "campus_id": 102527513,
        "concourse_id": 1947304451,
        "continent_id": 102191575,
        "country_id": 85633793,
        "county_id": 102087579,
        "custom_id": 2015233391,
        "flight_id": 2015233391,
        "locality_id": 85922583,
        "postalcode_id": 554784711,
        "region_id": 85688637,
        "venue_id": 1947304459,
        "wing_id": 1947304447
      },
      {
        "building_id": 1947304067,
        "campus_id": 102527513,
        "concourse_id": 1947304451,
        "continent_id": 102191575,
        "country_id": 85633793,
        "county_id": 102085387,
        "custom_id": 2015233391,
        "flight_id": 2015233391,
        "region_id": 85688637,
        "venue_id": 1947304459,
        "wing_id": 1947304447
      }
    ],
    "wof:id": 2015233391,
    "wof:involves": [
      102527513,
      1159285413,
      1947304459,
      1159289993,
      102541737
    ],
    "wof:lastmodified": 1775665038,
    "wof:name": "UA869 (SFO-HKG)",
    "wof:parent_id": 1947304459,
    "wof:placetype": "custom",
    "wof:placetype_alt": [
      "flight"
    ],
    "wof:repo": "sfomuseum-data-flights-2026-04",
    "wof:superseded_by": [],
    "wof:supersedes": []
  },
  "bbox": [
    -122.370943,
    22.307471,
    113.927436,
    37.61799
  ],
  "geometry": {"coordinates":[[-122.370943,37.61799],[113.927436,22.307471]],"type":"MultiPoint"}
}
