{
  "id": 2015240201,
  "type": "Feature",
  "properties": {
    "geom:area": 0,
    "geom:bbox": "-122.472778,37.633333,-87.644722,46.940556",
    "geom:latitude": 43.498784268875475,
    "geom:longitude": -105.49421419725272,
    "src:alt_label": "swim-path",
    "src:geom": "swim",
    "swim:altitudes": [
      "015",
      "015",
      "015",
      "080",
      "080",
      "080",
      "080",
      "138",
      "138",
      "156",
      "156",
      "198",
      "198",
      "198",
      "214",
      "214",
      "235",
      "235",
      "235",
      "255",
      "255",
      "255",
      "277",
      "277",
      "277",
      "285",
      "285",
      "292",
      "292",
      "312",
      "312",
      "312",
      "318",
      "323",
      "328",
      "328",
      "334",
      "334",
      "334",
      "334",
      "370C",
      "370C",
      "370C",
      "370C",
      "370C",
      "370C",
      "370C",
      "370C",
      "370C",
      "370C",
      "370C",
      "370C",
      "370C",
      "370C",
      "370C",
      "370C",
      "370C",
      "370C",
      "370C",
      "370C",
      "370C",
      "370C",
      "370C",
      "370C",
      "370C",
      "370C",
      "370C",
      "370C",
      "370C",
      "370C",
      "370C",
      "370C",
      "370C",
      "370C",
      "370C",
      "370C",
      "370C",
      "370C",
      "370C",
      "370C",
      "370C",
      "370C",
      "370C",
      "370C",
      "370C",
      "370C",
      "370C",
      "370C",
      "370C",
      "370C",
      "370C",
      "370C",
      "370C",
      "370C",
      "370C",
      "370C",
      "370C",
      "370C",
      "370C",
      "370C",
      "370C",
      "370C",
      "370C",
      "370C",
      "370C",
      "370C",
      "370C",
      "370C",
      "370C",
      "370C",
      "370C",
      "370C",
      "370C",
      "370C",
      "370C",
      "370C",
      "370C",
      "370C",
      "370C",
      "370C",
      "370C",
      "370C",
      "370C",
      "370C",
      "370C",
      "370C",
      "370C",
      "370C",
      "370C",
      "370C",
      "370C",
      "370C",
      "370C",
      "370C",
      "370C",
      "370C",
      "370C",
      "370C",
      "370C",
      "370C",
      "370C",
      "370C",
      "370C",
      "370C",
      "370C",
      "370C",
      "370C",
      "370C",
      "370C",
      "370C",
      "370C",
      "370C",
      "370C",
      "370C",
      "370C",
      "370C",
      "370C",
      "370C",
      "370C",
      "370C",
      "370C",
      "370C",
      "370C",
      "370C",
      "370C",
      "370C",
      "370C",
      "370C",
      "370C",
      "370C",
      "370C",
      "370C",
      "370C",
      "370C",
      "370C",
      "370C",
      "370C",
      "370C",
      "370C",
      "370C",
      "370C",
      "370C",
      "370C",
      "370C",
      "370C",
      "370C",
      "370C",
      "370C",
      "370C",
      "370C",
      "370C",
      "370C",
      "370C",
      "370C",
      "370C",
      "370C",
      "370C",
      "370C",
      "370C",
      "370C",
      "370C",
      "370C",
      "370C",
      "370C",
      "370C",
      "370C",
      "370C",
      "370C",
      "370C",
      "370C",
      "370C",
      "370C",
      "370C",
      "370C",
      "370C",
      "370C",
      "370C",
      "370C",
      "370C",
      "370C",
      "370C",
      "370C",
      "370C",
      "370C",
      "370C",
      "370C",
      "370C",
      "370C",
      "370C",
      "370C",
      "370C",
      "370C",
      "370C",
      "370C",
      "370C",
      "370C",
      "370C",
      "370C",
      "370C",
      "370C",
      "370C",
      "370C",
      "370C",
      "370C",
      "370C",
      "370C",
      "370C",
      "370C",
      "370C",
      "370C",
      "370C",
      "370C",
      "370C",
      "370C",
      "370C",
      "370C",
      "370C",
      "370C",
      "370C",
      "370C",
      "370C",
      "370C",
      "370C",
      "370C",
      "370C",
      "370C",
      "370C",
      "370C",
      "370C",
      "370C",
      "370C",
      "370C",
      "370C",
      "370C",
      "370C",
      "370C",
      "370C",
      "370C",
      "370C",
      "370C",
      "370C",
      "370C",
      "370C",
      "370C",
      "370C",
      "370C"
    ],
    "swim:geom": "path",
    "swim:speeds": [
      154,
      154,
      154,
      289,
      289,
      289,
      289,
      319,
      319,
      328,
      328,
      364,
      364,
      364,
      411,
      411,
      434,
      434,
      434,
      448,
      448,
      448,
      467,
      467,
      467,
      474,
      474,
      475,
      475,
      486,
      486,
      486,
      492,
      502,
      504,
      504,
      511,
      511,
      511,
      511,
      502,
      502,
      502,
      502,
      501,
      501,
      501,
      501,
      496,
      496,
      496,
      496,
      499,
      499,
      498,
      498,
      497,
      497,
      497,
      496,
      496,
      496,
      493,
      493,
      493,
      493,
      492,
      492,
      492,
      488,
      488,
      486,
      486,
      488,
      488,
      490,
      490,
      490,
      489,
      489,
      489,
      489,
      489,
      491,
      491,
      491,
      490,
      493,
      493,
      494,
      494,
      495,
      495,
      495,
      499,
      499,
      499,
      499,
      500,
      500,
      500,
      501,
      501,
      501,
      501,
      500,
      499,
      499,
      499,
      500,
      500,
      500,
      501,
      501,
      501,
      500,
      500,
      500,
      495,
      495,
      494,
      494,
      496,
      496,
      498,
      498,
      498,
      498,
      498,
      500,
      501,
      503,
      503,
      503,
      503,
      503,
      505,
      505,
      505,
      505,
      505,
      505,
      505,
      505,
      504,
      504,
      504,
      504,
      504,
      504,
      504,
      505,
      506,
      507,
      508,
      508,
      508,
      512,
      512,
      512,
      512,
      513,
      515,
      516,
      516,
      518,
      518,
      517,
      517,
      517,
      514,
      514,
      514,
      514,
      514,
      515,
      515,
      517,
      517,
      518,
      518,
      518,
      518,
      518,
      523,
      523,
      523,
      523,
      524,
      524,
      524,
      523,
      523,
      523,
      527,
      527,
      529,
      529,
      529,
      529,
      529,
      523,
      524,
      524,
      524,
      524,
      524,
      526,
      526,
      521,
      521,
      521,
      520,
      520,
      522,
      522,
      522,
      521,
      521,
      522,
      522,
      522,
      519,
      519,
      519,
      514,
      514,
      515,
      515,
      515,
      516,
      516,
      521,
      523,
      523,
      522,
      522,
      521,
      521,
      524,
      524,
      524,
      524,
      528,
      528,
      528,
      528,
      529,
      529,
      529,
      531,
      531,
      531,
      532,
      532,
      532,
      533,
      536,
      536,
      536,
      536,
      531,
      531,
      524,
      524,
      524,
      516,
      513,
      513,
      513,
      517,
      517,
      517,
      517,
      519,
      519,
      520,
      521,
      521,
      522,
      522,
      524,
      524,
      524,
      524,
      524
    ],
    "swim:timestamps": [
      1775694618,
      1775694618,
      1775694618,
      1775694851,
      1775694851,
      1775694851,
      1775694851,
      1775695032,
      1775695032,
      1775695092,
      1775695092,
      1775695272,
      1775695272,
      1775695272,
      1775695392,
      1775695392,
      1775695512,
      1775695512,
      1775695512,
      1775695632,
      1775695632,
      1775695632,
      1775695808,
      1775695808,
      1775695808,
      1775695868,
      1775695868,
      1775695928,
      1775695928,
      1775696108,
      1775696108,
      1775696108,
      1775696169,
      1775696229,
      1775696289,
      1775696289,
      1775696349,
      1775696349,
      1775696349,
      1775696349,
      1775696589,
      1775696589,
      1775696589,
      1775696589,
      1775696769,
      1775696769,
      1775696769,
      1775696769,
      1775697070,
      1775697070,
      1775697070,
      1775697070,
      1775697250,
      1775697250,
      1775697310,
      1775697310,
      1775697370,
      1775697370,
      1775697370,
      1775697430,
      1775697430,
      1775697430,
      1775697670,
      1775697670,
      1775697670,
      1775697670,
      1775698091,
      1775698091,
      1775698091,
      1775698211,
      1775698211,
      1775698271,
      1775698331,
      1775698391,
      1775698391,
      1775698452,
      1775698452,
      1775698452,
      1775698512,
      1775698512,
      1775698512,
      1775698572,
      1775698572,
      1775698632,
      1775698632,
      1775698632,
      1775698692,
      1775698812,
      1775698812,
      1775698872,
      1775698872,
      1775698932,
      1775698932,
      1775698932,
      1775699112,
      1775699112,
      1775699353,
      1775699353,
      1775699413,
      1775699413,
      1775699413,
      1775699533,
      1775699533,
      1775699533,
      1775699533,
      1775699593,
      1775699653,
      1775699653,
      1775699653,
      1775699713,
      1775699713,
      1775699713,
      1775699954,
      1775699954,
      1775699954,
      1775700014,
      1775700014,
      1775700014,
      1775700194,
      1775700194,
      1775700254,
      1775700254,
      1775700314,
      1775700314,
      1775700394,
      1775700394,
      1775700434,
      1775700434,
      1775700434,
      1775700494,
      1775700514,
      1775700554,
      1775700574,
      1775700574,
      1775700574,
      1775700574,
      1775700614,
      1775700614,
      1775700694,
      1775700694,
      1775700735,
      1775700735,
      1775700754,
      1775700855,
      1775700874,
      1775700874,
      1775700874,
      1775700915,
      1775700935,
      1775700935,
      1775700935,
      1775700995,
      1775701035,
      1775701055,
      1775701155,
      1775701155,
      1775701155,
      1775701295,
      1775701335,
      1775701335,
      1775701335,
      1775701355,
      1775701475,
      1775701516,
      1775701516,
      1775701576,
      1775701576,
      1775701636,
      1775701636,
      1775701636,
      1775701709,
      1775701776,
      1775701776,
      1775701829,
      1775701829,
      1775701956,
      1775701956,
      1775702009,
      1775702009,
      1775702069,
      1775702069,
      1775702069,
      1775702129,
      1775702129,
      1775702250,
      1775702250,
      1775702256,
      1775702256,
      1775702310,
      1775702310,
      1775702310,
      1775702490,
      1775702497,
      1775702497,
      1775702550,
      1775702550,
      1775702617,
      1775702670,
      1775702670,
      1775702670,
      1775702670,
      1775702850,
      1775702910,
      1775702910,
      1775702910,
      1775702910,
      1775702970,
      1775703030,
      1775703030,
      1775703090,
      1775703090,
      1775703090,
      1775703211,
      1775703211,
      1775703271,
      1775703271,
      1775703271,
      1775703331,
      1775703331,
      1775703571,
      1775703571,
      1775703571,
      1775703631,
      1775703631,
      1775703631,
      1775703811,
      1775703811,
      1775703871,
      1775703871,
      1775703871,
      1775703931,
      1775703931,
      1775703991,
      1775704232,
      1775704232,
      1775704292,
      1775704292,
      1775704352,
      1775704352,
      1775704532,
      1775704532,
      1775704532,
      1775704532,
      1775704952,
      1775704952,
      1775704952,
      1775704952,
      1775705072,
      1775705072,
      1775705133,
      1775705193,
      1775705193,
      1775705193,
      1775705253,
      1775705253,
      1775705253,
      1775705313,
      1775705433,
      1775705433,
      1775705433,
      1775705433,
      1775705673,
      1775705673,
      1775705733,
      1775705733,
      1775705733,
      1775705793,
      1775705853,
      1775705853,
      1775705853,
      1775706033,
      1775706033,
      1775706093,
      1775706093,
      1775706153,
      1775706153,
      1775706213,
      1775706274,
      1775706274,
      1775706334,
      1775706334,
      1775706394,
      1775706394,
      1775706394,
      1775706574,
      1775706574
    ],
    "wof:geomhash": "80ff8c47ba5e9a3d6b7c0c94b1700cd5",
    "wof:id": 2015240201,
    "wof:repo": "sfomuseum-data-flights-2026-04"
  },
  "bbox": [
    -122.47277777777778,
    37.63333333333333,
    -87.64472222222223,
    46.940555555555555
  ],
  "geometry": {"coordinates":[[-122.4,37.63333333333333],[-122.4,37.63333333333333],[-122.4,37.63333333333333],[-122.47277777777778,37.824444444444445],[-122.47277777777778,37.824444444444445],[-122.47277777777778,37.824444444444445],[-122.47277777777778,37.824444444444445],[-122.21666666666667,37.98888888888889],[-122.21666666666667,37.98888888888889],[-122.12944444444443,38.049166666666665],[-122.12944444444443,38.049166666666665],[-121.84833333333333,38.24194444444444],[-121.84833333333333,38.24194444444444],[-121.84833333333333,38.24194444444444],[-121.64,38.38388888888889],[-121.64,38.38388888888889],[-121.40305555555557,38.53472222222222],[-121.40305555555557,38.53472222222222],[-121.40305555555557,38.53472222222222],[-121.14277777777778,38.69305555555555],[-121.14277777777778,38.69305555555555],[-121.14277777777778,38.69305555555555],[-120.75611111111111,38.8925],[-120.75611111111111,38.8925],[-120.75611111111111,38.8925],[-120.60888888888888,38.95944444444445],[-120.60888888888888,38.95944444444445],[-120.46138888888889,39.02638888888889],[-120.46138888888889,39.02638888888889],[-120.00944444444444,39.22888888888889],[-120.00944444444444,39.22888888888889],[-120.00944444444444,39.22888888888889],[-119.85527777777777,39.2975],[-119.6975,39.36833333333333],[-119.53916666666666,39.4375],[-119.53916666666666,39.4375],[-119.37805555555555,39.507777777777775],[-119.37805555555555,39.507777777777775],[-119.37805555555555,39.507777777777775],[-119.37805555555555,39.507777777777775],[-118.73833333333333,39.78444444444444],[-118.73833333333333,39.78444444444444],[-118.73833333333333,39.78444444444444],[-118.73833333333333,39.78444444444444],[-118.25833333333334,39.98722222222222],[-118.25833333333334,39.98722222222222],[-118.25833333333334,39.98722222222222],[-118.25833333333334,39.98722222222222],[-117.4713888888889,40.31361111111111],[-117.4713888888889,40.31361111111111],[-117.4713888888889,40.31361111111111],[-117.4713888888889,40.31361111111111],[-116.98555555555555,40.510555555555555],[-116.98555555555555,40.510555555555555],[-116.82027777777778,40.57694444444445],[-116.82027777777778,40.57694444444445],[-116.65777777777778,40.641666666666666],[-116.65777777777778,40.641666666666666],[-116.65777777777778,40.641666666666666],[-116.49638888888889,40.70583333333334],[-116.49638888888889,40.70583333333334],[-116.49638888888889,40.70583333333334],[-115.85472222222222,40.956944444444446],[-115.85472222222222,40.956944444444446],[-115.85472222222222,40.956944444444446],[-115.85472222222222,40.956944444444446],[-114.71638888888889,41.38944444444444],[-114.71638888888889,41.38944444444444],[-114.71638888888889,41.38944444444444],[-114.39305555555556,41.509166666666665],[-114.39305555555556,41.509166666666665],[-114.23305555555555,41.56805555555556],[-114.07111111111111,41.62722222222222],[-113.90777777777778,41.686388888888885],[-113.90777777777778,41.686388888888885],[-113.74,41.746944444444445],[-113.74,41.746944444444445],[-113.74,41.746944444444445],[-113.57888888888888,41.80472222222222],[-113.57888888888888,41.80472222222222],[-113.57888888888888,41.80472222222222],[-113.41222222222223,41.86416666666667],[-113.41222222222223,41.86416666666667],[-113.24805555555555,41.9225],[-113.24805555555555,41.9225],[-113.24805555555555,41.9225],[-113.08138888888888,41.98111111111111],[-112.74722222222222,42.09777777777778],[-112.74722222222222,42.09777777777778],[-112.57694444444444,42.156666666666666],[-112.57694444444444,42.156666666666666],[-112.41000000000001,42.21416666666667],[-112.41000000000001,42.21416666666667],[-112.41000000000001,42.21416666666667],[-111.89333333333335,42.38166666666667],[-111.89333333333335,42.38166666666667],[-111.2025,42.60138888888889],[-111.2025,42.60138888888889],[-111.02916666666667,42.655833333333334],[-111.02916666666667,42.655833333333334],[-111.02916666666667,42.655833333333334],[-110.70861111111111,42.755],[-110.70861111111111,42.755],[-110.70861111111111,42.755],[-110.70861111111111,42.755],[-110.53333333333333,42.80888888888889],[-110.36055555555555,42.86138888888889],[-110.36055555555555,42.86138888888889],[-110.36055555555555,42.86138888888889],[-110.18611111111112,42.91416666666667],[-110.18611111111112,42.91416666666667],[-110.18611111111112,42.91416666666667],[-109.48055555555555,43.12444444444444],[-109.48055555555555,43.12444444444444],[-109.48055555555555,43.12444444444444],[-109.30444444444444,43.17611111111111],[-109.30444444444444,43.17611111111111],[-109.30444444444444,43.17611111111111],[-108.74305555555556,43.338055555555556],[-108.74305555555556,43.338055555555556],[-108.56777777777778,43.38777777777778],[-108.56777777777778,43.38777777777778],[-108.39111111111112,43.4375],[-108.39111111111112,43.4375],[-108.17972222222222,43.498333333333335],[-108.17972222222222,43.498333333333335],[-108.03944444444444,43.54055555555556],[-108.03944444444444,43.54055555555556],[-108.03944444444444,43.54055555555556],[-107.86166666666666,43.59305555555556],[-107.82416666666666,43.60388888888889],[-107.68055555555556,43.64611111111111],[-107.64472222222223,43.656388888888884],[-107.64472222222223,43.656388888888884],[-107.64472222222223,43.656388888888884],[-107.64472222222223,43.656388888888884],[-107.50138888888888,43.698055555555555],[-107.50138888888888,43.698055555555555],[-107.28944444444444,43.759166666666665],[-107.28944444444444,43.759166666666665],[-107.14277777777778,43.80083333333333],[-107.14277777777778,43.80083333333333],[-107.10694444444444,43.81111111111111],[-106.80749999999999,43.89611111111111],[-106.73555555555555,43.91611111111111],[-106.73555555555555,43.91611111111111],[-106.73555555555555,43.91611111111111],[-106.6261111111111,43.94694444444444],[-106.55388888888889,43.966944444444444],[-106.55388888888889,43.966944444444444],[-106.55388888888889,43.966944444444444],[-106.37166666666666,44.01722222222222],[-106.23694444444445,44.05027777777777],[-106.18777777777778,44.0625],[-105.88972222222223,44.13666666666666],[-105.88972222222223,44.13666666666666],[-105.88972222222223,44.13666666666666],[-105.43805555555556,44.2475],[-105.325,44.27472222222222],[-105.325,44.27472222222222],[-105.325,44.27472222222222],[-105.24833333333333,44.29333333333333],[-104.86972222222222,44.38388888888889],[-104.75305555555556,44.41138888888889],[-104.75305555555556,44.41138888888889],[-104.5625,44.45583333333334],[-104.5625,44.45583333333334],[-104.36999999999999,44.50055555555556],[-104.36999999999999,44.50055555555556],[-104.36999999999999,44.50055555555556],[-104.14361111111111,44.55277777777778],[-103.91638888888889,44.60472222222222],[-103.91638888888889,44.60472222222222],[-103.76055555555556,44.63972222222222],[-103.76055555555556,44.63972222222222],[-103.3386111111111,44.73388888888889],[-103.3386111111111,44.73388888888889],[-103.1863888888889,44.76722222222222],[-103.1863888888889,44.76722222222222],[-102.99111111111111,44.80972222222222],[-102.99111111111111,44.80972222222222],[-102.99111111111111,44.80972222222222],[-102.79861111111111,44.85138888888889],[-102.79861111111111,44.85138888888889],[-102.40722222222223,44.934999999999995],[-102.40722222222223,44.934999999999995],[-102.36722222222221,44.94333333333333],[-102.36722222222221,44.94333333333333],[-102.21000000000001,44.976111111111116],[-102.21000000000001,44.976111111111116],[-102.21000000000001,44.976111111111116],[-101.61472222222221,45.09027777777778],[-101.57638888888889,45.09444444444445],[-101.57638888888889,45.09444444444445],[-101.41083333333334,45.11333333333334],[-101.41083333333334,45.11333333333334],[-101.16277777777778,45.14138888888889],[-100.99888888888889,45.159444444444446],[-100.99888888888889,45.159444444444446],[-100.99888888888889,45.159444444444446],[-100.99888888888889,45.159444444444446],[-100.38722222222223,45.225],[-100.18083333333334,45.24638888888889],[-100.18083333333334,45.24638888888889],[-100.18083333333334,45.24638888888889],[-100.18083333333334,45.24638888888889],[-99.97166666666666,45.26777777777777],[-99.76305555555555,45.28861111111111],[-99.76305555555555,45.28861111111111],[-99.56083333333333,45.308055555555555],[-99.56083333333333,45.308055555555555],[-99.56083333333333,45.308055555555555],[-99.15138888888889,45.34722222222222],[-99.15138888888889,45.34722222222222],[-98.94694444444445,45.36611111111111],[-98.94694444444445,45.36611111111111],[-98.94694444444445,45.36611111111111],[-98.74388888888889,45.38444444444444],[-98.74388888888889,45.38444444444444],[-97.93194444444445,45.48388888888889],[-97.93194444444445,45.48388888888889],[-97.93194444444445,45.48388888888889],[-97.73138888888889,45.51361111111111],[-97.73138888888889,45.51361111111111],[-97.73138888888889,45.51361111111111],[-97.13333333333334,45.60055555555556],[-97.13333333333334,45.60055555555556],[-96.93138888888889,45.62888888888889],[-96.93138888888889,45.62888888888889],[-96.93138888888889,45.62888888888889],[-96.73083333333334,45.65694444444444],[-96.73083333333334,45.65694444444444],[-96.52527777777777,45.68527777777778],[-95.70722222222223,45.79361111111111],[-95.70722222222223,45.79361111111111],[-95.5038888888889,45.819722222222225],[-95.5038888888889,45.819722222222225],[-95.30027777777778,45.84527777777778],[-95.30027777777778,45.84527777777778],[-94.69194444444445,45.91972222222222],[-94.69194444444445,45.91972222222222],[-94.69194444444445,45.91972222222222],[-94.69194444444445,45.91972222222222],[-93.24666666666667,46.105555555555554],[-93.24666666666667,46.105555555555554],[-93.24666666666667,46.105555555555554],[-93.24666666666667,46.105555555555554],[-92.82888888888888,46.161944444444444],[-92.82888888888888,46.161944444444444],[-92.61972222222222,46.18944444444444],[-92.41333333333334,46.21638888888889],[-92.41333333333334,46.21638888888889],[-92.41333333333334,46.21638888888889],[-92.2038888888889,46.24305555555556],[-92.2038888888889,46.24305555555556],[-92.2038888888889,46.24305555555556],[-91.99555555555555,46.26916666666666],[-91.57111111111111,46.32138888888889],[-91.57111111111111,46.32138888888889],[-91.57111111111111,46.32138888888889],[-91.57111111111111,46.32138888888889],[-90.72,46.420833333333334],[-90.72,46.420833333333334],[-90.51333333333334,46.44416666666666],[-90.51333333333334,46.44416666666666],[-90.51333333333334,46.44416666666666],[-90.30749999999999,46.466944444444444],[-90.10527777777777,46.48888888888889],[-90.10527777777777,46.48888888888889],[-90.10527777777777,46.48888888888889],[-89.49388888888889,46.599444444444444],[-89.49388888888889,46.599444444444444],[-89.28999999999999,46.63861111111111],[-89.28999999999999,46.63861111111111],[-89.08694444444444,46.677499999999995],[-89.08694444444444,46.677499999999995],[-88.8825,46.71611111111111],[-88.67666666666668,46.754444444444445],[-88.67666666666668,46.754444444444445],[-88.47027777777778,46.7925],[-88.47027777777778,46.7925],[-88.26527777777778,46.82972222222222],[-88.26527777777778,46.82972222222222],[-88.26527777777778,46.82972222222222],[-87.64472222222223,46.940555555555555],[-87.64472222222223,46.940555555555555]],"type":"LineString"}
}
