{
  "id": 2015231915,
  "type": "Feature",
  "properties": {
    "geom:area": 0,
    "geom:bbox": "-122.558630,36.738660,-121.455120,37.673050",
    "geom:latitude": 37.23433800187626,
    "geom:longitude": -122.07799817221206,
    "src:alt_label": "swim-takeoff",
    "src:geom": "swim",
    "swim:elevations": [
      183,
      663,
      848,
      1121,
      1158,
      1657,
      1727,
      2127,
      2381,
      3041,
      3200,
      3264,
      3422,
      3484,
      4059,
      4354,
      4701,
      4943,
      5324,
      5423,
      5863,
      6007,
      6278,
      6489,
      6616,
      6731,
      6900,
      7115,
      7279,
      7359,
      7837
    ],
    "swim:geom": "takeoff",
    "swim:timestamps": [
      1775593813,
      1775593847,
      1775593867,
      1775593903,
      1775593906,
      1775593946,
      1775593951,
      1775593977,
      1775593995,
      1775594036,
      1775594066,
      1775594084,
      1775594124,
      1775594130,
      1775594175,
      1775594202,
      1775594236,
      1775594257,
      1775594307,
      1775594316,
      1775594367,
      1775594391,
      1775594425,
      1775594447,
      1775594467,
      1775594484,
      1775594507,
      1775594545,
      1775594572,
      1775594587,
      1775594627
    ],
    "wof:geomhash": "1057514f75af9f73a4512fd7b91f21cc",
    "wof:id": 2015231915,
    "wof:repo": "sfomuseum-data-flights-2026-04"
  },
  "bbox": [
    -122.55863,
    36.73866,
    -121.45512,
    37.67305
  ],
  "geometry": {"coordinates":[[-122.38669,37.62603],[-122.41391,37.63718],[-122.43153,37.64424],[-122.46897,37.65988],[-122.47251,37.66138],[-122.52482,37.67305],[-122.53233,37.6711],[-122.55863,37.64691],[-122.55759,37.62364],[-122.52513,37.57208],[-122.49762,37.53512],[-122.47118,37.5148],[-122.40488,37.46613],[-122.3946,37.45836],[-122.31726,37.39997],[-122.27022,37.36427],[-122.20877,37.31764],[-122.17074,37.28865],[-122.07888,37.21854],[-122.06195,37.20564],[-121.96584,37.13212],[-121.9205,37.09735],[-121.85373,37.04614],[-121.81091,37.01326],[-121.77171,36.98319],[-121.73941,36.95833],[-121.69369,36.92304],[-121.61893,36.86522],[-121.56336,36.82225],[-121.53335,36.79893],[-121.45512,36.73866]],"type":"LineString"}
}
