{
  "id": 2031115327,
  "type": "Feature",
  "properties": {
    "geom:area": 0,
    "geom:bbox": "-122.316667,33.922500,-118.670833,37.600000",
    "geom:latitude": 35.62416435462299,
    "geom:longitude": -120.71479370122132,
    "src:alt_label": "swim-path",
    "src:geom": "swim",
    "swim:altitudes": [
      "070",
      "070",
      "070",
      "070",
      "070",
      "100",
      "100",
      "100",
      "100",
      "100",
      "100",
      "100",
      "166",
      "166",
      "166",
      "166",
      "166",
      "166",
      "190",
      "190",
      "190",
      "214",
      "214",
      "214",
      "214",
      "214",
      "214",
      "214",
      "214",
      "317",
      "317",
      "317",
      "332",
      "332",
      "332",
      "332",
      "332",
      "346",
      "346",
      "346",
      "346",
      "346",
      "346",
      "360C",
      "360C",
      "360C",
      "360C",
      "360C",
      "360C",
      "360C",
      "360C",
      "360C",
      "360C",
      "360C",
      "360C",
      "360C",
      "360C",
      "360C",
      "360C",
      "360C",
      "360C",
      "360C",
      "360C",
      "360C",
      "360",
      "360",
      "360",
      "360",
      "360",
      "360",
      "360",
      "360",
      "360",
      "360",
      "360",
      "360",
      "337",
      "337",
      "337",
      "312",
      "312",
      "312",
      "312",
      "291",
      "291",
      "291",
      "291",
      "291",
      "269",
      "269",
      "269",
      "249",
      "249",
      "230",
      "230",
      "230",
      "230",
      "230",
      "212",
      "212",
      "212",
      "212",
      "177",
      "177",
      "157",
      "157",
      "155",
      "155",
      "155",
      "155",
      "155",
      "127",
      "127",
      "127",
      "127",
      "075",
      "075",
      "075",
      "075",
      "075",
      "075",
      "060",
      "060",
      "060",
      "060",
      "060",
      "059",
      "059",
      "059",
      "047",
      "047",
      "047",
      "047",
      "047",
      "031",
      "031",
      "031",
      "021",
      "021",
      "021",
      "015",
      "015",
      "014",
      "014",
      "008",
      "008",
      "008",
      "008",
      "008"
    ],
    "swim:geom": "path",
    "swim:speeds": [
      257,
      257,
      257,
      257,
      257,
      258,
      258,
      258,
      258,
      258,
      258,
      258,
      357,
      357,
      357,
      357,
      357,
      357,
      373,
      373,
      373,
      384,
      384,
      384,
      384,
      384,
      384,
      384,
      384,
      435,
      435,
      435,
      433,
      433,
      433,
      433,
      433,
      428,
      428,
      428,
      428,
      428,
      428,
      423,
      423,
      423,
      423,
      423,
      423,
      421,
      421,
      421,
      421,
      421,
      421,
      421,
      421,
      421,
      421,
      421,
      421,
      421,
      421,
      421,
      425,
      425,
      425,
      425,
      425,
      425,
      425,
      425,
      425,
      425,
      425,
      425,
      418,
      418,
      418,
      418,
      418,
      418,
      418,
      404,
      404,
      404,
      404,
      404,
      389,
      389,
      389,
      374,
      374,
      358,
      358,
      358,
      363,
      363,
      354,
      354,
      354,
      354,
      328,
      328,
      332,
      332,
      330,
      330,
      330,
      330,
      330,
      294,
      294,
      294,
      294,
      232,
      232,
      232,
      232,
      232,
      232,
      236,
      236,
      236,
      236,
      236,
      207,
      207,
      207,
      199,
      199,
      199,
      199,
      199,
      172,
      172,
      172,
      158,
      158,
      158,
      144,
      144,
      148,
      148,
      147,
      147,
      147,
      147,
      147
    ],
    "swim:timestamps": [
      1777239914,
      1777239914,
      1777239914,
      1777239914,
      1777239914,
      1777239974,
      1777239974,
      1777239974,
      1777239974,
      1777239974,
      1777239974,
      1777239974,
      1777240154,
      1777240154,
      1777240154,
      1777240154,
      1777240154,
      1777240154,
      1777240214,
      1777240214,
      1777240214,
      1777240274,
      1777240274,
      1777240274,
      1777240274,
      1777240274,
      1777240274,
      1777240274,
      1777240274,
      1777240632,
      1777240632,
      1777240632,
      1777240695,
      1777240695,
      1777240695,
      1777240695,
      1777240695,
      1777240755,
      1777240755,
      1777240755,
      1777240755,
      1777240755,
      1777240755,
      1777240875,
      1777240875,
      1777240875,
      1777240875,
      1777240875,
      1777240875,
      1777240993,
      1777240993,
      1777240993,
      1777240993,
      1777240993,
      1777240993,
      1777240993,
      1777241116,
      1777241116,
      1777241116,
      1777241116,
      1777241116,
      1777241116,
      1777241116,
      1777241116,
      1777241416,
      1777241416,
      1777241416,
      1777241416,
      1777241416,
      1777241416,
      1777241476,
      1777241476,
      1777241476,
      1777241476,
      1777241476,
      1777241476,
      1777241593,
      1777241593,
      1777241593,
      1777241654,
      1777241654,
      1777241654,
      1777241654,
      1777241714,
      1777241714,
      1777241714,
      1777241714,
      1777241714,
      1777241774,
      1777241774,
      1777241774,
      1777241834,
      1777241834,
      1777241886,
      1777241886,
      1777241886,
      1777241894,
      1777241894,
      1777241954,
      1777241954,
      1777241954,
      1777241954,
      1777242060,
      1777242060,
      1777242126,
      1777242126,
      1777242134,
      1777242134,
      1777242134,
      1777242134,
      1777242134,
      1777242254,
      1777242254,
      1777242254,
      1777242254,
      1777242495,
      1777242495,
      1777242495,
      1777242495,
      1777242495,
      1777242495,
      1777242607,
      1777242607,
      1777242607,
      1777242607,
      1777242607,
      1777242675,
      1777242675,
      1777242675,
      1777242735,
      1777242735,
      1777242735,
      1777242735,
      1777242735,
      1777242907,
      1777242907,
      1777242907,
      1777242975,
      1777242975,
      1777242975,
      1777243021,
      1777243021,
      1777243036,
      1777243036,
      1777243081,
      1777243081,
      1777243081,
      1777243081,
      1777243081
    ],
    "wof:geomhash": "4d42e1d5782dfcf96b5602afb965beb7",
    "wof:id": 2031115327,
    "wof:repo": "sfomuseum-data-flights-2026-04"
  },
  "bbox": [
    -122.31666666666666,
    33.9225,
    -118.67083333333333,
    37.6
  ],
  "geometry": {"coordinates":[[-118.67083333333333,33.92944444444444],[-118.67083333333333,33.92944444444444],[-118.67083333333333,33.92944444444444],[-118.67083333333333,33.92944444444444],[-118.67083333333333,33.92944444444444],[-118.75666666666666,33.9225],[-118.75666666666666,33.9225],[-118.75666666666666,33.9225],[-118.75666666666666,33.9225],[-118.75666666666666,33.9225],[-118.75666666666666,33.9225],[-118.75666666666666,33.9225],[-119.0586111111111,33.967222222222226],[-119.0586111111111,33.967222222222226],[-119.0586111111111,33.967222222222226],[-119.0586111111111,33.967222222222226],[-119.0586111111111,33.967222222222226],[-119.0586111111111,33.967222222222226],[-119.13666666666667,34.04722222222222],[-119.13666666666667,34.04722222222222],[-119.13666666666667,34.04722222222222],[-119.22305555555556,34.128055555555555],[-119.22305555555556,34.128055555555555],[-119.22305555555556,34.128055555555555],[-119.22305555555556,34.128055555555555],[-119.22305555555556,34.128055555555555],[-119.22305555555556,34.128055555555555],[-119.22305555555556,34.128055555555555],[-119.22305555555556,34.128055555555555],[-119.795,34.65861111111111],[-119.795,34.65861111111111],[-119.795,34.65861111111111],[-119.88833333333334,34.74444444444445],[-119.88833333333334,34.74444444444445],[-119.88833333333334,34.74444444444445],[-119.88833333333334,34.74444444444445],[-119.88833333333334,34.74444444444445],[-119.98555555555555,34.83361111111111],[-119.98555555555555,34.83361111111111],[-119.98555555555555,34.83361111111111],[-119.98555555555555,34.83361111111111],[-119.98555555555555,34.83361111111111],[-119.98555555555555,34.83361111111111],[-120.17527777777778,35.00694444444444],[-120.17527777777778,35.00694444444444],[-120.17527777777778,35.00694444444444],[-120.17527777777778,35.00694444444444],[-120.17527777777778,35.00694444444444],[-120.17527777777778,35.00694444444444],[-120.35138888888888,35.16638888888889],[-120.35138888888888,35.16638888888889],[-120.35138888888888,35.16638888888889],[-120.35138888888888,35.16638888888889],[-120.35138888888888,35.16638888888889],[-120.35138888888888,35.16638888888889],[-120.35138888888888,35.16638888888889],[-120.55916666666667,35.35388888888889],[-120.55916666666667,35.35388888888889],[-120.55916666666667,35.35388888888889],[-120.55916666666667,35.35388888888889],[-120.55916666666667,35.35388888888889],[-120.55916666666667,35.35388888888889],[-120.55916666666667,35.35388888888889],[-120.55916666666667,35.35388888888889],[-121.03999999999999,35.809999999999995],[-121.03999999999999,35.809999999999995],[-121.03999999999999,35.809999999999995],[-121.03999999999999,35.809999999999995],[-121.03999999999999,35.809999999999995],[-121.03999999999999,35.809999999999995],[-121.1286111111111,35.903055555555554],[-121.1286111111111,35.903055555555554],[-121.1286111111111,35.903055555555554],[-121.1286111111111,35.903055555555554],[-121.1286111111111,35.903055555555554],[-121.1286111111111,35.903055555555554],[-121.28999999999999,36.072500000000005],[-121.28999999999999,36.072500000000005],[-121.28999999999999,36.072500000000005],[-121.37777777777777,36.163888888888884],[-121.37777777777777,36.163888888888884],[-121.37777777777777,36.163888888888884],[-121.37777777777777,36.163888888888884],[-121.46305555555556,36.2525],[-121.46305555555556,36.2525],[-121.46305555555556,36.2525],[-121.46305555555556,36.2525],[-121.46305555555556,36.2525],[-121.54888888888888,36.34111111111111],[-121.54888888888888,36.34111111111111],[-121.54888888888888,36.34111111111111],[-121.6286111111111,36.42305555555555],[-121.6286111111111,36.42305555555555],[-121.7,36.5],[-121.7,36.5],[-121.7,36.5],[-121.7025,36.49944444444444],[-121.7025,36.49944444444444],[-121.7675,36.581944444444446],[-121.7675,36.581944444444446],[-121.7675,36.581944444444446],[-121.7675,36.581944444444446],[-121.88333333333334,36.733333333333334],[-121.88333333333334,36.733333333333334],[-121.91666666666667,36.833333333333336],[-121.91666666666667,36.833333333333336],[-121.92,36.83361111111111],[-121.92,36.83361111111111],[-121.92,36.83361111111111],[-121.92,36.83361111111111],[-121.92,36.83361111111111],[-121.97166666666666,37.000277777777775],[-121.97166666666666,37.000277777777775],[-121.97166666666666,37.000277777777775],[-121.97166666666666,37.000277777777775],[-122.1375,37.26305555555555],[-122.1375,37.26305555555555],[-122.1375,37.26305555555555],[-122.1375,37.26305555555555],[-122.1375,37.26305555555555],[-122.1375,37.26305555555555],[-122.2,37.36666666666667],[-122.2,37.36666666666667],[-122.2,37.36666666666667],[-122.2,37.36666666666667],[-122.2,37.36666666666667],[-122.13611111111112,37.39666666666667],[-122.13611111111112,37.39666666666667],[-122.13611111111112,37.39666666666667],[-122.07916666666667,37.421388888888885],[-122.07916666666667,37.421388888888885],[-122.07916666666667,37.421388888888885],[-122.07916666666667,37.421388888888885],[-122.07916666666667,37.421388888888885],[-122.18333333333334,37.53333333333333],[-122.18333333333334,37.53333333333333],[-122.18333333333334,37.53333333333333],[-122.2325,37.558611111111105],[-122.2325,37.558611111111105],[-122.2325,37.558611111111105],[-122.26666666666667,37.583333333333336],[-122.26666666666667,37.583333333333336],[-122.27638888888889,37.577222222222225],[-122.27638888888889,37.577222222222225],[-122.31666666666666,37.6],[-122.31666666666666,37.6],[-122.31666666666666,37.6],[-122.31666666666666,37.6],[-122.31666666666666,37.6]],"type":"LineString"}
}
