{
  "id": 2031129827,
  "type": "Feature",
  "properties": {
    "geom:area": 0,
    "geom:bbox": "-122.538333,32.516389,-116.929722,37.634167",
    "geom:latitude": 34.95017994638584,
    "geom:longitude": -120.02765736730711,
    "src:alt_label": "swim-path",
    "src:geom": "swim",
    "swim:altitudes": [
      "006",
      "006",
      "006",
      "006",
      "006",
      "017",
      "113",
      "113",
      "113",
      "113",
      "113",
      "113",
      "143",
      "175",
      "175",
      "175",
      "175",
      "175",
      "222",
      "222",
      "222",
      "222",
      "222",
      "222",
      "222",
      "287",
      "287",
      "287",
      "287",
      "287",
      "287",
      "287",
      "370",
      "370",
      "370",
      "381",
      "381",
      "381",
      "390C",
      "390C",
      "390C",
      "390C",
      "390C",
      "390C",
      "390C",
      "390C",
      "390C",
      "390C",
      "390C",
      "390C",
      "390C",
      "390C",
      "390C",
      "390C",
      "390C",
      "390C",
      "390C",
      "390C",
      "390C",
      "390C",
      "390C",
      "390C",
      "390C",
      "390C",
      "390C",
      "390C",
      "390C",
      "390C",
      "390C",
      "390C",
      "390C",
      "390C",
      "390C",
      "390C",
      "390C",
      "390C",
      "390C",
      "390C",
      "390C",
      "390C",
      "390C",
      "390C",
      "390C",
      "390C",
      "390C",
      "390C",
      "390C",
      "390C",
      "390C",
      "390C",
      "390C",
      "390C",
      "390C",
      "390C",
      "390C",
      "390C",
      "390C",
      "390C",
      "390C",
      "390C",
      "390C",
      "390C",
      "390C",
      "390C",
      "390C",
      "390C",
      "390C",
      "390C",
      "390C",
      "390C",
      "390C",
      "390C"
    ],
    "swim:geom": "path",
    "swim:speeds": [
      171,
      171,
      171,
      171,
      171,
      169,
      313,
      313,
      313,
      313,
      313,
      313,
      360,
      377,
      377,
      377,
      377,
      377,
      431,
      431,
      431,
      431,
      431,
      431,
      431,
      471,
      471,
      471,
      471,
      471,
      471,
      471,
      492,
      492,
      492,
      486,
      486,
      486,
      485,
      485,
      485,
      485,
      486,
      486,
      486,
      486,
      490,
      490,
      490,
      490,
      489,
      489,
      489,
      489,
      489,
      489,
      489,
      489,
      489,
      489,
      488,
      488,
      488,
      487,
      487,
      487,
      486,
      486,
      486,
      486,
      486,
      486,
      489,
      489,
      489,
      489,
      489,
      489,
      488,
      488,
      488,
      488,
      488,
      488,
      482,
      482,
      482,
      482,
      482,
      478,
      478,
      478,
      478,
      476,
      476,
      476,
      476,
      476,
      476,
      476,
      476,
      476,
      478,
      478,
      478,
      480,
      480,
      481,
      481,
      481,
      481,
      481
    ],
    "swim:timestamps": [
      1777307099,
      1777307099,
      1777307099,
      1777307099,
      1777307099,
      1777307131,
      1777307312,
      1777307312,
      1777307312,
      1777307312,
      1777307312,
      1777307312,
      1777307372,
      1777307432,
      1777307432,
      1777307432,
      1777307432,
      1777307432,
      1777307552,
      1777307552,
      1777307552,
      1777307552,
      1777307552,
      1777307552,
      1777307552,
      1777307732,
      1777307732,
      1777307732,
      1777307732,
      1777307732,
      1777307732,
      1777307732,
      1777308033,
      1777308033,
      1777308033,
      1777308093,
      1777308093,
      1777308093,
      1777308153,
      1777308153,
      1777308153,
      1777308153,
      1777308213,
      1777308213,
      1777308213,
      1777308213,
      1777308333,
      1777308333,
      1777308333,
      1777308333,
      1777308393,
      1777308393,
      1777308393,
      1777308393,
      1777308393,
      1777308638,
      1777308638,
      1777308638,
      1777308638,
      1777308638,
      1777308754,
      1777308754,
      1777308754,
      1777308814,
      1777308814,
      1777308814,
      1777308874,
      1777308874,
      1777308874,
      1777308874,
      1777308874,
      1777308874,
      1777309239,
      1777309239,
      1777309239,
      1777309239,
      1777309239,
      1777309239,
      1777309359,
      1777309359,
      1777309359,
      1777309359,
      1777309359,
      1777309359,
      1777309780,
      1777309780,
      1777309780,
      1777309780,
      1777309780,
      1777309900,
      1777309900,
      1777309900,
      1777309900,
      1777310020,
      1777310020,
      1777310020,
      1777310020,
      1777310140,
      1777310140,
      1777310140,
      1777310140,
      1777310140,
      1777310320,
      1777310320,
      1777310320,
      1777310380,
      1777310380,
      1777310501,
      1777310501,
      1777310501,
      1777310501,
      1777310501
    ],
    "wof:geomhash": "967ae594b2145d6f3cfd7eb183071616",
    "wof:id": 2031129827,
    "wof:repo": "sfomuseum-data-flights-2026-04"
  },
  "bbox": [
    -122.53833333333333,
    32.51638888888889,
    -116.92972222222222,
    37.634166666666665
  ],
  "geometry": {"coordinates":[[-122.38333333333334,37.63333333333333],[-122.38333333333334,37.63333333333333],[-122.38333333333334,37.63333333333333],[-122.38333333333334,37.63333333333333],[-122.38333333333334,37.63333333333333],[-122.40666666666667,37.634166666666665],[-122.51583333333333,37.56583333333333],[-122.51583333333333,37.56583333333333],[-122.51583333333333,37.56583333333333],[-122.51583333333333,37.56583333333333],[-122.51583333333333,37.56583333333333],[-122.51583333333333,37.56583333333333],[-122.47805555555556,37.474722222222226],[-122.4961111111111,37.370555555555555],[-122.4961111111111,37.370555555555555],[-122.4961111111111,37.370555555555555],[-122.4961111111111,37.370555555555555],[-122.4961111111111,37.370555555555555],[-122.53833333333333,37.144444444444446],[-122.53833333333333,37.144444444444446],[-122.53833333333333,37.144444444444446],[-122.53833333333333,37.144444444444446],[-122.53833333333333,37.144444444444446],[-122.53833333333333,37.144444444444446],[-122.53833333333333,37.144444444444446],[-122.40611111111112,36.79388888888889],[-122.40611111111112,36.79388888888889],[-122.40611111111112,36.79388888888889],[-122.40611111111112,36.79388888888889],[-122.40611111111112,36.79388888888889],[-122.40611111111112,36.79388888888889],[-122.40611111111112,36.79388888888889],[-121.86222222222221,36.28194444444444],[-121.86222222222221,36.28194444444444],[-121.86222222222221,36.28194444444444],[-121.73944444444444,36.16444444444444],[-121.73944444444444,36.16444444444444],[-121.73944444444444,36.16444444444444],[-121.63111111111111,36.06083333333333],[-121.63111111111111,36.06083333333333],[-121.63111111111111,36.06083333333333],[-121.63111111111111,36.06083333333333],[-121.52111111111111,35.95916666666667],[-121.52111111111111,35.95916666666667],[-121.52111111111111,35.95916666666667],[-121.52111111111111,35.95916666666667],[-121.26888888888888,35.7825],[-121.26888888888888,35.7825],[-121.26888888888888,35.7825],[-121.26888888888888,35.7825],[-121.1413888888889,35.69305555555555],[-121.1413888888889,35.69305555555555],[-121.1413888888889,35.69305555555555],[-121.1413888888889,35.69305555555555],[-121.1413888888889,35.69305555555555],[-120.6363888888889,35.33166666666667],[-120.6363888888889,35.33166666666667],[-120.6363888888889,35.33166666666667],[-120.6363888888889,35.33166666666667],[-120.6363888888889,35.33166666666667],[-120.39944444444446,35.161944444444444],[-120.39944444444446,35.161944444444444],[-120.39944444444446,35.161944444444444],[-120.27805555555555,35.07361111111111],[-120.27805555555555,35.07361111111111],[-120.27805555555555,35.07361111111111],[-120.15583333333333,34.984722222222224],[-120.15583333333333,34.984722222222224],[-120.15583333333333,34.984722222222224],[-120.15583333333333,34.984722222222224],[-120.15583333333333,34.984722222222224],[-120.15583333333333,34.984722222222224],[-119.40972222222223,34.43527777777778],[-119.40972222222223,34.43527777777778],[-119.40972222222223,34.43527777777778],[-119.40972222222223,34.43527777777778],[-119.40972222222223,34.43527777777778],[-119.40972222222223,34.43527777777778],[-119.16722222222222,34.254444444444445],[-119.16722222222222,34.254444444444445],[-119.16722222222222,34.254444444444445],[-119.16722222222222,34.254444444444445],[-119.16722222222222,34.254444444444445],[-119.16722222222222,34.254444444444445],[-118.3175,33.60916666666667],[-118.3175,33.60916666666667],[-118.3175,33.60916666666667],[-118.3175,33.60916666666667],[-118.3175,33.60916666666667],[-118.08555555555554,33.43],[-118.08555555555554,33.43],[-118.08555555555554,33.43],[-118.08555555555554,33.43],[-117.85333333333332,33.250277777777775],[-117.85333333333332,33.250277777777775],[-117.85333333333332,33.250277777777775],[-117.85333333333332,33.250277777777775],[-117.62333333333332,33.07055555555556],[-117.62333333333332,33.07055555555556],[-117.62333333333332,33.07055555555556],[-117.62333333333332,33.07055555555556],[-117.62333333333332,33.07055555555556],[-117.2775,32.79861111111111],[-117.2775,32.79861111111111],[-117.2775,32.79861111111111],[-117.15527777777778,32.70138888888889],[-117.15527777777778,32.70138888888889],[-116.92972222222222,32.51638888888889],[-116.92972222222222,32.51638888888889],[-116.92972222222222,32.51638888888889],[-116.92972222222222,32.51638888888889],[-116.92972222222222,32.51638888888889]],"type":"LineString"}
}
