{
  "id": 2031146159,
  "type": "Feature",
  "properties": {
    "geom:area": 0,
    "geom:bbox": "-122.526389,37.633056,-103.247778,48.448056",
    "geom:latitude": 42.911776770933166,
    "geom:longitude": -112.88586125864592,
    "src:alt_label": "swim-path",
    "src:geom": "swim",
    "swim:altitudes": [
      "011",
      "011",
      "030",
      "030",
      "030",
      "030",
      "030",
      "042",
      "042",
      "042",
      "085",
      "085",
      "085",
      "085",
      "096",
      "096",
      "096",
      "113",
      "113",
      "113",
      "113",
      "113",
      "113",
      "171",
      "171",
      "171",
      "171",
      "171",
      "190",
      "190",
      "190",
      "190",
      "206",
      "206",
      "218",
      "218",
      "218",
      "218",
      "243",
      "243",
      "243",
      "243",
      "243",
      "243",
      "253",
      "253",
      "253",
      "264",
      "264",
      "276",
      "276",
      "276",
      "276",
      "276",
      "286",
      "286",
      "286",
      "292",
      "292",
      "295",
      "295",
      "295",
      "300",
      "300",
      "300",
      "311C",
      "311C",
      "313",
      "313",
      "313",
      "312C",
      "310C",
      "310C",
      "310C",
      "310C",
      "310C",
      "310C",
      "310C",
      "310C",
      "310C",
      "310C",
      "310C",
      "310C",
      "310C",
      "310C",
      "310C",
      "310C",
      "310C",
      "310C",
      "310C",
      "310C",
      "310C",
      "310C",
      "310C",
      "310C",
      "310C",
      "310C",
      "310C",
      "310C",
      "310C",
      "310C",
      "310C",
      "310C",
      "310C",
      "310C",
      "310C",
      "310C",
      "310C",
      "310C",
      "310C",
      "310C",
      "310C",
      "310C",
      "310C",
      "310C",
      "310C",
      "310C",
      "310C",
      "310C",
      "310C",
      "310C",
      "310C",
      "310C",
      "310C",
      "310C",
      "310C",
      "310C",
      "310C",
      "310C",
      "310C",
      "310C",
      "310C",
      "310C",
      "310C",
      "310C",
      "310C",
      "310C",
      "310C",
      "310C",
      "310C",
      "310C",
      "310C",
      "310C",
      "310C",
      "310C",
      "310C",
      "310C",
      "310C",
      "310C",
      "310C",
      "310C",
      "310C",
      "310C",
      "310C",
      "310C",
      "310C",
      "310C",
      "310C",
      "310C",
      "310C",
      "310C",
      "310C",
      "310C",
      "310C",
      "310C",
      "310C",
      "310C",
      "310C",
      "310C",
      "310C",
      "310C",
      "310C",
      "310C",
      "310C",
      "310C",
      "310C",
      "310C",
      "310C",
      "310C",
      "310C",
      "310C",
      "310C",
      "310C",
      "310C",
      "310C",
      "310C",
      "310C",
      "310C",
      "310C",
      "310C",
      "310C",
      "310C",
      "310C",
      "310C",
      "310C",
      "310C",
      "310C",
      "310C",
      "310C",
      "310C",
      "310C",
      "310C",
      "310C",
      "310C",
      "310C",
      "310C",
      "310C",
      "310C",
      "310C",
      "310C",
      "310C",
      "310C",
      "310C",
      "310C",
      "310C",
      "310C",
      "310C",
      "310C",
      "310C",
      "310C",
      "310C",
      "310C",
      "310C",
      "310C",
      "310C",
      "310C",
      "310C",
      "310C",
      "310C",
      "310C",
      "310C",
      "310C",
      "310C",
      "310C",
      "310C",
      "310C",
      "310C",
      "310C",
      "310C",
      "310C",
      "310C",
      "310C",
      "310C",
      "310C",
      "310C",
      "310C",
      "310C",
      "310C",
      "310C",
      "310C",
      "310C",
      "310C",
      "310C",
      "310C",
      "310C",
      "310C",
      "310C",
      "310C",
      "310C",
      "310C",
      "310C",
      "310C",
      "310C",
      "310C",
      "310C",
      "310C",
      "310C",
      "310C",
      "310C",
      "310C",
      "310C",
      "310C",
      "310C",
      "310C",
      "310C",
      "310C",
      "310C",
      "310C",
      "310C",
      "310C",
      "310C",
      "310C",
      "310C",
      "310C",
      "310C",
      "310C",
      "310C",
      "310C",
      "310C",
      "310C",
      "310C",
      "310C",
      "310C",
      "310C",
      "310C",
      "310C",
      "310C",
      "310C",
      "310C",
      "310C",
      "310C",
      "310C",
      "310C",
      "310C",
      "310C",
      "310C",
      "310C",
      "310C",
      "310C",
      "310C",
      "310C",
      "310C",
      "310C",
      "310C",
      "310C",
      "310C",
      "310C",
      "310C",
      "310C",
      "310C",
      "310C",
      "310C",
      "310C",
      "310C",
      "310C",
      "310C",
      "310C",
      "310C",
      "310C",
      "310C",
      "310C",
      "310C",
      "310C",
      "310C",
      "310C",
      "310C",
      "310C",
      "310C",
      "310C",
      "310C",
      "310C",
      "310C",
      "310C",
      "310C",
      "310C",
      "310C",
      "310C",
      "310C",
      "310C",
      "310C"
    ],
    "swim:geom": "path",
    "swim:speeds": [
      170,
      170,
      191,
      191,
      191,
      191,
      191,
      239,
      239,
      239,
      275,
      275,
      275,
      275,
      291,
      291,
      291,
      347,
      347,
      347,
      347,
      347,
      347,
      406,
      406,
      406,
      406,
      406,
      404,
      404,
      404,
      404,
      404,
      404,
      416,
      416,
      416,
      416,
      441,
      441,
      441,
      441,
      441,
      441,
      455,
      455,
      455,
      466,
      466,
      471,
      471,
      471,
      471,
      471,
      475,
      475,
      475,
      476,
      476,
      481,
      481,
      481,
      479,
      479,
      479,
      487,
      487,
      488,
      488,
      488,
      487,
      491,
      491,
      491,
      491,
      488,
      488,
      485,
      485,
      485,
      485,
      485,
      485,
      486,
      486,
      485,
      485,
      485,
      486,
      486,
      486,
      486,
      486,
      486,
      486,
      486,
      487,
      487,
      487,
      487,
      485,
      485,
      485,
      484,
      484,
      484,
      483,
      482,
      482,
      482,
      482,
      482,
      482,
      482,
      482,
      483,
      484,
      484,
      484,
      484,
      484,
      483,
      483,
      483,
      483,
      483,
      482,
      482,
      482,
      482,
      482,
      482,
      484,
      484,
      484,
      484,
      484,
      485,
      485,
      485,
      485,
      485,
      485,
      485,
      490,
      490,
      490,
      490,
      494,
      494,
      494,
      494,
      495,
      495,
      495,
      495,
      495,
      495,
      495,
      495,
      495,
      495,
      495,
      495,
      496,
      496,
      496,
      496,
      497,
      497,
      497,
      497,
      499,
      499,
      501,
      501,
      501,
      501,
      502,
      502,
      502,
      502,
      502,
      504,
      504,
      504,
      504,
      507,
      507,
      507,
      511,
      511,
      511,
      512,
      512,
      512,
      512,
      512,
      512,
      512,
      512,
      512,
      512,
      511,
      511,
      511,
      511,
      510,
      510,
      510,
      510,
      510,
      510,
      511,
      511,
      511,
      511,
      511,
      511,
      511,
      511,
      511,
      511,
      511,
      511,
      511,
      514,
      514,
      514,
      514,
      514,
      515,
      515,
      515,
      516,
      516,
      516,
      516,
      516,
      516,
      516,
      516,
      516,
      516,
      516,
      516,
      515,
      515,
      515,
      515,
      515,
      515,
      515,
      515,
      516,
      516,
      516,
      516,
      516,
      516,
      516,
      516,
      516,
      516,
      516,
      516,
      514,
      514,
      514,
      514,
      514,
      514,
      514,
      514,
      514,
      514,
      512,
      512,
      512,
      511,
      511,
      511,
      510,
      510,
      510,
      510,
      510,
      506,
      506,
      506,
      506,
      503,
      503,
      503,
      501,
      501,
      501,
      501,
      501,
      501,
      500,
      500,
      500,
      491,
      491,
      491,
      491,
      491,
      491,
      491,
      482,
      482,
      482,
      482,
      482,
      482,
      482,
      481,
      481,
      481,
      481,
      484,
      484,
      484,
      484,
      484,
      484,
      484,
      484,
      484,
      485,
      485,
      485,
      485,
      485,
      485,
      483,
      482,
      482,
      482,
      481,
      481,
      479,
      478,
      478,
      479,
      479,
      479,
      479,
      479
    ],
    "swim:timestamps": [
      1777499406,
      1777499406,
      1777499466,
      1777499466,
      1777499466,
      1777499466,
      1777499466,
      1777499526,
      1777499526,
      1777499526,
      1777499646,
      1777499646,
      1777499646,
      1777499646,
      1777499671,
      1777499671,
      1777499671,
      1777499766,
      1777499766,
      1777499766,
      1777499766,
      1777499766,
      1777499766,
      1777499946,
      1777499946,
      1777499946,
      1777499946,
      1777499946,
      1777500006,
      1777500006,
      1777500006,
      1777500006,
      1777500066,
      1777500066,
      1777500126,
      1777500126,
      1777500126,
      1777500126,
      1777500247,
      1777500247,
      1777500247,
      1777500247,
      1777500247,
      1777500247,
      1777500307,
      1777500307,
      1777500307,
      1777500367,
      1777500367,
      1777500427,
      1777500427,
      1777500427,
      1777500427,
      1777500427,
      1777500487,
      1777500487,
      1777500487,
      1777500533,
      1777500533,
      1777500547,
      1777500547,
      1777500547,
      1777500593,
      1777500593,
      1777500593,
      1777500654,
      1777500654,
      1777500667,
      1777500667,
      1777500667,
      1777500714,
      1777500727,
      1777500727,
      1777500727,
      1777500727,
      1777500834,
      1777500834,
      1777500847,
      1777500847,
      1777500968,
      1777500968,
      1777500968,
      1777500968,
      1777501014,
      1777501014,
      1777501028,
      1777501028,
      1777501028,
      1777501074,
      1777501074,
      1777501074,
      1777501074,
      1777501074,
      1777501134,
      1777501134,
      1777501134,
      1777501254,
      1777501254,
      1777501254,
      1777501254,
      1777501268,
      1777501314,
      1777501314,
      1777501328,
      1777501328,
      1777501328,
      1777501375,
      1777501388,
      1777501388,
      1777501388,
      1777501388,
      1777501448,
      1777501448,
      1777501448,
      1777501448,
      1777501495,
      1777501555,
      1777501568,
      1777501568,
      1777501615,
      1777501615,
      1777501689,
      1777501689,
      1777501689,
      1777501689,
      1777501689,
      1777501735,
      1777501735,
      1777501809,
      1777501809,
      1777501809,
      1777501809,
      1777501915,
      1777501929,
      1777501929,
      1777501929,
      1777501929,
      1777501975,
      1777501975,
      1777501975,
      1777501989,
      1777501989,
      1777501989,
      1777501989,
      1777502095,
      1777502095,
      1777502095,
      1777502095,
      1777502276,
      1777502276,
      1777502276,
      1777502276,
      1777502336,
      1777502336,
      1777502336,
      1777502336,
      1777502336,
      1777502396,
      1777502396,
      1777502396,
      1777502516,
      1777502516,
      1777502516,
      1777502516,
      1777502576,
      1777502576,
      1777502576,
      1777502576,
      1777502696,
      1777502696,
      1777502696,
      1777502696,
      1777502816,
      1777502816,
      1777502997,
      1777502997,
      1777502997,
      1777502997,
      1777503057,
      1777503057,
      1777503057,
      1777503057,
      1777503057,
      1777503117,
      1777503117,
      1777503117,
      1777503117,
      1777503177,
      1777503177,
      1777503177,
      1777503237,
      1777503237,
      1777503237,
      1777503297,
      1777503297,
      1777503297,
      1777503297,
      1777503357,
      1777503357,
      1777503357,
      1777503417,
      1777503417,
      1777503417,
      1777503477,
      1777503477,
      1777503477,
      1777503477,
      1777503537,
      1777503537,
      1777503537,
      1777503537,
      1777503537,
      1777503537,
      1777503718,
      1777503718,
      1777503718,
      1777503718,
      1777503718,
      1777503718,
      1777503718,
      1777503838,
      1777503838,
      1777503838,
      1777503838,
      1777503838,
      1777503838,
      1777504078,
      1777504078,
      1777504078,
      1777504078,
      1777504078,
      1777504138,
      1777504138,
      1777504138,
      1777504198,
      1777504198,
      1777504198,
      1777504198,
      1777504198,
      1777504198,
      1777504499,
      1777504499,
      1777504499,
      1777504499,
      1777504499,
      1777504499,
      1777504619,
      1777504619,
      1777504619,
      1777504619,
      1777504619,
      1777504619,
      1777504679,
      1777504679,
      1777504859,
      1777504859,
      1777504859,
      1777504859,
      1777504859,
      1777505039,
      1777505039,
      1777505039,
      1777505039,
      1777505039,
      1777505039,
      1777505039,
      1777505400,
      1777505400,
      1777505400,
      1777505400,
      1777505400,
      1777505460,
      1777505460,
      1777505460,
      1777505460,
      1777505460,
      1777505580,
      1777505580,
      1777505580,
      1777505640,
      1777505640,
      1777505640,
      1777505700,
      1777505700,
      1777505700,
      1777505700,
      1777505700,
      1777505821,
      1777505821,
      1777505821,
      1777505821,
      1777505941,
      1777505941,
      1777505941,
      1777506001,
      1777506001,
      1777506001,
      1777506001,
      1777506001,
      1777506001,
      1777506181,
      1777506181,
      1777506181,
      1777506301,
      1777506301,
      1777506301,
      1777506301,
      1777506301,
      1777506301,
      1777506301,
      1777506662,
      1777506662,
      1777506662,
      1777506662,
      1777506662,
      1777506662,
      1777506662,
      1777506854,
      1777506854,
      1777506854,
      1777506854,
      1777506949,
      1777506949,
      1777506949,
      1777506949,
      1777507009,
      1777507034,
      1777507034,
      1777507034,
      1777507034,
      1777507069,
      1777507069,
      1777507069,
      1777507129,
      1777507129,
      1777507129,
      1777507214,
      1777507274,
      1777507274,
      1777507274,
      1777507335,
      1777507335,
      1777507395,
      1777507455,
      1777507455,
      1777507490,
      1777507490,
      1777507490,
      1777507490,
      1777507490
    ],
    "wof:geomhash": "360c1fe078e6eb73ab02cc106eea4363",
    "wof:id": 2031146159,
    "wof:repo": "sfomuseum-data-flights-2026-04"
  },
  "bbox": [
    -122.52638888888889,
    37.63305555555556,
    -103.24777777777778,
    48.448055555555555
  ],
  "geometry": {"coordinates":[[-122.40861111111111,37.63305555555556],[-122.40861111111111,37.63305555555556],[-122.46777777777778,37.658055555555556],[-122.46777777777778,37.658055555555556],[-122.46777777777778,37.658055555555556],[-122.46777777777778,37.658055555555556],[-122.46777777777778,37.658055555555556],[-122.52638888888889,37.69499999999999],[-122.52638888888889,37.69499999999999],[-122.52638888888889,37.69499999999999],[-122.48222222222222,37.83166666666667],[-122.48222222222222,37.83166666666667],[-122.48222222222222,37.83166666666667],[-122.48222222222222,37.83166666666667],[-122.45,37.86666666666667],[-122.45,37.86666666666667],[-122.45,37.86666666666667],[-122.31722222222221,37.94222222222222],[-122.31722222222221,37.94222222222222],[-122.31722222222221,37.94222222222222],[-122.31722222222221,37.94222222222222],[-122.31722222222221,37.94222222222222],[-122.31722222222221,37.94222222222222],[-122.00305555555556,38.149166666666666],[-122.00305555555556,38.149166666666666],[-122.00305555555556,38.149166666666666],[-122.00305555555556,38.149166666666666],[-122.00305555555556,38.149166666666666],[-121.8938888888889,38.220555555555556],[-121.8938888888889,38.220555555555556],[-121.8938888888889,38.220555555555556],[-121.8938888888889,38.220555555555556],[-121.78805555555556,38.29],[-121.78805555555556,38.29],[-121.67444444444445,38.36388888888889],[-121.67444444444445,38.36388888888889],[-121.67444444444445,38.36388888888889],[-121.67444444444445,38.36388888888889],[-121.43166666666667,38.51444444444444],[-121.43166666666667,38.51444444444444],[-121.43166666666667,38.51444444444444],[-121.43166666666667,38.51444444444444],[-121.43166666666667,38.51444444444444],[-121.43166666666667,38.51444444444444],[-121.29666666666667,38.593333333333334],[-121.29666666666667,38.593333333333334],[-121.29666666666667,38.593333333333334],[-121.1588888888889,38.67388888888889],[-121.1588888888889,38.67388888888889],[-121.02527777777777,38.75194444444445],[-121.02527777777777,38.75194444444445],[-121.02527777777777,38.75194444444445],[-121.02527777777777,38.75194444444445],[-121.02527777777777,38.75194444444445],[-120.88916666666667,38.83111111111111],[-120.88916666666667,38.83111111111111],[-120.88916666666667,38.83111111111111],[-120.80194444444444,38.87972222222222],[-120.80194444444444,38.87972222222222],[-120.74916666666667,38.911944444444444],[-120.74916666666667,38.911944444444444],[-120.74916666666667,38.911944444444444],[-120.66305555555556,38.96027777777778],[-120.66305555555556,38.96027777777778],[-120.66305555555556,38.96027777777778],[-120.5213888888889,39.04055555555556],[-120.5213888888889,39.04055555555556],[-120.46888888888888,39.07277777777778],[-120.46888888888888,39.07277777777778],[-120.46888888888888,39.07277777777778],[-120.38027777777778,39.12111111111111],[-120.32694444444444,39.15361111111111],[-120.32694444444444,39.15361111111111],[-120.32694444444444,39.15361111111111],[-120.32694444444444,39.15361111111111],[-120.09916666666666,39.280277777777776],[-120.09916666666666,39.280277777777776],[-120.04194444444444,39.315],[-120.04194444444444,39.315],[-119.76027777777777,39.473055555555554],[-119.76027777777777,39.473055555555554],[-119.76027777777777,39.473055555555554],[-119.76027777777777,39.473055555555554],[-119.6763888888889,39.51861111111111],[-119.6763888888889,39.51861111111111],[-119.61611111111111,39.55361111111111],[-119.61611111111111,39.55361111111111],[-119.61611111111111,39.55361111111111],[-119.535,39.59777777777778],[-119.535,39.59777777777778],[-119.535,39.59777777777778],[-119.535,39.59777777777778],[-119.535,39.59777777777778],[-119.3913888888889,39.677499999999995],[-119.3913888888889,39.677499999999995],[-119.3913888888889,39.677499999999995],[-119.10499999999999,39.83722222222222],[-119.10499999999999,39.83722222222222],[-119.10499999999999,39.83722222222222],[-119.10499999999999,39.83722222222222],[-119.07388888888889,39.85444444444445],[-118.96138888888889,39.91611111111111],[-118.96138888888889,39.91611111111111],[-118.93138888888889,39.9325],[-118.93138888888889,39.9325],[-118.93138888888889,39.9325],[-118.81944444444444,39.993611111111115],[-118.78916666666666,40.01027777777778],[-118.78916666666666,40.01027777777778],[-118.78916666666666,40.01027777777778],[-118.78916666666666,40.01027777777778],[-118.64666666666668,40.08777777777778],[-118.64666666666668,40.08777777777778],[-118.64666666666668,40.08777777777778],[-118.64666666666668,40.08777777777778],[-118.53083333333333,40.145833333333336],[-118.37805555555555,40.21333333333334],[-118.34527777777777,40.22777777777778],[-118.34527777777777,40.22777777777778],[-118.22500000000001,40.280277777777776],[-118.22500000000001,40.280277777777776],[-118.03972222222222,40.361111111111114],[-118.03972222222222,40.361111111111114],[-118.03972222222222,40.361111111111114],[-118.03972222222222,40.361111111111114],[-118.03972222222222,40.361111111111114],[-117.92055555555557,40.41305555555555],[-117.92055555555557,40.41305555555555],[-117.73361111111112,40.493611111111115],[-117.73361111111112,40.493611111111115],[-117.73361111111112,40.493611111111115],[-117.73361111111112,40.493611111111115],[-117.45861111111111,40.61138888888889],[-117.42527777777778,40.62583333333333],[-117.42527777777778,40.62583333333333],[-117.42527777777778,40.62583333333333],[-117.42527777777778,40.62583333333333],[-117.30416666666666,40.67722222222222],[-117.30416666666666,40.67722222222222],[-117.30416666666666,40.67722222222222],[-117.27027777777778,40.69166666666666],[-117.27027777777778,40.69166666666666],[-117.27027777777778,40.69166666666666],[-117.27027777777778,40.69166666666666],[-116.98944444444444,40.809999999999995],[-116.98944444444444,40.809999999999995],[-116.98944444444444,40.809999999999995],[-116.98944444444444,40.809999999999995],[-116.51305555555555,41.00861111111111],[-116.51305555555555,41.00861111111111],[-116.51305555555555,41.00861111111111],[-116.51305555555555,41.00861111111111],[-116.35416666666666,41.073888888888895],[-116.35416666666666,41.073888888888895],[-116.35416666666666,41.073888888888895],[-116.35416666666666,41.073888888888895],[-116.35416666666666,41.073888888888895],[-116.17472222222223,41.1475],[-116.17472222222223,41.1475],[-116.17472222222223,41.1475],[-115.85333333333332,41.27833333333333],[-115.85333333333332,41.27833333333333],[-115.85333333333332,41.27833333333333],[-115.85333333333332,41.27833333333333],[-115.69388888888889,41.3425],[-115.69388888888889,41.3425],[-115.69388888888889,41.3425],[-115.69388888888889,41.3425],[-115.36833333333333,41.472500000000004],[-115.36833333333333,41.472500000000004],[-115.36833333333333,41.472500000000004],[-115.36833333333333,41.472500000000004],[-115.0411111111111,41.60444444444445],[-115.0411111111111,41.60444444444445],[-114.58166666666666,41.85333333333333],[-114.58166666666666,41.85333333333333],[-114.58166666666666,41.85333333333333],[-114.58166666666666,41.85333333333333],[-114.43805555555556,41.93111111111111],[-114.43805555555556,41.93111111111111],[-114.43805555555556,41.93111111111111],[-114.43805555555556,41.93111111111111],[-114.43805555555556,41.93111111111111],[-114.28472222222221,42.01416666666667],[-114.28472222222221,42.01416666666667],[-114.28472222222221,42.01416666666667],[-114.28472222222221,42.01416666666667],[-114.13,42.09722222222222],[-114.13,42.09722222222222],[-114.13,42.09722222222222],[-113.97500000000001,42.18],[-113.97500000000001,42.18],[-113.97500000000001,42.18],[-113.81833333333333,42.263333333333335],[-113.81833333333333,42.263333333333335],[-113.81833333333333,42.263333333333335],[-113.81833333333333,42.263333333333335],[-113.66083333333334,42.346944444444446],[-113.66083333333334,42.346944444444446],[-113.66083333333334,42.346944444444446],[-113.50333333333333,42.42972222222222],[-113.50333333333333,42.42972222222222],[-113.50333333333333,42.42972222222222],[-113.3475,42.51138888888889],[-113.3475,42.51138888888889],[-113.3475,42.51138888888889],[-113.3475,42.51138888888889],[-113.19166666666668,42.5925],[-113.19166666666668,42.5925],[-113.19166666666668,42.5925],[-113.19166666666668,42.5925],[-113.19166666666668,42.5925],[-113.19166666666668,42.5925],[-112.73333333333333,42.82888888888889],[-112.73333333333333,42.82888888888889],[-112.73333333333333,42.82888888888889],[-112.73333333333333,42.82888888888889],[-112.73333333333333,42.82888888888889],[-112.73333333333333,42.82888888888889],[-112.73333333333333,42.82888888888889],[-112.42777777777778,43.001666666666665],[-112.42777777777778,43.001666666666665],[-112.42777777777778,43.001666666666665],[-112.42777777777778,43.001666666666665],[-112.42777777777778,43.001666666666665],[-112.42777777777778,43.001666666666665],[-111.81305555555555,43.35611111111111],[-111.81305555555555,43.35611111111111],[-111.81305555555555,43.35611111111111],[-111.81305555555555,43.35611111111111],[-111.81305555555555,43.35611111111111],[-111.65916666666668,43.443888888888885],[-111.65916666666668,43.443888888888885],[-111.65916666666668,43.443888888888885],[-111.50333333333333,43.53194444444444],[-111.50333333333333,43.53194444444444],[-111.50333333333333,43.53194444444444],[-111.50333333333333,43.53194444444444],[-111.50333333333333,43.53194444444444],[-111.50333333333333,43.53194444444444],[-110.69111111111111,43.98444444444444],[-110.69111111111111,43.98444444444444],[-110.69111111111111,43.98444444444444],[-110.69111111111111,43.98444444444444],[-110.69111111111111,43.98444444444444],[-110.69111111111111,43.98444444444444],[-110.37555555555555,44.156666666666666],[-110.37555555555555,44.156666666666666],[-110.37555555555555,44.156666666666666],[-110.37555555555555,44.156666666666666],[-110.37555555555555,44.156666666666666],[-110.37555555555555,44.156666666666666],[-110.21861111111112,44.24166666666667],[-110.21861111111112,44.24166666666667],[-109.73944444444444,44.49861111111111],[-109.73944444444444,44.49861111111111],[-109.73944444444444,44.49861111111111],[-109.73944444444444,44.49861111111111],[-109.73944444444444,44.49861111111111],[-109.27555555555556,44.74305555555556],[-109.27555555555556,44.74305555555556],[-109.27555555555556,44.74305555555556],[-109.27555555555556,44.74305555555556],[-109.27555555555556,44.74305555555556],[-109.27555555555556,44.74305555555556],[-109.27555555555556,44.74305555555556],[-108.28916666666666,45.25],[-108.28916666666666,45.25],[-108.28916666666666,45.25],[-108.28916666666666,45.25],[-108.28916666666666,45.25],[-108.12472222222222,45.33277777777778],[-108.12472222222222,45.33277777777778],[-108.12472222222222,45.33277777777778],[-108.12472222222222,45.33277777777778],[-108.12472222222222,45.33277777777778],[-107.79416666666667,45.49777777777778],[-107.79416666666667,45.49777777777778],[-107.79416666666667,45.49777777777778],[-107.62888888888888,45.57944444444445],[-107.62888888888888,45.57944444444445],[-107.62888888888888,45.57944444444445],[-107.46194444444444,45.66166666666666],[-107.46194444444444,45.66166666666666],[-107.46194444444444,45.66166666666666],[-107.46194444444444,45.66166666666666],[-107.46194444444444,45.66166666666666],[-107.13472222222222,45.82138888888889],[-107.13472222222222,45.82138888888889],[-107.13472222222222,45.82138888888889],[-107.13472222222222,45.82138888888889],[-106.80361111111111,45.98083333333334],[-106.80361111111111,45.98083333333334],[-106.80361111111111,45.98083333333334],[-106.63861111111112,46.059999999999995],[-106.63861111111112,46.059999999999995],[-106.63861111111112,46.059999999999995],[-106.63861111111112,46.059999999999995],[-106.63861111111112,46.059999999999995],[-106.63861111111112,46.059999999999995],[-106.14305555555556,46.29388888888889],[-106.14305555555556,46.29388888888889],[-106.14305555555556,46.29388888888889],[-105.8436111111111,46.470555555555556],[-105.8436111111111,46.470555555555556],[-105.8436111111111,46.470555555555556],[-105.8436111111111,46.470555555555556],[-105.8436111111111,46.470555555555556],[-105.8436111111111,46.470555555555556],[-105.8436111111111,46.470555555555556],[-105.05694444444444,47.091944444444444],[-105.05694444444444,47.091944444444444],[-105.05694444444444,47.091944444444444],[-105.05694444444444,47.091944444444444],[-105.05694444444444,47.091944444444444],[-105.05694444444444,47.091944444444444],[-105.05694444444444,47.091944444444444],[-104.64055555555557,47.41305555555555],[-104.64055555555557,47.41305555555555],[-104.64055555555557,47.41305555555555],[-104.64055555555557,47.41305555555555],[-104.43277777777779,47.571111111111115],[-104.43277777777779,47.571111111111115],[-104.43277777777779,47.571111111111115],[-104.43277777777779,47.571111111111115],[-104.30055555555555,47.67111111111111],[-104.26805555555555,47.69555555555555],[-104.26805555555555,47.69555555555555],[-104.26805555555555,47.69555555555555],[-104.26805555555555,47.69555555555555],[-104.1913888888889,47.753055555555555],[-104.1913888888889,47.753055555555555],[-104.1913888888889,47.753055555555555],[-104.05416666666666,47.855555555555554],[-104.05416666666666,47.855555555555554],[-104.05416666666666,47.855555555555554],[-103.86138888888888,47.99916666666667],[-103.72638888888889,48.09861111111111],[-103.72638888888889,48.09861111111111],[-103.72638888888889,48.09861111111111],[-103.59277777777777,48.19694444444444],[-103.59277777777777,48.19694444444444],[-103.45833333333334,48.29527777777778],[-103.32305555555556,48.39361111111111],[-103.32305555555556,48.39361111111111],[-103.24777777777778,48.448055555555555],[-103.24777777777778,48.448055555555555],[-103.24777777777778,48.448055555555555],[-103.24777777777778,48.448055555555555],[-103.24777777777778,48.448055555555555]],"type":"LineString"}
}
