{
  "id": 2031150891,
  "type": "Feature",
  "properties": {
    "geom:area": 0,
    "geom:bbox": "-122.401690,37.623750,-121.248370,37.965650",
    "geom:latitude": 37.83165663636228,
    "geom:longitude": -121.84654226046682,
    "src:alt_label": "swim-takeoff",
    "src:geom": "swim",
    "swim:elevations": [
      183,
      571,
      724,
      775,
      868,
      1155,
      1400,
      1794,
      2171,
      2666,
      2934,
      3322,
      3617,
      3783,
      4089,
      4479,
      4821,
      5082,
      5261,
      5522,
      5729,
      5953,
      5993
    ],
    "swim:geom": "takeoff",
    "swim:timestamps": [
      1777561940,
      1777561975,
      1777562001,
      1777562012,
      1777562025,
      1777562068,
      1777562087,
      1777562116,
      1777562146,
      1777562185,
      1777562208,
      1777562252,
      1777562303,
      1777562326,
      1777562373,
      1777562421,
      1777562458,
      1777562482,
      1777562504,
      1777562541,
      1777562569,
      1777562604,
      1777562610
    ],
    "wof:geomhash": "01e7e191964e711c0ef3f899df466c99",
    "wof:id": 2031150891,
    "wof:repo": "sfomuseum-data-flights-2026-04"
  },
  "bbox": [
    -122.40169,
    37.62375,
    -121.24837,
    37.96565
  ],
  "geometry": {"coordinates":[[-122.38672,37.62375],[-122.40169,37.64446],[-122.38123,37.65866],[-122.36893,37.6624],[-122.35381,37.66725],[-122.2966,37.68759],[-122.27063,37.69699],[-122.22763,37.71251],[-122.18729,37.73117],[-122.13474,37.7587],[-122.10203,37.77575],[-122.04067,37.80741],[-121.95053,37.8355],[-121.90505,37.84417],[-121.8048,37.86341],[-121.6962,37.8835],[-121.61159,37.89883],[-121.55606,37.90921],[-121.5048,37.91862],[-121.41628,37.9348],[-121.3494,37.94699],[-121.26485,37.96255],[-121.24837,37.96565]],"type":"LineString"}
}
