{
  "id": 2015307661,
  "type": "Feature",
  "properties": {
    "geom:area": 0,
    "geom:bbox": "-122.405960,37.623640,-122.334850,37.848350",
    "geom:latitude": 37.7303741520976,
    "geom:longitude": -122.36804947075007,
    "src:alt_label": "swim-takeoff",
    "src:geom": "swim",
    "swim:elevations": [
      122,
      213,
      481,
      708,
      927,
      1124,
      1519,
      1611,
      2248,
      2345,
      2758
    ],
    "swim:geom": "takeoff",
    "swim:timestamps": [
      1776384117,
      1776384124,
      1776384148,
      1776384178,
      1776384206,
      1776384224,
      1776384262,
      1776384271,
      1776384323,
      1776384330,
      1776384361
    ],
    "wof:geomhash": "01f02ab992a8f48975f2188b795aa175",
    "wof:id": 2015307661,
    "wof:repo": "sfomuseum-data-flights-2026-04"
  },
  "bbox": [
    -122.40596,
    37.62364,
    -122.33485,
    37.84835
  ],
  "geometry": {"coordinates":[[-122.38686,37.62364],[-122.39325,37.62619],[-122.40596,37.64],[-122.39282,37.66194],[-122.37253,37.68385],[-122.35866,37.69906],[-122.33485,37.73585],[-122.33669,37.74607],[-122.36613,37.80337],[-122.37013,37.81128],[-122.38618,37.84835]],"type":"LineString"}
}
