{
  "id": 2031149863,
  "type": "Feature",
  "properties": {
    "geom:area": 0,
    "geom:bbox": "-122.358980,37.453850,-121.294240,37.613980",
    "geom:latitude": 37.53168452683626,
    "geom:longitude": -121.83489105897321,
    "src:alt_label": "swim-approach",
    "src:geom": "swim",
    "swim:elevations": [
      4501,
      4395,
      4360,
      4262,
      4215,
      4034,
      3846,
      3561,
      3199,
      3057,
      2898,
      2863,
      2683,
      2569,
      2399,
      2148,
      2072,
      2030,
      1990,
      1924,
      1828,
      1765,
      1610,
      1522,
      1434,
      1348,
      1277,
      1082,
      910,
      814,
      596,
      577,
      477,
      429,
      362,
      253,
      152,
      197
    ],
    "swim:geom": "approach",
    "swim:timestamps": [
      1777584805,
      1777584820,
      1777584830,
      1777584851,
      1777584858,
      1777584882,
      1777584903,
      1777584935,
      1777584987,
      1777585003,
      1777585037,
      1777585046,
      1777585070,
      1777585094,
      1777585128,
      1777585161,
      1777585196,
      1777585202,
      1777585208,
      1777585221,
      1777585255,
      1777585276,
      1777585299,
      1777585324,
      1777585348,
      1777585370,
      1777585388,
      1777585422,
      1777585457,
      1777585475,
      1777585521,
      1777585527,
      1777585546,
      1777585549,
      1777585575,
      1777585599,
      1777585628,
      1777585666
    ],
    "wof:geomhash": "6ac7e623e7266b529aa99859d2b39195",
    "wof:id": 2031149863,
    "wof:repo": "sfomuseum-data-flights-2026-04"
  },
  "bbox": [
    -122.35898,
    37.45385,
    -121.29424,
    37.61398
  ],
  "geometry": {"coordinates":[[-121.29424,37.58859],[-121.32434,37.58532],[-121.34462,37.58317],[-121.38406,37.5789],[-121.39616,37.57753],[-121.43953,37.57257],[-121.47571,37.56849],[-121.53301,37.56169],[-121.6214,37.55105],[-121.64845,37.54504],[-121.70656,37.53135],[-121.72022,37.52806],[-121.75666,37.51904],[-121.79058,37.50851],[-121.8155,37.47695],[-121.854,37.46054],[-121.90296,37.45671],[-121.91111,37.45606],[-121.91935,37.45539],[-121.93662,37.45385],[-121.98268,37.45561],[-122.00687,37.46588],[-122.03358,37.47696],[-122.06048,37.48829],[-122.08443,37.49834],[-122.10552,37.50733],[-122.12207,37.51453],[-122.15551,37.52875],[-122.18915,37.54291],[-122.20672,37.55015],[-122.2481,37.56767],[-122.25374,37.57007],[-122.27174,37.57775],[-122.27443,37.57882],[-122.29515,37.58747],[-122.31298,37.59488],[-122.333,37.60335],[-122.35898,37.61398]],"type":"LineString"}
}
