{
  "id": 2015355523,
  "type": "Feature",
  "properties": {
    "geom:area": 0,
    "geom:bbox": "-122.133333,37.493611,-74.216667,40.651667",
    "geom:latitude": 38.45478917748317,
    "geom:longitude": -98.05505097895498,
    "src:alt_label": "swim-path",
    "src:geom": "swim",
    "swim:altitudes": [
      "018",
      "099",
      "137",
      "228",
      "338",
      "360C",
      "360C",
      "360C",
      "360C",
      "360C",
      "360C",
      "360C",
      "360C",
      "360C",
      "360C",
      "360C",
      "360C",
      "360C",
      "360C",
      "360C",
      "360C",
      "360C",
      "360C",
      "360C",
      "360C",
      "360C",
      "360C",
      "360C",
      "360C",
      "360C",
      "360C",
      "360C",
      "360C",
      "360C",
      "360C",
      "360C",
      "361",
      "380C",
      "380C",
      "380C",
      "380C",
      "380C",
      "380C",
      "380C",
      "380C",
      "380C",
      "380C",
      "380C",
      "380C",
      "380C",
      "380C",
      "380C",
      "380C",
      "380C",
      "380C",
      "380C",
      "380C",
      "380C",
      "380C",
      "380C",
      "380C",
      "380C",
      "380C",
      "380C",
      "380C",
      "380C",
      "360C",
      "360C",
      "360C",
      "360C",
      "351",
      "257",
      "068",
      "041"
    ],
    "swim:geom": "path",
    "swim:speeds": [
      209,
      258,
      340,
      411,
      463,
      429,
      432,
      435,
      438,
      442,
      447,
      426,
      428,
      421,
      423,
      428,
      435,
      431,
      427,
      435,
      438,
      438,
      429,
      430,
      431,
      432,
      432,
      432,
      430,
      428,
      427,
      424,
      421,
      420,
      421,
      421,
      421,
      419,
      422,
      426,
      426,
      411,
      412,
      404,
      401,
      393,
      404,
      409,
      407,
      397,
      394,
      398,
      383,
      375,
      381,
      377,
      374,
      378,
      370,
      384,
      383,
      393,
      377,
      377,
      394,
      398,
      374,
      377,
      376,
      362,
      361,
      363,
      229,
      190
    ],
    "swim:timestamps": [
      1776904477,
      1776904649,
      1776904769,
      1776905009,
      1776905430,
      1776905922,
      1776906223,
      1776906343,
      1776906884,
      1776907124,
      1776907297,
      1776907958,
      1776908078,
      1776908319,
      1776908439,
      1776908559,
      1776909040,
      1776909460,
      1776909761,
      1776910121,
      1776910421,
      1776910662,
      1776911209,
      1776911329,
      1776911509,
      1776911629,
      1776911749,
      1776911870,
      1776912110,
      1776912289,
      1776912589,
      1776912769,
      1776912950,
      1776913130,
      1776913310,
      1776913490,
      1776913550,
      1776913850,
      1776914031,
      1776914145,
      1776914211,
      1776914512,
      1776914686,
      1776914926,
      1776914986,
      1776915286,
      1776915653,
      1776915835,
      1776916067,
      1776916367,
      1776916788,
      1776917028,
      1776917550,
      1776917791,
      1776918049,
      1776918169,
      1776918391,
      1776918692,
      1776918872,
      1776919370,
      1776919730,
      1776920553,
      1776920913,
      1776921034,
      1776921454,
      1776921703,
      1776922124,
      1776922424,
      1776922724,
      1776923624,
      1776924045,
      1776924259,
      1776924945,
      1776925111
    ],
    "wof:geomhash": "4656718de9b7e3d5efcf05a31bddd5d5",
    "wof:id": 2015355523,
    "wof:repo": "sfomuseum-data-flights-2026-04"
  },
  "bbox": [
    -122.13333333333334,
    37.493611111111115,
    -74.21666666666667,
    40.651666666666664
  ],
  "geometry": {"coordinates":[[-74.21666666666667,40.65],[-74.46555555555555,40.63444444444444],[-74.68305555555555,40.651666666666664],[-75.21361111111112,40.61888888888889],[-76.18194444444445,40.170833333333334],[-77.31277777777777,39.651666666666664],[-78.0363888888889,39.45],[-78.33027777777778,39.36888888888889],[-79.64833333333334,38.993611111111115],[-80.23555555555555,38.82055555555556],[-80.65055555555556,38.69583333333333],[-82.3461111111111,38.53861111111111],[-82.6538888888889,38.526944444444446],[-83.25,38.53472222222222],[-83.54888888888888,38.53666666666666],[-83.85249999999999,38.53777777777778],[-85.08138888888888,38.53333333333333],[-86.15277777777779,38.51833333333333],[-86.90777777777778,38.50222222222222],[-87.85166666666666,38.474722222222226],[-88.59722222222221,38.44777777777777],[-89.2175,38.42194444444444],[-90.62638888888888,38.35027777777778],[-90.93027777777779,38.33277777777778],[-91.38805555555557,38.30472222222222],[-91.69222222222223,38.285],[-91.9975,38.26444444444444],[-92.30138888888888,38.24305555555556],[-92.89555555555556,38.25666666666667],[-93.34388888888888,38.25611111111111],[-94.09277777777777,38.18083333333333],[-94.54527777777777,38.13055555555555],[-94.98777777777778,38.07944444444445],[-95.42666666666668,38.02722222222222],[-95.86527777777778,37.973333333333336],[-96.30361111111111,37.91777777777777],[-96.44972222222222,37.89861111111111],[-97.17722222222223,37.80166666666666],[-97.61444444444444,37.74611111111111],[-97.89750000000001,37.7675],[-98.0411111111111,37.77611111111111],[-98.77166666666666,37.82083333333334],[-99.20166666666667,37.845555555555556],[-99.76777777777778,37.875],[-99.90722222222223,37.88194444444444],[-100.59638888888888,37.91361111111111],[-101.44527777777778,38.00138888888889],[-101.87194444444444,38.04805555555556],[-102.41555555555556,38.10527777777778],[-103.11277777777777,38.17472222222222],[-104.10083333333333,38.26583333333333],[-104.6575,38.31027777777778],[-105.87638888888888,38.384166666666665],[-106.40194444444445,38.41611111111111],[-106.96166666666667,38.44833333333333],[-107.22888888888889,38.45305555555556],[-107.73166666666667,38.45305555555556],[-108.38388888888889,38.4525],[-108.7786111111111,38.44944444444444],[-109.87388888888889,38.43472222222222],[-110.69,38.44194444444444],[-112.55138888888888,38.46388888888889],[-113.35638888888889,38.46416666666667],[-113.64888888888889,38.46277777777778],[-114.61,38.453611111111115],[-115.17972222222222,38.44472222222222],[-116.15138888888889,38.42222222222222],[-116.80138888888888,38.30333333333333],[-117.45972222222223,38.170833333333334],[-119.36999999999999,37.825833333333335],[-120.24833333333333,37.71888888888889],[-120.7,37.666666666666664],[-121.92083333333333,37.493611111111115],[-122.13333333333334,37.516666666666666]],"type":"LineString"}
}
