{
  "id": 2015191599,
  "type": "Feature",
  "properties": {
    "geom:area": 0,
    "geom:bbox": "-122.395430,37.624920,-121.431700,38.516400",
    "geom:latitude": 38.05691205178782,
    "geom:longitude": -121.9127227682946,
    "src:alt_label": "swim-takeoff",
    "src:geom": "swim",
    "swim:elevations": [
      183,
      518,
      667,
      1046,
      1237,
      1817,
      2106,
      2707,
      3202,
      3320,
      3729,
      3781,
      3929,
      4395,
      4957,
      5165,
      5695,
      5771,
      6177,
      6359,
      6712,
      6823,
      6908,
      7078,
      7397,
      7597,
      7825,
      8083,
      8251
    ],
    "swim:geom": "takeoff",
    "swim:timestamps": [
      1775132308,
      1775132333,
      1775132350,
      1775132383,
      1775132406,
      1775132452,
      1775132468,
      1775132504,
      1775132545,
      1775132562,
      1775132599,
      1775132603,
      1775132615,
      1775132646,
      1775132696,
      1775132711,
      1775132758,
      1775132767,
      1775132814,
      1775132831,
      1775132874,
      1775132885,
      1775132896,
      1775132911,
      1775132950,
      1775132979,
      1775133012,
      1775133051,
      1775133074
    ],
    "wof:geomhash": "fc9e9eabb5122ed12217bc88803e738c",
    "wof:id": 2015191599,
    "wof:repo": "sfomuseum-data-flights-2026-04"
  },
  "bbox": [
    -122.39543,
    37.62492,
    -121.4317,
    38.5164
  ],
  "geometry": {"coordinates":[[-122.38411,37.62492],[-122.39543,37.63941],[-122.38906,37.65096],[-122.35792,37.6616],[-122.33202,37.66979],[-122.27383,37.69297],[-122.25129,37.70221],[-122.20566,37.72776],[-122.1668,37.77026],[-122.14923,37.78974],[-122.10752,37.83558],[-122.1025,37.8411],[-122.08904,37.85601],[-122.05216,37.89671],[-121.9911,37.96397],[-121.97245,37.98452],[-121.91296,38.04988],[-121.90255,38.0613],[-121.83967,38.1303],[-121.81636,38.15561],[-121.75691,38.22054],[-121.74176,38.23699],[-121.72682,38.25321],[-121.70562,38.27634],[-121.64966,38.33717],[-121.60846,38.38192],[-121.55694,38.43493],[-121.47913,38.48774],[-121.4317,38.5164]],"type":"LineString"}
}
