{
  "id": 2031101423,
  "type": "Feature",
  "properties": {
    "geom:area": 0,
    "geom:bbox": "-122.828333,37.415556,-110.210000,49.966389",
    "geom:latitude": 44.18735038581894,
    "geom:longitude": -117.77467115793853,
    "src:alt_label": "swim-path",
    "src:geom": "swim",
    "swim:altitudes": [
      "380C",
      "380C",
      "380C",
      "380C",
      "380C",
      "380C",
      "380C",
      "380C",
      "380C",
      "380C",
      "380C",
      "380C",
      "380C",
      "380C",
      "380C",
      "380C",
      "380C",
      "380C",
      "380C",
      "380C",
      "380C",
      "380C",
      "380C",
      "380C",
      "380C",
      "380C",
      "380C",
      "380C",
      "380C",
      "380C",
      "380C",
      "380C",
      "380C",
      "380C",
      "380C",
      "380C",
      "380C",
      "380C",
      "380C",
      "380C",
      "380C",
      "380C",
      "380C",
      "380C",
      "380C",
      "380C",
      "380C",
      "380C",
      "380C",
      "380C",
      "380C",
      "380C",
      "380C",
      "380C",
      "380C",
      "380C",
      "380C",
      "380C",
      "380C",
      "380C",
      "380C",
      "380C",
      "380C",
      "380C",
      "380C",
      "380C",
      "380C",
      "380C",
      "380C",
      "380C",
      "380C",
      "380C",
      "380C",
      "380C",
      "380C",
      "380C",
      "380C",
      "380C",
      "380C",
      "380C",
      "380C",
      "380C",
      "380C",
      "380C",
      "380C",
      "380C",
      "380C",
      "380C",
      "380C",
      "380C",
      "380C",
      "380C",
      "380C",
      "380C",
      "380C",
      "380C",
      "380C",
      "380C",
      "380C",
      "380C",
      "380C",
      "380C",
      "380C",
      "380C",
      "380C",
      "380C",
      "380C",
      "380C",
      "380C",
      "380C",
      "380C",
      "380C",
      "380C",
      "380C",
      "380C",
      "380C",
      "380C",
      "380C",
      "380C",
      "380C",
      "380C",
      "380C",
      "380C",
      "380C",
      "380C",
      "380C",
      "380C",
      "380C",
      "380C",
      "380C",
      "367",
      "367",
      "350C",
      "350C",
      "350C",
      "291",
      "291",
      "239",
      "157",
      "157",
      "111C",
      "110C",
      "110C",
      "088",
      "051",
      "051",
      "040",
      "040",
      "032",
      "012",
      "006"
    ],
    "swim:geom": "path",
    "swim:speeds": [
      500,
      500,
      498,
      498,
      498,
      491,
      491,
      491,
      489,
      489,
      482,
      482,
      482,
      479,
      479,
      476,
      475,
      476,
      476,
      477,
      479,
      479,
      479,
      480,
      482,
      481,
      481,
      480,
      480,
      480,
      482,
      481,
      481,
      481,
      481,
      481,
      486,
      486,
      486,
      487,
      487,
      487,
      482,
      482,
      481,
      481,
      481,
      481,
      480,
      479,
      479,
      478,
      478,
      479,
      479,
      479,
      479,
      484,
      485,
      485,
      470,
      470,
      467,
      467,
      467,
      470,
      473,
      473,
      474,
      475,
      476,
      477,
      477,
      477,
      478,
      479,
      477,
      477,
      474,
      472,
      472,
      471,
      470,
      470,
      470,
      470,
      472,
      472,
      471,
      473,
      474,
      474,
      474,
      474,
      474,
      470,
      466,
      466,
      466,
      466,
      465,
      466,
      465,
      465,
      465,
      466,
      466,
      467,
      467,
      467,
      467,
      463,
      463,
      463,
      447,
      447,
      447,
      444,
      433,
      433,
      427,
      425,
      425,
      424,
      424,
      425,
      426,
      426,
      454,
      454,
      434,
      434,
      433,
      433,
      433,
      414,
      414,
      382,
      353,
      353,
      319,
      270,
      270,
      217,
      200,
      200,
      199,
      197,
      195,
      140,
      133
    ],
    "swim:timestamps": [
      1777076590,
      1777076590,
      1777076710,
      1777076710,
      1777076710,
      1777077132,
      1777077132,
      1777077132,
      1777077191,
      1777077191,
      1777077673,
      1777077673,
      1777077673,
      1777077972,
      1777078033,
      1777078093,
      1777078152,
      1777078213,
      1777078273,
      1777078333,
      1777078465,
      1777078465,
      1777078465,
      1777078573,
      1777078754,
      1777078825,
      1777078825,
      1777078934,
      1777079005,
      1777079005,
      1777079054,
      1777079114,
      1777079114,
      1777079125,
      1777079186,
      1777079186,
      1777079390,
      1777079390,
      1777079390,
      1777079426,
      1777079450,
      1777079450,
      1777079606,
      1777079606,
      1777079630,
      1777079630,
      1777079666,
      1777079666,
      1777079690,
      1777079751,
      1777079751,
      1777079786,
      1777079786,
      1777079811,
      1777079846,
      1777079846,
      1777079846,
      1777079931,
      1777079967,
      1777079967,
      1777080147,
      1777080171,
      1777080291,
      1777080291,
      1777080291,
      1777080351,
      1777080447,
      1777080447,
      1777080471,
      1777080507,
      1777080567,
      1777080591,
      1777080591,
      1777080591,
      1777080627,
      1777080687,
      1777080748,
      1777080748,
      1777080808,
      1777080832,
      1777080832,
      1777080868,
      1777080892,
      1777080928,
      1777080928,
      1777080952,
      1777080958,
      1777080958,
      1777080988,
      1777081079,
      1777081139,
      1777081139,
      1777081168,
      1777081199,
      1777081199,
      1777081252,
      1777081259,
      1777081348,
      1777081372,
      1777081408,
      1777081432,
      1777081439,
      1777081499,
      1777081499,
      1777081619,
      1777081673,
      1777081673,
      1777081739,
      1777081739,
      1777081793,
      1777081853,
      1777081973,
      1777081973,
      1777081973,
      1777082093,
      1777082093,
      1777082093,
      1777082160,
      1777082213,
      1777082213,
      1777082273,
      1777082333,
      1777082340,
      1777082573,
      1777082573,
      1777082633,
      1777082641,
      1777082641,
      1777082821,
      1777082821,
      1777082941,
      1777082941,
      1777083001,
      1777083061,
      1777083061,
      1777083361,
      1777083361,
      1777083542,
      1777083825,
      1777083825,
      1777084022,
      1777084082,
      1777084082,
      1777084262,
      1777084366,
      1777084366,
      1777084443,
      1777084503,
      1777084683,
      1777084791,
      1777084846
    ],
    "wof:geomhash": "c1ac628d81f51b573a64d7428d18e828",
    "wof:id": 2031101423,
    "wof:repo": "sfomuseum-data-flights-2026-04"
  },
  "bbox": [
    -122.82833333333333,
    37.41555555555556,
    -110.21000000000001,
    49.96638888888889
  ],
  "geometry": {"coordinates":[[-110.21000000000001,49.96638888888889],[-110.21000000000001,49.96638888888889],[-110.56083333333333,49.80888888888889],[-110.56083333333333,49.80888888888889],[-110.56083333333333,49.80888888888889],[-111.74444444444444,49.26555555555556],[-111.74444444444444,49.26555555555556],[-111.74444444444444,49.26555555555556],[-111.91916666666667,49.17861111111111],[-111.91916666666667,49.17861111111111],[-113.09916666666666,48.44777777777777],[-113.09916666666666,48.44777777777777],[-113.09916666666666,48.44777777777777],[-113.78333333333333,47.96388888888889],[-113.91944444444445,47.86638888888889],[-114.05499999999999,47.76861111111111],[-114.18805555555556,47.67194444444444],[-114.32305555555556,47.57361111111111],[-114.4575,47.475],[-114.5911111111111,47.376666666666665],[-114.88138888888888,47.16083333333333],[-114.88138888888888,47.16083333333333],[-114.88138888888888,47.16083333333333],[-115.11777777777777,46.983333333333334],[-115.51722222222222,46.67944444444444],[-115.66916666666667,46.5625],[-115.66916666666667,46.5625],[-115.905,46.37972222222222],[-116.05638888888889,46.26166666666666],[-116.05638888888889,46.26166666666666],[-116.16055555555556,46.17972222222222],[-116.28944444444444,46.07805555555556],[-116.28944444444444,46.07805555555556],[-116.31222222222222,46.059999999999995],[-116.43277777777779,45.964444444444446],[-116.43277777777779,45.964444444444446],[-116.8625,45.61972222222222],[-116.8625,45.61972222222222],[-116.8625,45.61972222222222],[-116.93805555555556,45.558611111111105],[-116.98916666666666,45.51722222222222],[-116.98916666666666,45.51722222222222],[-117.30749999999999,45.25666666666667],[-117.30749999999999,45.25666666666667],[-117.35916666666667,45.21388888888889],[-117.35916666666667,45.21388888888889],[-117.43083333333334,45.15472222222222],[-117.43083333333334,45.15472222222222],[-117.48166666666667,45.11277777777778],[-117.60222222222221,45.0125],[-117.60222222222221,45.0125],[-117.67527777777778,44.95194444444445],[-117.67527777777778,44.95194444444445],[-117.7238888888889,44.91138888888889],[-117.79388888888889,44.85194444444445],[-117.79388888888889,44.85194444444445],[-117.79388888888889,44.85194444444445],[-117.95194444444445,44.7],[-118.01777777777778,44.63527777777778],[-118.01777777777778,44.63527777777778],[-118.34027777777777,44.31666666666667],[-118.37972222222221,44.277499999999996],[-118.59444444444443,44.0625],[-118.59444444444443,44.0625],[-118.59444444444443,44.0625],[-118.69972222222222,43.95611111111111],[-118.86444444444444,43.78944444444444],[-118.86444444444444,43.78944444444444],[-118.9113888888889,43.74138888888889],[-118.97083333333333,43.68083333333333],[-119.07638888888889,43.572500000000005],[-119.12055555555555,43.526944444444446],[-119.12055555555555,43.526944444444446],[-119.12055555555555,43.526944444444446],[-119.18277777777779,43.46277777777778],[-119.28861111111111,43.35333333333333],[-119.39250000000001,43.24527777777778],[-119.39250000000001,43.24527777777778],[-119.49555555555555,43.13805555555555],[-119.54083333333332,43.090833333333336],[-119.54083333333332,43.090833333333336],[-119.5975,43.03111111111111],[-119.64277777777778,42.98388888888889],[-119.69916666666667,42.924166666666665],[-119.69916666666667,42.924166666666665],[-119.74444444444444,42.87638888888889],[-119.76472222222222,42.855000000000004],[-119.76472222222222,42.855000000000004],[-119.80111111111111,42.81666666666667],[-119.97194444444445,42.63722222222222],[-120.05194444444444,42.54833333333333],[-120.05194444444444,42.54833333333333],[-120.10722222222222,42.49027777777778],[-120.17305555555556,42.41972222222222],[-120.17305555555556,42.41972222222222],[-120.25194444444445,42.33416666666667],[-120.27111111111111,42.31305555555555],[-120.4038888888889,42.16972222222222],[-120.44916666666667,42.120555555555555],[-120.50305555555556,42.06166666666666],[-120.54666666666667,42.01416666666667],[-120.56,41.99916666666667],[-120.66444444444446,41.885],[-120.66444444444446,41.885],[-120.85805555555555,41.67111111111111],[-120.93666666666667,41.58416666666667],[-120.93666666666667,41.58416666666667],[-121.0525,41.45472222222222],[-121.0525,41.45472222222222],[-121.13027777777778,41.36805555555556],[-121.22611111111111,41.260555555555555],[-121.41555555555556,41.046388888888885],[-121.41555555555556,41.046388888888885],[-121.41555555555556,41.046388888888885],[-121.6275,40.85888888888889],[-121.6275,40.85888888888889],[-121.6275,40.85888888888889],[-121.79972222222221,40.78861111111111],[-121.9088888888889,40.74472222222222],[-121.9088888888889,40.74472222222222],[-122.04638888888888,40.68944444444444],[-122.18361111111112,40.635],[-122.21027777777778,40.624722222222225],[-122.67583333333334,40.37277777777778],[-122.67583333333334,40.37277777777778],[-122.77722222222222,40.28388888888889],[-122.79694444444445,40.26611111111111],[-122.79694444444445,40.26611111111111],[-122.82833333333333,39.900277777777774],[-122.82833333333333,39.900277777777774],[-122.81916666666666,39.651944444444446],[-122.81916666666666,39.651944444444446],[-122.815,39.5325],[-122.81055555555555,39.4125],[-122.81055555555555,39.4125],[-122.78833333333333,38.801111111111105],[-122.78833333333333,38.801111111111105],[-122.77638888888889,38.47555555555556],[-122.7,38],[-122.7,38],[-122.51027777777777,37.74583333333334],[-122.44666666666667,37.68555555555555],[-122.44666666666667,37.68555555555555],[-122.3125,37.513888888888886],[-122.23333333333333,37.43333333333333],[-122.23333333333333,37.43333333333333],[-122.15611111111112,37.41555555555556],[-122.09444444444443,37.418055555555554],[-122.18555555555555,37.54111111111111],[-122.3,37.583333333333336],[-122.33333333333333,37.6]],"type":"LineString"}
}
