{
  "id": 2015277269,
  "type": "Feature",
  "properties": {
    "geom:area": 0,
    "geom:bbox": "-122.342770,36.736870,-121.888330,37.607560",
    "geom:latitude": 37.21414001719612,
    "geom:longitude": -122.0686398431519,
    "src:alt_label": "swim-approach",
    "src:geom": "swim",
    "swim:elevations": [
      5553,
      5313,
      4987,
      4652,
      4560,
      4233,
      3873,
      3585,
      3333,
      3113,
      3035,
      2907,
      2665,
      2480,
      2251,
      2116,
      2087,
      1936,
      1868,
      1646,
      1423,
      1322,
      1007,
      877,
      840,
      620,
      547,
      434,
      273,
      125,
      105
    ],
    "swim:geom": "approach",
    "swim:timestamps": [
      1776122424,
      1776122452,
      1776122483,
      1776122517,
      1776122526,
      1776122559,
      1776122596,
      1776122628,
      1776122655,
      1776122697,
      1776122727,
      1776122748,
      1776122775,
      1776122802,
      1776122837,
      1776122848,
      1776122853,
      1776122874,
      1776122883,
      1776122931,
      1776122967,
      1776122982,
      1776123027,
      1776123054,
      1776123063,
      1776123115,
      1776123128,
      1776123150,
      1776123198,
      1776123234,
      1776123240
    ],
    "wof:geomhash": "9a4fb7c44fd470532ccdb386d6662606",
    "wof:id": 2015277269,
    "wof:repo": "sfomuseum-data-flights-2026-04"
  },
  "bbox": [
    -122.34277,
    36.73687,
    -121.88833,
    37.60756
  ],
  "geometry": {"coordinates":[[-121.88833,36.73687],[-121.90434,36.77846],[-121.91782,36.82543],[-121.93224,36.87765],[-121.93606,36.89125],[-121.94973,36.94075],[-121.96951,36.99446],[-121.98763,37.04034],[-122.00221,37.07802],[-122.02456,37.13533],[-122.03934,37.17328],[-122.04898,37.19774],[-122.06162,37.22975],[-122.07441,37.26205],[-122.09024,37.30228],[-122.09524,37.31514],[-122.0975,37.32092],[-122.10739,37.34603],[-122.11153,37.35664],[-122.13143,37.41111],[-122.14423,37.45042],[-122.14957,37.46625],[-122.16589,37.51466],[-122.1817,37.53996],[-122.19132,37.54463],[-122.24375,37.56644],[-122.25598,37.57156],[-122.27532,37.57934],[-122.31183,37.59482],[-122.33824,37.60569],[-122.34277,37.60756]],"type":"LineString"}
}
