{
  "id": 2015342729,
  "type": "Feature",
  "properties": {
    "geom:area": 0,
    "geom:bbox": "-122.380000,33.830000,-116.510000,37.620000",
    "geom:latitude": 35.6255939310318,
    "geom:longitude": -119.4898567780901,
    "src:alt_label": "swim-route",
    "src:geom": "swim",
    "swim:geom": "route",
    "wof:geomhash": "8273bafc1761f621add67ffec9a3fbdd",
    "wof:id": 2015342729,
    "wof:repo": "sfomuseum-data-flights-2026-04"
  },
  "bbox": [
    -122.38,
    33.83,
    -116.51,
    37.62
  ],
  "geometry": {"coordinates":[[-122.38,37.62],[-122.36,37.61],[-122.34,37.61],[-122.34,37.6],[-122.26,37.57],[-122.24,37.57],[-122.2,37.53],[-122.17,37.51],[-122.15,37.48],[-122.15,37.48],[-122.13,37.46],[-122.11,37.45],[-122.05,37.4],[-122.01,37.36],[-122,37.34],[-121.85,37.22],[-121.79,37.17],[-121.73,37.13],[-121.71,37.11],[-121.62,37.04],[-121.6,37.03],[-121.53,36.97],[-121.43,36.88],[-121.38,36.84],[-121.36,36.83],[-121.27,36.76],[-121.22,36.71],[-121.16,36.66],[-121.03,36.56],[-120.95,36.49],[-120.7,36.32],[-120.53,36.2],[-120,35.85],[-119.94,35.83],[-119.5,35.66],[-119.49,35.65],[-119.04,35.32],[-118.73,35.08],[-118.41,34.83],[-118.37,34.8],[-118.34,34.78],[-118.2,34.7],[-118.19,34.69],[-118.11,34.64],[-118.02,34.58],[-117.96,34.55],[-117.78,34.48],[-117.73,34.46],[-117.73,34.46],[-117.7,34.45],[-117.51,34.37],[-117.4,34.32],[-117.34,34.3],[-117.3,34.28],[-117.24,34.25],[-117.23,34.25],[-117.07,34.17],[-117.06,34.17],[-116.98,34.13],[-116.9,34.09],[-116.89,34.09],[-116.87,34.08],[-116.83,34.06],[-116.77,34.03],[-116.64,34],[-116.58,33.98],[-116.55,33.97],[-116.55,33.97],[-116.52,33.89],[-116.51,33.83]],"type":"LineString"}
}
