{
  "id": 2031101927,
  "type": "Feature",
  "properties": {
    "geom:area": 0,
    "geom:bbox": "-122.380000,35.070000,-80.950000,38.670000",
    "geom:latitude": 37.59399385267186,
    "geom:longitude": -101.50634397074151,
    "src:alt_label": "swim-route",
    "src:geom": "swim",
    "swim:geom": "route",
    "wof:geomhash": "5d2b3f84b2449bd03de181277bc12d00",
    "wof:id": 2031101927,
    "wof:repo": "sfomuseum-data-flights-2026-04"
  },
  "bbox": [
    -122.38,
    35.07,
    -80.95,
    38.67
  ],
  "geometry": {"coordinates":[[-122.38,37.62],[-122.27,37.69],[-122.22,37.72],[-122.21,37.72],[-122.16,37.75],[-122.12,37.76],[-122.09,37.78],[-122.02,37.82],[-122.01,37.82],[-122,37.83],[-121.94,37.84],[-121.73,37.88],[-121.7,37.88],[-121.59,37.9],[-121.46,37.93],[-121.41,37.94],[-121.34,37.95],[-121.17,37.98],[-121.16,37.98],[-121.1,37.99],[-120.89,38.02],[-120.7,38.05],[-120.66,38.06],[-120.54,38.08],[-120.12,38.14],[-119.96,38.16],[-119.8,38.19],[-119.65,38.21],[-119.32,38.26],[-119.18,38.27],[-118.93,38.31],[-118.11,38.42],[-117.56,38.49],[-117.28,38.52],[-117.21,38.52],[-117.17,38.52],[-116.71,38.53],[-116.61,38.53],[-113.77,38.51],[-113.45,38.67],[-111.83,38.56],[-109.2,38.35],[-108.77,38.3],[-107.72,38.19],[-107.05,38.12],[-106.6,38.07],[-106.15,38.04],[-106.15,38.04],[-105.78,38.01],[-103.21,37.99],[-101.72,37.95],[-99.53,37.87],[-97.98,37.78],[-97.54,37.75],[-94.81,37.54],[-93.78,37.44],[-93.01,37.36],[-90.88,37.11],[-90.85,37.11],[-90.71,37.09],[-90.34,37.04],[-88.51,36.79],[-87.82,36.69],[-87.32,36.61],[-86.75,36.46],[-85.38,36.09],[-85.31,36.07],[-84.98,35.94],[-84.64,35.81],[-84.55,35.82],[-84.24,35.84],[-84.21,35.85],[-83.47,35.89],[-83.36,35.87],[-83.16,35.83],[-83.11,35.81],[-82.7,35.72],[-82.32,35.64],[-82.28,35.63],[-82.06,35.58],[-81.93,35.53],[-81.81,35.48],[-81.73,35.45],[-81.68,35.44],[-81.57,35.41],[-81.49,35.38],[-81.46,35.37],[-81.32,35.34],[-81.23,35.31],[-81.07,35.26],[-81.07,35.26],[-81.07,35.23],[-81.06,35.15],[-81.06,35.1],[-81.06,35.07],[-81.02,35.11],[-80.97,35.18],[-80.95,35.21]],"type":"LineString"}
}
