{
  "id": 2015338441,
  "type": "Feature",
  "properties": {
    "geom:area": 0,
    "geom:bbox": "-122.380000,27.980000,-82.530000,38.330000",
    "geom:latitude": 35.571335649379684,
    "geom:longitude": -101.49173108177408,
    "src:alt_label": "swim-route",
    "src:geom": "swim",
    "swim:geom": "route",
    "wof:geomhash": "007f65ce951a49a6f9e07af534dfd9bb",
    "wof:id": 2015338441,
    "wof:repo": "sfomuseum-data-flights-2026-04"
  },
  "bbox": [
    -122.38,
    27.98,
    -82.53,
    38.33
  ],
  "geometry": {"coordinates":[[-82.53,27.98],[-82.57,28.05],[-82.59,28.07],[-82.62,28.13],[-82.62,28.18],[-82.62,28.18],[-82.63,28.2],[-82.63,28.21],[-82.64,28.22],[-82.72,28.36],[-82.8,28.51],[-82.8,28.51],[-82.81,28.54],[-82.84,28.58],[-82.87,28.65],[-82.96,28.81],[-83,28.93],[-83.01,28.99],[-83.04,29.08],[-83.06,29.12],[-83.1,29.18],[-83.14,29.25],[-83.21,29.35],[-83.23,29.38],[-83.43,29.67],[-83.48,29.76],[-83.56,29.86],[-83.61,29.93],[-83.68,30.01],[-83.67,30],[-83.82,30.17],[-84.07,30.32],[-84.26,30.44],[-84.35,30.49],[-84.84,30.77],[-85,30.86],[-85.47,31.13],[-85.55,31.18],[-85.64,31.23],[-86.35,31.61],[-86.55,31.73],[-86.76,31.84],[-86.96,31.95],[-87.17,32.06],[-87.26,32.11],[-87.35,32.16],[-87.67,32.33],[-88,32.5],[-88.07,32.54],[-88.35,32.7],[-88.4,32.73],[-88.53,32.79],[-88.83,32.93],[-89.89,33.38],[-90.03,33.44],[-91.21,33.92],[-92.4,34.39],[-93.85,34.95],[-94,35],[-94.39,35.14],[-95,35.28],[-96,35.5],[-96.52,35.62],[-96.89,35.7],[-97.82,35.95],[-99.05,36.27],[-99.68,36.42],[-100,36.5],[-101.29,36.61],[-101.87,36.65],[-103.1,36.74],[-103.63,36.88],[-103.94,36.97],[-104.1,37.01],[-104.93,37.23],[-106,37.5],[-106.22,37.53],[-107.74,37.69],[-108.93,37.81],[-109.08,37.83],[-109.8,37.9],[-110.53,37.98],[-112.31,38.14],[-112.79,38.18],[-113.98,38.27],[-114.96,38.33],[-116.33,38.33],[-117.27,38.12],[-117.27,38.12],[-117.77,38],[-118.76,37.9],[-119.1,37.87],[-119.21,37.87],[-119.33,37.86],[-119.89,37.82],[-119.99,37.81],[-120.18,37.8],[-120.37,37.79],[-120.44,37.78],[-120.73,37.76],[-120.78,37.75],[-120.79,37.75],[-121.04,37.73],[-121.14,37.73],[-121.36,37.71],[-121.37,37.71],[-121.51,37.7],[-121.58,37.69],[-121.67,37.68],[-121.77,37.67],[-121.81,37.67],[-121.85,37.67],[-122.06,37.65],[-122.13,37.64],[-122.17,37.64],[-122.22,37.63],[-122.27,37.63],[-122.35,37.62],[-122.38,37.62]],"type":"LineString"}
}
