{
  "id": 2031129817,
  "type": "Feature",
  "properties": {
    "date:cessation_lower": "2026-04-28",
    "date:cessation_upper": "2026-04-28",
    "date:inception_lower": "2026-04-28",
    "date:inception_upper": "2026-04-28",
    "edtf:cessation": "2026-04-28T11:20:00Z",
    "edtf:inception": "2026-04-28T06:48:00Z",
    "flysfo:actual_timestamp": -1,
    "flysfo:airline": "UA",
    "flysfo:date": "2026-04-27",
    "flysfo:estimated_timestamp": 1777357200,
    "flysfo:event": "D",
    "flysfo:flight_number": "UA1145",
    "flysfo:gate": "F5",
    "flysfo:journey": "SFO-CUN",
    "flysfo:scheduled_timestamp": 1777357620,
    "flysfo:timestamp": 1777357620,
    "geom:area": 0,
    "geom:bbox": "-122.370943,21.040317,-86.872856,37.617990",
    "geom:latitude": 29.3291535,
    "geom:longitude": -104.6218995,
    "iata:airline": "UA",
    "icao:aircraft": "B739",
    "icao:airline": "UAL",
    "lbl:latitude": 37.620164,
    "lbl:longitude": -122.387194,
    "sfomuseum:aircraft_id": 1377564285,
    "sfomuseum:airline_id": 1159285413,
    "sfomuseum:arrival_id": 102536223,
    "sfomuseum:departure_id": 102527513,
    "sfomuseum:flight_id": "20260427-D-UAL-1145",
    "sfomuseum:flight_number": [
      "UAL1145",
      "UA1145"
    ],
    "sfomuseum:placetype": "flight",
    "src:geom": "flysfo",
    "src:geom_alt": [
      "swim-route",
      "swim-path",
      "swim-takeoff"
    ],
    "swim:tail_number": "N66841",
    "wof:belongsto": [
      1914600839,
      102527513,
      1914600845,
      102191575,
      85633793,
      102087579,
      85922583,
      554784711,
      85688637,
      1930457221,
      1914600841,
      102085387
    ],
    "wof:concordances": {
      "swim:flight_ref": "145197660",
      "swim:gufi": "KO202453RT"
    },
    "wof:country": "US",
    "wof:created": 1777392985,
    "wof:geomhash": "d26f8a4a9d40aeb65e997520007d0d60",
    "wof:hierarchy": [
      {
        "building_id": 1914600839,
        "campus_id": 102527513,
        "concourse_id": 1914600845,
        "continent_id": 102191575,
        "country_id": 85633793,
        "county_id": 102087579,
        "custom_id": 2031129817,
        "flight_id": 2031129817,
        "locality_id": 85922583,
        "postalcode_id": 554784711,
        "region_id": 85688637,
        "venue_id": 1930457221,
        "wing_id": 1914600841
      },
      {
        "building_id": 1914600839,
        "campus_id": 102527513,
        "concourse_id": 1914600845,
        "continent_id": 102191575,
        "country_id": 85633793,
        "county_id": 102085387,
        "custom_id": 2031129817,
        "flight_id": 2031129817,
        "region_id": 85688637,
        "venue_id": 1930457221,
        "wing_id": 1914600841
      }
    ],
    "wof:id": 2031129817,
    "wof:involves": [
      102536223,
      102527513,
      1159285413,
      1930457221,
      1377564285
    ],
    "wof:lastmodified": 1777393160,
    "wof:name": "UA1145 (SFO-CUN)",
    "wof:parent_id": 1930457221,
    "wof:placetype": "custom",
    "wof:placetype_alt": [
      "flight"
    ],
    "wof:repo": "sfomuseum-data-flights-2026-04",
    "wof:superseded_by": [],
    "wof:supersedes": []
  },
  "bbox": [
    -122.370943,
    21.040317,
    -86.872856,
    37.61799
  ],
  "geometry": {"coordinates":[[-122.370943,37.61799],[-86.872856,21.040317]],"type":"MultiPoint"}
}
