{
  "id": 2015233885,
  "type": "Feature",
  "properties": {
    "geom:area": 0,
    "geom:bbox": "-122.380000,32.770000,-97.040000,37.700000",
    "geom:latitude": 35.46937934646367,
    "geom:longitude": -109.70231036845452,
    "src:alt_label": "swim-route",
    "src:geom": "swim",
    "swim:geom": "route",
    "wof:geomhash": "794d22c06531989cae965367c3aa1bc4",
    "wof:id": 2015233885,
    "wof:repo": "sfomuseum-data-flights-2026-04"
  },
  "bbox": [
    -122.38,
    32.77,
    -97.04,
    37.7
  ],
  "geometry": {"coordinates":[[-97.04,32.9],[-97.08,32.78],[-97.09,32.77],[-97.14,32.77],[-97.19,32.77],[-97.24,32.77],[-97.31,32.79],[-97.39,32.81],[-97.58,32.85],[-97.68,32.88],[-97.69,32.88],[-97.73,32.89],[-97.76,32.9],[-97.78,32.91],[-97.99,32.97],[-98.07,33],[-98.2,33.04],[-98.23,33.05],[-98.45,33.12],[-98.62,33.17],[-98.77,33.22],[-99.15,33.34],[-99.16,33.34],[-99.3,33.38],[-99.59,33.47],[-99.73,33.51],[-100.16,33.64],[-100.22,33.66],[-100.41,33.7],[-102.24,34.12],[-102.86,34.26],[-104.74,34.65],[-106.48,34.98],[-106.74,35.03],[-106.82,35.04],[-107.18,35.1],[-107.54,35.16],[-109.8,35.47],[-110,35.5],[-110.93,35.61],[-111.87,35.71],[-112.11,35.73],[-113.92,36.03],[-114.29,36.09],[-114.49,36.12],[-115.5,36.3],[-115.66,36.32],[-116.2,36.56],[-116.75,36.8],[-117.25,37.24],[-117.31,37.3],[-117.52,37.49],[-119.05,37.61],[-119.6,37.65],[-119.72,37.66],[-119.82,37.66],[-119.92,37.67],[-120.02,37.68],[-120.31,37.69],[-120.4,37.7],[-120.4,37.7],[-120.57,37.68],[-120.69,37.67],[-120.75,37.66],[-120.79,37.65],[-120.8,37.65],[-120.96,37.63],[-121,37.63],[-121.01,37.63],[-121.07,37.62],[-121.17,37.61],[-121.26,37.59],[-121.39,37.58],[-121.41,37.58],[-121.6,37.55],[-121.61,37.55],[-121.62,37.55],[-121.72,37.53],[-121.8,37.51],[-121.88,37.49],[-121.89,37.49],[-122.01,37.53],[-122.08,37.54],[-122.18,37.57],[-122.18,37.57],[-122.28,37.59],[-122.33,37.61],[-122.36,37.61],[-122.38,37.62]],"type":"LineString"}
}
