{
  "id": 2031128625,
  "type": "Feature",
  "properties": {
    "geom:area": 0,
    "geom:bbox": "-122.521944,33.649444,-84.421667,38.393333",
    "geom:latitude": 36.770424723577555,
    "geom:longitude": -103.39299805329279,
    "src:alt_label": "swim-path",
    "src:geom": "swim",
    "swim:altitudes": [
      "008",
      "008",
      "008",
      "008",
      "054",
      "054",
      "088",
      "088",
      "134",
      "134",
      "134",
      "134",
      "134",
      "185",
      "185",
      "185",
      "228",
      "293",
      "293",
      "293",
      "293",
      "293",
      "308",
      "308",
      "308",
      "336",
      "336",
      "336",
      "336",
      "336",
      "379",
      "385",
      "385",
      "385",
      "390C",
      "390C",
      "390C",
      "390C",
      "390C",
      "390C",
      "390C",
      "390C",
      "390C",
      "390C",
      "390C",
      "390C",
      "390C",
      "390C",
      "390C",
      "390C",
      "390C",
      "390C",
      "390C",
      "390C",
      "390C",
      "390C",
      "390C",
      "390C",
      "390C",
      "390C",
      "390C",
      "390C",
      "390C",
      "390C",
      "390C",
      "390C",
      "390C",
      "390C",
      "390C",
      "390C",
      "390C",
      "390C",
      "390C",
      "390C",
      "390C",
      "390C",
      "390C",
      "390C",
      "390C",
      "390C",
      "390C",
      "390C",
      "390C",
      "390C",
      "390C",
      "390C",
      "390C",
      "390C",
      "390C",
      "390C",
      "390C",
      "390C",
      "390C",
      "390C",
      "390C",
      "390C",
      "390C",
      "390C",
      "390C",
      "390C",
      "390C",
      "390C",
      "390C",
      "390C",
      "390C",
      "390C",
      "390C",
      "390C",
      "390C",
      "390C",
      "390C",
      "390C",
      "390C",
      "390C",
      "390C",
      "390C",
      "390C",
      "390C",
      "390C",
      "390C",
      "390C",
      "390C",
      "390C",
      "390C",
      "390C",
      "390C",
      "390C",
      "390C",
      "390C",
      "390C",
      "390C",
      "390C",
      "390C",
      "390C",
      "390C",
      "390C",
      "390C",
      "390C",
      "390C",
      "390C",
      "390C",
      "390C",
      "390C",
      "390C",
      "390C",
      "390C",
      "390C",
      "390C",
      "390C",
      "390C",
      "390C",
      "390C",
      "390C",
      "390C",
      "390C",
      "390C",
      "390C",
      "390C",
      "390C",
      "390C",
      "390C",
      "390C",
      "390C",
      "390C",
      "390C",
      "390C",
      "390C",
      "390C",
      "390C",
      "390C",
      "390C",
      "390C",
      "390C",
      "390C",
      "390C",
      "390C",
      "390C",
      "390C",
      "390C",
      "390C",
      "390C",
      "390C",
      "390C",
      "390C",
      "390C",
      "390C",
      "390C",
      "390C",
      "390C",
      "390C",
      "390C",
      "390C",
      "390C",
      "390C",
      "390C",
      "390C",
      "390C",
      "390C",
      "390C",
      "390C",
      "390C",
      "390C",
      "390C",
      "390C",
      "390C",
      "390C",
      "390C",
      "390C",
      "390C",
      "390C",
      "390C",
      "390C",
      "390C",
      "390C",
      "390C",
      "390C",
      "390C",
      "390C",
      "390C",
      "390C",
      "390C",
      "390C",
      "390C",
      "390C",
      "390C",
      "390C",
      "390C",
      "390C",
      "390C",
      "390C",
      "390C",
      "390C",
      "390C",
      "390C",
      "390C",
      "390C",
      "390C",
      "390C",
      "390C",
      "390C",
      "390C",
      "390C",
      "390C",
      "390C",
      "390C",
      "390C",
      "390C",
      "390C",
      "390C",
      "390C",
      "390C",
      "390C",
      "390C",
      "390C",
      "390C",
      "390C",
      "390C",
      "390C",
      "390C",
      "390C",
      "390C",
      "390C",
      "390C",
      "390C",
      "390C",
      "390C",
      "390C",
      "390C",
      "390C",
      "390C",
      "390C",
      "390C",
      "390C",
      "390C",
      "390C",
      "390C",
      "390C",
      "390C",
      "390C",
      "390C",
      "390C",
      "390C",
      "390C",
      "390C",
      "390C",
      "390C",
      "390C",
      "390C",
      "390C",
      "390C",
      "390C",
      "390C",
      "390C",
      "390C",
      "390C",
      "390C",
      "390C",
      "390C",
      "390C",
      "390C",
      "390C",
      "390C",
      "390C",
      "390C",
      "390C",
      "390C",
      "390C",
      "390C",
      "390C",
      "390C",
      "390C",
      "390C",
      "390C",
      "390C",
      "390C",
      "390C",
      "390C",
      "390C",
      "390C",
      "390C",
      "390C",
      "390C",
      "390C",
      "390C",
      "390C",
      "390C",
      "390C",
      "390C",
      "390C",
      "390C",
      "390C",
      "390C",
      "390C",
      "390C",
      "390C",
      "390C",
      "390C",
      "390C",
      "390C",
      "390C",
      "390C",
      "390C",
      "390C",
      "390C",
      "390C",
      "390C",
      "390C",
      "390C",
      "390C",
      "390C",
      "390C",
      "390C",
      "390C",
      "390C",
      "390C",
      "390C",
      "390C",
      "390C",
      "390C",
      "390C",
      "390C",
      "390C",
      "390C",
      "390C",
      "390C",
      "390C",
      "390C",
      "390C",
      "390C",
      "387",
      "387",
      "387",
      "375",
      "361",
      "361",
      "361",
      "358",
      "358",
      "358",
      "358",
      "350",
      "350",
      "350",
      "350",
      "350",
      "350",
      "350",
      "350",
      "350",
      "331C",
      "331C",
      "331C",
      "331C",
      "331C",
      "330C",
      "330C",
      "330C",
      "330C",
      "330C",
      "330C",
      "330C",
      "330C",
      "330C",
      "330C",
      "330C",
      "330C",
      "330C",
      "330C",
      "330",
      "330",
      "330",
      "330",
      "319",
      "319",
      "319",
      "319",
      "319",
      "310",
      "310",
      "310",
      "310",
      "310",
      "310",
      "310",
      "310",
      "297",
      "297",
      "297",
      "297",
      "297",
      "297",
      "191",
      "191",
      "191",
      "191",
      "191",
      "191",
      "137",
      "137",
      "137",
      "137",
      "134",
      "132",
      "132",
      "132",
      "122",
      "122",
      "109",
      "109",
      "102",
      "102",
      "102",
      "096",
      "096",
      "096",
      "084",
      "084",
      "074",
      "074",
      "074",
      "074",
      "074",
      "050",
      "050",
      "048",
      "048",
      "048",
      "040",
      "040",
      "040",
      "040",
      "040",
      "035",
      "035",
      "025",
      "025",
      "025",
      "025",
      "025",
      "025",
      "025",
      "022",
      "015",
      "010",
      "010",
      "010",
      "010"
    ],
    "swim:geom": "path",
    "swim:speeds": [
      161,
      161,
      161,
      161,
      243,
      243,
      260,
      260,
      339,
      339,
      339,
      339,
      339,
      373,
      373,
      373,
      404,
      455,
      455,
      455,
      455,
      455,
      462,
      462,
      462,
      463,
      463,
      463,
      463,
      463,
      471,
      475,
      473,
      473,
      482,
      481,
      481,
      481,
      482,
      481,
      484,
      484,
      484,
      482,
      484,
      484,
      484,
      484,
      484,
      485,
      485,
      485,
      485,
      486,
      486,
      487,
      487,
      488,
      488,
      488,
      490,
      490,
      490,
      490,
      491,
      492,
      492,
      492,
      494,
      494,
      494,
      494,
      494,
      494,
      497,
      497,
      498,
      498,
      498,
      498,
      498,
      498,
      498,
      498,
      498,
      498,
      497,
      497,
      497,
      497,
      497,
      497,
      497,
      515,
      515,
      515,
      515,
      514,
      514,
      514,
      514,
      514,
      514,
      514,
      514,
      514,
      515,
      515,
      516,
      516,
      516,
      518,
      518,
      518,
      519,
      519,
      519,
      519,
      522,
      524,
      524,
      524,
      524,
      523,
      523,
      523,
      522,
      522,
      522,
      522,
      522,
      523,
      523,
      524,
      524,
      524,
      524,
      524,
      525,
      526,
      526,
      526,
      527,
      527,
      529,
      529,
      530,
      530,
      530,
      530,
      530,
      530,
      530,
      531,
      531,
      534,
      534,
      534,
      534,
      535,
      535,
      536,
      536,
      536,
      536,
      536,
      536,
      535,
      535,
      535,
      535,
      535,
      535,
      537,
      537,
      540,
      540,
      540,
      542,
      542,
      543,
      543,
      543,
      543,
      543,
      544,
      548,
      548,
      548,
      548,
      548,
      550,
      550,
      550,
      549,
      549,
      549,
      551,
      551,
      551,
      551,
      549,
      549,
      549,
      549,
      549,
      549,
      549,
      548,
      548,
      548,
      548,
      549,
      550,
      550,
      549,
      550,
      550,
      550,
      550,
      550,
      549,
      549,
      549,
      548,
      548,
      548,
      550,
      549,
      549,
      549,
      549,
      549,
      550,
      550,
      550,
      553,
      555,
      555,
      556,
      556,
      556,
      559,
      559,
      560,
      560,
      560,
      560,
      560,
      560,
      562,
      560,
      561,
      561,
      561,
      561,
      568,
      568,
      568,
      568,
      568,
      568,
      568,
      568,
      567,
      567,
      567,
      567,
      567,
      567,
      567,
      567,
      567,
      567,
      566,
      566,
      563,
      563,
      563,
      563,
      559,
      559,
      559,
      556,
      556,
      556,
      556,
      555,
      555,
      555,
      553,
      553,
      554,
      554,
      551,
      551,
      552,
      552,
      552,
      552,
      552,
      550,
      548,
      548,
      548,
      547,
      547,
      545,
      545,
      545,
      544,
      544,
      544,
      544,
      538,
      538,
      538,
      538,
      538,
      538,
      534,
      534,
      534,
      534,
      534,
      536,
      536,
      536,
      536,
      536,
      536,
      536,
      536,
      534,
      534,
      534,
      534,
      533,
      533,
      533,
      533,
      533,
      526,
      526,
      526,
      531,
      531,
      531,
      530,
      530,
      530,
      530,
      514,
      514,
      514,
      502,
      502,
      502,
      502,
      502,
      502,
      502,
      506,
      506,
      506,
      506,
      506,
      506,
      506,
      505,
      505,
      505,
      503,
      502,
      502,
      502,
      511,
      511,
      511,
      511,
      511,
      510,
      510,
      510,
      510,
      510,
      510,
      510,
      510,
      494,
      494,
      494,
      494,
      494,
      494,
      494,
      494,
      494,
      494,
      493,
      493,
      493,
      493,
      493,
      495,
      495,
      501,
      501,
      504,
      504,
      504,
      504,
      502,
      502,
      502,
      502,
      502,
      504,
      504,
      504,
      503,
      503,
      503,
      503,
      503,
      500,
      500,
      500,
      500,
      500,
      500,
      466,
      466,
      466,
      466,
      466,
      466,
      402,
      402,
      402,
      402,
      371,
      342,
      342,
      342,
      313,
      313,
      306,
      306,
      304,
      304,
      304,
      291,
      291,
      291,
      241,
      241,
      239,
      239,
      239,
      239,
      239,
      215,
      215,
      201,
      201,
      201,
      187,
      187,
      186,
      186,
      186,
      189,
      189,
      164,
      164,
      164,
      164,
      164,
      164,
      164,
      142,
      133,
      131,
      131,
      131,
      131
    ],
    "swim:timestamps": [
      1777295575,
      1777295575,
      1777295575,
      1777295575,
      1777295695,
      1777295695,
      1777295755,
      1777295755,
      1777295875,
      1777295875,
      1777295875,
      1777295875,
      1777295875,
      1777295995,
      1777295995,
      1777295995,
      1777296115,
      1777296355,
      1777296355,
      1777296355,
      1777296355,
      1777296355,
      1777296416,
      1777296416,
      1777296416,
      1777296536,
      1777296536,
      1777296536,
      1777296536,
      1777296536,
      1777296782,
      1777296836,
      1777296842,
      1777296842,
      1777296902,
      1777296956,
      1777296956,
      1777296956,
      1777297022,
      1777297076,
      1777297136,
      1777297136,
      1777297136,
      1777297142,
      1777297196,
      1777297196,
      1777297196,
      1777297256,
      1777297256,
      1777297382,
      1777297382,
      1777297382,
      1777297382,
      1777297436,
      1777297436,
      1777297496,
      1777297496,
      1777297556,
      1777297556,
      1777297556,
      1777297622,
      1777297622,
      1777297622,
      1777297622,
      1777297677,
      1777297803,
      1777297857,
      1777297917,
      1777298037,
      1777298037,
      1777298043,
      1777298043,
      1777298043,
      1777298097,
      1777298223,
      1777298223,
      1777298295,
      1777298295,
      1777298295,
      1777298355,
      1777298355,
      1777298355,
      1777298355,
      1777298476,
      1777298476,
      1777298476,
      1777298596,
      1777298716,
      1777298716,
      1777298716,
      1777298716,
      1777298716,
      1777298716,
      1777299196,
      1777299196,
      1777299196,
      1777299196,
      1777299346,
      1777299346,
      1777299346,
      1777299346,
      1777299377,
      1777299406,
      1777299406,
      1777299437,
      1777299437,
      1777299466,
      1777299497,
      1777299557,
      1777299557,
      1777299557,
      1777299617,
      1777299617,
      1777299617,
      1777299677,
      1777299677,
      1777299677,
      1777299677,
      1777299737,
      1777299826,
      1777299826,
      1777299826,
      1777299886,
      1777299917,
      1777299917,
      1777299917,
      1777299978,
      1777299978,
      1777300038,
      1777300038,
      1777300038,
      1777300098,
      1777300098,
      1777300158,
      1777300158,
      1777300158,
      1777300158,
      1777300158,
      1777300218,
      1777300278,
      1777300278,
      1777300278,
      1777300307,
      1777300338,
      1777300458,
      1777300458,
      1777300487,
      1777300487,
      1777300518,
      1777300518,
      1777300518,
      1777300518,
      1777300518,
      1777300547,
      1777300547,
      1777300788,
      1777300788,
      1777300788,
      1777300848,
      1777300908,
      1777300908,
      1777301088,
      1777301088,
      1777301088,
      1777301088,
      1777301088,
      1777301088,
      1777301268,
      1777301268,
      1777301268,
      1777301268,
      1777301268,
      1777301268,
      1777301388,
      1777301388,
      1777301509,
      1777301509,
      1777301509,
      1777301569,
      1777301569,
      1777301629,
      1777301629,
      1777301629,
      1777301629,
      1777301629,
      1777301748,
      1777301868,
      1777301868,
      1777301868,
      1777301868,
      1777301868,
      1777301929,
      1777301929,
      1777301929,
      1777301989,
      1777301989,
      1777301989,
      1777302109,
      1777302109,
      1777302109,
      1777302109,
      1777302283,
      1777302283,
      1777302283,
      1777302283,
      1777302283,
      1777302283,
      1777302283,
      1777302470,
      1777302470,
      1777302470,
      1777302470,
      1777302530,
      1777302583,
      1777302583,
      1777302590,
      1777302643,
      1777302650,
      1777302650,
      1777302650,
      1777302703,
      1777302770,
      1777302770,
      1777302770,
      1777302890,
      1777302890,
      1777302890,
      1777302944,
      1777302950,
      1777303010,
      1777303010,
      1777303010,
      1777303010,
      1777303070,
      1777303070,
      1777303070,
      1777303124,
      1777303184,
      1777303184,
      1777303251,
      1777303251,
      1777303251,
      1777303305,
      1777303305,
      1777303365,
      1777303365,
      1777303365,
      1777303365,
      1777303365,
      1777303365,
      1777303425,
      1777303431,
      1777303491,
      1777303491,
      1777303491,
      1777303491,
      1777303905,
      1777303905,
      1777303905,
      1777303905,
      1777303966,
      1777303966,
      1777303966,
      1777303966,
      1777304026,
      1777304086,
      1777304086,
      1777304146,
      1777304146,
      1777304146,
      1777304146,
      1777304206,
      1777304206,
      1777304206,
      1777304339,
      1777304339,
      1777304386,
      1777304386,
      1777304386,
      1777304386,
      1777304566,
      1777304566,
      1777304566,
      1777304640,
      1777304640,
      1777304640,
      1777304640,
      1777304700,
      1777304760,
      1777304760,
      1777304807,
      1777304807,
      1777304820,
      1777304820,
      1777304927,
      1777304927,
      1777304987,
      1777304987,
      1777304987,
      1777304987,
      1777304987,
      1777305167,
      1777305227,
      1777305241,
      1777305241,
      1777305288,
      1777305288,
      1777305348,
      1777305348,
      1777305348,
      1777305361,
      1777305361,
      1777305361,
      1777305361,
      1777305661,
      1777305661,
      1777305661,
      1777305661,
      1777305661,
      1777305661,
      1777305842,
      1777305842,
      1777305842,
      1777305902,
      1777305902,
      1777306094,
      1777306094,
      1777306094,
      1777306094,
      1777306094,
      1777306154,
      1777306154,
      1777306154,
      1777306214,
      1777306214,
      1777306214,
      1777306214,
      1777306274,
      1777306274,
      1777306334,
      1777306334,
      1777306334,
      1777306377,
      1777306377,
      1777306377,
      1777306437,
      1777306437,
      1777306437,
      1777306454,
      1777306454,
      1777306454,
      1777306454,
      1777306515,
      1777306515,
      1777306515,
      1777306677,
      1777306677,
      1777306677,
      1777306677,
      1777306677,
      1777306677,
      1777306677,
      1777306935,
      1777306935,
      1777306935,
      1777306935,
      1777306935,
      1777306935,
      1777306935,
      1777307038,
      1777307038,
      1777307038,
      1777307098,
      1777307158,
      1777307158,
      1777307158,
      1777307175,
      1777307175,
      1777307175,
      1777307175,
      1777307279,
      1777307296,
      1777307296,
      1777307296,
      1777307296,
      1777307296,
      1777307296,
      1777307339,
      1777307339,
      1777307476,
      1777307476,
      1777307476,
      1777307476,
      1777307476,
      1777307519,
      1777307519,
      1777307536,
      1777307579,
      1777307579,
      1777307596,
      1777307639,
      1777307639,
      1777307639,
      1777307639,
      1777307656,
      1777307656,
      1777307716,
      1777307716,
      1777307836,
      1777307836,
      1777307836,
      1777307836,
      1777307896,
      1777307896,
      1777307896,
      1777307896,
      1777307896,
      1777308060,
      1777308060,
      1777308060,
      1777308077,
      1777308077,
      1777308120,
      1777308120,
      1777308120,
      1777308180,
      1777308180,
      1777308180,
      1777308180,
      1777308180,
      1777308180,
      1777308360,
      1777308360,
      1777308360,
      1777308360,
      1777308360,
      1777308360,
      1777308502,
      1777308502,
      1777308502,
      1777308502,
      1777308541,
      1777308562,
      1777308562,
      1777308562,
      1777308623,
      1777308623,
      1777308683,
      1777308683,
      1777308721,
      1777308721,
      1777308721,
      1777308743,
      1777308743,
      1777308743,
      1777308841,
      1777308841,
      1777308868,
      1777308868,
      1777308868,
      1777308868,
      1777308868,
      1777308983,
      1777308983,
      1777309022,
      1777309022,
      1777309022,
      1777309103,
      1777309103,
      1777309142,
      1777309142,
      1777309142,
      1777309168,
      1777309168,
      1777309228,
      1777309228,
      1777309228,
      1777309228,
      1777309228,
      1777309228,
      1777309228,
      1777309262,
      1777309322,
      1777309382,
      1777309382,
      1777309382,
      1777309382
    ],
    "wof:geomhash": "7e8be3661b86ef6ce98a77937b06bd2c",
    "wof:id": 2031128625,
    "wof:repo": "sfomuseum-data-flights-2026-04"
  },
  "bbox": [
    -122.52194444444444,
    33.64944444444444,
    -84.42166666666667,
    38.39333333333333
  ],
  "geometry": {"coordinates":[[-122.3888888888889,37.62444444444444],[-122.3888888888889,37.62444444444444],[-122.3888888888889,37.62444444444444],[-122.3888888888889,37.62444444444444],[-122.505,37.67472222222222],[-122.505,37.67472222222222],[-122.52194444444444,37.74111111111111],[-122.52194444444444,37.74111111111111],[-122.39944444444446,37.84166666666667],[-122.39944444444446,37.84166666666667],[-122.39944444444446,37.84166666666667],[-122.39944444444446,37.84166666666667],[-122.39944444444446,37.84166666666667],[-122.14611111111111,37.8725],[-122.14611111111111,37.8725],[-122.14611111111111,37.8725],[-121.86861111111111,37.90222222222222],[-121.24277777777777,37.96222222222222],[-121.24277777777777,37.96222222222222],[-121.24277777777777,37.96222222222222],[-121.24277777777777,37.96222222222222],[-121.24277777777777,37.96222222222222],[-121.08194444444445,37.977222222222224],[-121.08194444444445,37.977222222222224],[-121.08194444444445,37.977222222222224],[-120.76027777777777,38.006388888888885],[-120.76027777777777,38.006388888888885],[-120.76027777777777,38.006388888888885],[-120.76027777777777,38.006388888888885],[-120.76027777777777,38.006388888888885],[-120.08583333333333,38.06333333333333],[-119.93305555555555,38.077222222222225],[-119.91916666666667,38.077222222222225],[-119.91916666666667,38.077222222222225],[-119.74861111111112,38.09],[-119.59472222222222,38.10444444444445],[-119.59472222222222,38.10444444444445],[-119.59472222222222,38.10444444444445],[-119.41361111111112,38.1175],[-119.25916666666667,38.13027777777778],[-119.07555555555555,38.14416666666666],[-119.07555555555555,38.14416666666666],[-119.07555555555555,38.14416666666666],[-119.07527777777777,38.144999999999996],[-118.90666666666667,38.156666666666666],[-118.90666666666667,38.156666666666666],[-118.90666666666667,38.156666666666666],[-118.73805555555556,38.16888888888889],[-118.73805555555556,38.16888888888889],[-118.39861111111112,38.19277777777778],[-118.39861111111112,38.19277777777778],[-118.39861111111112,38.19277777777778],[-118.39861111111112,38.19277777777778],[-118.22638888888889,38.20444444444445],[-118.22638888888889,38.20444444444445],[-118.04972222222221,38.21611111111111],[-118.04972222222221,38.21611111111111],[-117.87805555555555,38.227222222222224],[-117.87805555555555,38.227222222222224],[-117.87805555555555,38.227222222222224],[-117.70583333333333,38.23833333333334],[-117.70583333333333,38.23833333333334],[-117.70583333333333,38.23833333333334],[-117.70583333333333,38.23833333333334],[-117.52833333333334,38.24916666666667],[-117.17750000000001,38.269999999999996],[-117.03361111111111,38.27833333333333],[-116.85777777777777,38.288333333333334],[-116.50638888888889,38.30694444444444],[-116.50638888888889,38.30694444444444],[-116.47666666666667,38.308611111111105],[-116.47666666666667,38.308611111111105],[-116.47666666666667,38.308611111111105],[-116.33333333333333,38.31583333333333],[-115.94916666666667,38.334722222222226],[-115.94916666666667,38.334722222222226],[-115.73583333333333,38.344722222222224],[-115.73583333333333,38.344722222222224],[-115.73583333333333,38.344722222222224],[-115.56138888888889,38.352222222222224],[-115.56138888888889,38.352222222222224],[-115.56138888888889,38.352222222222224],[-115.56138888888889,38.352222222222224],[-115.22972222222222,38.36666666666667],[-115.22972222222222,38.36666666666667],[-115.22972222222222,38.36666666666667],[-114.87805555555555,38.38055555555555],[-114.52666666666667,38.39333333333333],[-114.52666666666667,38.39333333333333],[-114.52666666666667,38.39333333333333],[-114.52666666666667,38.39333333333333],[-114.52666666666667,38.39333333333333],[-114.52666666666667,38.39333333333333],[-113.1563888888889,38.1425],[-113.1563888888889,38.1425],[-113.1563888888889,38.1425],[-113.1563888888889,38.1425],[-112.68555555555555,38.105555555555554],[-112.68555555555555,38.105555555555554],[-112.68555555555555,38.105555555555554],[-112.68555555555555,38.105555555555554],[-112.61361111111111,38.099722222222226],[-112.50416666666666,38.090833333333336],[-112.50416666666666,38.090833333333336],[-112.43111111111112,38.084722222222226],[-112.43111111111112,38.084722222222226],[-112.3236111111111,38.075833333333335],[-112.24888888888889,38.069722222222225],[-112.06833333333333,38.05416666666667],[-112.06833333333333,38.05416666666667],[-112.06833333333333,38.05416666666667],[-111.88472222222222,38.038333333333334],[-111.88472222222222,38.038333333333334],[-111.88472222222222,38.038333333333334],[-111.70305555555557,38.02222222222222],[-111.70305555555557,38.02222222222222],[-111.70305555555557,38.02222222222222],[-111.70305555555557,38.02222222222222],[-111.51805555555555,38.00555555555555],[-111.22555555555556,37.978611111111114],[-111.22555555555556,37.978611111111114],[-111.22555555555556,37.978611111111114],[-111.04083333333332,37.96138888888889],[-110.9675,37.95444444444445],[-110.9675,37.95444444444445],[-110.9675,37.95444444444445],[-110.76638888888888,37.93472222222222],[-110.76638888888888,37.93472222222222],[-110.585,37.91694444444444],[-110.585,37.91694444444444],[-110.585,37.91694444444444],[-110.40194444444445,37.89888888888889],[-110.40194444444445,37.89888888888889],[-110.22166666666666,37.88055555555555],[-110.22166666666666,37.88055555555555],[-110.22166666666666,37.88055555555555],[-110.22166666666666,37.88055555555555],[-110.22166666666666,37.88055555555555],[-110.03972222222222,37.86194444444445],[-109.85416666666666,37.8425],[-109.85416666666666,37.8425],[-109.85416666666666,37.8425],[-109.79305555555555,37.836111111111116],[-109.67166666666667,37.823055555555555],[-109.30555555555556,37.78333333333333],[-109.30555555555556,37.78333333333333],[-109.23722222222223,37.77583333333333],[-109.23722222222223,37.77583333333333],[-109.11638888888888,37.7625],[-109.11638888888888,37.7625],[-109.11638888888888,37.7625],[-109.11638888888888,37.7625],[-109.11638888888888,37.7625],[-109.05416666666666,37.75527777777778],[-109.05416666666666,37.75527777777778],[-108.30888888888889,37.66916666666666],[-108.30888888888889,37.66916666666666],[-108.30888888888889,37.66916666666666],[-108.12472222222222,37.64722222222222],[-107.93833333333333,37.62444444444444],[-107.93833333333333,37.62444444444444],[-107.38055555555555,37.555],[-107.38055555555555,37.555],[-107.38055555555555,37.555],[-107.38055555555555,37.555],[-107.38055555555555,37.555],[-107.38055555555555,37.555],[-106.82777777777777,37.483333333333334],[-106.82777777777777,37.483333333333334],[-106.82777777777777,37.483333333333334],[-106.82777777777777,37.483333333333334],[-106.82777777777777,37.483333333333334],[-106.82777777777777,37.483333333333334],[-106.45861111111111,37.43388888888889],[-106.45861111111111,37.43388888888889],[-106.08583333333333,37.38305555555556],[-106.08583333333333,37.38305555555556],[-106.08583333333333,37.38305555555556],[-105.89722222222223,37.35666666666667],[-105.89722222222223,37.35666666666667],[-105.71138888888889,37.33027777777778],[-105.71138888888889,37.33027777777778],[-105.71138888888889,37.33027777777778],[-105.71138888888889,37.33027777777778],[-105.71138888888889,37.33027777777778],[-105.33555555555554,37.27611111111111],[-104.96055555555556,37.221111111111114],[-104.96055555555556,37.221111111111114],[-104.96055555555556,37.221111111111114],[-104.96055555555556,37.221111111111114],[-104.96055555555556,37.221111111111114],[-104.76666666666667,37.19194444444444],[-104.76666666666667,37.19194444444444],[-104.76666666666667,37.19194444444444],[-104.58027777777778,37.16361111111111],[-104.58027777777778,37.16361111111111],[-104.58027777777778,37.16361111111111],[-104.20694444444445,37.10611111111111],[-104.20694444444445,37.10611111111111],[-104.20694444444445,37.10611111111111],[-104.20694444444445,37.10611111111111],[-103.64277777777778,37.01638888888889],[-103.64277777777778,37.01638888888889],[-103.64277777777778,37.01638888888889],[-103.64277777777778,37.01638888888889],[-103.64277777777778,37.01638888888889],[-103.64277777777778,37.01638888888889],[-103.64277777777778,37.01638888888889],[-103.06055555555555,36.920833333333334],[-103.06055555555555,36.920833333333334],[-103.06055555555555,36.920833333333334],[-103.06055555555555,36.920833333333334],[-102.87472222222222,36.88972222222222],[-102.72166666666666,36.86388888888889],[-102.72166666666666,36.86388888888889],[-102.72444444444444,36.864444444444445],[-102.53833333333333,36.8325],[-102.53833333333333,36.8325],[-102.53833333333333,36.8325],[-102.53833333333333,36.8325],[-102.35249999999999,36.800555555555555],[-102.16305555555556,36.7675],[-102.16305555555556,36.7675],[-102.16305555555556,36.7675],[-101.79583333333333,36.70416666666667],[-101.79583333333333,36.70416666666667],[-101.79583333333333,36.70416666666667],[-101.61138888888888,36.68583333333333],[-101.61277777777777,36.68583333333333],[-101.4225,36.67111111111111],[-101.4225,36.67111111111111],[-101.4225,36.67111111111111],[-101.4225,36.67111111111111],[-101.23166666666667,36.656666666666666],[-101.23166666666667,36.656666666666666],[-101.23166666666667,36.656666666666666],[-101.04138888888889,36.6425],[-100.85277777777777,36.62833333333333],[-100.85277777777777,36.62833333333333],[-100.6236111111111,36.61083333333333],[-100.6236111111111,36.61083333333333],[-100.6236111111111,36.61083333333333],[-100.47111111111111,36.598888888888894],[-100.47111111111111,36.598888888888894],[-100.27888888888889,36.58361111111111],[-100.27888888888889,36.58361111111111],[-100.27888888888889,36.58361111111111],[-100.27888888888889,36.58361111111111],[-100.27888888888889,36.58361111111111],[-100.27888888888889,36.58361111111111],[-100.08694444444444,36.56777777777778],[-100.04777777777778,36.56472222222222],[-99.85,36.54833333333333],[-99.85,36.54833333333333],[-99.85,36.54833333333333],[-99.85,36.54833333333333],[-98.51416666666667,36.42333333333333],[-98.51416666666667,36.42333333333333],[-98.51416666666667,36.42333333333333],[-98.51416666666667,36.42333333333333],[-98.3175,36.403888888888886],[-98.3175,36.403888888888886],[-98.3175,36.403888888888886],[-98.3175,36.403888888888886],[-98.12416666666665,36.384166666666665],[-97.92972222222222,36.36416666666667],[-97.92972222222222,36.36416666666667],[-97.73694444444445,36.34388888888889],[-97.73694444444445,36.34388888888889],[-97.73694444444445,36.34388888888889],[-97.73694444444445,36.34388888888889],[-97.54416666666667,36.32333333333334],[-97.54416666666667,36.32333333333334],[-97.54416666666667,36.32333333333334],[-97.10749999999999,36.275277777777774],[-97.10749999999999,36.275277777777774],[-96.96472222222222,36.25944444444445],[-96.96472222222222,36.25944444444445],[-96.96472222222222,36.25944444444445],[-96.96472222222222,36.25944444444445],[-96.385,36.19277777777778],[-96.385,36.19277777777778],[-96.385,36.19277777777778],[-96.165,36.166666666666664],[-96.165,36.166666666666664],[-96.165,36.166666666666664],[-96.165,36.166666666666664],[-95.97444444444444,36.14388888888889],[-95.78805555555556,36.12111111111111],[-95.78805555555556,36.12111111111111],[-95.63777777777779,36.1025],[-95.63777777777779,36.1025],[-95.60583333333332,36.09861111111111],[-95.60583333333332,36.09861111111111],[-95.2675,36.05611111111111],[-95.2675,36.05611111111111],[-95.08027777777778,36.03194444444444],[-95.08027777777778,36.03194444444444],[-95.08027777777778,36.03194444444444],[-95.08027777777778,36.03194444444444],[-95.08027777777778,36.03194444444444],[-94.52388888888889,35.956944444444446],[-94.33888888888889,35.93111111111111],[-94.30472222222222,35.92638888888889],[-94.30472222222222,35.92638888888889],[-94.15361111111112,35.905277777777776],[-94.15361111111112,35.905277777777776],[-93.97083333333333,35.87916666666667],[-93.97083333333333,35.87916666666667],[-93.97083333333333,35.87916666666667],[-93.93805555555556,35.87444444444444],[-93.93805555555556,35.87444444444444],[-93.93805555555556,35.87444444444444],[-93.93805555555556,35.87444444444444],[-93.03222222222222,35.74111111111111],[-93.03222222222222,35.74111111111111],[-93.03222222222222,35.74111111111111],[-93.03222222222222,35.74111111111111],[-93.03222222222222,35.74111111111111],[-93.03222222222222,35.74111111111111],[-92.48055555555555,35.656666666666666],[-92.48055555555555,35.656666666666666],[-92.48055555555555,35.656666666666666],[-92.3025,35.62861111111111],[-92.3025,35.62861111111111],[-91.7375,35.50972222222222],[-91.7375,35.50972222222222],[-91.7375,35.50972222222222],[-91.7375,35.50972222222222],[-91.7375,35.50972222222222],[-91.57138888888889,35.45305555555556],[-91.57138888888889,35.45305555555556],[-91.57138888888889,35.45305555555556],[-91.40472222222223,35.395833333333336],[-91.40472222222223,35.395833333333336],[-91.40472222222223,35.395833333333336],[-91.40472222222223,35.395833333333336],[-91.23555555555555,35.337500000000006],[-91.23555555555555,35.337500000000006],[-91.06944444444444,35.28],[-91.06944444444444,35.28],[-91.06944444444444,35.28],[-90.98111111111112,35.24805555555556],[-90.98111111111112,35.24805555555556],[-90.98111111111112,35.24805555555556],[-90.81277777777777,35.19],[-90.81277777777777,35.19],[-90.81277777777777,35.19],[-90.73361111111112,35.174166666666665],[-90.73361111111112,35.174166666666665],[-90.73361111111112,35.174166666666665],[-90.73361111111112,35.174166666666665],[-90.56138888888889,35.150277777777774],[-90.56138888888889,35.150277777777774],[-90.56138888888889,35.150277777777774],[-90.13916666666667,35.077222222222225],[-90.13916666666667,35.077222222222225],[-90.13916666666667,35.077222222222225],[-90.13916666666667,35.077222222222225],[-90.13916666666667,35.077222222222225],[-90.13916666666667,35.077222222222225],[-90.13916666666667,35.077222222222225],[-89.41305555555556,34.958333333333336],[-89.41305555555556,34.958333333333336],[-89.41305555555556,34.958333333333336],[-89.41305555555556,34.958333333333336],[-89.41305555555556,34.958333333333336],[-89.41305555555556,34.958333333333336],[-89.41305555555556,34.958333333333336],[-89.135,34.915],[-89.135,34.915],[-89.135,34.915],[-88.96916666666667,34.89333333333333],[-88.80055555555555,34.869166666666665],[-88.80055555555555,34.869166666666665],[-88.80055555555555,34.869166666666665],[-88.74305555555556,34.86055555555556],[-88.74305555555556,34.86055555555556],[-88.74305555555556,34.86055555555556],[-88.74305555555556,34.86055555555556],[-88.42472222222223,34.814166666666665],[-88.38944444444445,34.80916666666666],[-88.38944444444445,34.80916666666666],[-88.38944444444445,34.80916666666666],[-88.38944444444445,34.80916666666666],[-88.38944444444445,34.80916666666666],[-88.38944444444445,34.80916666666666],[-88.25416666666666,34.78916666666667],[-88.25416666666666,34.78916666666667],[-87.88916666666667,34.73444444444444],[-87.88916666666667,34.73444444444444],[-87.88916666666667,34.73444444444444],[-87.88916666666667,34.73444444444444],[-87.88916666666667,34.73444444444444],[-87.75944444444444,34.715],[-87.75944444444444,34.715],[-87.72416666666666,34.70944444444445],[-87.62666666666667,34.69444444444444],[-87.62666666666667,34.69444444444444],[-87.55916666666667,34.68416666666666],[-87.46194444444444,34.66916666666666],[-87.46194444444444,34.66916666666666],[-87.46194444444444,34.66916666666666],[-87.46194444444444,34.66916666666666],[-87.39361111111111,34.658055555555556],[-87.39361111111111,34.658055555555556],[-87.22777777777777,34.62361111111111],[-87.22777777777777,34.62361111111111],[-86.8938888888889,34.555],[-86.8938888888889,34.555],[-86.8938888888889,34.555],[-86.8938888888889,34.555],[-86.73166666666667,34.52194444444444],[-86.73166666666667,34.52194444444444],[-86.73166666666667,34.52194444444444],[-86.73166666666667,34.52194444444444],[-86.73166666666667,34.52194444444444],[-86.3025,34.43277777777777],[-86.3025,34.43277777777777],[-86.3025,34.43277777777777],[-86.23611111111111,34.41888888888889],[-86.23611111111111,34.41888888888889],[-86.14027777777778,34.39861111111111],[-86.14027777777778,34.39861111111111],[-86.14027777777778,34.39861111111111],[-85.97694444444444,34.36361111111111],[-85.97694444444444,34.36361111111111],[-85.97694444444444,34.36361111111111],[-85.97694444444444,34.36361111111111],[-85.97694444444444,34.36361111111111],[-85.97694444444444,34.36361111111111],[-85.48027777777779,34.256388888888885],[-85.48027777777779,34.256388888888885],[-85.48027777777779,34.256388888888885],[-85.48027777777779,34.256388888888885],[-85.48027777777779,34.256388888888885],[-85.48027777777779,34.256388888888885],[-85.15,34.18333333333333],[-85.15,34.18333333333333],[-85.15,34.18333333333333],[-85.15,34.18333333333333],[-85.07527777777777,34.1675],[-85.03333333333333,34.15],[-85.03333333333333,34.15],[-85.03333333333333,34.15],[-84.95,34.1],[-84.95,34.1],[-84.91666666666667,34.016666666666666],[-84.91666666666667,34.016666666666666],[-84.88555555555556,33.980000000000004],[-84.88555555555556,33.980000000000004],[-84.88555555555556,33.980000000000004],[-84.86666666666666,33.95],[-84.86666666666666,33.95],[-84.86666666666666,33.95],[-84.83083333333333,33.83583333333333],[-84.83083333333333,33.83583333333333],[-84.81666666666666,33.8],[-84.81666666666666,33.8],[-84.81666666666666,33.8],[-84.81666666666666,33.8],[-84.81666666666666,33.8],[-84.76666666666667,33.68333333333333],[-84.76666666666667,33.68333333333333],[-84.74111111111111,33.67611111111111],[-84.74111111111111,33.67611111111111],[-84.74111111111111,33.67611111111111],[-84.65,33.65],[-84.65,33.65],[-84.62472222222222,33.64944444444444],[-84.62472222222222,33.64944444444444],[-84.62472222222222,33.64944444444444],[-84.58333333333333,33.65],[-84.58333333333333,33.65],[-84.53333333333333,33.65],[-84.53333333333333,33.65],[-84.53333333333333,33.65],[-84.53333333333333,33.65],[-84.53333333333333,33.65],[-84.53333333333333,33.65],[-84.53333333333333,33.65],[-84.51083333333334,33.64944444444444],[-84.46666666666667,33.64944444444444],[-84.42166666666667,33.64972222222222],[-84.42166666666667,33.64972222222222],[-84.42166666666667,33.64972222222222],[-84.42166666666667,33.64972222222222]],"type":"LineString"}
}
