{
  "id": 2031096107,
  "type": "Feature",
  "properties": {
    "geom:area": 0,
    "geom:bbox": "-122.550000,33.955556,-118.266667,37.666667",
    "geom:latitude": 35.78726866678684,
    "geom:longitude": -120.41060264029109,
    "src:alt_label": "swim-path",
    "src:geom": "swim",
    "swim:altitudes": [
      "027",
      "057",
      "113",
      "113",
      "175",
      "198",
      "247",
      "247",
      "322",
      "350C",
      "350C",
      "350C",
      "350C",
      "350C",
      "350C",
      "350C",
      "350",
      "350",
      "350",
      "350",
      "258",
      "258",
      "199",
      "199",
      "143",
      "125",
      "118",
      "082",
      "082",
      "026",
      "007"
    ],
    "swim:geom": "path",
    "swim:speeds": [
      218,
      265,
      338,
      338,
      360,
      378,
      439,
      439,
      483,
      484,
      484,
      485,
      484,
      484,
      481,
      471,
      470,
      470,
      470,
      472,
      437,
      437,
      400,
      400,
      367,
      357,
      323,
      286,
      286,
      177,
      146
    ],
    "swim:timestamps": [
      1776969933,
      1776969999,
      1776970113,
      1776970113,
      1776970229,
      1776970289,
      1776970413,
      1776970413,
      1776970649,
      1776970769,
      1776970769,
      1776970834,
      1776971010,
      1776971010,
      1776971250,
      1776971310,
      1776971430,
      1776971430,
      1776971490,
      1776971611,
      1776971851,
      1776971851,
      1776972031,
      1776972031,
      1776972199,
      1776972260,
      1776972332,
      1776972512,
      1776972512,
      1776972799,
      1776972933
    ],
    "wof:geomhash": "429e5f0707f0d40ec38cda72d73d70a0",
    "wof:id": 2031096107,
    "wof:repo": "sfomuseum-data-flights-2026-04"
  },
  "bbox": [
    -122.55,
    33.955555555555556,
    -118.26666666666667,
    37.666666666666664
  ],
  "geometry": {"coordinates":[[-122.4575,37.653888888888886],[-122.55,37.666666666666664],[-122.51222222222222,37.53194444444444],[-122.51222222222222,37.53194444444444],[-122.33388888888888,37.40472222222222],[-122.23166666666667,37.331944444444446],[-122.00916666666667,37.15694444444444],[-122.00916666666667,37.15694444444444],[-121.53916666666666,36.802499999999995],[-121.29666666666667,36.61694444444444],[-121.29666666666667,36.61694444444444],[-121.17222222222223,36.5175],[-120.80527777777777,36.25277777777778],[-120.80527777777777,36.25277777777778],[-120.30499999999999,35.900277777777774],[-120.2063888888889,35.796388888888885],[-120.0363888888889,35.57166666666667],[-120.0363888888889,35.57166666666667],[-119.95083333333334,35.45805555555556],[-119.775,35.23638888888889],[-119.40055555555556,34.83027777777778],[-119.40055555555556,34.83027777777778],[-119.16416666666667,34.56055555555555],[-119.16416666666667,34.56055555555555],[-118.95,34.3],[-118.86666666666666,34.233333333333334],[-118.79722222222222,34.152499999999996],[-118.56027777777777,34.01972222222222],[-118.56027777777777,34.01972222222222],[-118.26666666666667,33.983333333333334],[-118.36805555555554,33.955555555555556]],"type":"LineString"}
}
