{
  "id": 2031092395,
  "type": "Feature",
  "properties": {
    "geom:area": 0,
    "geom:bbox": "-122.353889,30.093056,-97.723889,37.616667",
    "geom:latitude": 33.03695076121348,
    "geom:longitude": -110.53265982075392,
    "src:alt_label": "swim-path",
    "src:geom": "swim",
    "swim:altitudes": [
      "047",
      "047",
      "061",
      "061",
      "060",
      "060",
      "146",
      "146",
      "146",
      "184",
      "224",
      "224",
      "224",
      "297",
      "297",
      "297",
      "300C",
      "300C",
      "300C",
      "300C",
      "300C",
      "300C",
      "300C",
      "300C",
      "300C",
      "300C",
      "300C",
      "300C",
      "300C",
      "300C",
      "300C",
      "300C",
      "300C",
      "300C",
      "300C",
      "300C",
      "300C",
      "300C",
      "300C",
      "300C",
      "300C",
      "300C",
      "300C",
      "300C",
      "300C",
      "300C",
      "300C",
      "301C",
      "301C",
      "301C",
      "301C",
      "300C",
      "300C",
      "300C",
      "300C",
      "300C",
      "300C",
      "300C",
      "300C",
      "300C",
      "300C",
      "300C",
      "300C",
      "300C",
      "300C",
      "300",
      "315",
      "315",
      "315",
      "340C",
      "340C",
      "340C",
      "340C",
      "340C",
      "341C",
      "341C",
      "341C",
      "341C",
      "341C",
      "340C",
      "340C",
      "340C",
      "340C",
      "340C",
      "340C",
      "340C",
      "340C",
      "340C",
      "340C",
      "340C",
      "340C",
      "340C",
      "340C",
      "340C",
      "340C",
      "340C",
      "340C",
      "340C",
      "340C",
      "340C",
      "340C",
      "340C",
      "340C",
      "340C",
      "340C",
      "341C",
      "341C",
      "340C",
      "340C",
      "339C",
      "340C",
      "340C",
      "341C",
      "340C",
      "340C",
      "356",
      "360C",
      "360C",
      "360C",
      "360C",
      "360C",
      "360C",
      "361C",
      "361C",
      "361C",
      "360C",
      "360C",
      "360C",
      "360C",
      "360C",
      "360C",
      "360C",
      "360C",
      "360C",
      "360C",
      "360C",
      "360C",
      "360C",
      "360C",
      "360C",
      "360C",
      "360C",
      "360C",
      "360C",
      "360C",
      "360C",
      "360C",
      "360C",
      "360C",
      "360C",
      "360C",
      "360C",
      "360C",
      "360C",
      "360C",
      "360C",
      "360C",
      "360C",
      "360C",
      "360C",
      "360C",
      "360C",
      "360C",
      "360C",
      "360C",
      "360C",
      "360C",
      "360C",
      "360C",
      "359C",
      "359C",
      "360C",
      "360C",
      "360C",
      "360C",
      "360C",
      "360C",
      "360C",
      "360C",
      "360C",
      "360C",
      "360C",
      "360C",
      "360C",
      "360C",
      "360C",
      "360C",
      "360C",
      "360C",
      "360C",
      "360C",
      "360C",
      "360C",
      "360C",
      "360C",
      "360C",
      "360C",
      "360C",
      "360C",
      "360C",
      "360C",
      "360C",
      "360C",
      "360",
      "360",
      "358",
      "252",
      "236",
      "186",
      "173",
      "145",
      "145",
      "099",
      "099",
      "043",
      "043",
      "026",
      "026",
      "002",
      "001"
    ],
    "swim:geom": "path",
    "swim:speeds": [
      253,
      253,
      275,
      275,
      288,
      288,
      350,
      350,
      350,
      376,
      384,
      384,
      384,
      386,
      386,
      386,
      384,
      384,
      384,
      384,
      384,
      383,
      383,
      383,
      383,
      383,
      384,
      384,
      384,
      383,
      383,
      383,
      383,
      383,
      383,
      383,
      383,
      384,
      385,
      385,
      385,
      385,
      384,
      384,
      384,
      385,
      385,
      386,
      387,
      387,
      387,
      387,
      381,
      381,
      382,
      382,
      382,
      382,
      382,
      384,
      384,
      384,
      384,
      384,
      384,
      380,
      374,
      374,
      374,
      357,
      357,
      357,
      356,
      356,
      360,
      360,
      360,
      357,
      357,
      356,
      356,
      356,
      360,
      360,
      363,
      363,
      363,
      363,
      362,
      362,
      362,
      359,
      359,
      359,
      360,
      362,
      362,
      362,
      358,
      363,
      365,
      365,
      365,
      365,
      365,
      372,
      372,
      373,
      373,
      372,
      376,
      374,
      379,
      380,
      380,
      380,
      359,
      359,
      347,
      347,
      349,
      348,
      353,
      357,
      357,
      359,
      358,
      358,
      359,
      359,
      364,
      364,
      363,
      363,
      363,
      368,
      368,
      368,
      368,
      368,
      369,
      369,
      369,
      374,
      381,
      381,
      381,
      380,
      380,
      379,
      379,
      380,
      380,
      382,
      383,
      383,
      385,
      385,
      387,
      394,
      396,
      396,
      396,
      400,
      400,
      400,
      401,
      401,
      401,
      402,
      402,
      404,
      404,
      404,
      404,
      400,
      400,
      400,
      400,
      400,
      401,
      400,
      400,
      399,
      399,
      399,
      399,
      399,
      394,
      394,
      394,
      394,
      394,
      395,
      398,
      398,
      399,
      401,
      402,
      401,
      401,
      401,
      348,
      332,
      332,
      350,
      340,
      328,
      314,
      310,
      308,
      308,
      234,
      234,
      195,
      195,
      181,
      181,
      119,
      120
    ],
    "swim:timestamps": [
      1776975429,
      1776975429,
      1776975489,
      1776975489,
      1776975549,
      1776975549,
      1776975789,
      1776975789,
      1776975789,
      1776975909,
      1776976030,
      1776976030,
      1776976030,
      1776976330,
      1776976330,
      1776976330,
      1776976510,
      1776976510,
      1776976510,
      1776976631,
      1776976631,
      1776976691,
      1776976751,
      1776976751,
      1776976811,
      1776976811,
      1776976931,
      1776976931,
      1776976931,
      1776977111,
      1776977111,
      1776977171,
      1776977240,
      1776977240,
      1776977300,
      1776977300,
      1776977300,
      1776977480,
      1776977532,
      1776977541,
      1776977541,
      1776977541,
      1776977652,
      1776977721,
      1776977721,
      1776977781,
      1776977781,
      1776977832,
      1776977841,
      1776977841,
      1776977841,
      1776977901,
      1776978141,
      1776978141,
      1776978253,
      1776978262,
      1776978262,
      1776978322,
      1776978322,
      1776978442,
      1776978442,
      1776978442,
      1776978802,
      1776978802,
      1776978802,
      1776978983,
      1776979043,
      1776979043,
      1776979043,
      1776979223,
      1776979223,
      1776979223,
      1776979403,
      1776979403,
      1776979584,
      1776979584,
      1776979584,
      1776980004,
      1776980004,
      1776980124,
      1776980124,
      1776980124,
      1776980305,
      1776980305,
      1776980605,
      1776980605,
      1776980665,
      1776980665,
      1776980785,
      1776980785,
      1776980785,
      1776981206,
      1776981206,
      1776981206,
      1776981326,
      1776981506,
      1776981506,
      1776981506,
      1776981566,
      1776981687,
      1776981747,
      1776981747,
      1776981747,
      1776981927,
      1776981927,
      1776982030,
      1776982030,
      1776982119,
      1776982119,
      1776982151,
      1776982179,
      1776982211,
      1776982239,
      1776982271,
      1776982271,
      1776982331,
      1776982360,
      1776982391,
      1776982420,
      1776982420,
      1776982451,
      1776982480,
      1776982540,
      1776982571,
      1776982571,
      1776982631,
      1776982660,
      1776982660,
      1776982692,
      1776982720,
      1776982752,
      1776982752,
      1776982780,
      1776982780,
      1776982780,
      1776982932,
      1776982992,
      1776982992,
      1776982992,
      1776983021,
      1776983052,
      1776983081,
      1776983112,
      1776983201,
      1776983232,
      1776983232,
      1776983232,
      1776983353,
      1776983353,
      1776983381,
      1776983413,
      1776983473,
      1776983473,
      1776983561,
      1776983593,
      1776983593,
      1776983653,
      1776983653,
      1776983682,
      1776983773,
      1776983802,
      1776983802,
      1776983802,
      1776983953,
      1776983953,
      1776983953,
      1776984014,
      1776984074,
      1776984074,
      1776984194,
      1776984194,
      1776984254,
      1776984254,
      1776984434,
      1776984434,
      1776984554,
      1776984554,
      1776984675,
      1776984675,
      1776984735,
      1776984855,
      1776984915,
      1776984915,
      1776985035,
      1776985035,
      1776985215,
      1776985215,
      1776985215,
      1776985396,
      1776985396,
      1776985396,
      1776985516,
      1776985516,
      1776985576,
      1776985816,
      1776985816,
      1776985876,
      1776986117,
      1776986237,
      1776986417,
      1776986537,
      1776986537,
      1776986898,
      1776987138,
      1776987138,
      1776987319,
      1776987668,
      1776987728,
      1776987922,
      1776987982,
      1776988088,
      1776988088,
      1776988343,
      1776988343,
      1776988748,
      1776988748,
      1776988868,
      1776988868,
      1776989048,
      1776989064
    ],
    "wof:geomhash": "567b037184adffc85222e5c7251f0bfc",
    "wof:id": 2031092395,
    "wof:repo": "sfomuseum-data-flights-2026-04"
  },
  "bbox": [
    -122.35388888888889,
    30.093055555555555,
    -97.7238888888889,
    37.61666666666667
  ],
  "geometry": {"coordinates":[[-97.7238888888889,30.093055555555555],[-97.7238888888889,30.093055555555555],[-97.80444444444444,30.103611111111114],[-97.80444444444444,30.103611111111114],[-97.85444444444444,30.171111111111113],[-97.85444444444444,30.171111111111113],[-98.22083333333333,30.293333333333337],[-98.22083333333333,30.293333333333337],[-98.22083333333333,30.293333333333337],[-98.45277777777778,30.34],[-98.69305555555556,30.386388888888888],[-98.69305555555556,30.386388888888888],[-98.69305555555556,30.386388888888888],[-99.29277777777777,30.500833333333333],[-99.29277777777777,30.500833333333333],[-99.29277777777777,30.500833333333333],[-99.65305555555557,30.56833333333333],[-99.65305555555557,30.56833333333333],[-99.65305555555557,30.56833333333333],[-99.91694444444445,30.62],[-99.91694444444445,30.62],[-100.03555555555555,30.645555555555553],[-100.15444444444445,30.670833333333334],[-100.15444444444445,30.670833333333334],[-100.27361111111111,30.69611111111111],[-100.27361111111111,30.69611111111111],[-100.51361111111112,30.746944444444445],[-100.51361111111112,30.746944444444445],[-100.51361111111112,30.746944444444445],[-100.87194444444444,30.821666666666665],[-100.87194444444444,30.821666666666665],[-100.99277777777777,30.846666666666664],[-101.13305555555554,30.87527777777778],[-101.13305555555554,30.87527777777778],[-101.25361111111111,30.9],[-101.25361111111111,30.9],[-101.25361111111111,30.9],[-101.61472222222221,30.972777777777775],[-101.71194444444444,30.992222222222225],[-101.73694444444445,30.997500000000002],[-101.73694444444445,30.997500000000002],[-101.73694444444445,30.997500000000002],[-101.95583333333333,31.040833333333335],[-102.09972222222221,31.069166666666668],[-102.09972222222221,31.069166666666668],[-102.22166666666666,31.093055555555555],[-102.22166666666666,31.093055555555555],[-102.32555555555555,31.113333333333333],[-102.34388888888888,31.116944444444446],[-102.34388888888888,31.116944444444446],[-102.34388888888888,31.116944444444446],[-102.46666666666667,31.140833333333333],[-102.9325,31.22972222222222],[-102.9325,31.22972222222222],[-103.17527777777778,31.275555555555556],[-103.17527777777778,31.275277777777777],[-103.17527777777778,31.275277777777777],[-103.29694444444445,31.298055555555557],[-103.29694444444445,31.298055555555557],[-103.54194444444444,31.34361111111111],[-103.54194444444444,31.34361111111111],[-103.54194444444444,31.34361111111111],[-104.29138888888889,31.479166666666664],[-104.29138888888889,31.479166666666664],[-104.29138888888889,31.479166666666664],[-104.65333333333334,31.543055555555558],[-104.77194444444444,31.56361111111111],[-104.77194444444444,31.56361111111111],[-104.77194444444444,31.56361111111111],[-105.10055555555554,31.62027777777778],[-105.10055555555554,31.62027777777778],[-105.10055555555554,31.62027777777778],[-105.4413888888889,31.678055555555556],[-105.4413888888889,31.678055555555556],[-105.78916666666666,31.73611111111111],[-105.78916666666666,31.73611111111111],[-105.78916666666666,31.73611111111111],[-106.57972222222222,31.87388888888889],[-106.57972222222222,31.87388888888889],[-106.80722222222222,31.91722222222222],[-106.80722222222222,31.91722222222222],[-106.80722222222222,31.91722222222222],[-107.15333333333334,31.982499999999998],[-107.15333333333334,31.982499999999998],[-107.73805555555556,32.09],[-107.73805555555556,32.09],[-107.85416666666666,32.111111111111114],[-107.85416666666666,32.111111111111114],[-108.08555555555554,32.15277777777778],[-108.08555555555554,32.15277777777778],[-108.08555555555554,32.15277777777778],[-108.88083333333333,32.29194444444444],[-108.88083333333333,32.29194444444444],[-108.88083333333333,32.29194444444444],[-109.11472222222221,32.331944444444446],[-109.465,32.39083333333333],[-109.465,32.39083333333333],[-109.465,32.39083333333333],[-109.58027777777778,32.41],[-109.8111111111111,32.45527777777778],[-109.92277777777778,32.49388888888889],[-109.92277777777778,32.49388888888889],[-109.92277777777778,32.49388888888889],[-110.2575,32.60916666666667],[-110.2575,32.60916666666667],[-110.46944444444445,32.68055555555555],[-110.46944444444445,32.68055555555555],[-110.62083333333332,32.73277777777778],[-110.62083333333332,32.73277777777778],[-110.69777777777779,32.757222222222225],[-110.74805555555555,32.77611111111111],[-110.81416666666667,32.79666666666667],[-110.86527777777778,32.81527777777777],[-110.93277777777779,32.83583333333333],[-110.93277777777779,32.83583333333333],[-111.04888888888888,32.87444444444444],[-111.09666666666666,32.893055555555556],[-111.15611111111112,32.91],[-111.20194444444445,32.92805555555555],[-111.20194444444445,32.92805555555555],[-111.26083333333334,32.94694444444444],[-111.30916666666667,32.96361111111111],[-111.41944444444445,33],[-111.48194444444445,33.02027777777778],[-111.48194444444445,33.02027777777778],[-111.59222222222222,33.056666666666665],[-111.64055555555557,33.07277777777778],[-111.64055555555557,33.07277777777778],[-111.70361111111112,33.09277777777778],[-111.75277777777778,33.109722222222224],[-111.81638888888888,33.129444444444445],[-111.81638888888888,33.129444444444445],[-111.86611111111111,33.146388888888886],[-111.86611111111111,33.146388888888886],[-111.86611111111111,33.146388888888886],[-112.16000000000001,33.240833333333335],[-112.25222222222222,33.27166666666667],[-112.25222222222222,33.27166666666667],[-112.25222222222222,33.27166666666667],[-112.32388888888889,33.29472222222222],[-112.36694444444444,33.30888888888889],[-112.43833333333333,33.331388888888895],[-112.50333333333333,33.35388888888889],[-112.66888888888889,33.40472222222222],[-112.73972222222223,33.426944444444445],[-112.73972222222223,33.426944444444445],[-112.73972222222223,33.426944444444445],[-112.98277777777778,33.48444444444444],[-112.98277777777778,33.48444444444444],[-113.02916666666667,33.49333333333333],[-113.10472222222222,33.507777777777775],[-113.22555555555556,33.530833333333334],[-113.22555555555556,33.530833333333334],[-113.39916666666667,33.56361111111111],[-113.46388888888889,33.575833333333335],[-113.46388888888889,33.575833333333335],[-113.58972222222222,33.59916666666667],[-113.58972222222222,33.59916666666667],[-113.65138888888889,33.61083333333333],[-113.84527777777777,33.64666666666667],[-113.92,33.660555555555554],[-113.92,33.660555555555554],[-113.92,33.660555555555554],[-114.23333333333333,33.73222222222223],[-114.23333333333333,33.73222222222223],[-114.23333333333333,33.73222222222223],[-114.36166666666666,33.76444444444444],[-114.48861111111111,33.796388888888885],[-114.48861111111111,33.796388888888885],[-114.74694444444445,33.86055555555556],[-114.74694444444445,33.86055555555556],[-114.87666666666667,33.89277777777778],[-114.87666666666667,33.89277777777778],[-115.26472222222222,33.988055555555555],[-115.26472222222222,33.988055555555555],[-115.52111111111111,34.05],[-115.52111111111111,34.05],[-115.77833333333334,34.111666666666665],[-115.77833333333334,34.111666666666665],[-115.90805555555556,34.1425],[-116.1713888888889,34.20472222222222],[-116.30055555555555,34.234722222222224],[-116.30055555555555,34.234722222222224],[-116.55638888888889,34.29416666666666],[-116.55638888888889,34.29416666666666],[-116.94611111111111,34.38361111111111],[-116.94611111111111,34.38361111111111],[-116.94611111111111,34.38361111111111],[-117.33055555555555,34.47027777777778],[-117.33055555555555,34.47027777777778],[-117.33055555555555,34.47027777777778],[-117.58833333333332,34.52777777777778],[-117.58833333333332,34.52777777777778],[-117.71777777777778,34.55638888888888],[-118.21972222222223,34.70611111111111],[-118.21972222222223,34.70611111111111],[-118.33694444444444,34.76138888888889],[-118.81916666666666,34.988055555555555],[-119.05583333333333,35.09805555555556],[-119.41111111111111,35.26166666666666],[-119.64861111111112,35.37],[-119.64861111111112,35.37],[-120.31444444444445,35.669999999999995],[-120.75472222222223,35.675555555555555],[-120.75472222222223,35.675555555555555],[-121.03722222222223,35.853611111111114],[-121.51666666666667,36.266666666666666],[-121.58333333333333,36.35],[-121.76583333333333,36.580000000000005],[-121.82416666666666,36.65416666666667],[-121.91666666666667,36.8],[-121.91666666666667,36.8],[-122.01361111111112,37.10805555555556],[-122.01361111111112,37.10805555555556],[-122.11666666666666,37.483333333333334],[-122.11666666666666,37.483333333333334],[-122.21666666666667,37.55],[-122.21666666666667,37.55],[-122.35,37.61666666666667],[-122.35388888888889,37.61222222222222]],"type":"LineString"}
}
