{
  "id": 2015254733,
  "type": "Feature",
  "properties": {
    "geom:area": 0,
    "geom:bbox": "-122.527470,37.631470,-121.298230,38.173290",
    "geom:latitude": 38.00007096278055,
    "geom:longitude": -122.01994694642815,
    "src:alt_label": "swim-takeoff",
    "src:geom": "swim",
    "swim:elevations": [
      367,
      581,
      767,
      1179,
      1822,
      2201,
      2567,
      3012,
      3185,
      3276,
      3632,
      4198,
      4414,
      5005,
      5173,
      5752,
      5789,
      6022,
      6322,
      6656,
      7002,
      7233,
      7386,
      7683,
      7865,
      8085,
      8338,
      8357,
      8500,
      8557,
      8651
    ],
    "swim:geom": "takeoff",
    "swim:timestamps": [
      1775826976,
      1775827001,
      1775827023,
      1775827067,
      1775827105,
      1775827130,
      1775827156,
      1775827186,
      1775827203,
      1775827215,
      1775827251,
      1775827287,
      1775827300,
      1775827347,
      1775827360,
      1775827409,
      1775827429,
      1775827455,
      1775827482,
      1775827519,
      1775827553,
      1775827582,
      1775827603,
      1775827636,
      1775827658,
      1775827687,
      1775827719,
      1775827726,
      1775827747,
      1775827757,
      1775827771
    ],
    "wof:geomhash": "edf03967713ae44e681c24ae77438a7d",
    "wof:id": 2015254733,
    "wof:repo": "sfomuseum-data-flights-2026-04"
  },
  "bbox": [
    -122.52747,
    37.63147,
    -121.29823,
    38.17329
  ],
  "geometry": {"coordinates":[[-122.39884,37.63147],[-122.42227,37.64127],[-122.44607,37.65093],[-122.50284,37.67493],[-122.52742,37.71868],[-122.52747,37.75287],[-122.5099,37.7854],[-122.47481,37.81679],[-122.45458,37.83484],[-122.43887,37.84901],[-122.39063,37.89277],[-122.34207,37.93664],[-122.32387,37.95278],[-122.25644,38.0077],[-122.23521,38.02067],[-122.14637,38.06247],[-122.10385,38.06998],[-122.04692,38.07694],[-121.98753,38.08508],[-121.90427,38.09612],[-121.82514,38.10651],[-121.75639,38.11541],[-121.70677,38.12177],[-121.62828,38.13173],[-121.57454,38.13867],[-121.5049,38.14739],[-121.42752,38.15719],[-121.40905,38.15946],[-121.3564,38.16602],[-121.33228,38.16903],[-121.29823,38.17329]],"type":"LineString"}
}
