{
  "id": 2031144379,
  "type": "Feature",
  "properties": {
    "geom:area": 0,
    "geom:bbox": "-122.383333,33.649444,-84.256111,38.519167",
    "geom:latitude": 36.86522283268113,
    "geom:longitude": -103.21512282275201,
    "src:alt_label": "swim-path",
    "src:geom": "swim",
    "swim:altitudes": [
      "005",
      "005",
      "005",
      "005",
      "036",
      "036",
      "036",
      "036",
      "036",
      "086",
      "124",
      "124",
      "124",
      "152",
      "152",
      "152",
      "152",
      "177",
      "177",
      "177",
      "177",
      "221",
      "221",
      "221",
      "221",
      "221",
      "255",
      "255",
      "255",
      "255",
      "273",
      "273",
      "273",
      "273",
      "273",
      "307",
      "307",
      "307",
      "307",
      "322",
      "322",
      "322",
      "326",
      "336",
      "336",
      "340",
      "340",
      "353",
      "353",
      "353",
      "369C",
      "370C",
      "370C",
      "370C",
      "370C",
      "370C",
      "370C",
      "370C",
      "370C",
      "370C",
      "370C",
      "370C",
      "370C",
      "370C",
      "370C",
      "370C",
      "370C",
      "370C",
      "370C",
      "370C",
      "370C",
      "370C",
      "370C",
      "370C",
      "370C",
      "370C",
      "370C",
      "370C",
      "370C",
      "370C",
      "370C",
      "370C",
      "370C",
      "370C",
      "370C",
      "370C",
      "370C",
      "370C",
      "370C",
      "370C",
      "370C",
      "370C",
      "370C",
      "370C",
      "370C",
      "370C",
      "370C",
      "370C",
      "370C",
      "370C",
      "370C",
      "370C",
      "370C",
      "370C",
      "370C",
      "370C",
      "370C",
      "370C",
      "370C",
      "370C",
      "370C",
      "370C",
      "370C",
      "370C",
      "370C",
      "370C",
      "370C",
      "370C",
      "370C",
      "370C",
      "370C",
      "370C",
      "370C",
      "370C",
      "370C",
      "370C",
      "370C",
      "370C",
      "370C",
      "370C",
      "370C",
      "370C",
      "370C",
      "370C",
      "370C",
      "370C",
      "370C",
      "370C",
      "370C",
      "370C",
      "370C",
      "370C",
      "370C",
      "370C",
      "370C",
      "370C",
      "370C",
      "370C",
      "370C",
      "370C",
      "370C",
      "370C",
      "370C",
      "370C",
      "370C",
      "370C",
      "370C",
      "370C",
      "370C",
      "370C",
      "370C",
      "370C",
      "370C",
      "370C",
      "370C",
      "370C",
      "370C",
      "370C",
      "370C",
      "370C",
      "370C",
      "370C",
      "370C",
      "370C",
      "370C",
      "370C",
      "370C",
      "370C",
      "370C",
      "370C",
      "370C",
      "370C",
      "370C",
      "370C",
      "370C",
      "370C",
      "370C",
      "370C",
      "370C",
      "370C",
      "370C",
      "370C",
      "370C",
      "370C",
      "370C",
      "370C",
      "370C",
      "370C",
      "370C",
      "370C",
      "370C",
      "370C",
      "370C",
      "370C",
      "370C",
      "370C",
      "370C",
      "370C",
      "370C",
      "370C",
      "370C",
      "370C",
      "370C",
      "370C",
      "370C",
      "370C",
      "370C",
      "370C",
      "370C",
      "370C",
      "370C",
      "370C",
      "370C",
      "370C",
      "370C",
      "370C",
      "370C",
      "370C",
      "370C",
      "370C",
      "370C",
      "370C",
      "370C",
      "370C",
      "370C",
      "370C",
      "370C",
      "370C",
      "370C",
      "370C",
      "370C",
      "370C",
      "370C",
      "370C",
      "370C",
      "370C",
      "370C",
      "370C",
      "370C",
      "370C",
      "370C",
      "370C",
      "370C",
      "370C",
      "370C",
      "370C",
      "370C",
      "370C",
      "370C",
      "370C",
      "370C",
      "370C",
      "370C",
      "370C",
      "370C",
      "370C",
      "370C",
      "370C",
      "370C",
      "370C",
      "370C",
      "370C",
      "370C",
      "370C",
      "370C",
      "370C",
      "370C",
      "370C",
      "370C",
      "370C",
      "370C",
      "370C",
      "370C",
      "370C",
      "370C",
      "370C",
      "370C",
      "370C",
      "370C",
      "370C",
      "370C",
      "370C",
      "370C",
      "370C",
      "370C",
      "370C",
      "370C",
      "370C",
      "370C",
      "370C",
      "370C",
      "370C",
      "370C",
      "370C",
      "370C",
      "370C",
      "370C",
      "370C",
      "370C",
      "370C",
      "370C",
      "370C",
      "370C",
      "370C",
      "370C",
      "370C",
      "370C",
      "370C",
      "370C",
      "370C",
      "370C",
      "370C",
      "370C",
      "370C",
      "370C",
      "370C",
      "370C",
      "370C",
      "370C",
      "370C",
      "370C",
      "370C",
      "370C",
      "370C",
      "370C",
      "370C",
      "370C",
      "370C",
      "370C",
      "370C",
      "370C",
      "370C",
      "370C",
      "370C",
      "370C",
      "370C",
      "370C",
      "370C",
      "370C",
      "370C",
      "370C",
      "370C",
      "370C",
      "370C",
      "370C",
      "370C",
      "370C",
      "370C",
      "370C",
      "370C",
      "370C",
      "370C",
      "370C",
      "370C",
      "370C",
      "370C",
      "370C",
      "370C",
      "370C",
      "370C",
      "370C",
      "370C",
      "370C",
      "370C",
      "370C",
      "370C",
      "370C",
      "370C",
      "370C",
      "370C",
      "370C",
      "370C",
      "370C",
      "370C",
      "370C",
      "370C",
      "370C",
      "370C",
      "370C",
      "370C",
      "370C",
      "370C",
      "370C",
      "370C",
      "370C",
      "370C",
      "370C",
      "370C",
      "370C",
      "370C",
      "370C",
      "370C",
      "370C",
      "370C",
      "370C",
      "370C",
      "370C",
      "370C",
      "370C",
      "370C",
      "370C",
      "370C",
      "370C",
      "370C",
      "370C",
      "370C",
      "370C",
      "370C",
      "370C",
      "370C",
      "370C",
      "370C",
      "370C",
      "370C",
      "370C",
      "370C",
      "370C",
      "370C",
      "370C",
      "370C",
      "370C",
      "370C",
      "370C",
      "370C",
      "370C",
      "370C",
      "370C",
      "370C",
      "370C",
      "370C",
      "370C",
      "370C",
      "370C",
      "370C",
      "370C",
      "370C",
      "370C",
      "370C",
      "370C",
      "370C",
      "370C",
      "370C",
      "370C",
      "370C",
      "370C",
      "370C",
      "370C",
      "370C",
      "370C",
      "370C",
      "370C",
      "370C",
      "370C",
      "370C",
      "370C",
      "370C",
      "370C",
      "370C",
      "370C",
      "370C",
      "370C",
      "370C",
      "370C",
      "370C",
      "370C",
      "370C",
      "370C",
      "370C",
      "370C",
      "370C",
      "370C",
      "370C",
      "370C",
      "370C",
      "370C",
      "366",
      "358",
      "358",
      "357",
      "350C",
      "350C",
      "350C",
      "350C",
      "350C",
      "350C",
      "350C",
      "350C",
      "350C",
      "350",
      "350",
      "350",
      "334",
      "334",
      "334",
      "334",
      "330C",
      "330C",
      "330C",
      "330C",
      "330C",
      "330C",
      "330C",
      "327",
      "325",
      "325",
      "315",
      "315",
      "298",
      "298",
      "298",
      "298",
      "298",
      "271",
      "271",
      "271",
      "271",
      "271",
      "247",
      "247",
      "203",
      "197",
      "197",
      "197",
      "178",
      "178",
      "178",
      "160",
      "160",
      "160",
      "160",
      "160",
      "146",
      "120",
      "120",
      "120",
      "120",
      "110",
      "110",
      "110",
      "088",
      "088",
      "088",
      "088",
      "067",
      "067",
      "038",
      "038",
      "026",
      "026",
      "026",
      "026",
      "026"
    ],
    "swim:geom": "path",
    "swim:speeds": [
      162,
      162,
      162,
      162,
      188,
      188,
      188,
      188,
      188,
      276,
      371,
      371,
      371,
      383,
      383,
      383,
      383,
      403,
      403,
      403,
      403,
      423,
      423,
      423,
      423,
      423,
      458,
      458,
      458,
      458,
      475,
      475,
      475,
      475,
      475,
      481,
      481,
      481,
      481,
      478,
      478,
      478,
      480,
      478,
      478,
      480,
      480,
      471,
      471,
      471,
      464,
      461,
      461,
      462,
      462,
      462,
      462,
      463,
      463,
      463,
      466,
      466,
      466,
      466,
      466,
      466,
      470,
      470,
      470,
      470,
      470,
      471,
      471,
      471,
      471,
      471,
      471,
      472,
      472,
      472,
      472,
      472,
      472,
      472,
      472,
      474,
      474,
      474,
      475,
      475,
      475,
      477,
      479,
      479,
      483,
      485,
      485,
      485,
      490,
      490,
      490,
      490,
      495,
      495,
      495,
      496,
      496,
      496,
      496,
      496,
      496,
      496,
      496,
      496,
      496,
      496,
      496,
      496,
      496,
      496,
      496,
      496,
      497,
      497,
      497,
      497,
      497,
      498,
      498,
      498,
      498,
      501,
      501,
      501,
      501,
      501,
      501,
      510,
      510,
      510,
      510,
      510,
      510,
      520,
      520,
      520,
      520,
      520,
      520,
      520,
      533,
      533,
      533,
      533,
      532,
      532,
      531,
      531,
      531,
      531,
      531,
      531,
      533,
      533,
      533,
      533,
      533,
      533,
      534,
      534,
      534,
      534,
      539,
      539,
      536,
      536,
      539,
      539,
      539,
      539,
      538,
      538,
      536,
      536,
      533,
      533,
      533,
      531,
      531,
      531,
      531,
      531,
      531,
      531,
      531,
      531,
      531,
      531,
      532,
      532,
      533,
      533,
      533,
      535,
      535,
      535,
      535,
      536,
      536,
      536,
      536,
      538,
      538,
      538,
      539,
      539,
      539,
      539,
      540,
      546,
      546,
      546,
      547,
      547,
      550,
      550,
      550,
      552,
      552,
      552,
      552,
      556,
      556,
      556,
      556,
      556,
      556,
      561,
      561,
      561,
      561,
      562,
      562,
      562,
      562,
      562,
      562,
      569,
      569,
      569,
      569,
      569,
      569,
      572,
      572,
      572,
      572,
      573,
      573,
      576,
      574,
      574,
      574,
      576,
      576,
      576,
      576,
      576,
      576,
      577,
      577,
      577,
      577,
      577,
      577,
      577,
      578,
      579,
      579,
      579,
      579,
      579,
      579,
      579,
      579,
      580,
      580,
      580,
      580,
      580,
      583,
      583,
      584,
      584,
      584,
      583,
      583,
      583,
      583,
      583,
      583,
      581,
      581,
      581,
      581,
      581,
      581,
      581,
      581,
      579,
      579,
      579,
      579,
      579,
      579,
      578,
      578,
      579,
      579,
      579,
      577,
      577,
      577,
      577,
      577,
      577,
      577,
      578,
      578,
      578,
      578,
      579,
      579,
      579,
      579,
      580,
      580,
      580,
      580,
      583,
      583,
      583,
      583,
      583,
      583,
      583,
      583,
      583,
      583,
      584,
      584,
      584,
      584,
      586,
      586,
      586,
      586,
      588,
      588,
      588,
      588,
      588,
      588,
      588,
      588,
      586,
      586,
      586,
      586,
      586,
      586,
      586,
      585,
      585,
      585,
      585,
      585,
      585,
      585,
      585,
      586,
      586,
      586,
      586,
      586,
      586,
      586,
      586,
      586,
      586,
      586,
      586,
      586,
      585,
      585,
      585,
      585,
      585,
      585,
      585,
      585,
      585,
      585,
      585,
      585,
      585,
      585,
      585,
      585,
      586,
      586,
      586,
      586,
      584,
      584,
      584,
      584,
      582,
      582,
      582,
      582,
      580,
      580,
      580,
      580,
      580,
      579,
      579,
      579,
      578,
      578,
      577,
      577,
      577,
      577,
      577,
      577,
      577,
      576,
      576,
      576,
      576,
      576,
      576,
      575,
      575,
      575,
      574,
      574,
      574,
      572,
      572,
      572,
      572,
      572,
      572,
      568,
      568,
      567,
      567,
      567,
      567,
      568,
      568,
      568,
      568,
      568,
      568,
      569,
      569,
      567,
      567,
      567,
      559,
      559,
      559,
      558,
      558,
      558,
      554,
      554,
      554,
      553,
      550,
      550,
      549,
      550,
      550,
      549,
      559,
      550,
      553,
      553,
      553,
      552,
      551,
      551,
      550,
      555,
      555,
      555,
      558,
      558,
      558,
      558,
      558,
      558,
      557,
      557,
      557,
      557,
      557,
      556,
      556,
      556,
      560,
      560,
      565,
      565,
      565,
      565,
      565,
      543,
      543,
      542,
      542,
      542,
      522,
      522,
      480,
      471,
      471,
      471,
      460,
      460,
      460,
      434,
      434,
      434,
      434,
      434,
      404,
      342,
      342,
      342,
      342,
      279,
      279,
      279,
      263,
      263,
      263,
      263,
      255,
      255,
      185,
      185,
      172,
      172,
      172,
      172,
      172
    ],
    "swim:timestamps": [
      1777497515,
      1777497515,
      1777497515,
      1777497515,
      1777497603,
      1777497603,
      1777497603,
      1777497603,
      1777497603,
      1777497735,
      1777497855,
      1777497855,
      1777497855,
      1777497916,
      1777497916,
      1777497916,
      1777497916,
      1777497976,
      1777497976,
      1777497976,
      1777497976,
      1777498096,
      1777498096,
      1777498096,
      1777498096,
      1777498096,
      1777498216,
      1777498216,
      1777498216,
      1777498216,
      1777498276,
      1777498276,
      1777498276,
      1777498276,
      1777498276,
      1777498396,
      1777498396,
      1777498396,
      1777498396,
      1777498456,
      1777498456,
      1777498456,
      1777498479,
      1777498516,
      1777498516,
      1777498539,
      1777498539,
      1777498576,
      1777498576,
      1777498576,
      1777498659,
      1777498697,
      1777498697,
      1777498719,
      1777498719,
      1777498719,
      1777498719,
      1777498839,
      1777498839,
      1777498839,
      1777498877,
      1777498877,
      1777498899,
      1777498899,
      1777498899,
      1777498899,
      1777499057,
      1777499057,
      1777499057,
      1777499057,
      1777499057,
      1777499177,
      1777499177,
      1777499200,
      1777499200,
      1777499200,
      1777499200,
      1777499237,
      1777499237,
      1777499260,
      1777499260,
      1777499260,
      1777499260,
      1777499297,
      1777499297,
      1777499357,
      1777499357,
      1777499357,
      1777499380,
      1777499380,
      1777499380,
      1777499418,
      1777499440,
      1777499440,
      1777499500,
      1777499538,
      1777499538,
      1777499538,
      1777499620,
      1777499620,
      1777499620,
      1777499620,
      1777499680,
      1777499680,
      1777499680,
      1777499740,
      1777499740,
      1777499740,
      1777499740,
      1777499778,
      1777499778,
      1777499778,
      1777499800,
      1777499838,
      1777499838,
      1777499838,
      1777499860,
      1777499860,
      1777499860,
      1777499860,
      1777499898,
      1777499898,
      1777499958,
      1777499958,
      1777499981,
      1777499981,
      1777499981,
      1777500041,
      1777500041,
      1777500041,
      1777500041,
      1777500161,
      1777500161,
      1777500161,
      1777500161,
      1777500161,
      1777500161,
      1777500341,
      1777500341,
      1777500341,
      1777500341,
      1777500341,
      1777500341,
      1777500641,
      1777500641,
      1777500641,
      1777500641,
      1777500641,
      1777500641,
      1777500641,
      1777501002,
      1777501002,
      1777501002,
      1777501002,
      1777501062,
      1777501062,
      1777501182,
      1777501182,
      1777501182,
      1777501182,
      1777501182,
      1777501182,
      1777501362,
      1777501362,
      1777501362,
      1777501362,
      1777501362,
      1777501362,
      1777501423,
      1777501423,
      1777501423,
      1777501423,
      1777501462,
      1777501462,
      1777501483,
      1777501483,
      1777501582,
      1777501582,
      1777501582,
      1777501582,
      1777501603,
      1777501603,
      1777501642,
      1777501642,
      1777501702,
      1777501702,
      1777501702,
      1777501762,
      1777501762,
      1777501762,
      1777501762,
      1777501762,
      1777501822,
      1777501822,
      1777501822,
      1777501822,
      1777501822,
      1777501822,
      1777501843,
      1777501843,
      1777501942,
      1777501942,
      1777501942,
      1777502063,
      1777502063,
      1777502063,
      1777502063,
      1777502123,
      1777502123,
      1777502123,
      1777502123,
      1777502204,
      1777502204,
      1777502204,
      1777502243,
      1777502243,
      1777502243,
      1777502243,
      1777502264,
      1777502324,
      1777502324,
      1777502324,
      1777502363,
      1777502363,
      1777502423,
      1777502423,
      1777502423,
      1777502483,
      1777502483,
      1777502483,
      1777502483,
      1777502543,
      1777502543,
      1777502543,
      1777502543,
      1777502543,
      1777502543,
      1777502723,
      1777502723,
      1777502723,
      1777502723,
      1777502784,
      1777502784,
      1777502784,
      1777502784,
      1777502784,
      1777502784,
      1777503084,
      1777503084,
      1777503084,
      1777503084,
      1777503084,
      1777503084,
      1777503204,
      1777503204,
      1777503204,
      1777503204,
      1777503264,
      1777503264,
      1777503316,
      1777503324,
      1777503324,
      1777503324,
      1777503384,
      1777503384,
      1777503384,
      1777503444,
      1777503444,
      1777503444,
      1777503496,
      1777503496,
      1777503496,
      1777503496,
      1777503505,
      1777503505,
      1777503505,
      1777503616,
      1777503625,
      1777503625,
      1777503625,
      1777503625,
      1777503625,
      1777503625,
      1777503676,
      1777503676,
      1777503685,
      1777503685,
      1777503685,
      1777503685,
      1777503685,
      1777503736,
      1777503736,
      1777503796,
      1777503796,
      1777503796,
      1777503916,
      1777503916,
      1777503916,
      1777503916,
      1777503916,
      1777503916,
      1777504045,
      1777504045,
      1777504045,
      1777504097,
      1777504097,
      1777504097,
      1777504097,
      1777504097,
      1777504277,
      1777504277,
      1777504277,
      1777504277,
      1777504277,
      1777504277,
      1777504334,
      1777504334,
      1777504342,
      1777504342,
      1777504342,
      1777504397,
      1777504397,
      1777504397,
      1777504457,
      1777504457,
      1777504457,
      1777504457,
      1777504517,
      1777504517,
      1777504517,
      1777504517,
      1777504578,
      1777504578,
      1777504578,
      1777504578,
      1777504638,
      1777504638,
      1777504638,
      1777504638,
      1777504758,
      1777504758,
      1777504758,
      1777504758,
      1777504758,
      1777504818,
      1777504818,
      1777504818,
      1777504818,
      1777504818,
      1777504878,
      1777504878,
      1777504878,
      1777504878,
      1777505063,
      1777505063,
      1777505063,
      1777505063,
      1777505244,
      1777505244,
      1777505244,
      1777505304,
      1777505304,
      1777505304,
      1777505304,
      1777505304,
      1777505544,
      1777505544,
      1777505544,
      1777505544,
      1777505544,
      1777505544,
      1777505544,
      1777505724,
      1777505724,
      1777505724,
      1777505724,
      1777505724,
      1777505784,
      1777505784,
      1777505784,
      1777505905,
      1777505905,
      1777505905,
      1777505905,
      1777506020,
      1777506020,
      1777506020,
      1777506020,
      1777506080,
      1777506080,
      1777506140,
      1777506140,
      1777506140,
      1777506200,
      1777506200,
      1777506200,
      1777506200,
      1777506200,
      1777506260,
      1777506260,
      1777506260,
      1777506320,
      1777506320,
      1777506320,
      1777506440,
      1777506440,
      1777506440,
      1777506440,
      1777506440,
      1777506566,
      1777506566,
      1777506566,
      1777506566,
      1777506741,
      1777506741,
      1777506741,
      1777506741,
      1777506801,
      1777506801,
      1777506801,
      1777506801,
      1777506921,
      1777506921,
      1777506921,
      1777506921,
      1777506921,
      1777506981,
      1777506981,
      1777506981,
      1777507041,
      1777507041,
      1777507101,
      1777507101,
      1777507101,
      1777507161,
      1777507161,
      1777507161,
      1777507161,
      1777507221,
      1777507221,
      1777507221,
      1777507221,
      1777507221,
      1777507402,
      1777507462,
      1777507462,
      1777507462,
      1777507522,
      1777507522,
      1777507522,
      1777507642,
      1777507642,
      1777507642,
      1777507642,
      1777507642,
      1777507642,
      1777507762,
      1777507762,
      1777507822,
      1777507822,
      1777507882,
      1777507882,
      1777507942,
      1777507942,
      1777507942,
      1777507942,
      1777508052,
      1777508052,
      1777508112,
      1777508112,
      1777508123,
      1777508123,
      1777508123,
      1777508232,
      1777508232,
      1777508232,
      1777508293,
      1777508293,
      1777508293,
      1777508303,
      1777508303,
      1777508303,
      1777508353,
      1777508423,
      1777508423,
      1777508483,
      1777508533,
      1777508533,
      1777508543,
      1777508593,
      1777508603,
      1777508653,
      1777508653,
      1777508653,
      1777508713,
      1777508773,
      1777508773,
      1777508783,
      1777508844,
      1777508844,
      1777508844,
      1777508954,
      1777508954,
      1777508954,
      1777508954,
      1777509014,
      1777509014,
      1777509084,
      1777509084,
      1777509144,
      1777509144,
      1777509144,
      1777509194,
      1777509204,
      1777509204,
      1777509254,
      1777509254,
      1777509374,
      1777509374,
      1777509374,
      1777509374,
      1777509374,
      1777509494,
      1777509494,
      1777509504,
      1777509504,
      1777509504,
      1777509565,
      1777509565,
      1777509675,
      1777509682,
      1777509682,
      1777509682,
      1777509735,
      1777509735,
      1777509735,
      1777509795,
      1777509795,
      1777509795,
      1777509795,
      1777509795,
      1777509850,
      1777509970,
      1777509970,
      1777509970,
      1777509970,
      1777510095,
      1777510095,
      1777510095,
      1777510276,
      1777510276,
      1777510276,
      1777510276,
      1777510336,
      1777510336,
      1777510456,
      1777510456,
      1777510516,
      1777510516,
      1777510516,
      1777510516,
      1777510516
    ],
    "wof:geomhash": "b942b093745abe637ed63c9e1b4bbcf3",
    "wof:id": 2031144379,
    "wof:repo": "sfomuseum-data-flights-2026-04"
  },
  "bbox": [
    -122.38333333333334,
    33.64944444444444,
    -84.25611111111111,
    38.51916666666666
  ],
  "geometry": {"coordinates":[[-122.38333333333334,37.61666666666667],[-122.38333333333334,37.61666666666667],[-122.38333333333334,37.61666666666667],[-122.38333333333334,37.61666666666667],[-122.35222222222221,37.665],[-122.35222222222221,37.665],[-122.35222222222221,37.665],[-122.35222222222221,37.665],[-122.35222222222221,37.665],[-122.17722222222223,37.73722222222222],[-121.98083333333334,37.830000000000005],[-121.98083333333334,37.830000000000005],[-121.98083333333334,37.830000000000005],[-121.85111111111111,37.85472222222222],[-121.85111111111111,37.85472222222222],[-121.85111111111111,37.85472222222222],[-121.85111111111111,37.85472222222222],[-121.71305555555556,37.88027777777778],[-121.71305555555556,37.88027777777778],[-121.71305555555556,37.88027777777778],[-121.71305555555556,37.88027777777778],[-121.44861111111112,37.928888888888885],[-121.44861111111112,37.928888888888885],[-121.44861111111112,37.928888888888885],[-121.44861111111112,37.928888888888885],[-121.44861111111112,37.928888888888885],[-121.14361111111111,37.98388888888889],[-121.14361111111111,37.98388888888889],[-121.14361111111111,37.98388888888889],[-121.14361111111111,37.98388888888889],[-120.94805555555556,38.015277777777776],[-120.94805555555556,38.015277777777776],[-120.94805555555556,38.015277777777776],[-120.94805555555556,38.015277777777776],[-120.94805555555556,38.015277777777776],[-120.61722222222221,38.06583333333333],[-120.61722222222221,38.06583333333333],[-120.61722222222221,38.06583333333333],[-120.61722222222221,38.06583333333333],[-120.45333333333333,38.09055555555556],[-120.45333333333333,38.09055555555556],[-120.45333333333333,38.09055555555556],[-120.415,38.093333333333334],[-120.29055555555556,38.115],[-120.29055555555556,38.115],[-120.25027777777778,38.11833333333333],[-120.25027777777778,38.11833333333333],[-120.12666666666667,38.13944444444444],[-120.12666666666667,38.13944444444444],[-120.12666666666667,38.13944444444444],[-119.93138888888889,38.16722222222222],[-119.80638888888889,38.18583333333333],[-119.80638888888889,38.18583333333333],[-119.7713888888889,38.18944444444444],[-119.7713888888889,38.18944444444444],[-119.7713888888889,38.18944444444444],[-119.7713888888889,38.18944444444444],[-119.44888888888889,38.23527777777778],[-119.44888888888889,38.23527777777778],[-119.44888888888889,38.23527777777778],[-119.31805555555555,38.25527777777778],[-119.31805555555555,38.25527777777778],[-119.28666666666666,38.25888888888889],[-119.28666666666666,38.25888888888889],[-119.28666666666666,38.25888888888889],[-119.28666666666666,38.25888888888889],[-118.82916666666667,38.32194444444445],[-118.82916666666667,38.32194444444445],[-118.82916666666667,38.32194444444445],[-118.82916666666667,38.32194444444445],[-118.82916666666667,38.32194444444445],[-118.50222222222222,38.36638888888889],[-118.50222222222222,38.36638888888889],[-118.44055555555556,38.374722222222225],[-118.44055555555556,38.374722222222225],[-118.44055555555556,38.374722222222225],[-118.44055555555556,38.374722222222225],[-118.33916666666666,38.38777777777778],[-118.33916666666666,38.38777777777778],[-118.2936111111111,38.39361111111111],[-118.2936111111111,38.39361111111111],[-118.2936111111111,38.39361111111111],[-118.2936111111111,38.39361111111111],[-118.17527777777778,38.409166666666664],[-118.17527777777778,38.409166666666664],[-118.02555555555556,38.42833333333333],[-118.02555555555556,38.42833333333333],[-118.02555555555556,38.42833333333333],[-117.96194444444444,38.436388888888885],[-117.96194444444444,38.436388888888885],[-117.96194444444444,38.436388888888885],[-117.85777777777777,38.44972222222222],[-117.79083333333332,38.45805555555556],[-117.79083333333332,38.45805555555556],[-117.62222222222222,38.47916666666667],[-117.51333333333334,38.49277777777778],[-117.51333333333334,38.49277777777778],[-117.51333333333334,38.49277777777778],[-117.27416666666666,38.51916666666666],[-117.27416666666666,38.51916666666666],[-117.27416666666666,38.51916666666666],[-117.27416666666666,38.51916666666666],[-117.09527777777777,38.516666666666666],[-117.09527777777777,38.516666666666666],[-117.09527777777777,38.516666666666666],[-116.91722222222222,38.51305555555555],[-116.91722222222222,38.51305555555555],[-116.91722222222222,38.51305555555555],[-116.91722222222222,38.51305555555555],[-116.80972222222222,38.510555555555555],[-116.80972222222222,38.510555555555555],[-116.80972222222222,38.510555555555555],[-116.73944444444444,38.50888888888889],[-116.63277777777778,38.50611111111111],[-116.63277777777778,38.50611111111111],[-116.63277777777778,38.50611111111111],[-116.56333333333333,38.50416666666667],[-116.56333333333333,38.50416666666667],[-116.56333333333333,38.50416666666667],[-116.56333333333333,38.50416666666667],[-116.45277777777778,38.50138888888889],[-116.45277777777778,38.50138888888889],[-116.2775,38.496944444444445],[-116.2775,38.496944444444445],[-116.20916666666668,38.495],[-116.20916666666668,38.495],[-116.20916666666668,38.495],[-116.03027777777778,38.48972222222222],[-116.03027777777778,38.48972222222222],[-116.03027777777778,38.48972222222222],[-116.03027777777778,38.48972222222222],[-115.67444444444445,38.47805555555556],[-115.67444444444445,38.47805555555556],[-115.67444444444445,38.47805555555556],[-115.67444444444445,38.47805555555556],[-115.67444444444445,38.47805555555556],[-115.67444444444445,38.47805555555556],[-115.12694444444443,38.45916666666667],[-115.12694444444443,38.45916666666667],[-115.12694444444443,38.45916666666667],[-115.12694444444443,38.45916666666667],[-115.12694444444443,38.45916666666667],[-115.12694444444443,38.45916666666667],[-114.21027777777778,38.42111111111111],[-114.21027777777778,38.42111111111111],[-114.21027777777778,38.42111111111111],[-114.21027777777778,38.42111111111111],[-114.21027777777778,38.42111111111111],[-114.21027777777778,38.42111111111111],[-114.21027777777778,38.42111111111111],[-113.08472222222221,38.36416666666667],[-113.08472222222221,38.36416666666667],[-113.08472222222221,38.36416666666667],[-113.08472222222221,38.36416666666667],[-112.89916666666667,38.34666666666667],[-112.89916666666667,38.34666666666667],[-112.56277777777777,38.30694444444444],[-112.56277777777777,38.30694444444444],[-112.56277777777777,38.30694444444444],[-112.56277777777777,38.30694444444444],[-112.56277777777777,38.30694444444444],[-112.56277777777777,38.30694444444444],[-112.00416666666666,38.238055555555555],[-112.00416666666666,38.238055555555555],[-112.00416666666666,38.238055555555555],[-112.00416666666666,38.238055555555555],[-112.00416666666666,38.238055555555555],[-112.00416666666666,38.238055555555555],[-111.81444444444445,38.21388888888889],[-111.81444444444445,38.21388888888889],[-111.81444444444445,38.21388888888889],[-111.81444444444445,38.21388888888889],[-111.69416666666667,38.19833333333333],[-111.69416666666667,38.19833333333333],[-111.62805555555555,38.189722222222215],[-111.62805555555555,38.189722222222215],[-111.31861111111111,38.14944444444444],[-111.31861111111111,38.14944444444444],[-111.31861111111111,38.14944444444444],[-111.31861111111111,38.14944444444444],[-111.25305555555556,38.14055555555556],[-111.25305555555556,38.14055555555556],[-111.13305555555554,38.124722222222225],[-111.13305555555554,38.124722222222225],[-110.94777777777779,38.1],[-110.94777777777779,38.1],[-110.94777777777779,38.1],[-110.75277777777778,38.07333333333334],[-110.75277777777778,38.07333333333334],[-110.75277777777778,38.07333333333334],[-110.75277777777778,38.07333333333334],[-110.75277777777778,38.07333333333334],[-110.56861111111111,38.047777777777775],[-110.56861111111111,38.047777777777775],[-110.56861111111111,38.047777777777775],[-110.56861111111111,38.047777777777775],[-110.56861111111111,38.047777777777775],[-110.56861111111111,38.047777777777775],[-110.49305555555556,38.0375],[-110.49305555555556,38.0375],[-110.21083333333334,37.9975],[-110.21083333333334,37.9975],[-110.21083333333334,37.9975],[-109.83888888888889,37.94611111111111],[-109.83888888888889,37.94611111111111],[-109.83888888888889,37.94611111111111],[-109.83888888888889,37.94611111111111],[-109.65,37.92111111111111],[-109.65,37.92111111111111],[-109.65,37.92111111111111],[-109.65,37.92111111111111],[-109.38277777777778,37.8875],[-109.38277777777778,37.8875],[-109.38277777777778,37.8875],[-109.27694444444444,37.87361111111111],[-109.27694444444444,37.87361111111111],[-109.27694444444444,37.87361111111111],[-109.27694444444444,37.87361111111111],[-109.19388888888889,37.86361111111111],[-109.00527777777778,37.84305555555556],[-109.00527777777778,37.84305555555556],[-109.00527777777778,37.84305555555556],[-108.89305555555556,37.8325],[-108.89305555555556,37.8325],[-108.70194444444445,37.81361111111111],[-108.70194444444445,37.81361111111111],[-108.70194444444445,37.81361111111111],[-108.50722222222223,37.79333333333333],[-108.50722222222223,37.79333333333333],[-108.50722222222223,37.79333333333333],[-108.50722222222223,37.79333333333333],[-108.31527777777778,37.77333333333333],[-108.31527777777778,37.77333333333333],[-108.31527777777778,37.77333333333333],[-108.31527777777778,37.77333333333333],[-108.31527777777778,37.77333333333333],[-108.31527777777778,37.77333333333333],[-107.72666666666667,37.709722222222226],[-107.72666666666667,37.709722222222226],[-107.72666666666667,37.709722222222226],[-107.72666666666667,37.709722222222226],[-107.53277777777778,37.68833333333333],[-107.53277777777778,37.68833333333333],[-107.53277777777778,37.68833333333333],[-107.53277777777778,37.68833333333333],[-107.53277777777778,37.68833333333333],[-107.53277777777778,37.68833333333333],[-106.54888888888888,37.58111111111111],[-106.54888888888888,37.58111111111111],[-106.54888888888888,37.58111111111111],[-106.54888888888888,37.58111111111111],[-106.54888888888888,37.58111111111111],[-106.54888888888888,37.58111111111111],[-106.14777777777779,37.541666666666664],[-106.14777777777779,37.541666666666664],[-106.14777777777779,37.541666666666664],[-106.14777777777779,37.541666666666664],[-105.95083333333334,37.524166666666666],[-105.95083333333334,37.524166666666666],[-105.78555555555555,37.51027777777778],[-105.74972222222222,37.507222222222225],[-105.74972222222222,37.507222222222225],[-105.74972222222222,37.507222222222225],[-105.54916666666666,37.489444444444445],[-105.54916666666666,37.489444444444445],[-105.54916666666666,37.489444444444445],[-105.34944444444444,37.471111111111114],[-105.34944444444444,37.471111111111114],[-105.34944444444444,37.471111111111114],[-105.18055555555556,37.455555555555556],[-105.18055555555556,37.455555555555556],[-105.18055555555556,37.455555555555556],[-105.18055555555556,37.455555555555556],[-105.14888888888889,37.4525],[-105.14888888888889,37.4525],[-105.14888888888889,37.4525],[-104.7825,37.41833333333333],[-104.74194444444444,37.41444444444444],[-104.74194444444444,37.41444444444444],[-104.74194444444444,37.41444444444444],[-104.74194444444444,37.41444444444444],[-104.74194444444444,37.41444444444444],[-104.74194444444444,37.41444444444444],[-104.58416666666666,37.39888888888889],[-104.58416666666666,37.39888888888889],[-104.5425,37.39472222222222],[-104.5425,37.39472222222222],[-104.5425,37.39472222222222],[-104.5425,37.39472222222222],[-104.5425,37.39472222222222],[-104.33999999999999,37.37444444444444],[-104.33999999999999,37.37444444444444],[-104.1413888888889,37.35472222222222],[-104.1413888888889,37.35472222222222],[-104.1413888888889,37.35472222222222],[-103.74694444444445,37.31388888888888],[-103.74694444444445,37.31388888888888],[-103.74694444444445,37.31388888888888],[-103.74694444444445,37.31388888888888],[-103.74694444444445,37.31388888888888],[-103.74694444444445,37.31388888888888],[-103.3111111111111,37.2675],[-103.3111111111111,37.2675],[-103.3111111111111,37.2675],[-103.14916666666667,37.24944444444444],[-103.14916666666667,37.24944444444444],[-103.14916666666667,37.24944444444444],[-103.14916666666667,37.24944444444444],[-103.14916666666667,37.24944444444444],[-102.54972222222221,37.18138888888889],[-102.54972222222221,37.18138888888889],[-102.54972222222221,37.18138888888889],[-102.54972222222221,37.18138888888889],[-102.54972222222221,37.18138888888889],[-102.54972222222221,37.18138888888889],[-102.34305555555555,37.1575],[-102.34305555555555,37.1575],[-102.34777777777778,37.158055555555556],[-102.34777777777778,37.158055555555556],[-102.34777777777778,37.158055555555556],[-102.15666666666667,37.135555555555555],[-102.15666666666667,37.135555555555555],[-102.15666666666667,37.135555555555555],[-101.94972222222222,37.11083333333333],[-101.94972222222222,37.11083333333333],[-101.94972222222222,37.11083333333333],[-101.94972222222222,37.11083333333333],[-101.75277777777778,37.086666666666666],[-101.75277777777778,37.086666666666666],[-101.75277777777778,37.086666666666666],[-101.75277777777778,37.086666666666666],[-101.55527777777777,37.06222222222222],[-101.55527777777777,37.06222222222222],[-101.55527777777777,37.06222222222222],[-101.55527777777777,37.06222222222222],[-101.35499999999999,37.03722222222222],[-101.35499999999999,37.03722222222222],[-101.35499999999999,37.03722222222222],[-101.35499999999999,37.03722222222222],[-100.96000000000001,36.986666666666665],[-100.96000000000001,36.986666666666665],[-100.96000000000001,36.986666666666665],[-100.96000000000001,36.986666666666665],[-100.96000000000001,36.986666666666665],[-100.7611111111111,36.96083333333333],[-100.7611111111111,36.96083333333333],[-100.7611111111111,36.96083333333333],[-100.7611111111111,36.96083333333333],[-100.7611111111111,36.96083333333333],[-100.55972222222222,36.93416666666666],[-100.55972222222222,36.93416666666666],[-100.55972222222222,36.93416666666666],[-100.55972222222222,36.93416666666666],[-99.92694444444444,36.84805555555556],[-99.92694444444444,36.84805555555556],[-99.92694444444444,36.84805555555556],[-99.92694444444444,36.84805555555556],[-99.32722222222222,36.76305555555555],[-99.32722222222222,36.76305555555555],[-99.32722222222222,36.76305555555555],[-99.12722222222222,36.73388888888889],[-99.12722222222222,36.73388888888889],[-99.12722222222222,36.73388888888889],[-99.12722222222222,36.73388888888889],[-99.12722222222222,36.73388888888889],[-98.32222222222222,36.61361111111111],[-98.32222222222222,36.61361111111111],[-98.32222222222222,36.61361111111111],[-98.32222222222222,36.61361111111111],[-98.32222222222222,36.61361111111111],[-98.32222222222222,36.61361111111111],[-98.32222222222222,36.61361111111111],[-97.74972222222222,36.52444444444444],[-97.74972222222222,36.52444444444444],[-97.74972222222222,36.52444444444444],[-97.74972222222222,36.52444444444444],[-97.74972222222222,36.52444444444444],[-97.55,36.4925],[-97.55,36.4925],[-97.55,36.4925],[-97.1538888888889,36.42833333333333],[-97.1538888888889,36.42833333333333],[-97.1538888888889,36.42833333333333],[-97.1538888888889,36.42833333333333],[-96.7863888888889,36.367222222222225],[-96.7863888888889,36.367222222222225],[-96.7863888888889,36.367222222222225],[-96.7863888888889,36.367222222222225],[-96.58805555555556,36.333333333333336],[-96.58805555555556,36.333333333333336],[-96.35777777777777,36.29527777777778],[-96.35777777777777,36.29527777777778],[-96.35777777777777,36.29527777777778],[-96.15666666666667,36.26083333333333],[-96.15666666666667,36.26083333333333],[-96.15666666666667,36.26083333333333],[-96.15666666666667,36.26083333333333],[-96.15666666666667,36.26083333333333],[-95.96722222222222,36.22777777777778],[-95.96722222222222,36.22777777777778],[-95.96722222222222,36.22777777777778],[-95.77055555555556,36.19277777777778],[-95.77055555555556,36.19277777777778],[-95.77055555555556,36.19277777777778],[-95.38611111111112,36.10805555555556],[-95.38611111111112,36.10805555555556],[-95.38611111111112,36.10805555555556],[-95.38611111111112,36.10805555555556],[-95.38611111111112,36.10805555555556],[-94.9961111111111,36.021388888888886],[-94.9961111111111,36.021388888888886],[-94.9961111111111,36.021388888888886],[-94.9961111111111,36.021388888888886],[-94.40972222222223,35.91555555555556],[-94.40972222222223,35.91555555555556],[-94.40972222222223,35.91555555555556],[-94.40972222222223,35.91555555555556],[-94.21194444444444,35.87916666666667],[-94.21194444444444,35.87916666666667],[-94.21194444444444,35.87916666666667],[-94.21194444444444,35.87916666666667],[-93.82527777777777,35.80694444444444],[-93.82527777777777,35.80694444444444],[-93.82527777777777,35.80694444444444],[-93.82527777777777,35.80694444444444],[-93.82527777777777,35.80694444444444],[-93.63333333333334,35.77055555555555],[-93.63333333333334,35.77055555555555],[-93.63333333333334,35.77055555555555],[-93.43972222222223,35.73361111111111],[-93.43972222222223,35.73361111111111],[-93.24916666666667,35.69694444444444],[-93.24916666666667,35.69694444444444],[-93.24916666666667,35.69694444444444],[-93.09305555555555,35.666666666666664],[-93.09305555555555,35.666666666666664],[-93.09305555555555,35.666666666666664],[-93.09305555555555,35.666666666666664],[-92.89805555555556,35.62861111111111],[-92.89805555555556,35.62861111111111],[-92.89805555555556,35.62861111111111],[-92.89805555555556,35.62861111111111],[-92.89805555555556,35.62861111111111],[-92.32083333333333,35.51361111111111],[-92.12888888888888,35.474722222222226],[-92.12888888888888,35.474722222222226],[-92.12888888888888,35.474722222222226],[-91.9413888888889,35.43611111111111],[-91.9413888888889,35.43611111111111],[-91.9413888888889,35.43611111111111],[-91.56388888888888,35.35777777777778],[-91.56388888888888,35.35777777777778],[-91.56388888888888,35.35777777777778],[-91.56388888888888,35.35777777777778],[-91.56388888888888,35.35777777777778],[-91.56388888888888,35.35777777777778],[-91.16305555555556,35.27305555555555],[-91.16305555555556,35.27305555555555],[-90.97888888888889,35.23388888888889],[-90.97888888888889,35.23388888888889],[-90.79277777777777,35.19333333333333],[-90.79277777777777,35.19333333333333],[-90.60527777777777,35.152499999999996],[-90.60527777777777,35.152499999999996],[-90.60527777777777,35.152499999999996],[-90.60527777777777,35.152499999999996],[-90.28111111111112,35.083333333333336],[-90.28111111111112,35.083333333333336],[-90.095,35.04222222222222],[-90.095,35.04222222222222],[-90.08444444444444,35.03777777777778],[-90.08444444444444,35.03777777777778],[-90.08444444444444,35.03777777777778],[-89.72611111111111,34.98027777777778],[-89.72611111111111,34.98027777777778],[-89.72611111111111,34.98027777777778],[-89.54194444444444,34.955000000000005],[-89.54194444444444,34.955000000000005],[-89.54194444444444,34.955000000000005],[-89.51833333333333,34.94972222222222],[-89.51833333333333,34.94972222222222],[-89.51833333333333,34.94972222222222],[-89.35944444444443,34.92722222222222],[-89.15166666666667,34.89666666666667],[-89.15166666666667,34.89666666666667],[-88.96944444444445,34.87],[-88.8125,34.84722222222222],[-88.8125,34.84722222222222],[-88.78722222222223,34.84277777777778],[-88.62694444444443,34.81861111111112],[-88.60527777777777,34.815555555555555],[-88.44416666666667,34.79111111111111],[-88.44416666666667,34.79111111111111],[-88.44416666666667,34.79111111111111],[-88.26416666666667,34.763888888888886],[-88.07972222222222,34.73527777777778],[-88.07972222222222,34.73527777777778],[-88.04138888888889,34.72916666666667],[-87.85777777777777,34.70055555555556],[-87.85777777777777,34.70055555555556],[-87.85777777777777,34.70055555555556],[-87.51944444444445,34.646388888888886],[-87.51944444444445,34.646388888888886],[-87.51944444444445,34.646388888888886],[-87.51944444444445,34.646388888888886],[-87.3325,34.61527777777778],[-87.3325,34.61527777777778],[-87.14694444444446,34.580000000000005],[-87.14694444444446,34.580000000000005],[-86.96277777777777,34.54722222222222],[-86.96277777777777,34.54722222222222],[-86.96277777777777,34.54722222222222],[-86.81861111111111,34.5125],[-86.78361111111111,34.50361111111111],[-86.78361111111111,34.50361111111111],[-86.60111111111111,34.45611111111111],[-86.60111111111111,34.45611111111111],[-86.27777777777777,34.37083333333334],[-86.27777777777777,34.37083333333334],[-86.27777777777777,34.37083333333334],[-86.27777777777777,34.37083333333334],[-86.27777777777777,34.37083333333334],[-85.89055555555557,34.26972222222222],[-85.89055555555557,34.26972222222222],[-85.88805555555557,34.26916666666666],[-85.88805555555557,34.26916666666666],[-85.88805555555557,34.26916666666666],[-85.72222222222223,34.22527777777778],[-85.72222222222223,34.22527777777778],[-85.42222222222223,34.14611111111111],[-85.38333333333334,34.13333333333333],[-85.38333333333334,34.13333333333333],[-85.38333333333334,34.13333333333333],[-85.27416666666666,34.10805555555556],[-85.27416666666666,34.10805555555556],[-85.27416666666666,34.10805555555556],[-85.13694444444445,34.06388888888888],[-85.13694444444445,34.06388888888888],[-85.13694444444445,34.06388888888888],[-85.13694444444445,34.06388888888888],[-85.13694444444445,34.06388888888888],[-85.01666666666667,34],[-84.81666666666666,33.86666666666667],[-84.81666666666666,33.86666666666667],[-84.81666666666666,33.86666666666667],[-84.81666666666666,33.86666666666667],[-84.65944444444445,33.77972222222222],[-84.65944444444445,33.77972222222222],[-84.65944444444445,33.77972222222222],[-84.40694444444445,33.73305555555556],[-84.40694444444445,33.73305555555556],[-84.40694444444445,33.73305555555556],[-84.40694444444445,33.73305555555556],[-84.32333333333332,33.73277777777778],[-84.32333333333332,33.73277777777778],[-84.25611111111111,33.657777777777774],[-84.25611111111111,33.657777777777774],[-84.31027777777777,33.64944444444444],[-84.31027777777777,33.64944444444444],[-84.31027777777777,33.64944444444444],[-84.31027777777777,33.64944444444444],[-84.31027777777777,33.64944444444444]],"type":"LineString"}
}
