{
  "id": 2015258361,
  "type": "Feature",
  "properties": {
    "geom:area": 0,
    "geom:bbox": "-122.538980,36.732160,-121.313820,37.667920",
    "geom:latitude": 37.206243090671904,
    "geom:longitude": -122.0061840182511,
    "src:alt_label": "swim-takeoff",
    "src:geom": "swim",
    "swim:elevations": [
      213,
      317,
      567,
      792,
      1032,
      1334,
      1682,
      2019,
      2470,
      2647,
      3000,
      3409,
      3749,
      3961,
      4256,
      4564,
      4880,
      5135,
      5684,
      5892,
      6313,
      6340,
      6568,
      6712,
      7061,
      7265,
      7300,
      7657,
      7732,
      7772,
      7930,
      8146,
      8295,
      8445,
      8585,
      8596
    ],
    "swim:geom": "takeoff",
    "swim:timestamps": [
      1775857918,
      1775857926,
      1775857944,
      1775857962,
      1775857981,
      1775858023,
      1775858056,
      1775858078,
      1775858107,
      1775858122,
      1775858146,
      1775858183,
      1775858215,
      1775858233,
      1775858262,
      1775858292,
      1775858322,
      1775858343,
      1775858394,
      1775858416,
      1775858458,
      1775858461,
      1775858512,
      1775858530,
      1775858576,
      1775858606,
      1775858611,
      1775858655,
      1775858667,
      1775858670,
      1775858694,
      1775858726,
      1775858752,
      1775858788,
      1775858817,
      1775858820
    ],
    "wof:geomhash": "36c5fab0bfa7d9af2bb35e1a75eb3204",
    "wof:id": 2015258361,
    "wof:repo": "sfomuseum-data-flights-2026-04"
  },
  "bbox": [
    -122.53898,
    36.73216,
    -121.31382,
    37.66792
  ],
  "geometry": {"coordinates":[[-122.39731,37.63056],[-122.40481,37.63381],[-122.42167,37.64085],[-122.43802,37.64747],[-122.45598,37.65464],[-122.50488,37.66792],[-122.53898,37.64444],[-122.53787,37.61814],[-122.5217,37.58503],[-122.51224,37.5675],[-122.49787,37.53853],[-122.47167,37.49221],[-122.42973,37.46096],[-122.40288,37.44385],[-122.35767,37.41518],[-122.31102,37.38407],[-122.26237,37.35256],[-122.22764,37.33054],[-122.14254,37.27589],[-122.10553,37.25186],[-122.03159,37.20376],[-122.02628,37.20033],[-121.93199,37.1388],[-121.89765,37.11644],[-121.80994,37.05912],[-121.75035,37.01998],[-121.74109,37.0139],[-121.65184,36.9554],[-121.6276,36.93963],[-121.62154,36.93565],[-121.57269,36.90368],[-121.50864,36.86143],[-121.45507,36.82573],[-121.37999,36.77626],[-121.32014,36.73634],[-121.31382,36.73216]],"type":"LineString"}
}
