{
  "id": 2015199893,
  "type": "Feature",
  "properties": {
    "geom:area": 0,
    "geom:bbox": "-123.465830,37.465540,-122.404790,37.713170",
    "geom:latitude": 37.607586884463785,
    "geom:longitude": -122.93243301544383,
    "src:alt_label": "swim-takeoff",
    "src:geom": "swim",
    "swim:elevations": [
      288,
      326,
      925,
      1090,
      1435,
      1799,
      2131,
      2488,
      2680,
      3118,
      3212,
      3410,
      3445,
      3991,
      4086,
      4638,
      4775,
      5105,
      5477,
      5712,
      5983,
      6173,
      6384
    ],
    "swim:geom": "takeoff",
    "swim:timestamps": [
      1775215197,
      1775215201,
      1775215251,
      1775215277,
      1775215318,
      1775215347,
      1775215378,
      1775215406,
      1775215421,
      1775215457,
      1775215470,
      1775215498,
      1775215507,
      1775215558,
      1775215566,
      1775215617,
      1775215629,
      1775215657,
      1775215705,
      1775215727,
      1775215758,
      1775215785,
      1775215809
    ],
    "wof:geomhash": "7cd26709f38fe431a1a88fc501c72d6c",
    "wof:id": 2015199893,
    "wof:repo": "sfomuseum-data-flights-2026-04"
  },
  "bbox": [
    -123.46583,
    37.46554,
    -122.40479,
    37.71317
  ],
  "geometry": {"coordinates":[[-122.40479,37.63347],[-122.40875,37.63511],[-122.45926,37.65633],[-122.48707,37.66794],[-122.53788,37.69012],[-122.57528,37.70756],[-122.62395,37.71317],[-122.66905,37.69992],[-122.69324,37.69208],[-122.75243,37.67294],[-122.77447,37.66643],[-122.82619,37.65147],[-122.84314,37.64665],[-122.94481,37.61737],[-122.9605,37.61299],[-123.06292,37.58357],[-123.0864,37.57666],[-123.14582,37.55939],[-123.245,37.53042],[-123.28912,37.51759],[-123.35574,37.49798],[-123.41361,37.48093],[-123.46583,37.46554]],"type":"LineString"}
}
