{
  "id": 2015274727,
  "type": "Feature",
  "properties": {
    "geom:area": 0,
    "geom:bbox": "-122.527720,37.623390,-121.247470,38.425090",
    "geom:latitude": 38.004447575430504,
    "geom:longitude": -121.95147735825664,
    "src:alt_label": "swim-takeoff",
    "src:geom": "swim",
    "swim:elevations": [
      381,
      928,
      1030,
      1551,
      2182,
      2471,
      2610,
      2756,
      3004,
      3111,
      3279,
      3987,
      4322,
      4437,
      4503,
      4771,
      4930,
      5068,
      5642,
      5708,
      6245,
      6554,
      6670,
      6755,
      6977,
      7231,
      7524,
      7772,
      7834,
      8164,
      8346,
      8501,
      8633,
      8761,
      9051,
      91,
      448,
      550,
      1021,
      1495,
      2052,
      2590,
      2989,
      3034,
      3315
    ],
    "swim:geom": "takeoff",
    "swim:timestamps": [
      1775977241,
      1775977285,
      1775977297,
      1775977336,
      1775977375,
      1775977393,
      1775977402,
      1775977410,
      1775977430,
      1775977464,
      1775977479,
      1775977524,
      1775977548,
      1775977555,
      1775977562,
      1775977580,
      1775977591,
      1775977601,
      1775977645,
      1775977651,
      1775977697,
      1775977724,
      1775977736,
      1775977742,
      1775977768,
      1775977792,
      1775977824,
      1775977853,
      1775977864,
      1775977911,
      1775977943,
      1775977976,
      1775978003,
      1775978026,
      1775978057,
      1776063327,
      1776063353,
      1776063361,
      1776063392,
      1776063444,
      1776063478,
      1776063507,
      1776063537,
      1776063546,
      1776063578
    ],
    "wof:geomhash": "4ed454204ba7fe2cc92d7c8aefc86147",
    "wof:id": 2015274727,
    "wof:repo": "sfomuseum-data-flights-2026-04"
  },
  "bbox": [
    -122.52772,
    37.62339,
    -121.24747,
    38.42509
  ],
  "geometry": {"coordinates":[[-122.39326,37.6266],[-122.43332,37.64383],[-122.44675,37.64926],[-122.49433,37.67009],[-122.52598,37.70943],[-122.52741,37.73353],[-122.52772,37.74572],[-122.5277,37.75684],[-122.51958,37.7844],[-122.47053,37.81596],[-122.4436,37.82726],[-122.36329,37.864],[-122.31995,37.88529],[-122.30553,37.89238],[-122.29455,37.89779],[-122.26145,37.91407],[-122.24014,37.92455],[-122.22213,37.93341],[-122.13909,37.97452],[-122.12786,37.98008],[-122.03874,38.02337],[-121.98325,38.05022],[-121.95897,38.062],[-121.94687,38.06785],[-121.8936,38.09366],[-121.84325,38.11811],[-121.77662,38.15032],[-121.71469,38.18027],[-121.69099,38.19168],[-121.58639,38.24203],[-121.51159,38.27804],[-121.43423,38.3151],[-121.37012,38.34867],[-121.31966,38.38023],[-121.24747,38.42509],[-122.38614,37.62339],[-122.40952,37.63341],[-122.41657,37.63653],[-122.4448,37.64869],[-122.50075,37.67308],[-122.52568,37.70693],[-122.52626,37.7433],[-122.52509,37.78142],[-122.52094,37.79178],[-122.48041,37.82077]],"type":"LineString"}
}
