{
  "id": 2015347669,
  "type": "Feature",
  "properties": {
    "geom:area": 0,
    "geom:bbox": "-122.360050,37.494240,-121.256310,37.615320",
    "geom:latitude": 37.54626852974901,
    "geom:longitude": -121.81389924880743,
    "src:alt_label": "swim-approach",
    "src:geom": "swim",
    "swim:elevations": [
      4397,
      4072,
      3963,
      3835,
      3590,
      3507,
      3501,
      3392,
      3415,
      3259,
      3111,
      2982,
      2686,
      2458,
      2356,
      2194,
      2145,
      1951,
      1891,
      1797,
      1735,
      1673,
      1408,
      1233,
      953,
      654,
      548,
      429,
      274,
      177,
      13,
      0
    ],
    "swim:geom": "approach",
    "swim:timestamps": [
      1776806144,
      1776806182,
      1776806199,
      1776806220,
      1776806262,
      1776806277,
      1776806280,
      1776806307,
      1776806322,
      1776806361,
      1776806381,
      1776806405,
      1776806447,
      1776806480,
      1776806501,
      1776806539,
      1776806561,
      1776806606,
      1776806618,
      1776806645,
      1776806663,
      1776806678,
      1776806714,
      1776806735,
      1776806773,
      1776806817,
      1776806838,
      1776806862,
      1776806893,
      1776806927,
      1776806964,
      1776806970
    ],
    "wof:geomhash": "b71c5ec43534ba64dfa153700f58aa35",
    "wof:id": 2015347669,
    "wof:repo": "sfomuseum-data-flights-2026-04"
  },
  "bbox": [
    -122.36005,
    37.49424,
    -121.25631,
    37.61532
  ],
  "geometry": {"coordinates":[[-121.25631,37.59347],[-121.32394,37.58545],[-121.35511,37.58194],[-121.39277,37.57752],[-121.46718,37.56902],[-121.49442,37.56583],[-121.49984,37.56518],[-121.54678,37.55962],[-121.57104,37.55678],[-121.62925,37.54947],[-121.65629,37.54295],[-121.69007,37.53479],[-121.74622,37.52157],[-121.79021,37.51112],[-121.8181,37.50438],[-121.87043,37.49424],[-121.89971,37.49867],[-121.96197,37.50732],[-121.97875,37.50978],[-122.01697,37.51555],[-122.04137,37.51939],[-122.0608,37.52224],[-122.10868,37.52748],[-122.13732,37.53068],[-122.18788,37.54304],[-122.24069,37.56471],[-122.26221,37.57367],[-122.28421,37.58299],[-122.30805,37.59293],[-122.33096,37.60255],[-122.35666,37.61333],[-122.36005,37.61532]],"type":"LineString"}
}
