{
  "id": 2031101345,
  "type": "Feature",
  "properties": {
    "geom:area": 0,
    "geom:bbox": "-122.380000,19.410000,-99.070000,37.620000",
    "geom:latitude": 28.118441885151846,
    "geom:longitude": -110.74861898667397,
    "src:alt_label": "swim-route",
    "src:geom": "swim",
    "swim:geom": "route",
    "wof:geomhash": "128d233f77754cfc52d39b0303c91069",
    "wof:id": 2031101345,
    "wof:repo": "sfomuseum-data-flights-2026-04"
  },
  "bbox": [
    -122.38,
    19.41,
    -99.07,
    37.62
  ],
  "geometry": {"coordinates":[[-99.07,19.43],[-99.19,19.42],[-99.26,19.42],[-99.35,19.41],[-99.37,19.89],[-99.42,20.63],[-99.48,20.7],[-99.75,21],[-100.17,21.28],[-100.44,21.39],[-100.78,21.52],[-100.78,21.7],[-100.9,21.76],[-101.13,21.87],[-101.33,21.97],[-101.54,22.07],[-101.73,22.32],[-102.03,22.53],[-102.22,22.6],[-102.79,22.79],[-102.88,23.07],[-103.06,23.15],[-103.28,23.24],[-103.88,23.72],[-105.03,24.45],[-105.62,24.64],[-105.7,24.85],[-106.68,25.47],[-107.57,26],[-108.09,26.28],[-108.29,26.38],[-109.12,26.81],[-109.47,27.12],[-110.34,27.6],[-110.47,27.67],[-111.47,28.23],[-113.52,29.32],[-114.34,29.74],[-114.54,29.84],[-114.67,29.9],[-115.25,30.2],[-115.96,30.55],[-116.08,30.74],[-116.21,30.93],[-116.59,31.51],[-117.24,32.47],[-117.25,32.48],[-117.26,32.49],[-117.29,32.53],[-117.44,32.7],[-117.59,32.88],[-117.89,33.23],[-118.58,33.8],[-119.01,34.14],[-120.82,35.48],[-120.86,35.53],[-120.99,35.66],[-121.04,35.73],[-121.3,36],[-121.33,36.04],[-121.36,36.07],[-121.38,36.09],[-121.42,36.14],[-121.54,36.29],[-121.57,36.34],[-121.7,36.5],[-121.7,36.5],[-121.73,36.53],[-121.76,36.57],[-121.82,36.65],[-121.85,36.69],[-121.89,36.74],[-121.9,36.77],[-121.94,36.91],[-121.95,36.95],[-121.97,36.99],[-122,37.07],[-122.08,37.27],[-122.08,37.28],[-122.1,37.33],[-122.12,37.37],[-122.17,37.42],[-122.17,37.43],[-122.24,37.49],[-122.31,37.56],[-122.36,37.6],[-122.37,37.61],[-122.38,37.62]],"type":"LineString"}
}
