{
  "id": 2031100249,
  "type": "Feature",
  "properties": {
    "geom:area": 0,
    "geom:bbox": "-123.485520,37.207120,-122.104740,37.614460",
    "geom:latitude": 37.33070151740879,
    "geom:longitude": -122.6388726006883,
    "src:alt_label": "swim-approach",
    "src:geom": "swim",
    "swim:elevations": [
      5191,
      5004,
      4819,
      4658,
      4526,
      4284,
      4162,
      3758,
      3537,
      3419,
      3221,
      3171,
      3147,
      3088,
      3050,
      3048,
      3048,
      3048,
      3020,
      3017,
      2840,
      2774,
      2743,
      2672,
      2479,
      2438,
      2438,
      2442,
      2319,
      2184,
      1984,
      1828,
      1831,
      1829,
      1829,
      1829,
      1829,
      1521,
      1308,
      1285,
      1218,
      1219,
      1138,
      969,
      881,
      818,
      791,
      792,
      648,
      204,
      46,
      8
    ],
    "swim:geom": "approach",
    "swim:timestamps": [
      1777060075,
      1777060097,
      1777060120,
      1777060140,
      1777060157,
      1777060183,
      1777060200,
      1777060248,
      1777060277,
      1777060291,
      1777060326,
      1777060346,
      1777060351,
      1777060363,
      1777060396,
      1777060422,
      1777060467,
      1777060490,
      1777060528,
      1777060531,
      1777060556,
      1777060567,
      1777060590,
      1777060644,
      1777060675,
      1777060684,
      1777060722,
      1777060750,
      1777060792,
      1777060819,
      1777060850,
      1777060886,
      1777060892,
      1777060898,
      1777060941,
      1777060955,
      1777060982,
      1777061036,
      1777061062,
      1777061065,
      1777061094,
      1777061120,
      1777061156,
      1777061181,
      1777061202,
      1777061223,
      1777061230,
      1777061272,
      1777061306,
      1777061415,
      1777061455,
      1777061465
    ],
    "wof:geomhash": "7fd783da444a57e9a7973abfabca41fb",
    "wof:id": 2031100249,
    "wof:repo": "sfomuseum-data-flights-2026-04"
  },
  "bbox": [
    -123.48552,
    37.20712,
    -122.10474,
    37.61446
  ],
  "geometry": {"coordinates":[[-123.48552,37.38273],[-123.43824,37.37333],[-123.38941,37.36375],[-123.34828,37.35555],[-123.3132,37.34853],[-123.25839,37.33754],[-123.224,37.33068],[-123.1275,37.31128],[-123.07209,37.30007],[-123.04419,37.2945],[-122.97627,37.28065],[-122.94016,37.27329],[-122.93199,37.27164],[-122.90934,37.26709],[-122.85563,37.26118],[-122.81905,37.26817],[-122.75646,37.28249],[-122.72461,37.28155],[-122.67078,37.27148],[-122.66609,37.27058],[-122.63162,37.26412],[-122.61621,37.2612],[-122.58223,37.25502],[-122.50561,37.24115],[-122.46153,37.23317],[-122.44982,37.23102],[-122.39535,37.22081],[-122.35567,37.21342],[-122.29624,37.20712],[-122.25752,37.21004],[-122.21439,37.21417],[-122.17549,37.23696],[-122.16969,37.24161],[-122.16394,37.24632],[-122.12356,37.27889],[-122.11115,37.28954],[-122.10474,37.3164],[-122.10982,37.36858],[-122.11207,37.39283],[-122.11238,37.39558],[-122.11518,37.42232],[-122.11825,37.4461],[-122.12908,37.47879],[-122.13665,37.50016],[-122.14798,37.51688],[-122.16295,37.53057],[-122.16993,37.53436],[-122.20879,37.55111],[-122.2398,37.56424],[-122.3226,37.59905],[-122.35178,37.61125],[-122.35875,37.61446]],"type":"LineString"}
}
