{
  "id": 2031149833,
  "type": "Feature",
  "properties": {
    "geom:area": 0,
    "geom:bbox": "-122.356960,36.763440,-121.899530,37.611120",
    "geom:latitude": 37.24024397862379,
    "geom:longitude": -122.10378761948725,
    "src:alt_label": "swim-approach",
    "src:geom": "swim",
    "swim:elevations": [
      4713,
      4445,
      4273,
      3892,
      3700,
      3400,
      3324,
      3199,
      3135,
      3039,
      2714,
      2533,
      2498,
      2438,
      2438,
      2438,
      2179,
      2101,
      1838,
      1830,
      1772,
      1671,
      1548,
      1433,
      1257,
      1152,
      945,
      915,
      914,
      888,
      641,
      607,
      428,
      295,
      163,
      92,
      26
    ],
    "swim:geom": "approach",
    "swim:timestamps": [
      1777547124,
      1777547151,
      1777547175,
      1777547218,
      1777547242,
      1777547274,
      1777547286,
      1777547304,
      1777547320,
      1777547347,
      1777547397,
      1777547424,
      1777547437,
      1777547474,
      1777547495,
      1777547523,
      1777547572,
      1777547588,
      1777547636,
      1777547651,
      1777547696,
      1777547709,
      1777547741,
      1777547782,
      1777547818,
      1777547832,
      1777547872,
      1777547881,
      1777547900,
      1777547911,
      1777547967,
      1777547975,
      1777548019,
      1777548055,
      1777548088,
      1777548109,
      1777548128
    ],
    "wof:geomhash": "b0876f7af8d086927b975281d6dba010",
    "wof:id": 2031149833,
    "wof:repo": "sfomuseum-data-flights-2026-04"
  },
  "bbox": [
    -122.35696,
    36.76344,
    -121.89953,
    37.61112
  ],
  "geometry": {"coordinates":[[-121.89953,36.76344],[-121.90994,36.79995],[-121.91946,36.83364],[-121.93542,36.89039],[-121.94395,36.92095],[-121.95725,36.96363],[-121.96331,36.97919],[-121.97238,37.00228],[-121.97981,37.02152],[-121.99335,37.05573],[-122.01871,37.12088],[-122.03671,37.15259],[-122.05144,37.16471],[-122.09285,37.19603],[-122.11403,37.21192],[-122.14306,37.23354],[-122.1931,37.27093],[-122.2096,37.2832],[-122.23763,37.32635],[-122.22805,37.33897],[-122.18641,37.37404],[-122.17444,37.38404],[-122.15181,37.4108],[-122.13265,37.44673],[-122.12065,37.47541],[-122.12618,37.48674],[-122.1526,37.51405],[-122.15824,37.51976],[-122.17327,37.53209],[-122.18285,37.53717],[-122.23459,37.55968],[-122.2411,37.56242],[-122.27698,37.57748],[-122.30693,37.5901],[-122.33086,37.60014],[-122.34435,37.60579],[-122.35696,37.61112]],"type":"LineString"}
}
