{
  "id": 2031116297,
  "type": "Feature",
  "properties": {
    "geom:area": 0,
    "geom:bbox": "-122.333333,35.886667,-115.157500,37.692778",
    "geom:latitude": 37.16867346270029,
    "geom:longitude": -118.57874925927896,
    "src:alt_label": "swim-path",
    "src:geom": "swim",
    "swim:altitudes": [
      "030",
      "030",
      "030",
      "030",
      "070",
      "070",
      "070",
      "070",
      "070",
      "070",
      "070",
      "070",
      "111",
      "111",
      "111",
      "111",
      "111",
      "111",
      "111",
      "111",
      "111",
      "127",
      "127",
      "127",
      "127",
      "127",
      "127",
      "167",
      "167",
      "167",
      "167",
      "167",
      "167",
      "167",
      "214",
      "214",
      "214",
      "214",
      "214",
      "214",
      "267",
      "267",
      "267",
      "267",
      "267",
      "267",
      "267",
      "267",
      "267",
      "291",
      "291",
      "291",
      "291",
      "291",
      "309",
      "309",
      "309",
      "309",
      "309",
      "317",
      "320C",
      "320C",
      "320C",
      "320C",
      "320C",
      "320C",
      "320C",
      "320C",
      "320C",
      "320C",
      "320C",
      "320C",
      "320C",
      "320C",
      "320C",
      "320C",
      "320C",
      "320C",
      "320C",
      "320C",
      "320C",
      "320C",
      "320C",
      "320C",
      "320C",
      "320C",
      "320C",
      "320C",
      "320C",
      "320C",
      "321C",
      "321C",
      "321C",
      "321C",
      "321C",
      "321C",
      "321C",
      "321C",
      "320C",
      "320C",
      "320C",
      "320C",
      "320C",
      "320C",
      "320C",
      "320C",
      "320C",
      "320C",
      "320C",
      "320C",
      "320C",
      "320C",
      "320C",
      "321C",
      "321C",
      "321C",
      "321C",
      "321C",
      "320C",
      "320C",
      "320C",
      "320C",
      "320C",
      "320C",
      "320C",
      "320C",
      "320C",
      "320C",
      "320C",
      "320C",
      "320C",
      "320C",
      "320C",
      "320C",
      "320C",
      "320C",
      "320C",
      "320C",
      "320C",
      "320C",
      "320C",
      "320C",
      "320C",
      "320C",
      "320C",
      "320C",
      "320C",
      "320C",
      "320C",
      "320C",
      "320C",
      "320C",
      "320C",
      "320C",
      "320C",
      "320C",
      "320C",
      "320",
      "320",
      "320",
      "320",
      "320",
      "320",
      "320",
      "320",
      "320",
      "308",
      "308",
      "308",
      "308",
      "308",
      "308",
      "308",
      "282",
      "282",
      "282",
      "282",
      "282",
      "264",
      "264",
      "242",
      "242",
      "242",
      "242",
      "242",
      "242",
      "242",
      "223",
      "223",
      "207",
      "207",
      "207",
      "207",
      "193",
      "189",
      "189",
      "189",
      "189",
      "189",
      "177",
      "177",
      "172",
      "172",
      "172",
      "172",
      "172",
      "172",
      "130",
      "130",
      "116",
      "116",
      "116",
      "111",
      "111",
      "111",
      "111",
      "111",
      "098",
      "098",
      "098",
      "098",
      "070",
      "070",
      "070",
      "070",
      "070",
      "061",
      "061",
      "061",
      "061",
      "061",
      "061",
      "051",
      "051",
      "051",
      "051",
      "051",
      "051",
      "029",
      "029",
      "029",
      "029",
      "029",
      "014",
      "014",
      "014",
      "014",
      "014",
      "014",
      "007",
      "007",
      "007",
      "006",
      "006",
      "006",
      "006",
      "006"
    ],
    "swim:geom": "path",
    "swim:speeds": [
      146,
      146,
      146,
      146,
      249,
      249,
      249,
      249,
      249,
      249,
      249,
      249,
      285,
      285,
      285,
      285,
      285,
      285,
      285,
      285,
      285,
      281,
      281,
      281,
      281,
      281,
      281,
      373,
      373,
      373,
      373,
      373,
      373,
      373,
      403,
      403,
      403,
      403,
      403,
      403,
      433,
      433,
      433,
      433,
      433,
      433,
      433,
      433,
      433,
      440,
      440,
      440,
      440,
      440,
      440,
      440,
      440,
      440,
      440,
      438,
      434,
      434,
      434,
      434,
      434,
      435,
      435,
      435,
      435,
      435,
      435,
      435,
      435,
      435,
      435,
      439,
      439,
      439,
      439,
      439,
      439,
      441,
      441,
      441,
      441,
      441,
      441,
      441,
      443,
      443,
      443,
      443,
      443,
      443,
      443,
      443,
      443,
      443,
      438,
      423,
      423,
      423,
      420,
      420,
      419,
      419,
      419,
      419,
      418,
      418,
      418,
      418,
      418,
      415,
      415,
      415,
      415,
      415,
      415,
      415,
      415,
      415,
      415,
      415,
      415,
      415,
      416,
      416,
      417,
      417,
      417,
      417,
      416,
      416,
      416,
      416,
      416,
      414,
      414,
      414,
      414,
      413,
      413,
      413,
      413,
      413,
      413,
      413,
      413,
      413,
      413,
      413,
      413,
      413,
      413,
      413,
      413,
      411,
      411,
      411,
      411,
      411,
      411,
      411,
      411,
      411,
      375,
      375,
      375,
      375,
      375,
      375,
      375,
      347,
      347,
      347,
      347,
      347,
      336,
      336,
      320,
      320,
      320,
      320,
      320,
      320,
      320,
      315,
      315,
      310,
      310,
      310,
      310,
      307,
      301,
      301,
      301,
      301,
      301,
      302,
      302,
      296,
      296,
      296,
      296,
      296,
      296,
      271,
      271,
      265,
      265,
      265,
      258,
      258,
      258,
      258,
      258,
      256,
      256,
      256,
      256,
      245,
      245,
      245,
      245,
      245,
      231,
      231,
      231,
      231,
      231,
      231,
      192,
      192,
      192,
      192,
      192,
      192,
      184,
      184,
      184,
      184,
      184,
      147,
      147,
      147,
      147,
      147,
      147,
      123,
      123,
      123,
      120,
      120,
      120,
      120,
      120
    ],
    "swim:timestamps": [
      1777230021,
      1777230021,
      1777230021,
      1777230021,
      1777230131,
      1777230131,
      1777230131,
      1777230131,
      1777230131,
      1777230131,
      1777230131,
      1777230131,
      1777230311,
      1777230311,
      1777230311,
      1777230311,
      1777230311,
      1777230311,
      1777230311,
      1777230311,
      1777230311,
      1777230431,
      1777230431,
      1777230431,
      1777230431,
      1777230431,
      1777230431,
      1777230551,
      1777230551,
      1777230551,
      1777230551,
      1777230551,
      1777230551,
      1777230551,
      1777230671,
      1777230671,
      1777230671,
      1777230671,
      1777230671,
      1777230671,
      1777230852,
      1777230852,
      1777230852,
      1777230852,
      1777230852,
      1777230852,
      1777230852,
      1777230852,
      1777230852,
      1777230946,
      1777230946,
      1777230946,
      1777230946,
      1777230946,
      1777231006,
      1777231006,
      1777231006,
      1777231006,
      1777231006,
      1777231032,
      1777231066,
      1777231092,
      1777231092,
      1777231092,
      1777231092,
      1777231126,
      1777231126,
      1777231126,
      1777231126,
      1777231152,
      1777231152,
      1777231152,
      1777231152,
      1777231152,
      1777231152,
      1777231272,
      1777231272,
      1777231272,
      1777231272,
      1777231307,
      1777231307,
      1777231393,
      1777231393,
      1777231393,
      1777231393,
      1777231393,
      1777231393,
      1777231393,
      1777231427,
      1777231427,
      1777231487,
      1777231487,
      1777231487,
      1777231487,
      1777231487,
      1777231487,
      1777231487,
      1777231487,
      1777231547,
      1777231607,
      1777231607,
      1777231607,
      1777231633,
      1777231633,
      1777231667,
      1777231667,
      1777231667,
      1777231667,
      1777231693,
      1777231693,
      1777231693,
      1777231693,
      1777231693,
      1777231848,
      1777231848,
      1777231848,
      1777231848,
      1777231848,
      1777231908,
      1777231908,
      1777231908,
      1777231908,
      1777231908,
      1777231908,
      1777231933,
      1777231933,
      1777231993,
      1777231993,
      1777232114,
      1777232114,
      1777232114,
      1777232114,
      1777232174,
      1777232174,
      1777232174,
      1777232174,
      1777232174,
      1777232268,
      1777232268,
      1777232268,
      1777232268,
      1777232328,
      1777232328,
      1777232328,
      1777232328,
      1777232328,
      1777232328,
      1777232388,
      1777232388,
      1777232388,
      1777232388,
      1777232508,
      1777232508,
      1777232508,
      1777232508,
      1777232508,
      1777232508,
      1777232629,
      1777232629,
      1777232629,
      1777232629,
      1777232629,
      1777232629,
      1777232629,
      1777232629,
      1777232629,
      1777232749,
      1777232749,
      1777232749,
      1777232749,
      1777232749,
      1777232749,
      1777232749,
      1777232869,
      1777232869,
      1777232869,
      1777232869,
      1777232869,
      1777232929,
      1777232929,
      1777233000,
      1777233000,
      1777233000,
      1777233000,
      1777233000,
      1777233000,
      1777233000,
      1777233066,
      1777233066,
      1777233120,
      1777233120,
      1777233120,
      1777233120,
      1777233169,
      1777233180,
      1777233180,
      1777233180,
      1777233180,
      1777233180,
      1777233230,
      1777233230,
      1777233240,
      1777233240,
      1777233240,
      1777233240,
      1777233240,
      1777233240,
      1777233410,
      1777233410,
      1777233470,
      1777233470,
      1777233470,
      1777233480,
      1777233480,
      1777233480,
      1777233480,
      1777233480,
      1777233540,
      1777233540,
      1777233540,
      1777233540,
      1777233666,
      1777233666,
      1777233666,
      1777233666,
      1777233666,
      1777233721,
      1777233721,
      1777233721,
      1777233721,
      1777233721,
      1777233721,
      1777233840,
      1777233840,
      1777233840,
      1777233840,
      1777233840,
      1777233840,
      1777233966,
      1777233966,
      1777233966,
      1777233966,
      1777233966,
      1777234071,
      1777234071,
      1777234071,
      1777234071,
      1777234071,
      1777234071,
      1777234131,
      1777234131,
      1777234131,
      1777234141,
      1777234141,
      1777234141,
      1777234141,
      1777234141
    ],
    "wof:geomhash": "afdd8f50d97cb75ef34a059765546fd9",
    "wof:id": 2031116297,
    "wof:repo": "sfomuseum-data-flights-2026-04"
  },
  "bbox": [
    -122.33333333333333,
    35.88666666666666,
    -115.1575,
    37.69277777777778
  ],
  "geometry": {"coordinates":[[-115.1575,36.07666666666667],[-115.1575,36.07666666666667],[-115.1575,36.07666666666667],[-115.1575,36.07666666666667],[-115.26777777777778,36.051944444444445],[-115.26777777777778,36.051944444444445],[-115.26777777777778,36.051944444444445],[-115.26777777777778,36.051944444444445],[-115.26777777777778,36.051944444444445],[-115.26777777777778,36.051944444444445],[-115.26777777777778,36.051944444444445],[-115.26777777777778,36.051944444444445],[-115.43861111111111,35.88666666666666],[-115.43861111111111,35.88666666666666],[-115.43861111111111,35.88666666666666],[-115.43861111111111,35.88666666666666],[-115.43861111111111,35.88666666666666],[-115.43861111111111,35.88666666666666],[-115.43861111111111,35.88666666666666],[-115.43861111111111,35.88666666666666],[-115.43861111111111,35.88666666666666],[-115.63305555555554,35.890277777777776],[-115.63305555555554,35.890277777777776],[-115.63305555555554,35.890277777777776],[-115.63305555555554,35.890277777777776],[-115.63305555555554,35.890277777777776],[-115.63305555555554,35.890277777777776],[-115.8261111111111,35.971944444444446],[-115.8261111111111,35.971944444444446],[-115.8261111111111,35.971944444444446],[-115.8261111111111,35.971944444444446],[-115.8261111111111,35.971944444444446],[-115.8261111111111,35.971944444444446],[-115.8261111111111,35.971944444444446],[-116.0363888888889,36.10916666666667],[-116.0363888888889,36.10916666666667],[-116.0363888888889,36.10916666666667],[-116.0363888888889,36.10916666666667],[-116.0363888888889,36.10916666666667],[-116.0363888888889,36.10916666666667],[-116.3625,36.319722222222225],[-116.3625,36.319722222222225],[-116.3625,36.319722222222225],[-116.3625,36.319722222222225],[-116.3625,36.319722222222225],[-116.3625,36.319722222222225],[-116.3625,36.319722222222225],[-116.3625,36.319722222222225],[-116.3625,36.319722222222225],[-116.55555555555556,36.44361111111111],[-116.55555555555556,36.44361111111111],[-116.55555555555556,36.44361111111111],[-116.55555555555556,36.44361111111111],[-116.55555555555556,36.44361111111111],[-116.67361111111111,36.51888888888889],[-116.67361111111111,36.51888888888889],[-116.67361111111111,36.51888888888889],[-116.67361111111111,36.51888888888889],[-116.67361111111111,36.51888888888889],[-116.72111111111111,36.549166666666665],[-116.78666666666666,36.59916666666667],[-116.82527777777777,36.63333333333333],[-116.82527777777777,36.63333333333333],[-116.82527777777777,36.63333333333333],[-116.82527777777777,36.63333333333333],[-116.88805555555557,36.68805555555555],[-116.88805555555557,36.68805555555555],[-116.88805555555557,36.68805555555555],[-116.88805555555557,36.68805555555555],[-116.92861111111111,36.72361111111111],[-116.92861111111111,36.72361111111111],[-116.92861111111111,36.72361111111111],[-116.92861111111111,36.72361111111111],[-116.92861111111111,36.72361111111111],[-116.92861111111111,36.72361111111111],[-117.075,36.93944444444444],[-117.075,36.93944444444444],[-117.075,36.93944444444444],[-117.075,36.93944444444444],[-117.11749999999999,37.004444444444445],[-117.11749999999999,37.004444444444445],[-117.21722222222222,37.15694444444444],[-117.21722222222222,37.15694444444444],[-117.21722222222222,37.15694444444444],[-117.21722222222222,37.15694444444444],[-117.21722222222222,37.15694444444444],[-117.21722222222222,37.15694444444444],[-117.21722222222222,37.15694444444444],[-117.26138888888889,37.22416666666667],[-117.26138888888889,37.22416666666667],[-117.3425,37.32916666666667],[-117.3425,37.32916666666667],[-117.3425,37.32916666666667],[-117.3425,37.32916666666667],[-117.3425,37.32916666666667],[-117.3425,37.32916666666667],[-117.3425,37.32916666666667],[-117.3425,37.32916666666667],[-117.44222222222223,37.42222222222222],[-117.5586111111111,37.49333333333333],[-117.5586111111111,37.49333333333333],[-117.5586111111111,37.49333333333333],[-117.61749999999999,37.499722222222225],[-117.61749999999999,37.499722222222225],[-117.7038888888889,37.5075],[-117.7038888888889,37.5075],[-117.7038888888889,37.5075],[-117.7038888888889,37.5075],[-117.76083333333334,37.51361111111111],[-117.76083333333334,37.51361111111111],[-117.76083333333334,37.51361111111111],[-117.76083333333334,37.51361111111111],[-117.76083333333334,37.51361111111111],[-118.1388888888889,37.544444444444444],[-118.1388888888889,37.544444444444444],[-118.1388888888889,37.544444444444444],[-118.1388888888889,37.544444444444444],[-118.1388888888889,37.544444444444444],[-118.28472222222221,37.55555555555555],[-118.28472222222221,37.55555555555555],[-118.28472222222221,37.55555555555555],[-118.28472222222221,37.55555555555555],[-118.28472222222221,37.55555555555555],[-118.28472222222221,37.55555555555555],[-118.34861111111111,37.56055555555555],[-118.34861111111111,37.56055555555555],[-118.49333333333334,37.57138888888889],[-118.49333333333334,37.57138888888889],[-118.7786111111111,37.5925],[-118.7786111111111,37.5925],[-118.7786111111111,37.5925],[-118.7786111111111,37.5925],[-118.92361111111111,37.60305555555556],[-118.92361111111111,37.60305555555556],[-118.92361111111111,37.60305555555556],[-118.92361111111111,37.60305555555556],[-118.92361111111111,37.60305555555556],[-119.15277777777779,37.619166666666665],[-119.15277777777779,37.619166666666665],[-119.15277777777779,37.619166666666665],[-119.15277777777779,37.619166666666665],[-119.29722222222222,37.629444444444445],[-119.29722222222222,37.629444444444445],[-119.29722222222222,37.629444444444445],[-119.29722222222222,37.629444444444445],[-119.29722222222222,37.629444444444445],[-119.29722222222222,37.629444444444445],[-119.4413888888889,37.638888888888886],[-119.4413888888889,37.638888888888886],[-119.4413888888889,37.638888888888886],[-119.4413888888889,37.638888888888886],[-119.73,37.657777777777774],[-119.73,37.657777777777774],[-119.73,37.657777777777774],[-119.73,37.657777777777774],[-119.73,37.657777777777774],[-119.73,37.657777777777774],[-120.01611111111112,37.67583333333333],[-120.01611111111112,37.67583333333333],[-120.01611111111112,37.67583333333333],[-120.01611111111112,37.67583333333333],[-120.01611111111112,37.67583333333333],[-120.01611111111112,37.67583333333333],[-120.01611111111112,37.67583333333333],[-120.01611111111112,37.67583333333333],[-120.01611111111112,37.67583333333333],[-120.29694444444445,37.69277777777778],[-120.29694444444445,37.69277777777778],[-120.29694444444445,37.69277777777778],[-120.29694444444445,37.69277777777778],[-120.29694444444445,37.69277777777778],[-120.29694444444445,37.69277777777778],[-120.29694444444445,37.69277777777778],[-120.5411111111111,37.68333333333333],[-120.5411111111111,37.68333333333333],[-120.5411111111111,37.68333333333333],[-120.5411111111111,37.68333333333333],[-120.5411111111111,37.68333333333333],[-120.65666666666667,37.66972222222222],[-120.65666666666667,37.66972222222222],[-120.8,37.65],[-120.8,37.65],[-120.8,37.65],[-120.8,37.65],[-120.8,37.65],[-120.8,37.65],[-120.8,37.65],[-120.91666666666667,37.63333333333333],[-120.91666666666667,37.63333333333333],[-121.01666666666667,37.63333333333333],[-121.01666666666667,37.63333333333333],[-121.01666666666667,37.63333333333333],[-121.01666666666667,37.63333333333333],[-121.09472222222222,37.61555555555556],[-121.11666666666666,37.61666666666667],[-121.11666666666666,37.61666666666667],[-121.11666666666666,37.61666666666667],[-121.11666666666666,37.61666666666667],[-121.11666666666666,37.61666666666667],[-121.18722222222223,37.60305555555556],[-121.18722222222223,37.60305555555556],[-121.21666666666667,37.6],[-121.21666666666667,37.6],[-121.21666666666667,37.6],[-121.21666666666667,37.6],[-121.21666666666667,37.6],[-121.21666666666667,37.6],[-121.48555555555555,37.56722222222223],[-121.48555555555555,37.56722222222223],[-121.5761111111111,37.55638888888888],[-121.5761111111111,37.55638888888888],[-121.5761111111111,37.55638888888888],[-121.6,37.55],[-121.6,37.55],[-121.6,37.55],[-121.6,37.55],[-121.6,37.55],[-121.68333333333334,37.53333333333333],[-121.68333333333334,37.53333333333333],[-121.68333333333334,37.53333333333333],[-121.68333333333334,37.53333333333333],[-121.86666666666666,37.5],[-121.86666666666666,37.5],[-121.86666666666666,37.5],[-121.86666666666666,37.5],[-121.86666666666666,37.5],[-121.93333333333334,37.5],[-121.93333333333334,37.5],[-121.93333333333334,37.5],[-121.93333333333334,37.5],[-121.93333333333334,37.5],[-121.93333333333334,37.5],[-122.06666666666666,37.5],[-122.06666666666666,37.5],[-122.06666666666666,37.5],[-122.06666666666666,37.5],[-122.06666666666666,37.5],[-122.06666666666666,37.5],[-122.2,37.55],[-122.2,37.55],[-122.2,37.55],[-122.2,37.55],[-122.2,37.55],[-122.28083333333333,37.581388888888895],[-122.28083333333333,37.581388888888895],[-122.28083333333333,37.581388888888895],[-122.28083333333333,37.581388888888895],[-122.28083333333333,37.581388888888895],[-122.28083333333333,37.581388888888895],[-122.31861111111111,37.59722222222222],[-122.31861111111111,37.59722222222222],[-122.31861111111111,37.59722222222222],[-122.33333333333333,37.6],[-122.33333333333333,37.6],[-122.33333333333333,37.6],[-122.33333333333333,37.6],[-122.33333333333333,37.6]],"type":"LineString"}
}
