{
  "id": 2015189221,
  "type": "Feature",
  "properties": {
    "geom:area": 0,
    "geom:bbox": "-122.400710,37.631380,-122.216370,38.496440",
    "geom:latitude": 38.01853826392344,
    "geom:longitude": -122.24637925554804,
    "src:alt_label": "swim-takeoff",
    "src:geom": "swim",
    "swim:elevations": [
      342,
      504,
      615,
      699,
      941,
      1540,
      1903,
      1997,
      2815,
      2852,
      3293,
      3475,
      3656,
      4135,
      4701,
      5058,
      5448,
      5623,
      6339,
      6476,
      6714,
      7112,
      7450,
      7599
    ],
    "swim:geom": "takeoff",
    "swim:timestamps": [
      1775117089,
      1775117109,
      1775117132,
      1775117147,
      1775117172,
      1775117216,
      1775117247,
      1775117255,
      1775117306,
      1775117310,
      1775117363,
      1775117385,
      1775117400,
      1775117438,
      1775117482,
      1775117510,
      1775117544,
      1775117557,
      1775117608,
      1775117622,
      1775117645,
      1775117687,
      1775117718,
      1775117738
    ],
    "wof:geomhash": "22e624834c93fa9c370161a3dacf783f",
    "wof:id": 2015189221,
    "wof:repo": "sfomuseum-data-flights-2026-04"
  },
  "bbox": [
    -122.40071,
    37.63138,
    -122.21637,
    38.49644
  ],
  "geometry": {"coordinates":[[-122.40071,37.63138],[-122.40031,37.64674],[-122.37944,37.65899],[-122.36081,37.66526],[-122.32726,37.67718],[-122.26546,37.69985],[-122.22596,37.72063],[-122.2199,37.72969],[-122.21637,37.78982],[-122.21659,37.7945],[-122.21918,37.8636],[-122.2199,37.89531],[-122.22039,37.91767],[-122.22222,37.97707],[-122.22441,38.04685],[-122.22605,38.09303],[-122.22721,38.1513],[-122.22766,38.17409],[-122.22986,38.2626],[-122.23066,38.28589],[-122.23187,38.32796],[-122.23741,38.40377],[-122.2434,38.45961],[-122.24692,38.49644]],"type":"LineString"}
}
