{
  "id": 2031145679,
  "type": "Feature",
  "properties": {
    "geom:area": 0,
    "geom:bbox": "-122.408460,37.636160,-121.242830,38.440790",
    "geom:latitude": 38.09168461963355,
    "geom:longitude": -121.92192296069767,
    "src:alt_label": "swim-takeoff",
    "src:geom": "swim",
    "swim:elevations": [
      392,
      818,
      1100,
      1230,
      1458,
      1811,
      2282,
      2517,
      2776,
      3276,
      3636,
      3930,
      4430,
      4790,
      4875,
      5255,
      5575,
      5873,
      6234,
      6350,
      6551,
      6685,
      7159,
      7361,
      7573,
      7660,
      7761,
      7937,
      8197,
      8352,
      8631,
      8655
    ],
    "swim:geom": "takeoff",
    "swim:timestamps": [
      1777507043,
      1777507076,
      1777507097,
      1777507121,
      1777507144,
      1777507162,
      1777507194,
      1777507213,
      1777507231,
      1777507267,
      1777507314,
      1777507338,
      1777507377,
      1777507408,
      1777507416,
      1777507456,
      1777507484,
      1777507508,
      1777507542,
      1777507554,
      1777507577,
      1777507591,
      1777507645,
      1777507673,
      1777507703,
      1777507715,
      1777507730,
      1777507751,
      1777507784,
      1777507809,
      1777507857,
      1777507860
    ],
    "wof:geomhash": "7231e4ecf91cbd4e82ca1bddfeca089f",
    "wof:id": 2031145679,
    "wof:repo": "sfomuseum-data-flights-2026-04"
  },
  "bbox": [
    -122.40846,
    37.63616,
    -121.24283,
    38.44079
  ],
  "geometry": {"coordinates":[[-122.40846,37.63616],[-122.40003,37.66197],[-122.38279,37.67587],[-122.36239,37.69577],[-122.34243,37.7192],[-122.33749,37.74098],[-122.3543,37.77914],[-122.36552,37.80097],[-122.3766,37.8237],[-122.38639,37.87104],[-122.36661,37.94087],[-122.32916,37.96282],[-122.25596,37.99158],[-122.19653,38.01575],[-122.18045,38.0223],[-122.10008,38.05472],[-122.04375,38.07739],[-121.99449,38.09689],[-121.92492,38.12471],[-121.8992,38.13504],[-121.85047,38.1547],[-121.8199,38.16685],[-121.70234,38.21329],[-121.64134,38.23763],[-121.57293,38.26468],[-121.54562,38.27549],[-121.511,38.28877],[-121.46223,38.30767],[-121.38643,38.33885],[-121.33538,38.36934],[-121.24737,38.43628],[-121.24283,38.44079]],"type":"LineString"}
}
