{
  "id": 2015176497,
  "type": "Feature",
  "properties": {
    "geom:area": 0,
    "geom:bbox": "-122.510430,36.732200,-121.886130,37.617360",
    "geom:latitude": 37.36468670285745,
    "geom:longitude": -122.17746870876677,
    "src:alt_label": "swim-approach",
    "src:geom": "swim",
    "swim:elevations": [
      5600,
      5505,
      5199,
      4898,
      4753,
      4420,
      4185,
      3982,
      3790,
      3521,
      3276,
      3137,
      3038,
      2925,
      2748,
      2633,
      2613,
      2411,
      2307,
      2133,
      2000,
      1975,
      1801,
      1506,
      1339,
      1249,
      1070,
      943,
      913,
      914,
      740,
      706,
      497,
      384,
      235,
      162,
      240,
      841,
      1018,
      1520,
      1723,
      1833,
      1829,
      1829,
      1829,
      1829,
      1829,
      1829,
      1829,
      1829,
      1829,
      1859,
      1828,
      1826,
      1687,
      1590,
      1524,
      1524,
      1416,
      1219,
      1219,
      1219,
      1219,
      1163,
      967,
      851,
      651,
      528,
      506,
      308,
      211,
      54,
      0
    ],
    "swim:geom": "approach",
    "swim:timestamps": [
      1775063428,
      1775063437,
      1775063478,
      1775063517,
      1775063533,
      1775063577,
      1775063605,
      1775063632,
      1775063657,
      1775063693,
      1775063727,
      1775063753,
      1775063781,
      1775063809,
      1775063841,
      1775063857,
      1775063861,
      1775063889,
      1775063913,
      1775063961,
      1775063987,
      1775063993,
      1775064014,
      1775064057,
      1775064084,
      1775064100,
      1775064141,
      1775064166,
      1775064185,
      1775064194,
      1775064234,
      1775064243,
      1775064290,
      1775064320,
      1775064355,
      1775064374,
      1775064397,
      1775064442,
      1775064462,
      1775064504,
      1775064517,
      1775064542,
      1775064577,
      1775064625,
      1775064644,
      1775064674,
      1775064686,
      1775064715,
      1775064747,
      1775064761,
      1775064798,
      1775064827,
      1775064837,
      1775064842,
      1775064868,
      1775064885,
      1775064921,
      1775064944,
      1775064969,
      1775065010,
      1775065047,
      1775065067,
      1775065098,
      1775065117,
      1775065154,
      1775065182,
      1775065226,
      1775065257,
      1775065264,
      1775065310,
      1775065332,
      1775065373,
      1775065388
    ],
    "wof:geomhash": "0c5af840b88769abfb6e5b1fe7a468be",
    "wof:id": 2015176497,
    "wof:repo": "sfomuseum-data-flights-2026-04"
  },
  "bbox": [
    -122.51043,
    36.7322,
    -121.88613,
    37.61736
  ],
  "geometry": {"coordinates":[[-121.88613,36.7322],[-121.89249,36.74354],[-121.91011,36.79896],[-121.92494,36.85194],[-121.93101,36.87354],[-121.9472,36.93136],[-121.95953,36.96883],[-121.97298,37.00299],[-121.98507,37.03353],[-122.00277,37.07912],[-122.01948,37.12193],[-122.03141,37.15358],[-122.04356,37.18473],[-122.05514,37.21374],[-122.06753,37.24469],[-122.0738,37.26077],[-122.07509,37.26406],[-122.0862,37.29248],[-122.09566,37.31628],[-122.09032,37.36192],[-122.08441,37.38595],[-122.08349,37.39142],[-122.08031,37.41035],[-122.08819,37.45001],[-122.09436,37.47411],[-122.09802,37.48899],[-122.12431,37.51416],[-122.14851,37.52298],[-122.16651,37.53106],[-122.17594,37.53495],[-122.21378,37.55092],[-122.22199,37.55442],[-122.26166,37.57105],[-122.28648,37.58156],[-122.31478,37.59346],[-122.33012,37.59991],[-122.35026,37.6079],[-122.39869,37.61341],[-122.42418,37.61617],[-122.47963,37.61736],[-122.49342,37.6086],[-122.50349,37.58395],[-122.51043,37.54729],[-122.47231,37.50666],[-122.44974,37.49622],[-122.41354,37.47946],[-122.39943,37.47229],[-122.36846,37.45206],[-122.33395,37.42923],[-122.31877,37.41917],[-122.27742,37.39557],[-122.23885,37.38295],[-122.22622,37.38074],[-122.22012,37.38091],[-122.18795,37.38762],[-122.16736,37.39045],[-122.12272,37.39566],[-122.09538,37.39976],[-122.07583,37.41718],[-122.05773,37.45352],[-122.07678,37.48226],[-122.08937,37.49592],[-122.11686,37.5103],[-122.13508,37.51802],[-122.17064,37.53273],[-122.195,37.54311],[-122.23293,37.55908],[-122.25842,37.56958],[-122.26408,37.57205],[-122.30121,37.58777],[-122.31915,37.59536],[-122.35226,37.60921],[-122.36438,37.61319]],"type":"LineString"}
}
