{
  "id": 2015280761,
  "type": "Feature",
  "properties": {
    "geom:area": 0,
    "geom:bbox": "-122.414150,37.631140,-121.246200,38.265410",
    "geom:latitude": 37.942447517911425,
    "geom:longitude": -121.83301346797555,
    "src:alt_label": "swim-takeoff",
    "src:geom": "swim",
    "swim:elevations": [
      213,
      292,
      456,
      582,
      714,
      1176,
      1320,
      1915,
      2122,
      2524,
      2830,
      3170,
      3291,
      3438,
      3555,
      3608,
      3952,
      4278,
      4489,
      4682,
      5186,
      5443,
      5550,
      5840,
      6040,
      6082,
      6295,
      6603,
      6698,
      6910
    ],
    "swim:geom": "takeoff",
    "swim:timestamps": [
      1776072264,
      1776072273,
      1776072293,
      1776072317,
      1776072339,
      1776072381,
      1776072392,
      1776072443,
      1776072457,
      1776072490,
      1776072516,
      1776072547,
      1776072573,
      1776072603,
      1776072628,
      1776072639,
      1776072683,
      1776072711,
      1776072732,
      1776072752,
      1776072804,
      1776072838,
      1776072848,
      1776072882,
      1776072908,
      1776072915,
      1776072944,
      1776072988,
      1776073000,
      1776073026
    ],
    "wof:geomhash": "6ac8d6fe624a49f37e1f07de9a580ef0",
    "wof:id": 2015280761,
    "wof:repo": "sfomuseum-data-flights-2026-04"
  },
  "bbox": [
    -122.41415,
    37.63114,
    -121.2462,
    38.26541
  ],
  "geometry": {"coordinates":[[-122.40028,37.63114],[-122.40761,37.63534],[-122.41415,37.65142],[-122.39586,37.66727],[-122.36663,37.67292],[-122.3067,37.689],[-122.28967,37.69451],[-122.21615,37.71787],[-122.19579,37.72748],[-122.15165,37.7504],[-122.11695,37.76821],[-122.07385,37.79052],[-122.03579,37.81006],[-121.98858,37.8326],[-121.94485,37.84993],[-121.92457,37.85798],[-121.8416,37.89428],[-121.79792,37.92825],[-121.76548,37.95323],[-121.73574,37.97603],[-121.65327,38.0389],[-121.59758,38.0809],[-121.58226,38.09249],[-121.52643,38.13604],[-121.48483,38.16907],[-121.47377,38.17777],[-121.42608,38.21556],[-121.34084,38.25707],[-121.30946,38.25999],[-121.2462,38.26541]],"type":"LineString"}
}
