{
  "id": 2015251021,
  "type": "Feature",
  "properties": {
    "geom:area": 0,
    "geom:bbox": "-122.764150,37.366480,-122.087600,38.379280",
    "geom:latitude": 37.70491075898064,
    "geom:longitude": -122.44207087033493,
    "src:alt_label": "swim-approach",
    "src:geom": "swim",
    "swim:elevations": [
      7420,
      7378,
      6984,
      6861,
      6723,
      6472,
      6326,
      6016,
      5861,
      5402,
      5220,
      5098,
      4989,
      4704,
      4308,
      4208,
      4038,
      3897,
      3725,
      3641,
      3431,
      3355,
      3353,
      3353,
      3307,
      3273,
      3141,
      2893,
      2718,
      2621,
      2434,
      2439,
      2286,
      2193,
      2134,
      2134,
      2134,
      2134,
      2134,
      2134,
      2134,
      1941,
      1801,
      1675,
      1557,
      1529,
      1524,
      1524,
      1390,
      1268,
      1066,
      829,
      791,
      674,
      541,
      515,
      298,
      213,
      132,
      46
    ],
    "swim:geom": "approach",
    "swim:timestamps": [
      1775855638,
      1775855644,
      1775855692,
      1775855704,
      1775855721,
      1775855753,
      1775855772,
      1775855809,
      1775855826,
      1775855875,
      1775855900,
      1775855915,
      1775855927,
      1775855958,
      1775855998,
      1775856017,
      1775856044,
      1775856061,
      1775856080,
      1775856101,
      1775856141,
      1775856162,
      1775856203,
      1775856227,
      1775856267,
      1775856273,
      1775856288,
      1775856318,
      1775856343,
      1775856367,
      1775856414,
      1775856423,
      1775856463,
      1775856487,
      1775856524,
      1775856558,
      1775856592,
      1775856610,
      1775856633,
      1775856651,
      1775856666,
      1775856717,
      1775856743,
      1775856771,
      1775856802,
      1775856810,
      1775856836,
      1775856842,
      1775856896,
      1775856912,
      1775856943,
      1775856988,
      1775857000,
      1775857018,
      1775857045,
      1775857051,
      1775857108,
      1775857125,
      1775857149,
      1775857170
    ],
    "wof:geomhash": "2c0a630b3a555a1308e9a11bca02cc69",
    "wof:id": 2015251021,
    "wof:repo": "sfomuseum-data-flights-2026-04"
  },
  "bbox": [
    -122.76415,
    37.36648,
    -122.0876,
    38.37928
  ],
  "geometry": {"coordinates":[[-122.74631,38.37928],[-122.74683,38.36993],[-122.75719,38.2962],[-122.76023,38.27809],[-122.76415,38.25272],[-122.76235,38.20522],[-122.75403,38.17721],[-122.73851,38.12477],[-122.73127,38.09954],[-122.71126,38.03009],[-122.70128,37.99626],[-122.69517,37.97546],[-122.68774,37.95947],[-122.66125,37.92022],[-122.62653,37.87051],[-122.61003,37.84736],[-122.58667,37.81746],[-122.57089,37.80026],[-122.55806,37.77857],[-122.54456,37.75544],[-122.50746,37.71996],[-122.48529,37.70214],[-122.44266,37.66927],[-122.41725,37.65025],[-122.37708,37.61866],[-122.3719,37.61286],[-122.3619,37.59761],[-122.34394,37.56758],[-122.32845,37.54249],[-122.31401,37.51915],[-122.2901,37.47371],[-122.29213,37.46464],[-122.31557,37.43003],[-122.34465,37.42548],[-122.39025,37.42357],[-122.42099,37.40272],[-122.40482,37.37212],[-122.38106,37.36648],[-122.34829,37.37299],[-122.32366,37.37939],[-122.30312,37.38477],[-122.23326,37.40351],[-122.19836,37.41258],[-122.16037,37.42252],[-122.1181,37.43353],[-122.1095,37.43813],[-122.09088,37.46198],[-122.0876,37.46761],[-122.11191,37.51027],[-122.12871,37.5178],[-122.16149,37.53093],[-122.20442,37.54935],[-122.21556,37.55404],[-122.2323,37.56095],[-122.25685,37.57139],[-122.26213,37.57358],[-122.30671,37.59235],[-122.31976,37.59787],[-122.33814,37.60566],[-122.35391,37.61218]],"type":"LineString"}
}
