{
  "id": 2015224037,
  "type": "Feature",
  "properties": {
    "geom:area": 0,
    "geom:bbox": "-122.547860,36.721100,-121.474080,37.671660",
    "geom:latitude": 37.20601999354833,
    "geom:longitude": -122.10301288627255,
    "src:alt_label": "swim-takeoff",
    "src:geom": "swim",
    "swim:elevations": [
      152,
      494,
      640,
      760,
      872,
      921,
      923,
      1663,
      2369,
      2631,
      2832,
      3278,
      3584,
      4070,
      4473,
      5270,
      5420,
      5546,
      5654,
      6065,
      6357,
      6696,
      6855,
      7016,
      7515,
      7641,
      7933,
      8157,
      8287,
      8592,
      8731,
      8929,
      9055,
      9243,
      9598,
      9975,
      10191
    ],
    "swim:geom": "takeoff",
    "swim:timestamps": [
      1775466807,
      1775466837,
      1775466852,
      1775466866,
      1775466880,
      1775466901,
      1775466932,
      1775466976,
      1775467011,
      1775467024,
      1775467033,
      1775467057,
      1775467074,
      1775467098,
      1775467120,
      1775467166,
      1775467182,
      1775467205,
      1775467217,
      1775467252,
      1775467280,
      1775467303,
      1775467315,
      1775467327,
      1775467371,
      1775467383,
      1775467406,
      1775467431,
      1775467451,
      1775467497,
      1775467518,
      1775467538,
      1775467558,
      1775467581,
      1775467617,
      1775467647,
      1775467673
    ],
    "wof:geomhash": "dd661d2ed4f9dd184e58892992e5b799",
    "wof:id": 2015224037,
    "wof:repo": "sfomuseum-data-flights-2026-04"
  },
  "bbox": [
    -122.54786,
    36.7211,
    -121.47408,
    37.67166
  ],
  "geometry": {"coordinates":[[-122.37897,37.62272],[-122.40154,37.63233],[-122.41493,37.63785],[-122.42898,37.64354],[-122.44419,37.64978],[-122.46991,37.65987],[-122.51126,37.67166],[-122.54786,37.6341],[-122.52676,37.59434],[-122.51823,37.57897],[-122.51221,37.56769],[-122.49866,37.53916],[-122.49264,37.51527],[-122.48711,37.48213],[-122.48151,37.45206],[-122.44714,37.39388],[-122.42138,37.37995],[-122.38226,37.35697],[-122.36117,37.34405],[-122.29822,37.30571],[-122.244,37.27323],[-122.20075,37.24498],[-122.17898,37.22918],[-122.15746,37.2132],[-122.07657,37.15416],[-122.05523,37.13877],[-122.01064,37.1065],[-121.96255,37.0719],[-121.92412,37.0441],[-121.83351,36.97906],[-121.79068,36.94863],[-121.75084,36.92027],[-121.71017,36.89125],[-121.66123,36.8561],[-121.58767,36.80333],[-121.52678,36.75881],[-121.47408,36.7211]],"type":"LineString"}
}
