{
  "id": 2015233411,
  "type": "Feature",
  "properties": {
    "geom:area": 0,
    "geom:bbox": "-175.290000,-37.020000,178.390000,37.670000",
    "geom:latitude": -25.518329730079444,
    "geom:longitude": -26.20664853961446,
    "src:alt_label": "swim-route",
    "src:geom": "swim",
    "swim:geom": "route",
    "wof:geomhash": "177fd3ae982a413d10a32a8812e0c4d4",
    "wof:id": 2015233411,
    "wof:repo": "sfomuseum-data-flights-2026-04"
  },
  "bbox": [
    -175.29,
    -37.02,
    178.39,
    37.67
  ],
  "geometry": {"coordinates":[[[-122.38,37.62],[-122.5,37.67],[-122.51,37.67],[-122.59,37.62],[-122.59,37.62],[-122.63,37.6],[-122.69,37.55],[-122.7,37.55],[-122.8,37.49],[-122.85,37.45],[-122.91,37.41],[-122.96,37.38],[-123.28,37.17],[-123.29,37.17],[-123.49,37.04],[-123.65,36.93],[-123.73,36.88],[-123.87,36.78],[-123.88,36.77],[-123.95,36.73],[-124.08,36.65],[-124.17,36.58],[-124.76,36.18],[-125.33,35.66],[-127.86,33.22],[-130,31],[-132.55,27.26],[-134,25],[-134.88,23.58],[-137,20],[-141,15],[-141.13,14.78],[-144,10],[-145.01,8.75],[-145.33,8.35],[-146.51,6.88],[-148,5],[-152,0],[-156,-5],[-157,-6],[-160,-10],[-165,-15.4],[-168,-20],[-172,-25],[-175.29,-30]],[[178.39,-35.36],[176.98,-36.03],[176.82,-36.1],[176.75,-36.14],[176.47,-36.26],[176.23,-36.37],[176,-36.48],[175.66,-36.63],[175.48,-36.71],[175.24,-36.82],[175.19,-36.84],[175.06,-36.9],[174.97,-36.94],[174.87,-36.98],[174.78,-37.02]]],"type":"MultiLineString"}
}
