{
  "id": 2031117499,
  "type": "Feature",
  "properties": {
    "geom:area": 0,
    "geom:bbox": "-122.363800,37.491770,-121.251910,37.616050",
    "geom:latitude": 37.54318844672573,
    "geom:longitude": -121.81502392566092,
    "src:alt_label": "swim-approach",
    "src:geom": "swim",
    "swim:elevations": [
      4659,
      4303,
      4232,
      4209,
      4106,
      4054,
      3961,
      3866,
      3678,
      3567,
      3480,
      3319,
      3192,
      3136,
      3083,
      2963,
      2715,
      2379,
      2260,
      2192,
      2187,
      2069,
      1996,
      1835,
      1732,
      1580,
      1513,
      1462,
      1430,
      1371,
      1307,
      1276,
      1006,
      961,
      851,
      736,
      674,
      630,
      512,
      294,
      272,
      0
    ],
    "swim:geom": "approach",
    "swim:timestamps": [
      1777193338,
      1777193393,
      1777193403,
      1777193406,
      1777193424,
      1777193434,
      1777193452,
      1777193481,
      1777193517,
      1777193534,
      1777193546,
      1777193572,
      1777193597,
      1777193606,
      1777193613,
      1777193636,
      1777193679,
      1777193746,
      1777193772,
      1777193787,
      1777193790,
      1777193811,
      1777193829,
      1777193865,
      1777193906,
      1777193938,
      1777193954,
      1777193962,
      1777193970,
      1777193982,
      1777194001,
      1777194032,
      1777194077,
      1777194094,
      1777194113,
      1777194139,
      1777194154,
      1777194163,
      1777194190,
      1777194237,
      1777194244,
      1777194319
    ],
    "wof:geomhash": "f6f0aff54247cf46d698f46007c546ee",
    "wof:id": 2031117499,
    "wof:repo": "sfomuseum-data-flights-2026-04"
  },
  "bbox": [
    -122.3638,
    37.49177,
    -121.25191,
    37.61605
  ],
  "geometry": {"coordinates":[[-121.25191,37.59409],[-121.34288,37.58362],[-121.35942,37.58179],[-121.36434,37.58125],[-121.39375,37.57791],[-121.40806,37.5763],[-121.43565,37.57314],[-121.47856,37.56788],[-121.52728,37.56204],[-121.54909,37.55948],[-121.56507,37.55763],[-121.60015,37.55365],[-121.63293,37.549],[-121.6446,37.54611],[-121.65331,37.54405],[-121.68341,37.53706],[-121.73814,37.52367],[-121.81749,37.5046],[-121.84751,37.4972],[-121.86468,37.49328],[-121.86817,37.49268],[-121.89323,37.49177],[-121.91518,37.49316],[-121.95801,37.49535],[-122.00209,37.49816],[-122.03623,37.5003],[-122.05378,37.50109],[-122.06121,37.50139],[-122.06969,37.50175],[-122.08212,37.50246],[-122.10193,37.50613],[-122.12995,37.51828],[-122.17166,37.53543],[-122.18535,37.54125],[-122.20198,37.54823],[-122.22387,37.55746],[-122.23617,37.56268],[-122.24362,37.56581],[-122.26678,37.5755],[-122.30296,37.59083],[-122.30746,37.59271],[-122.3638,37.61605]],"type":"LineString"}
}
