{
  "id": 2015229337,
  "type": "Feature",
  "properties": {
    "geom:area": 0,
    "geom:bbox": "-122.400240,37.522020,-122.059770,37.696540",
    "geom:latitude": 37.601061179491126,
    "geom:longitude": -122.21338473767885,
    "src:alt_label": "swim-approach",
    "src:geom": "swim",
    "swim:elevations": [
      3353,
      3353,
      3216,
      3085,
      2937,
      2432,
      2338,
      1853,
      1665,
      1638,
      1524,
      1473,
      1154,
      1007,
      914,
      914,
      761,
      598,
      522,
      445,
      250,
      219,
      12
    ],
    "swim:geom": "approach",
    "swim:timestamps": [
      1775580788,
      1775580799,
      1775580837,
      1775580856,
      1775580875,
      1775580926,
      1775580935,
      1775580982,
      1775581015,
      1775581021,
      1775581042,
      1775581062,
      1775581107,
      1775581125,
      1775581161,
      1775581171,
      1775581219,
      1775581255,
      1775581271,
      1775581295,
      1775581343,
      1775581352,
      1775581402
    ],
    "wof:geomhash": "2157743ef7c33514e1ac740a56e8c28e",
    "wof:id": 2015229337,
    "wof:repo": "sfomuseum-data-flights-2026-04"
  },
  "bbox": [
    -122.40024,
    37.52202,
    -122.05977,
    37.69654
  ],
  "geometry": {"coordinates":[[-122.40024,37.69654],[-122.38239,37.69134],[-122.3256,37.67463],[-122.29896,37.66678],[-122.27165,37.65864],[-122.20305,37.63724],[-122.19061,37.63332],[-122.12762,37.6133],[-122.08869,37.59234],[-122.08384,37.58711],[-122.0664,37.56756],[-122.05977,37.54598],[-122.10072,37.52202],[-122.12363,37.52288],[-122.16379,37.53227],[-122.17413,37.53668],[-122.21757,37.55496],[-122.24817,37.5678],[-122.26031,37.57291],[-122.27829,37.58035],[-122.31386,37.59531],[-122.32035,37.59806],[-122.3563,37.61311]],"type":"LineString"}
}
