{
  "id": 2031128687,
  "type": "Feature",
  "properties": {
    "geom:area": 0,
    "geom:bbox": "-122.530000,37.620000,11.790000,64.090000",
    "geom:latitude": 57.752056856705465,
    "geom:longitude": -54.794068601870336,
    "src:alt_label": "swim-route",
    "src:geom": "swim",
    "swim:geom": "route",
    "wof:geomhash": "f8ba6db65c44ef13786e0af62ea64ba2",
    "wof:id": 2031128687,
    "wof:repo": "sfomuseum-data-flights-2026-04"
  },
  "bbox": [
    -122.53,
    37.62,
    11.79,
    64.09
  ],
  "geometry": {"coordinates":[[-122.38,37.62],[-122.5,37.67],[-122.51,37.68],[-122.52,37.68],[-122.53,37.75],[-122.53,37.76],[-122.53,37.79],[-122.53,37.8],[-122.47,37.83],[-122.46,37.83],[-122.43,37.84],[-122.36,37.89],[-122.2,38],[-122.12,38.06],[-122.04,38.11],[-121.9,38.2],[-121.88,38.22],[-121.68,38.36],[-121.68,38.36],[-121.55,38.44],[-121.52,38.46],[-121.43,38.52],[-121.28,38.61],[-121.27,38.61],[-121.2,38.66],[-121.14,38.7],[-121.07,38.74],[-121.07,38.74],[-121.07,38.74],[-121.07,38.74],[-121.07,38.75],[-121.07,38.75],[-121.05,38.82],[-121.04,38.89],[-121.03,38.95],[-121.01,39.04],[-121.01,39.04],[-121,39.05],[-120.78,39.15],[-120.78,39.15],[-120.27,39.18],[-119.43,39.65],[-118.06,40.29],[-117.31,40.62],[-115.69,41.32],[-115.04,41.6],[-114.79,42],[-114.49,42.48],[-114.34,42.59],[-114.31,42.61],[-113.5,43.19],[-113.43,43.24],[-113.03,43.53],[-112.62,43.81],[-112.21,44.09],[-111.89,44.3],[-110.02,45.49],[-110,45.5],[-109.29,46.04],[-108.75,46.45],[-108.43,46.69],[-108.38,46.73],[-108,47],[-107.55,47.31],[-107.1,47.62],[-106.76,47.86],[-106.41,48.09],[-105.95,48.39],[-105,49],[-104.56,49.29],[-104.34,49.43],[-104.12,49.57],[-103.67,49.86],[-101,51.45],[-100,52],[-98.77,52.73],[-96.3,54.07],[-92.77,55.81],[-92.27,56.05],[-80,60.13],[-74.89,61.28],[-73.43,61.58],[-72.21,61.78],[-69.73,62.2],[-68.33,62.38],[-63.58,62.98],[-63,63.04],[-61.7,63.18],[-58,63.47],[-57.83,63.5],[-55.81,63.66],[-54.22,63.78],[-50,64],[-45,64.09],[-43.33,64.08],[-40,64],[-37.9,64.06],[-35.92,64.08],[-30,64],[-20,63],[-18.34,63.05],[-14.17,63.09],[-10,63],[-5.55,62.23],[-2.72,61.64],[-1.35,61.33],[0,61],[10.21,53.69],[11.08,50.88],[11.17,50.57],[11.19,50.52],[11.28,50.2],[11.3,50.13],[11.37,49.88],[11.43,49.66],[11.49,49.45],[11.57,49.14],[11.62,48.98],[11.68,48.76],[11.69,48.72],[11.72,48.6],[11.74,48.52],[11.76,48.44],[11.79,48.35]],"type":"LineString"}
}
