{
  "id": 2031128687,
  "type": "Feature",
  "properties": {
    "geom:area": 0,
    "geom:bbox": "-122.512500,37.633056,-105.825278,48.472778",
    "geom:latitude": 42.87447743375698,
    "geom:longitude": -114.12616665174708,
    "src:alt_label": "swim-path",
    "src:geom": "swim",
    "swim:altitudes": [
      "019",
      "019",
      "077",
      "077",
      "189",
      "223",
      "249",
      "261",
      "292",
      "292",
      "309",
      "332",
      "379",
      "390C",
      "390C",
      "390C",
      "390C",
      "390C",
      "390C",
      "390C",
      "390C",
      "390C",
      "390C",
      "390C",
      "390C",
      "390C",
      "390C",
      "390C",
      "390C",
      "390C",
      "390C",
      "390C",
      "390C",
      "390C",
      "390C",
      "390C",
      "390C",
      "390C",
      "390C",
      "390C",
      "390C",
      "390C",
      "390C",
      "390C",
      "390C",
      "390C",
      "390C",
      "390C",
      "390C",
      "390C",
      "390C",
      "390C",
      "390C",
      "390C",
      "390C",
      "390C",
      "390C",
      "390C",
      "390C",
      "390C",
      "390C",
      "390C",
      "390C",
      "390C",
      "390C",
      "390C",
      "390C"
    ],
    "swim:geom": "path",
    "swim:speeds": [
      155,
      155,
      266,
      266,
      400,
      424,
      456,
      460,
      490,
      490,
      509,
      524,
      513,
      507,
      507,
      504,
      504,
      506,
      506,
      513,
      513,
      514,
      509,
      505,
      504,
      498,
      495,
      495,
      502,
      502,
      502,
      503,
      503,
      503,
      504,
      503,
      503,
      503,
      504,
      503,
      503,
      499,
      497,
      497,
      498,
      498,
      502,
      502,
      503,
      502,
      502,
      503,
      504,
      504,
      504,
      505,
      505,
      503,
      502,
      503,
      503,
      503,
      503,
      505,
      505,
      503,
      503
    ],
    "swim:timestamps": [
      1777350855,
      1777350855,
      1777351036,
      1777351036,
      1777351396,
      1777351516,
      1777351636,
      1777351696,
      1777351876,
      1777351876,
      1777351997,
      1777352174,
      1777352477,
      1777352715,
      1777352715,
      1777352895,
      1777352895,
      1777353198,
      1777353378,
      1777353736,
      1777353736,
      1777353916,
      1777354156,
      1777354216,
      1777354276,
      1777354336,
      1777354516,
      1777354516,
      1777354757,
      1777354817,
      1777354817,
      1777354937,
      1777354937,
      1777354997,
      1777355417,
      1777355477,
      1777355537,
      1777355537,
      1777355838,
      1777355898,
      1777355898,
      1777356018,
      1777356078,
      1777356078,
      1777356138,
      1777356258,
      1777356318,
      1777356318,
      1777356558,
      1777356678,
      1777356738,
      1777356798,
      1777356858,
      1777356978,
      1777356978,
      1777357038,
      1777357038,
      1777357279,
      1777357339,
      1777357459,
      1777357459,
      1777357759,
      1777357819,
      1777357939,
      1777357939,
      1777358239,
      1777358239
    ],
    "wof:geomhash": "8fdd2c4c355190cbb25861fc31ca5e55",
    "wof:id": 2031128687,
    "wof:repo": "sfomuseum-data-flights-2026-04"
  },
  "bbox": [
    -122.5125,
    37.63305555555556,
    -105.82527777777777,
    48.47277777777778
  ],
  "geometry": {"coordinates":[[-122.40861111111111,37.63305555555556],[-122.40861111111111,37.63305555555556],[-122.5125,37.76416666666667],[-122.5125,37.76416666666667],[-122.00111111111111,38.12638888888889],[-121.7713888888889,38.288888888888884],[-121.53277777777778,38.455000000000005],[-121.42722222222223,38.51861111111111],[-121.0111111111111,38.77166666666667],[-121.0111111111111,38.77166666666667],[-120.72583333333334,38.94305555555555],[-120.26972222222223,39.18111111111111],[-119.48388888888888,39.573055555555555],[-118.86,39.87583333333333],[-118.86,39.87583333333333],[-118.3938888888889,40.09805555555556],[-118.3938888888889,40.09805555555556],[-117.60694444444444,40.46611111111111],[-117.13222222222221,40.68333333333333],[-116.18277777777779,41.108333333333334],[-116.18277777777779,41.108333333333334],[-115.69250000000001,41.32222222222222],[-115.065,41.63472222222222],[-114.95416666666667,41.74666666666667],[-114.86,41.88944444444444],[-114.78472222222221,42.00944444444445],[-114.55666666666666,42.37277777777778],[-114.55666666666666,42.37277777777778],[-114.06611111111111,42.78805555555555],[-113.93111111111112,42.885555555555555],[-113.93111111111112,42.885555555555555],[-113.64250000000001,43.0925],[-113.64250000000001,43.0925],[-113.505,43.19],[-112.53416666666666,43.86694444444444],[-112.39305555555556,43.96388888888889],[-112.25194444444445,44.059444444444445],[-112.25194444444445,44.059444444444445],[-111.53361111111111,44.53194444444444],[-111.40611111111112,44.614444444444445],[-111.40611111111112,44.614444444444445],[-111.11611111111111,44.800555555555555],[-110.9725,44.89222222222222],[-110.9725,44.89222222222222],[-110.82555555555555,44.98527777777778],[-110.51777777777778,45.178888888888885],[-110.36805555555554,45.27222222222222],[-110.36805555555554,45.27222222222222],[-109.79388888888889,45.65972222222222],[-109.52694444444444,45.865],[-109.39027777777778,45.969166666666666],[-109.255,46.07222222222222],[-109.11861111111111,46.175],[-108.8425,46.38194444444444],[-108.8425,46.38194444444444],[-108.7025,46.48583333333333],[-108.7025,46.48583333333333],[-108.14694444444446,46.89333333333333],[-108.00472222222223,46.99611111111111],[-107.71944444444445,47.196666666666665],[-107.71944444444445,47.196666666666665],[-107.01277777777777,47.68388888888889],[-106.86694444444444,47.7825],[-106.57055555555556,47.981944444444444],[-106.57055555555556,47.981944444444444],[-105.82527777777777,48.47277777777778],[-105.82527777777777,48.47277777777778]],"type":"LineString"}
}
