{
  "id": 2015201923,
  "type": "Feature",
  "properties": {
    "geom:area": 0,
    "geom:bbox": "-122.362650,36.723520,-121.879500,37.614930",
    "geom:latitude": 37.22008574606789,
    "geom:longitude": -122.0698425739705,
    "src:alt_label": "swim-approach",
    "src:geom": "swim",
    "swim:elevations": [
      5519,
      5393,
      5157,
      4743,
      4665,
      4407,
      4169,
      3895,
      3808,
      3616,
      3346,
      3259,
      3201,
      3177,
      2935,
      2763,
      2634,
      2478,
      2099,
      2041,
      1957,
      1766,
      1568,
      1460,
      1209,
      1200,
      946,
      792,
      612,
      469,
      418,
      334,
      264,
      176,
      14,
      316
    ],
    "swim:geom": "approach",
    "swim:timestamps": [
      1775332585,
      1775332605,
      1775332636,
      1775332675,
      1775332685,
      1775332714,
      1775332738,
      1775332767,
      1775332780,
      1775332802,
      1775332839,
      1775332866,
      1775332893,
      1775332901,
      1775332947,
      1775332975,
      1775332997,
      1775333023,
      1775333068,
      1775333077,
      1775333092,
      1775333128,
      1775333155,
      1775333170,
      1775333217,
      1775333224,
      1775333270,
      1775333301,
      1775333338,
      1775333368,
      1775333382,
      1775333400,
      1775333422,
      1775333445,
      1775333487,
      1775333495
    ],
    "wof:geomhash": "b085733e2c7f3ce4a3a7a7cd614d3701",
    "wof:id": 2015201923,
    "wof:repo": "sfomuseum-data-flights-2026-04"
  },
  "bbox": [
    -122.36265,
    36.72352,
    -121.8795,
    37.61493
  ],
  "geometry": {"coordinates":[[-121.8795,36.72352],[-121.8956,36.7524],[-121.9101,36.79866],[-121.92648,36.85711],[-121.93059,36.87221],[-121.9424,36.91466],[-121.95155,36.94746],[-121.96708,36.98817],[-121.97376,37.00531],[-121.98571,37.03575],[-122.00496,37.08511],[-122.01906,37.12071],[-122.03148,37.15224],[-122.03499,37.16134],[-122.0553,37.21388],[-122.06748,37.24469],[-122.07692,37.26906],[-122.08854,37.29832],[-122.10777,37.34726],[-122.1121,37.35804],[-122.11854,37.37428],[-122.11903,37.41308],[-122.11696,37.44292],[-122.11693,37.45924],[-122.13316,37.50518],[-122.13582,37.51245],[-122.1763,37.53716],[-122.20684,37.55052],[-122.24228,37.56527],[-122.26726,37.57572],[-122.27906,37.58072],[-122.29241,37.58634],[-122.30887,37.5932],[-122.32578,37.60034],[-122.35651,37.61323],[-122.36265,37.61493]],"type":"LineString"}
}
