{
  "id": 2031126017,
  "type": "Feature",
  "properties": {
    "geom:area": 0,
    "geom:bbox": "-122.361200,37.491630,-121.282450,37.614960",
    "geom:latitude": 37.54167158595467,
    "geom:longitude": -121.82864474775818,
    "src:alt_label": "swim-approach",
    "src:geom": "swim",
    "swim:elevations": [
      4615,
      4372,
      4102,
      3756,
      3589,
      3260,
      3184,
      3154,
      3049,
      2983,
      2830,
      2579,
      2338,
      2166,
      2129,
      2075,
      1962,
      1870,
      1798,
      1503,
      1371,
      1357,
      1040,
      917,
      914,
      914,
      668,
      609,
      425,
      334,
      277,
      182,
      102,
      233
    ],
    "swim:geom": "approach",
    "swim:timestamps": [
      1777310695,
      1777310719,
      1777310745,
      1777310779,
      1777310796,
      1777310840,
      1777310860,
      1777310869,
      1777310900,
      1777310913,
      1777310954,
      1777310985,
      1777311017,
      1777311045,
      1777311058,
      1777311072,
      1777311105,
      1777311120,
      1777311155,
      1777311189,
      1777311206,
      1777311211,
      1777311264,
      1777311292,
      1777311312,
      1777311330,
      1777311387,
      1777311402,
      1777311446,
      1777311473,
      1777311487,
      1777311517,
      1777311534,
      1777311566
    ],
    "wof:geomhash": "06acce970b5ac3ac051e9e2cda2f2d97",
    "wof:id": 2031126017,
    "wof:repo": "sfomuseum-data-flights-2026-04"
  },
  "bbox": [
    -122.3612,
    37.49163,
    -121.28245,
    37.61496
  ],
  "geometry": {"coordinates":[[-121.28245,37.59016],[-121.32961,37.58483],[-121.3811,37.57913],[-121.44715,37.57138],[-121.47937,37.56766],[-121.5626,37.55798],[-121.59817,37.55381],[-121.61428,37.55187],[-121.66496,37.54091],[-121.68439,37.5363],[-121.74388,37.52223],[-121.78585,37.51218],[-121.82896,37.50179],[-121.86562,37.49315],[-121.88227,37.49163],[-121.90109,37.4924],[-121.94277,37.4948],[-121.9609,37.49587],[-122.00277,37.49805],[-122.04274,37.50036],[-122.06274,37.50156],[-122.06869,37.50187],[-122.12595,37.51613],[-122.15275,37.5274],[-122.17133,37.53543],[-122.1877,37.54216],[-122.23679,37.56298],[-122.24908,37.56808],[-122.28217,37.58206],[-122.30028,37.58968],[-122.31003,37.59383],[-122.32937,37.60188],[-122.34062,37.60662],[-122.3612,37.61496]],"type":"LineString"}
}
