{
  "id": 2015298095,
  "type": "Feature",
  "properties": {
    "geom:area": 0,
    "geom:bbox": "-122.403800,37.625890,-121.246110,38.424960",
    "geom:latitude": 38.02572826965613,
    "geom:longitude": -121.83684465541029,
    "src:alt_label": "swim-takeoff",
    "src:geom": "swim",
    "swim:elevations": [
      305,
      768,
      1141,
      1576,
      1608,
      2353,
      2736,
      3447,
      3805,
      4147,
      4739,
      4909,
      5491,
      6064,
      6265,
      6819,
      7019,
      7322,
      7959,
      7985,
      8532,
      8877,
      9018,
      9418,
      9733
    ],
    "swim:geom": "takeoff",
    "swim:timestamps": [
      1776255593,
      1776255624,
      1776255651,
      1776255687,
      1776255690,
      1776255734,
      1776255755,
      1776255798,
      1776255834,
      1776255861,
      1776255898,
      1776255907,
      1776255945,
      1776255983,
      1776255997,
      1776256038,
      1776256057,
      1776256086,
      1776256136,
      1776256140,
      1776256193,
      1776256227,
      1776256240,
      1776256273,
      1776256303
    ],
    "wof:geomhash": "915095d502ff64458720c6ba99acc054",
    "wof:id": 2015298095,
    "wof:repo": "sfomuseum-data-flights-2026-04"
  },
  "bbox": [
    -122.4038,
    37.62589,
    -121.24611,
    38.42496
  ],
  "geometry": {"coordinates":[[-122.39161,37.62589],[-122.4038,37.64589],[-122.38338,37.66253],[-122.34004,37.67544],[-122.33532,37.67697],[-122.27193,37.69806],[-122.23874,37.70931],[-122.18588,37.7482],[-122.14621,37.79342],[-122.11201,37.83142],[-122.06196,37.88229],[-122.04619,37.89435],[-121.97778,37.94071],[-121.90847,37.98781],[-121.88251,38.00527],[-121.80476,38.0579],[-121.76797,38.08275],[-121.71125,38.12097],[-121.60865,38.18973],[-121.60002,38.19552],[-121.48792,38.27055],[-121.41572,38.31846],[-121.38685,38.3377],[-121.31311,38.38449],[-121.24611,38.42496]],"type":"LineString"}
}
