{
  "id": 2015245613,
  "type": "Feature",
  "properties": {
    "geom:area": 0,
    "geom:bbox": "-122.357230,37.458790,-121.257190,37.613620",
    "geom:latitude": 37.536155292919965,
    "geom:longitude": -121.81529306654576,
    "src:alt_label": "swim-approach",
    "src:geom": "swim",
    "swim:elevations": [
      4902,
      4633,
      4449,
      4256,
      3935,
      3639,
      3472,
      3310,
      2946,
      2744,
      2743,
      2743,
      2738,
      2711,
      2551,
      2439,
      2396,
      2219,
      1945,
      1829,
      1747,
      1571,
      1478,
      1252,
      1141,
      998,
      745,
      635,
      537,
      325,
      217,
      154,
      2
    ],
    "swim:geom": "approach",
    "swim:timestamps": [
      1775738348,
      1775738384,
      1775738404,
      1775738428,
      1775738469,
      1775738509,
      1775738532,
      1775738557,
      1775738597,
      1775738625,
      1775738663,
      1775738673,
      1775738708,
      1775738715,
      1775738745,
      1775738769,
      1775738799,
      1775738828,
      1775738869,
      1775738906,
      1775738928,
      1775738954,
      1775738998,
      1775739022,
      1775739039,
      1775739068,
      1775739111,
      1775739136,
      1775739154,
      1775739206,
      1775739234,
      1775739253,
      1775739290
    ],
    "wof:geomhash": "4dbbd8a92af38c9073371221189f6293",
    "wof:id": 2015245613,
    "wof:repo": "sfomuseum-data-flights-2026-04"
  },
  "bbox": [
    -122.35723,
    37.45879,
    -121.25719,
    37.61362
  ],
  "geometry": {"coordinates":[[-121.25719,37.59356],[-121.32028,37.58594],[-121.35682,37.58192],[-121.39846,37.57725],[-121.46847,37.56917],[-121.53442,37.56143],[-121.56947,37.55729],[-121.60527,37.5531],[-121.6577,37.54179],[-121.69588,37.5467],[-121.74794,37.55793],[-121.76133,37.55531],[-121.7872,37.52741],[-121.79072,37.52091],[-121.8046,37.49425],[-121.81762,37.47212],[-121.85202,37.4605],[-121.8906,37.45982],[-121.94331,37.45879],[-121.99119,37.46136],[-122.01818,37.46995],[-122.0471,37.48238],[-122.09895,37.50473],[-122.12673,37.51644],[-122.14565,37.52447],[-122.17615,37.53736],[-122.21927,37.55568],[-122.2429,37.56571],[-122.26016,37.57294],[-122.30057,37.58981],[-122.32015,37.59802],[-122.33289,37.60334],[-122.35723,37.61362]],"type":"LineString"}
}
