{
  "id": 2031146099,
  "type": "Feature",
  "properties": {
    "date:cessation_lower": "2026-04-29",
    "date:cessation_upper": "2026-04-29",
    "date:inception_lower": "2026-04-29",
    "date:inception_upper": "2026-04-29",
    "edtf:cessation": "2026-04-29T19:21:00Z",
    "edtf:inception": "2026-04-29T18:11:00Z",
    "flysfo:actual_timestamp": -1,
    "flysfo:airline": "UA",
    "flysfo:date": "2026-04-29",
    "flysfo:estimated_timestamp": 1777484100,
    "flysfo:event": "D",
    "flysfo:flight_number": "UA8153",
    "flysfo:gate": "",
    "flysfo:journey": "SFO-RDM",
    "flysfo:scheduled_timestamp": 1777484100,
    "flysfo:timestamp": 1777484100,
    "geom:area": 0,
    "geom:bbox": "-122.370943,37.617990,-121.157137,44.259811",
    "geom:latitude": 40.9389005,
    "geom:longitude": -121.76404,
    "iata:airline": "UA",
    "icao:aircraft": "B738",
    "icao:airline": "UAL",
    "lbl:latitude": 37.61799,
    "lbl:longitude": -122.370943,
    "sfomuseum:aircraft_id": 1159289871,
    "sfomuseum:airline_id": 1159285413,
    "sfomuseum:arrival_id": 102530507,
    "sfomuseum:departure_id": 102527513,
    "sfomuseum:flight_id": "20260429-D-UAL-8153",
    "sfomuseum:flight_number": [
      "UAL8153",
      "UA8153"
    ],
    "sfomuseum:placetype": "flight",
    "src:geom": "flysfo",
    "src:geom_alt": [
      "swim-route",
      "swim-path",
      "swim-takeoff"
    ],
    "swim:tail_number": "N26232",
    "wof:belongsto": [],
    "wof:concordances": {
      "swim:flight_ref": "145391423",
      "swim:gufi": "KO604164uK"
    },
    "wof:country": "US",
    "wof:created": 1777565838,
    "wof:geomhash": "398b6cf59cf3bdf390f5834c7a336099",
    "wof:hierarchy": [
      {
        "custom_id": 2031146099,
        "flight_id": 2031146099
      }
    ],
    "wof:id": 2031146099,
    "wof:involves": [
      1159289871,
      102530507,
      102527513,
      1159285413
    ],
    "wof:lastmodified": 1777565935,
    "wof:name": "UA8153 (SFO-RDM)",
    "wof:parent_id": -1,
    "wof:placetype": "custom",
    "wof:placetype_alt": [
      "flight"
    ],
    "wof:repo": "sfomuseum-data-flights-2026-04",
    "wof:superseded_by": [],
    "wof:supersedes": []
  },
  "bbox": [
    -122.370943,
    37.61799,
    -121.157137,
    44.259811
  ],
  "geometry": {"coordinates":[[-122.370943,37.61799],[-121.157137,44.259811]],"type":"MultiPoint"}
}
