{
  "id": 2031148517,
  "type": "Feature",
  "properties": {
    "geom:area": 0,
    "geom:bbox": "-122.380000,30.190000,-97.670000,38.330000",
    "geom:latitude": 35.64218389300994,
    "geom:longitude": -109.63468089106979,
    "src:alt_label": "swim-route",
    "src:geom": "swim",
    "swim:geom": "route",
    "wof:geomhash": "b7e2c913386e71aa97cd6578d3078f4c",
    "wof:id": 2031148517,
    "wof:repo": "sfomuseum-data-flights-2026-04"
  },
  "bbox": [
    -122.38,
    30.19,
    -97.67,
    38.33
  ],
  "geometry": {"coordinates":[[-97.67,30.19],[-97.8,30.25],[-97.82,30.26],[-97.86,30.28],[-97.89,30.29],[-97.93,30.3],[-98.08,30.37],[-98.18,30.41],[-98.26,30.44],[-98.29,30.46],[-98.3,30.46],[-98.33,30.47],[-98.53,30.56],[-98.7,30.64],[-98.86,30.7],[-98.87,30.7],[-98.93,30.73],[-99.03,30.77],[-99.19,30.84],[-100,31.19],[-100.45,31.37],[-100.82,31.65],[-101.75,32.32],[-102,32.5],[-102.25,32.63],[-103.01,33.01],[-103.77,33.39],[-104,33.5],[-105.19,34.12],[-105.68,34.37],[-106.38,35.07],[-106.57,35.27],[-107.38,36.06],[-107.51,36.19],[-108.1,36.75],[-108.37,36.82],[-109.18,37.03],[-110.31,37.32],[-111.44,37.6],[-112.7,37.89],[-114.06,38.18],[-114.39,38.25],[-117.28,38.33],[-117.28,38.33],[-118.76,37.9],[-119.1,37.86],[-120.12,37.73],[-120.4,37.7],[-120.4,37.7],[-120.47,37.69],[-120.69,37.67],[-120.75,37.66],[-120.76,37.66],[-120.82,37.65],[-120.96,37.63],[-121,37.63],[-121.07,37.62],[-121.17,37.61],[-121.26,37.59],[-121.39,37.58],[-121.41,37.58],[-121.6,37.55],[-121.61,37.55],[-121.62,37.55],[-121.7,37.53],[-121.8,37.51],[-121.82,37.51],[-121.88,37.49],[-122.08,37.54],[-122.11,37.55],[-122.18,37.57],[-122.28,37.59],[-122.33,37.61],[-122.36,37.61],[-122.38,37.62]],"type":"LineString"}
}
