{
  "id": 2015218393,
  "type": "Feature",
  "properties": {
    "geom:area": 0,
    "geom:bbox": "-122.796430,37.447660,-122.110530,38.412680",
    "geom:latitude": 37.79584911360519,
    "geom:longitude": -122.48117957677908,
    "src:alt_label": "swim-approach",
    "src:geom": "swim",
    "swim:elevations": [
      7358,
      7230,
      6853,
      6481,
      6329,
      5832,
      5788,
      5492,
      4947,
      4891,
      4530,
      4000,
      3539,
      3475,
      3370,
      3353,
      3353,
      3353,
      3213,
      2938,
      2852,
      2596,
      2372,
      1982,
      1801,
      1525,
      1216,
      1099,
      1086,
      945,
      797,
      662,
      518,
      396,
      289,
      131,
      34,
      154
    ],
    "swim:geom": "approach",
    "swim:timestamps": [
      1775477488,
      1775477500,
      1775477536,
      1775477572,
      1775477587,
      1775477638,
      1775477643,
      1775477673,
      1775477729,
      1775477733,
      1775477768,
      1775477824,
      1775477872,
      1775477889,
      1775477913,
      1775477958,
      1775477989,
      1775478011,
      1775478066,
      1775478109,
      1775478122,
      1775478159,
      1775478186,
      1775478228,
      1775478250,
      1775478281,
      1775478313,
      1775478354,
      1775478367,
      1775478398,
      1775478424,
      1775478453,
      1775478486,
      1775478515,
      1775478544,
      1775478592,
      1775478623,
      1775478633
    ],
    "wof:geomhash": "316f606becae292c26886c64c2a37537",
    "wof:id": 2015218393,
    "wof:repo": "sfomuseum-data-flights-2026-04"
  },
  "bbox": [
    -122.79643,
    37.44766,
    -122.11053,
    38.41268
  ],
  "geometry": {"coordinates":[[-122.79643,38.41268],[-122.79284,38.38963],[-122.78199,38.32027],[-122.77159,38.25346],[-122.76711,38.22584],[-122.74141,38.13654],[-122.73885,38.12765],[-122.72457,38.07859],[-122.69818,37.98658],[-122.69618,37.97941],[-122.68005,37.9236],[-122.61873,37.84864],[-122.55599,37.78945],[-122.53519,37.76984],[-122.50639,37.74253],[-122.45375,37.69282],[-122.4185,37.65973],[-122.39419,37.63691],[-122.34587,37.58076],[-122.32166,37.53333],[-122.31406,37.51991],[-122.28267,37.48697],[-122.24662,37.47463],[-122.19235,37.45705],[-122.16364,37.44766],[-122.12516,37.45024],[-122.11053,37.48156],[-122.13391,37.51525],[-122.14593,37.52156],[-122.176,37.53495],[-122.20077,37.54549],[-122.22879,37.55728],[-122.25913,37.57003],[-122.28336,37.58018],[-122.30345,37.58865],[-122.334,37.60148],[-122.35349,37.60968],[-122.35962,37.61211]],"type":"LineString"}
}
