{
  "id": 2031096423,
  "type": "Feature",
  "properties": {
    "geom:area": 0,
    "geom:bbox": "-122.553710,36.724060,-121.306790,37.667980",
    "geom:latitude": 37.2089089297116,
    "geom:longitude": -122.01055379493629,
    "src:alt_label": "swim-takeoff",
    "src:geom": "swim",
    "swim:elevations": [
      152,
      366,
      622,
      943,
      1099,
      1258,
      1634,
      1852,
      2201,
      2645,
      2915,
      3206,
      3400,
      3710,
      3990,
      4061,
      4344,
      4618,
      4828,
      5287,
      5715,
      5779,
      5878,
      6153,
      6394,
      6486,
      6746,
      6988,
      7179,
      7270,
      7426,
      7954,
      8020,
      8239,
      8452
    ],
    "swim:geom": "takeoff",
    "swim:timestamps": [
      1776988927,
      1776988940,
      1776988959,
      1776988993,
      1776989014,
      1776989050,
      1776989083,
      1776989101,
      1776989128,
      1776989158,
      1776989179,
      1776989209,
      1776989245,
      1776989276,
      1776989301,
      1776989307,
      1776989328,
      1776989351,
      1776989373,
      1776989414,
      1776989458,
      1776989465,
      1776989480,
      1776989510,
      1776989538,
      1776989553,
      1776989589,
      1776989623,
      1776989650,
      1776989662,
      1776989685,
      1776989758,
      1776989770,
      1776989806,
      1776989845
    ],
    "wof:geomhash": "8a91f1486dbc19dde36ca1471183763f",
    "wof:id": 2031096423,
    "wof:repo": "sfomuseum-data-flights-2026-04"
  },
  "bbox": [
    -122.55371,
    36.72406,
    -121.30679,
    37.66798
  ],
  "geometry": {"coordinates":[[-122.3925,37.62586],[-122.40453,37.631],[-122.42123,37.63821],[-122.45285,37.65197],[-122.47412,37.66117],[-122.52146,37.66798],[-122.55371,37.63788],[-122.54966,37.61554],[-122.52609,37.58581],[-122.50403,37.55059],[-122.49126,37.52458],[-122.46882,37.488],[-122.41603,37.45272],[-122.36682,37.42133],[-122.32599,37.39422],[-122.31617,37.3878],[-122.28125,37.3653],[-122.24355,37.34084],[-122.20708,37.31721],[-122.13594,37.27069],[-122.05936,37.22075],[-122.04693,37.21268],[-122.0202,37.19521],[-121.9657,37.15953],[-121.91616,37.12709],[-121.88827,37.10886],[-121.82004,37.06408],[-121.7528,37.01979],[-121.69986,36.98484],[-121.67605,36.9692],[-121.63013,36.93881],[-121.48563,36.84307],[-121.4611,36.82703],[-121.38784,36.77837],[-121.30679,36.72406]],"type":"LineString"}
}
