{
  "id": 2015187531,
  "type": "Feature",
  "properties": {
    "geom:area": 0,
    "geom:bbox": "-123.493190,37.155440,-122.134320,37.609410",
    "geom:latitude": 37.35321064641371,
    "geom:longitude": -122.69511564427641,
    "src:alt_label": "swim-approach",
    "src:geom": "swim",
    "swim:elevations": [
      5322,
      5112,
      4837,
      4486,
      4266,
      4173,
      4047,
      3841,
      3621,
      3269,
      3151,
      3048,
      3048,
      3048,
      3046,
      3049,
      2949,
      2804,
      2722,
      2675,
      2468,
      2439,
      2438,
      2438,
      2438,
      2438,
      2384,
      2192,
      2134,
      2151,
      2134,
      2134,
      2134,
      2134,
      2011,
      1971,
      1764,
      1719,
      1629,
      1482,
      1355,
      1214,
      1115,
      1098,
      945,
      811,
      659,
      441,
      320,
      274,
      211,
      182,
      147,
      83
    ],
    "swim:geom": "approach",
    "swim:timestamps": [
      1775157866,
      1775157883,
      1775157913,
      1775157947,
      1775157969,
      1775157980,
      1775157992,
      1775158013,
      1775158037,
      1775158074,
      1775158087,
      1775158121,
      1775158146,
      1775158193,
      1775158217,
      1775158255,
      1775158280,
      1775158308,
      1775158321,
      1775158334,
      1775158374,
      1775158388,
      1775158432,
      1775158465,
      1775158495,
      1775158513,
      1775158546,
      1775158587,
      1775158612,
      1775158647,
      1775158657,
      1775158670,
      1775158708,
      1775158715,
      1775158768,
      1775158776,
      1775158826,
      1775158832,
      1775158847,
      1775158886,
      1775158903,
      1775158924,
      1775158943,
      1775158952,
      1775158999,
      1775159021,
      1775159050,
      1775159095,
      1775159128,
      1775159145,
      1775159155,
      1775159164,
      1775159173,
      1775159192
    ],
    "wof:geomhash": "5a44a38412f5f212d260deec3fce1f89",
    "wof:id": 2015187531,
    "wof:repo": "sfomuseum-data-flights-2026-04"
  },
  "bbox": [
    -123.49319,
    37.15544,
    -122.13432,
    37.60941
  ],
  "geometry": {"coordinates":[[-123.49319,37.54035],[-123.45595,37.52384],[-123.39215,37.49537],[-123.31785,37.46226],[-123.27151,37.44153],[-123.24937,37.43152],[-123.22316,37.41971],[-123.17949,37.4002],[-123.13092,37.37839],[-123.05622,37.34479],[-123.03055,37.33317],[-122.96339,37.30302],[-122.91522,37.2811],[-122.83338,37.24279],[-122.7937,37.22421],[-122.73713,37.20332],[-122.70033,37.19372],[-122.6612,37.18357],[-122.64234,37.17872],[-122.62534,37.17427],[-122.57053,37.16001],[-122.55085,37.15544],[-122.49291,37.16177],[-122.4489,37.16979],[-122.41289,37.18213],[-122.40373,37.199],[-122.40736,37.2333],[-122.41404,37.27595],[-122.41163,37.30072],[-122.3753,37.32075],[-122.36264,37.32507],[-122.3478,37.33002],[-122.30152,37.34572],[-122.29308,37.34852],[-122.22726,37.37088],[-122.21745,37.37419],[-122.16973,37.40398],[-122.16641,37.40981],[-122.15951,37.42319],[-122.14218,37.4576],[-122.13432,37.47248],[-122.13445,37.49262],[-122.14776,37.50747],[-122.15517,37.51433],[-122.19241,37.54374],[-122.21269,37.55284],[-122.23986,37.56402],[-122.27826,37.58018],[-122.30214,37.59049],[-122.31432,37.5956],[-122.32155,37.5986],[-122.32795,37.60132],[-122.33416,37.60389],[-122.34733,37.60941]],"type":"LineString"}
}
