{
  "id": 2015253733,
  "type": "Feature",
  "properties": {
    "geom:area": 0,
    "geom:bbox": "-123.500790,37.436360,-122.115490,37.644750",
    "geom:latitude": 37.54418152353654,
    "geom:longitude": -122.70094539910966,
    "src:alt_label": "swim-approach",
    "src:geom": "swim",
    "swim:elevations": [
      5835,
      5463,
      5150,
      5131,
      4910,
      4726,
      4604,
      4233,
      4129,
      3759,
      3598,
      3545,
      3473,
      3435,
      3294,
      3093,
      3048,
      3048,
      2977,
      2859,
      2714,
      2554,
      2482,
      2408,
      2339,
      2172,
      2101,
      1990,
      1859,
      1794,
      1725,
      1610,
      1494,
      1497,
      1332,
      1219,
      1219,
      1219,
      1130,
      1030,
      913,
      914,
      914,
      731,
      541,
      488,
      233,
      211,
      145,
      88,
      260
    ],
    "swim:geom": "approach",
    "swim:timestamps": [
      1775808995,
      1775809038,
      1775809078,
      1775809081,
      1775809113,
      1775809133,
      1775809144,
      1775809185,
      1775809200,
      1775809246,
      1775809269,
      1775809276,
      1775809287,
      1775809292,
      1775809312,
      1775809348,
      1775809364,
      1775809380,
      1775809420,
      1775809451,
      1775809487,
      1775809525,
      1775809545,
      1775809571,
      1775809596,
      1775809644,
      1775809656,
      1775809677,
      1775809707,
      1775809725,
      1775809745,
      1775809774,
      1775809795,
      1775809802,
      1775809827,
      1775809852,
      1775809870,
      1775809903,
      1775809942,
      1775809962,
      1775810007,
      1775810010,
      1775810016,
      1775810052,
      1775810087,
      1775810106,
      1775810158,
      1775810162,
      1775810181,
      1775810192,
      1775810217
    ],
    "wof:geomhash": "4abb5728100630c488ae19e3a160cc54",
    "wof:id": 2015253733,
    "wof:repo": "sfomuseum-data-flights-2026-04"
  },
  "bbox": [
    -123.50079,
    37.43636,
    -122.11549,
    37.64475
  ],
  "geometry": {"coordinates":[[-123.50079,37.64475],[-123.41777,37.63853],[-123.34372,37.63301],[-123.33815,37.63258],[-123.27924,37.62852],[-123.24401,37.62626],[-123.22308,37.62474],[-123.14847,37.61998],[-123.12094,37.61806],[-123.04033,37.61156],[-123.00066,37.6047],[-122.98977,37.60224],[-122.97138,37.59719],[-122.9632,37.59473],[-122.93178,37.58554],[-122.87666,37.56947],[-122.85023,37.56174],[-122.82504,37.55432],[-122.76379,37.53634],[-122.71613,37.52201],[-122.66072,37.50556],[-122.60173,37.48802],[-122.57248,37.47944],[-122.53272,37.4677],[-122.49513,37.45652],[-122.42382,37.44427],[-122.40569,37.44384],[-122.37527,37.44287],[-122.33033,37.44117],[-122.30506,37.44037],[-122.27873,37.4393],[-122.24234,37.43756],[-122.21617,37.4366],[-122.20783,37.43636],[-122.17772,37.43692],[-122.15405,37.45212],[-122.14169,37.46626],[-122.12036,37.49087],[-122.11549,37.52191],[-122.13413,37.52474],[-122.17801,37.53805],[-122.18088,37.53927],[-122.18665,37.54168],[-122.2225,37.55708],[-122.25669,37.57127],[-122.27313,37.57827],[-122.31553,37.59611],[-122.31873,37.59746],[-122.33398,37.60385],[-122.34285,37.60759],[-122.36296,37.61511]],"type":"LineString"}
}
