{
  "id": 2015181057,
  "type": "Feature",
  "properties": {
    "geom:area": 0,
    "geom:bbox": "-122.562450,36.720390,-121.441420,37.675010",
    "geom:latitude": 37.22188612863167,
    "geom:longitude": -122.080782518464,
    "src:alt_label": "swim-takeoff",
    "src:geom": "swim",
    "swim:elevations": [
      274,
      715,
      979,
      1558,
      1697,
      2370,
      3145,
      3391,
      3651,
      3988,
      4479,
      4970,
      5250,
      5568,
      6194,
      6486,
      6866,
      7041,
      7465,
      7863,
      8221,
      8396,
      8538,
      8766,
      9301,
      9812,
      10096
    ],
    "swim:geom": "takeoff",
    "swim:timestamps": [
      1775090908,
      1775090930,
      1775090948,
      1775090995,
      1775091004,
      1775091045,
      1775091083,
      1775091110,
      1775091143,
      1775091170,
      1775091200,
      1775091238,
      1775091257,
      1775091280,
      1775091325,
      1775091350,
      1775091386,
      1775091401,
      1775091431,
      1775091468,
      1775091505,
      1775091527,
      1775091544,
      1775091573,
      1775091618,
      1775091658,
      1775091683
    ],
    "wof:geomhash": "d58d05469445281600c9b336de7c2886",
    "wof:id": 2015181057,
    "wof:repo": "sfomuseum-data-flights-2026-04"
  },
  "bbox": [
    -122.56245,
    36.72039,
    -121.44142,
    37.67501
  ],
  "geometry": {"coordinates":[[-122.38431,37.62269],[-122.40051,37.6299],[-122.4138,37.63569],[-122.45741,37.65436],[-122.46839,37.65929],[-122.51943,37.67501],[-122.56203,37.64821],[-122.56245,37.6119],[-122.52633,37.56362],[-122.49466,37.52018],[-122.45153,37.47369],[-122.38099,37.41976],[-122.34461,37.39353],[-122.29917,37.36072],[-122.20989,37.29555],[-122.16072,37.25921],[-122.08585,37.20356],[-122.05511,37.18069],[-121.99188,37.13368],[-121.91195,37.07383],[-121.83303,37.0151],[-121.78552,36.97885],[-121.74702,36.951],[-121.68152,36.90257],[-121.58155,36.82671],[-121.49379,36.76053],[-121.44142,36.72039]],"type":"LineString"}
}
