{
  "id": 2015295573,
  "type": "Feature",
  "properties": {
    "geom:area": 0,
    "geom:bbox": "-122.356920,37.472030,-121.258080,37.611150",
    "geom:latitude": 37.539388422691765,
    "geom:longitude": -121.81515056059386,
    "src:alt_label": "swim-approach",
    "src:geom": "swim",
    "swim:elevations": [
      4860,
      4443,
      4126,
      3894,
      3582,
      3440,
      3410,
      3200,
      3099,
      2897,
      2794,
      2591,
      2556,
      2482,
      2379,
      2136,
      2034,
      1877,
      1829,
      1694,
      1419,
      1309,
      1219,
      1219,
      954,
      854,
      746,
      610,
      422,
      286,
      185,
      68,
      38
    ],
    "swim:geom": "approach",
    "swim:timestamps": [
      1776261794,
      1776261836,
      1776261866,
      1776261889,
      1776261922,
      1776261939,
      1776261946,
      1776261980,
      1776262004,
      1776262037,
      1776262051,
      1776262094,
      1776262108,
      1776262127,
      1776262142,
      1776262183,
      1776262214,
      1776262247,
      1776262273,
      1776262308,
      1776262339,
      1776262354,
      1776262387,
      1776262390,
      1776262429,
      1776262452,
      1776262474,
      1776262509,
      1776262556,
      1776262586,
      1776262614,
      1776262644,
      1776262658
    ],
    "wof:geomhash": "a505c870aef79f5d8da7ef9e25740e0b",
    "wof:id": 2015295573,
    "wof:repo": "sfomuseum-data-flights-2026-04"
  },
  "bbox": [
    -122.35692,
    37.47203,
    -121.25808,
    37.61115
  ],
  "geometry": {"coordinates":[[-121.25808,37.59338],[-121.33654,37.58405],[-121.39338,37.57792],[-121.43622,37.57296],[-121.49792,37.56558],[-121.5279,37.56221],[-121.54068,37.56075],[-121.59863,37.55371],[-121.63469,37.54823],[-121.68294,37.53689],[-121.70232,37.53227],[-121.7583,37.51892],[-121.77731,37.51442],[-121.80185,37.5086],[-121.82103,37.504],[-121.87346,37.49128],[-121.91363,37.48076],[-121.95505,37.47203],[-121.98727,37.47931],[-122.02979,37.48924],[-122.06801,37.49856],[-122.08641,37.50293],[-122.12574,37.51356],[-122.12918,37.51488],[-122.17246,37.53364],[-122.19475,37.54299],[-122.21555,37.55167],[-122.24396,37.56358],[-122.28074,37.57911],[-122.30325,37.58859],[-122.32417,37.59744],[-122.34644,37.60676],[-122.35692,37.61115]],"type":"LineString"}
}
