{
  "id": 2015321267,
  "type": "Feature",
  "properties": {
    "geom:area": 0,
    "geom:bbox": "-123.483690,36.973640,-122.132520,37.614450",
    "geom:latitude": 37.278151765908035,
    "geom:longitude": -122.70372663837973,
    "src:alt_label": "swim-approach",
    "src:geom": "swim",
    "swim:elevations": [
      6322,
      6040,
      5935,
      5805,
      5346,
      5107,
      4891,
      4481,
      4390,
      3978,
      3583,
      3501,
      3372,
      3314,
      3236,
      3201,
      3150,
      3048,
      3048,
      3048,
      3048,
      3048,
      3048,
      3048,
      2962,
      2778,
      2680,
      2427,
      2221,
      2034,
      1799,
      1630,
      1524,
      1524,
      1508,
      1428,
      1119,
      1058,
      931,
      775,
      609,
      426,
      305,
      221,
      137,
      63,
      0
    ],
    "swim:geom": "approach",
    "swim:timestamps": [
      1776552411,
      1776552439,
      1776552449,
      1776552461,
      1776552508,
      1776552533,
      1776552555,
      1776552596,
      1776552605,
      1776552648,
      1776552687,
      1776552705,
      1776552741,
      1776552768,
      1776552798,
      1776552813,
      1776552828,
      1776552843,
      1776552865,
      1776552880,
      1776552911,
      1776552942,
      1776552971,
      1776552995,
      1776553016,
      1776553043,
      1776553065,
      1776553104,
      1776553134,
      1776553159,
      1776553193,
      1776553220,
      1776553250,
      1776553288,
      1776553294,
      1776553321,
      1776553373,
      1776553399,
      1776553431,
      1776553456,
      1776553488,
      1776553525,
      1776553554,
      1776553574,
      1776553596,
      1776553617,
      1776553632
    ],
    "wof:geomhash": "3d3b3b03d566f361dc5827ed36926124",
    "wof:id": 2015321267,
    "wof:repo": "sfomuseum-data-flights-2026-04"
  },
  "bbox": [
    -123.48369,
    36.97364,
    -122.13252,
    37.61445
  ],
  "geometry": {"coordinates":[[-123.48369,36.97364],[-123.4273,36.99938],[-123.40746,37.00853],[-123.38234,37.01988],[-123.29145,37.06198],[-123.24378,37.08399],[-123.20239,37.1029],[-123.12678,37.13757],[-123.1102,37.1452],[-123.03195,37.18087],[-122.96259,37.21252],[-122.93022,37.22717],[-122.87048,37.25359],[-122.82627,37.26609],[-122.77964,37.27715],[-122.75761,37.28235],[-122.73614,37.28706],[-122.71449,37.28741],[-122.68356,37.28618],[-122.66245,37.28528],[-122.61762,37.28336],[-122.57347,37.28141],[-122.53259,37.27962],[-122.49856,37.27803],[-122.46878,37.27672],[-122.43255,37.28538],[-122.4046,37.29776],[-122.35703,37.32011],[-122.32052,37.33848],[-122.29023,37.35063],[-122.24679,37.36493],[-122.21391,37.37535],[-122.17679,37.38783],[-122.14931,37.42397],[-122.14621,37.43031],[-122.13252,37.45772],[-122.13916,37.50461],[-122.1565,37.52486],[-122.18645,37.5418],[-122.21164,37.55265],[-122.24402,37.56597],[-122.27705,37.57998],[-122.30038,37.58963],[-122.31554,37.59613],[-122.33237,37.60298],[-122.34876,37.60989],[-122.35998,37.61445]],"type":"LineString"}
}
