{
  "id": 2015258045,
  "type": "Feature",
  "properties": {
    "geom:area": 0,
    "geom:bbox": "-122.579690,36.718460,-121.353070,37.666100",
    "geom:latitude": 37.17196427983303,
    "geom:longitude": -122.08358776954898,
    "src:alt_label": "swim-takeoff",
    "src:geom": "swim",
    "swim:elevations": [
      213,
      324,
      770,
      1117,
      1165,
      1376,
      1422,
      2211,
      2368,
      2686,
      2908,
      3201,
      3351,
      3734,
      4039,
      4352,
      4689,
      4954,
      5255,
      5661,
      5805,
      6019,
      6196,
      6336,
      6453,
      6832,
      6872,
      7194,
      7264,
      7450,
      7496,
      7870,
      7979,
      8235,
      8242,
      8413,
      8440,
      8511,
      8659
    ],
    "swim:geom": "takeoff",
    "swim:timestamps": [
      1775841236,
      1775841246,
      1775841286,
      1775841321,
      1775841327,
      1775841357,
      1775841364,
      1775841417,
      1775841430,
      1775841453,
      1775841470,
      1775841502,
      1775841529,
      1775841563,
      1775841590,
      1775841618,
      1775841648,
      1775841672,
      1775841701,
      1775841741,
      1775841758,
      1775841796,
      1775841816,
      1775841833,
      1775841848,
      1775841895,
      1775841901,
      1775841951,
      1775841960,
      1775841987,
      1775841997,
      1775842047,
      1775842064,
      1775842107,
      1775842110,
      1775842135,
      1775842143,
      1775842158,
      1775842184
    ],
    "wof:geomhash": "a5b1d6efcbecd38bcd331d663e87565e",
    "wof:id": 2015258045,
    "wof:repo": "sfomuseum-data-flights-2026-04"
  },
  "bbox": [
    -122.57969,
    36.71846,
    -121.35307,
    37.6661
  ],
  "geometry": {"coordinates":[[-122.3975,37.62819],[-122.4072,37.63238],[-122.44563,37.64986],[-122.48134,37.66447],[-122.48887,37.6661],[-122.52364,37.65396],[-122.52844,37.6469],[-122.54634,37.58707],[-122.55033,37.57267],[-122.55771,37.54584],[-122.56329,37.52542],[-122.57374,37.48605],[-122.57969,37.44767],[-122.54742,37.4043],[-122.51247,37.37159],[-122.46784,37.3426],[-122.41714,37.3129],[-122.37621,37.28904],[-122.32512,37.26056],[-122.25373,37.22134],[-122.22399,37.20508],[-122.15138,37.16502],[-122.11241,37.14354],[-122.07928,37.12517],[-122.04981,37.10886],[-121.95732,37.05753],[-121.94533,37.05087],[-121.84289,36.99378],[-121.82432,36.98337],[-121.77021,36.95321],[-121.74865,36.94113],[-121.64288,36.88171],[-121.60878,36.8628],[-121.5163,36.81062],[-121.51,36.807],[-121.45644,36.77704],[-121.43944,36.76737],[-121.40729,36.74916],[-121.35307,36.71846]],"type":"LineString"}
}
