{
  "id": 2015359885,
  "type": "Feature",
  "properties": {
    "geom:area": 0,
    "geom:bbox": "-122.531030,37.627310,-122.059390,38.482520",
    "geom:latitude": 38.021834187106734,
    "geom:longitude": -122.31242008251103,
    "src:alt_label": "swim-takeoff",
    "src:geom": "swim",
    "swim:elevations": [
      213,
      711,
      954,
      1095,
      1166,
      1233,
      1811,
      2050,
      2339,
      2964,
      3341,
      3417,
      3677,
      3816,
      3945,
      4530,
      5146,
      5307,
      5445,
      5715,
      6082,
      6124,
      6308
    ],
    "swim:geom": "takeoff",
    "swim:timestamps": [
      1776865912,
      1776865944,
      1776865965,
      1776865985,
      1776866002,
      1776866016,
      1776866066,
      1776866082,
      1776866103,
      1776866156,
      1776866188,
      1776866200,
      1776866244,
      1776866268,
      1776866286,
      1776866342,
      1776866420,
      1776866440,
      1776866464,
      1776866505,
      1776866548,
      1776866558,
      1776866583
    ],
    "wof:geomhash": "1032c7aeca8375a1a8393165a2925767",
    "wof:id": 2015359885,
    "wof:repo": "sfomuseum-data-flights-2026-04"
  },
  "bbox": [
    -122.53103,
    37.62731,
    -122.05939,
    38.48252
  ],
  "geometry": {"coordinates":[[-122.396,37.62731],[-122.42722,37.64055],[-122.44766,37.6492],[-122.46774,37.65802],[-122.48616,37.6662],[-122.50294,37.67355],[-122.53103,37.72736],[-122.52877,37.74637],[-122.52683,37.77194],[-122.47706,37.82343],[-122.43073,37.84667],[-122.41923,37.8603],[-122.38281,37.9182],[-122.36156,37.9521],[-122.34409,37.97929],[-122.28891,38.06432],[-122.20698,38.19051],[-122.18538,38.22386],[-122.15915,38.26437],[-122.11513,38.3368],[-122.08341,38.41624],[-122.07674,38.43457],[-122.05939,38.48252]],"type":"LineString"}
}
