{
  "id": 2031138617,
  "type": "Feature",
  "properties": {
    "geom:area": 0,
    "geom:bbox": "-122.283333,32.916667,-97.050000,38.415833",
    "geom:latitude": 36.54221936143219,
    "geom:longitude": -109.513326440513,
    "src:alt_label": "swim-path",
    "src:geom": "swim",
    "swim:altitudes": [
      "021",
      "033",
      "033",
      "101",
      "101",
      "101",
      "101",
      "115",
      "152",
      "187",
      "187",
      "187",
      "187",
      "201",
      "201",
      "218",
      "240",
      "240",
      "240",
      "240",
      "272",
      "272",
      "272",
      "272",
      "289",
      "289",
      "289",
      "296",
      "300C",
      "300C",
      "300C",
      "300C",
      "300C",
      "300C",
      "300C",
      "300C",
      "300C",
      "300C",
      "300",
      "293",
      "293",
      "284",
      "284",
      "283",
      "283",
      "260C",
      "260C",
      "260C",
      "260C",
      "260C",
      "260C",
      "260C",
      "260C",
      "260C",
      "260C",
      "260C",
      "260C",
      "260C",
      "260C",
      "260C",
      "260C",
      "260C",
      "260C",
      "260C",
      "260C",
      "260C",
      "260C",
      "259C",
      "260C",
      "259C",
      "259C",
      "259C",
      "260C",
      "260C",
      "260C",
      "259C",
      "259C",
      "259C",
      "259C",
      "259C",
      "259C",
      "260C",
      "260C",
      "260C",
      "260C",
      "260C",
      "260C",
      "260C",
      "260C",
      "259C",
      "259C",
      "259C",
      "259C",
      "260C",
      "260C",
      "259C",
      "259C",
      "259C",
      "260C",
      "260C",
      "260C",
      "260C",
      "260C",
      "260C",
      "260C",
      "260C",
      "260C",
      "260C",
      "260C",
      "259C",
      "259C",
      "259C",
      "259C",
      "260C",
      "260C",
      "260C",
      "260C",
      "260C",
      "260C",
      "260C",
      "260C",
      "260C",
      "260C",
      "260C",
      "260C",
      "260C",
      "260C",
      "260C",
      "260C",
      "260C",
      "260C",
      "259C",
      "260C",
      "260C",
      "260C",
      "260C",
      "260C",
      "260C",
      "260C",
      "260C",
      "260C",
      "260C",
      "259C",
      "259C",
      "259C",
      "259C",
      "259C",
      "259C",
      "260C",
      "260C",
      "260C",
      "260C",
      "260C",
      "260C",
      "260C",
      "260C",
      "259C",
      "259C",
      "259C",
      "259C",
      "260C",
      "260C",
      "260C",
      "260C",
      "260C",
      "260C",
      "260C",
      "260C",
      "260C",
      "260C",
      "260C",
      "260C",
      "260C",
      "260C",
      "260C",
      "260C",
      "259C",
      "259C",
      "260C",
      "260C",
      "259C",
      "259C",
      "259C",
      "260C",
      "260C",
      "259C",
      "259C",
      "260C",
      "260C",
      "260C",
      "260C",
      "260C",
      "260C",
      "260C",
      "260C",
      "260C",
      "260C",
      "260C",
      "259C",
      "259C",
      "259C",
      "259C",
      "259C",
      "260C",
      "260C",
      "260C",
      "260C",
      "260C",
      "260C",
      "260C",
      "260C",
      "260C",
      "260C",
      "260C",
      "260C",
      "260C",
      "260C",
      "259C",
      "260C",
      "260C",
      "260C",
      "260C",
      "260C",
      "260C",
      "260",
      "256",
      "253",
      "240",
      "240",
      "240",
      "214",
      "184",
      "184",
      "178",
      "178",
      "167",
      "167",
      "159",
      "142",
      "117",
      "117",
      "106",
      "091",
      "072",
      "072",
      "067",
      "056",
      "047",
      "047",
      "013"
    ],
    "swim:geom": "path",
    "swim:speeds": [
      160,
      191,
      191,
      258,
      258,
      258,
      258,
      301,
      316,
      329,
      329,
      329,
      329,
      335,
      335,
      338,
      345,
      345,
      345,
      345,
      358,
      358,
      358,
      358,
      373,
      373,
      373,
      373,
      370,
      370,
      370,
      366,
      367,
      365,
      365,
      365,
      365,
      365,
      365,
      366,
      366,
      376,
      376,
      379,
      379,
      399,
      399,
      399,
      400,
      400,
      400,
      401,
      401,
      401,
      400,
      400,
      400,
      400,
      400,
      400,
      402,
      401,
      401,
      401,
      406,
      406,
      406,
      406,
      406,
      406,
      406,
      406,
      405,
      405,
      405,
      396,
      396,
      396,
      397,
      397,
      402,
      408,
      412,
      412,
      412,
      419,
      419,
      419,
      420,
      420,
      421,
      421,
      421,
      421,
      421,
      418,
      418,
      417,
      418,
      418,
      418,
      422,
      422,
      424,
      424,
      424,
      424,
      425,
      425,
      430,
      430,
      430,
      426,
      432,
      432,
      433,
      435,
      435,
      433,
      434,
      434,
      434,
      434,
      434,
      434,
      433,
      433,
      433,
      433,
      432,
      432,
      432,
      432,
      432,
      432,
      432,
      432,
      432,
      433,
      433,
      432,
      432,
      431,
      431,
      432,
      432,
      432,
      432,
      433,
      435,
      437,
      439,
      439,
      440,
      440,
      440,
      435,
      435,
      435,
      435,
      433,
      433,
      431,
      431,
      431,
      431,
      435,
      435,
      436,
      436,
      436,
      436,
      436,
      435,
      435,
      435,
      434,
      434,
      431,
      431,
      428,
      428,
      428,
      427,
      427,
      428,
      427,
      427,
      435,
      436,
      441,
      444,
      446,
      447,
      447,
      448,
      448,
      448,
      447,
      447,
      447,
      447,
      447,
      448,
      448,
      451,
      453,
      453,
      457,
      457,
      458,
      413,
      408,
      408,
      404,
      403,
      403,
      435,
      417,
      417,
      396,
      394,
      394,
      394,
      396,
      406,
      404,
      394,
      394,
      394,
      385,
      374,
      374,
      377,
      377,
      362,
      362,
      360,
      355,
      338,
      338,
      313,
      292,
      291,
      291,
      278,
      272,
      248,
      248,
      143
    ],
    "swim:timestamps": [
      1777517496,
      1777517550,
      1777517550,
      1777517772,
      1777517772,
      1777517772,
      1777517772,
      1777517833,
      1777517953,
      1777518073,
      1777518073,
      1777518073,
      1777518073,
      1777518133,
      1777518133,
      1777518193,
      1777518313,
      1777518313,
      1777518313,
      1777518313,
      1777518554,
      1777518554,
      1777518554,
      1777518554,
      1777518734,
      1777518734,
      1777518734,
      1777518794,
      1777518854,
      1777518854,
      1777518854,
      1777519214,
      1777519275,
      1777519325,
      1777519335,
      1777519335,
      1777519335,
      1777519335,
      1777519395,
      1777519455,
      1777519455,
      1777519505,
      1777519505,
      1777519515,
      1777519515,
      1777519815,
      1777519815,
      1777519935,
      1777520043,
      1777520043,
      1777520043,
      1777520103,
      1777520163,
      1777520163,
      1777520224,
      1777520224,
      1777520296,
      1777520296,
      1777520416,
      1777520416,
      1777520524,
      1777520596,
      1777520596,
      1777520656,
      1777520837,
      1777520837,
      1777520837,
      1777520898,
      1777521018,
      1777521078,
      1777521078,
      1777521078,
      1777521318,
      1777521318,
      1777521318,
      1777521554,
      1777521554,
      1777521554,
      1777521614,
      1777521614,
      1777521674,
      1777521794,
      1777521854,
      1777521854,
      1777521854,
      1777522094,
      1777522094,
      1777522094,
      1777522160,
      1777522215,
      1777522275,
      1777522275,
      1777522275,
      1777522575,
      1777522575,
      1777522635,
      1777522635,
      1777522695,
      1777522875,
      1777522995,
      1777522995,
      1777523115,
      1777523115,
      1777523175,
      1777523175,
      1777523243,
      1777523243,
      1777523424,
      1777523424,
      1777523476,
      1777523476,
      1777523476,
      1777523494,
      1777523536,
      1777523536,
      1777523596,
      1777523716,
      1777523716,
      1777523836,
      1777523896,
      1777523896,
      1777523896,
      1777523956,
      1777523956,
      1777523974,
      1777524035,
      1777524076,
      1777524076,
      1777524076,
      1777524095,
      1777524095,
      1777524136,
      1777524196,
      1777524215,
      1777524215,
      1777524215,
      1777524256,
      1777524256,
      1777524316,
      1777524395,
      1777524437,
      1777524437,
      1777524515,
      1777524515,
      1777524557,
      1777524557,
      1777524557,
      1777524557,
      1777524617,
      1777524695,
      1777524797,
      1777524857,
      1777524857,
      1777525115,
      1777525115,
      1777525115,
      1777525236,
      1777525236,
      1777525236,
      1777525236,
      1777525356,
      1777525356,
      1777525536,
      1777525536,
      1777525536,
      1777525536,
      1777525836,
      1777525836,
      1777526016,
      1777526016,
      1777526016,
      1777526136,
      1777526136,
      1777526196,
      1777526196,
      1777526196,
      1777526208,
      1777526268,
      1777526316,
      1777526316,
      1777526377,
      1777526377,
      1777526389,
      1777526437,
      1777526437,
      1777526449,
      1777526509,
      1777526557,
      1777526617,
      1777526629,
      1777526677,
      1777526737,
      1777526797,
      1777526857,
      1777526857,
      1777526869,
      1777526869,
      1777526929,
      1777526989,
      1777527037,
      1777527037,
      1777527049,
      1777527049,
      1777527097,
      1777527097,
      1777527229,
      1777527289,
      1777527289,
      1777527349,
      1777527349,
      1777527397,
      1777527457,
      1777527469,
      1777527469,
      1777527517,
      1777527529,
      1777527529,
      1777527710,
      1777527830,
      1777527830,
      1777527890,
      1777528010,
      1777528010,
      1777528250,
      1777528310,
      1777528460,
      1777528490,
      1777528520,
      1777528520,
      1777528520,
      1777528610,
      1777528700,
      1777528700,
      1777528730,
      1777528730,
      1777528760,
      1777528760,
      1777528790,
      1777528850,
      1777528940,
      1777528940,
      1777529000,
      1777529060,
      1777529150,
      1777529150,
      1777529180,
      1777529240,
      1777529300,
      1777529300,
      1777529481
    ],
    "wof:geomhash": "cbceb66445e957c401bed17bb8b5c379",
    "wof:id": 2031138617,
    "wof:repo": "sfomuseum-data-flights-2026-04"
  },
  "bbox": [
    -122.28333333333333,
    32.916666666666664,
    -97.05,
    38.41583333333333
  ],
  "geometry": {"coordinates":[[-97.05,32.916666666666664],[-97.05,32.96666666666667],[-97.05,32.96666666666667],[-97.23472222222222,33.069722222222225],[-97.23472222222222,33.069722222222225],[-97.23472222222222,33.069722222222225],[-97.23472222222222,33.069722222222225],[-97.3386111111111,33.06805555555556],[-97.53916666666666,33.065],[-97.75305555555556,33.061388888888885],[-97.75305555555556,33.061388888888885],[-97.75305555555556,33.061388888888885],[-97.75305555555556,33.061388888888885],[-97.86388888888888,33.05916666666666],[-97.86388888888888,33.05916666666666],[-97.9775,33.05694444444444],[-98.20444444444445,33.052499999999995],[-98.20444444444445,33.052499999999995],[-98.20444444444445,33.052499999999995],[-98.20444444444445,33.052499999999995],[-98.64277777777778,33.18555555555555],[-98.64277777777778,33.18555555555555],[-98.64277777777778,33.18555555555555],[-98.64277777777778,33.18555555555555],[-98.98861111111111,33.29611111111111],[-98.98861111111111,33.29611111111111],[-98.98861111111111,33.29611111111111],[-99.10444444444444,33.33277777777778],[-99.21805555555555,33.369166666666665],[-99.21805555555555,33.369166666666665],[-99.21805555555555,33.369166666666665],[-99.9075,33.57166666666667],[-100.01833333333333,33.60194444444445],[-100.10805555555555,33.626666666666665],[-100.13305555555554,33.63333333333333],[-100.13305555555554,33.63333333333333],[-100.13305555555554,33.63333333333333],[-100.13305555555554,33.63333333333333],[-100.24694444444445,33.66611111111111],[-100.36027777777777,33.70388888888889],[-100.36027777777777,33.70388888888889],[-100.46083333333334,33.73694444444445],[-100.46083333333334,33.73694444444445],[-100.47888888888889,33.74305555555556],[-100.47888888888889,33.74305555555556],[-101.09583333333333,33.945277777777775],[-101.09583333333333,33.945277777777775],[-101.34472222222222,34.02583333333333],[-101.57222222222222,34.09861111111111],[-101.57222222222222,34.09861111111111],[-101.57222222222222,34.09861111111111],[-101.6975,34.13861111111111],[-101.82444444444444,34.17916666666667],[-101.82444444444444,34.17916666666667],[-101.94916666666667,34.218333333333334],[-101.94916666666667,34.218333333333334],[-102.09805555555555,34.265277777777776],[-102.09805555555555,34.265277777777776],[-102.34944444444444,34.34388888888889],[-102.34944444444444,34.34388888888889],[-102.58,34.415277777777774],[-102.73027777777779,34.461666666666666],[-102.73027777777779,34.461666666666666],[-102.85472222222222,34.50527777777778],[-103.19027777777778,34.7025],[-103.19027777777778,34.7025],[-103.19027777777778,34.7025],[-103.30305555555556,34.76833333333333],[-103.5261111111111,34.89833333333333],[-103.6388888888889,34.96388888888889],[-103.6388888888889,34.96388888888889],[-103.6388888888889,34.96388888888889],[-104.08722222222222,35.22222222222222],[-104.08722222222222,35.22222222222222],[-104.08722222222222,35.22222222222222],[-104.52277777777778,35.46805555555556],[-104.52277777777778,35.46805555555556],[-104.52277777777778,35.46805555555556],[-104.63694444444445,35.53333333333333],[-104.63694444444445,35.53333333333333],[-104.74416666666667,35.593333333333334],[-104.96194444444444,35.716944444444444],[-105.08305555555555,35.78444444444444],[-105.08305555555555,35.78444444444444],[-105.08305555555555,35.78444444444444],[-105.56666666666666,36.05166666666666],[-105.56666666666666,36.05166666666666],[-105.56666666666666,36.05166666666666],[-105.69666666666667,36.12277777777778],[-105.8086111111111,36.18388888888889],[-105.92194444444445,36.245555555555555],[-105.92194444444445,36.245555555555555],[-105.92194444444445,36.245555555555555],[-106.53583333333333,36.575833333333335],[-106.53583333333333,36.575833333333335],[-106.6563888888889,36.64],[-106.6563888888889,36.64],[-106.775,36.70305555555556],[-107.13777777777779,36.89416666666666],[-107.38194444444444,37.02166666666667],[-107.38194444444444,37.02166666666667],[-107.62805555555555,37.149166666666666],[-107.62805555555555,37.149166666666666],[-107.7525,37.21333333333334],[-107.7525,37.21333333333334],[-107.87583333333333,37.27638888888889],[-107.87583333333333,37.27638888888889],[-108.255,37.46944444444445],[-108.255,37.46944444444445],[-108.38083333333333,37.53333333333333],[-108.38083333333333,37.53333333333333],[-108.38083333333333,37.53333333333333],[-108.40527777777778,37.54722222222222],[-108.50805555555556,37.597500000000004],[-108.50805555555556,37.597500000000004],[-108.63777777777779,37.66277777777778],[-108.89361111111111,37.79],[-108.89361111111111,37.79],[-109.18583333333333,37.85527777777778],[-109.33333333333333,37.88194444444444],[-109.33333333333333,37.88194444444444],[-109.33333333333333,37.88194444444444],[-109.48416666666667,37.909166666666664],[-109.48416666666667,37.909166666666664],[-109.51861111111111,37.915277777777774],[-109.66611111111112,37.94138888888889],[-109.77916666666667,37.96138888888889],[-109.77916666666667,37.96138888888889],[-109.77916666666667,37.96138888888889],[-109.81555555555555,37.967777777777776],[-109.81555555555555,37.967777777777776],[-109.92583333333334,37.98722222222222],[-110.07472222222222,38.00555555555555],[-110.115,38.00833333333333],[-110.115,38.00833333333333],[-110.115,38.00833333333333],[-110.22555555555556,38.016666666666666],[-110.22555555555556,38.016666666666666],[-110.38694444444445,38.030833333333334],[-110.56944444444444,38.0475],[-110.68916666666667,38.05833333333333],[-110.68916666666667,38.05833333333333],[-110.8711111111111,38.074444444444445],[-110.8711111111111,38.074444444444445],[-110.97444444444444,38.08361111111111],[-110.97444444444444,38.08361111111111],[-110.97444444444444,38.08361111111111],[-110.97444444444444,38.08361111111111],[-111.12583333333333,38.09666666666667],[-111.33888888888889,38.114444444444445],[-111.585,38.135],[-111.73916666666666,38.1475],[-111.73916666666666,38.1475],[-112.4175,38.20027777777778],[-112.4175,38.20027777777778],[-112.4175,38.20027777777778],[-112.7175,38.22222222222222],[-112.7175,38.22222222222222],[-112.7175,38.22222222222222],[-112.7175,38.22222222222222],[-113.01861111111111,38.243611111111115],[-113.01861111111111,38.243611111111115],[-113.47305555555556,38.274166666666666],[-113.47305555555556,38.274166666666666],[-113.47305555555556,38.274166666666666],[-113.47305555555556,38.274166666666666],[-114.23361111111112,38.32166666666667],[-114.23361111111112,38.32166666666667],[-114.69277777777778,38.34777777777778],[-114.69277777777778,38.34777777777778],[-114.69277777777778,38.34777777777778],[-115.00111111111111,38.36416666666667],[-115.00111111111111,38.36416666666667],[-115.1525,38.37222222222222],[-115.1525,38.37222222222222],[-115.1525,38.37222222222222],[-115.17750000000001,38.373333333333335],[-115.32916666666667,38.38111111111111],[-115.47916666666667,38.388333333333335],[-115.47916666666667,38.388333333333335],[-115.62833333333333,38.39555555555555],[-115.62833333333333,38.39555555555555],[-115.63,38.395833333333336],[-115.77805555555555,38.402499999999996],[-115.77805555555555,38.402499999999996],[-115.78055555555555,38.40277777777778],[-115.93194444444445,38.409444444444446],[-116.08,38.41583333333333],[-116.23305555555555,38.413888888888884],[-116.23666666666666,38.413333333333334],[-116.35722222222222,38.39],[-116.53999999999999,38.35472222222222],[-116.69250000000001,38.32472222222223],[-116.84805555555555,38.29388888888889],[-116.84805555555555,38.29388888888889],[-116.84916666666666,38.29388888888889],[-116.84916666666666,38.29388888888889],[-117.00194444444445,38.263333333333335],[-117.15361111111112,38.23277777777778],[-117.29694444444445,38.20388888888889],[-117.29694444444445,38.20388888888889],[-117.30833333333334,38.20166666666667],[-117.30833333333334,38.20166666666667],[-117.44972222222222,38.172777777777775],[-117.44972222222222,38.172777777777775],[-117.79027777777777,38.1025],[-117.94472222222223,38.07027777777778],[-117.94472222222223,38.07027777777778],[-118.09972222222221,38.03777777777778],[-118.09972222222221,38.03777777777778],[-118.22416666666666,38.01166666666666],[-118.36833333333333,37.98083333333334],[-118.39777777777779,37.974444444444444],[-118.39777777777779,37.974444444444444],[-118.50444444444445,37.95166666666667],[-118.53333333333333,37.94555555555555],[-118.53333333333333,37.94555555555555],[-118.88111111111111,37.77111111111111],[-119.03083333333333,37.56888888888889],[-119.03083333333333,37.56888888888889],[-119.16694444444445,37.565555555555555],[-119.43944444444445,37.595555555555556],[-119.43944444444445,37.595555555555556],[-119.96027777777778,37.652499999999996],[-120.0975,37.66694444444444],[-120.46666666666667,37.7],[-120.51777777777778,37.68555555555555],[-120.61666666666666,37.666666666666664],[-120.61666666666666,37.666666666666664],[-120.61666666666666,37.666666666666664],[-120.78972222222222,37.65361111111111],[-121,37.63333333333333],[-121,37.63333333333333],[-121.05083333333333,37.62111111111111],[-121.05083333333333,37.62111111111111],[-121.13333333333334,37.61666666666667],[-121.13333333333334,37.61666666666667],[-121.18916666666667,37.602222222222224],[-121.31083333333333,37.586666666666666],[-121.5,37.56666666666667],[-121.5,37.56666666666667],[-121.61666666666666,37.55],[-121.71666666666667,37.53333333333333],[-121.85222222222221,37.49611111111111],[-121.85222222222221,37.49611111111111],[-121.9,37.5],[-122,37.5],[-122.08333333333333,37.5],[-122.08333333333333,37.5],[-122.28333333333333,37.583333333333336]],"type":"LineString"}
}
