{
  "id": 2015185883,
  "type": "Feature",
  "properties": {
    "geom:area": 0,
    "geom:bbox": "-122.358430,36.719670,-121.876530,37.611760",
    "geom:latitude": 37.20110717423705,
    "geom:longitude": -122.12583605414135,
    "src:alt_label": "swim-approach",
    "src:geom": "swim",
    "swim:elevations": [
      5898,
      5588,
      5439,
      5108,
      4941,
      4639,
      4341,
      4176,
      3932,
      3614,
      3527,
      3149,
      3050,
      3018,
      2993,
      2835,
      2641,
      2576,
      2369,
      2332,
      1983,
      1738,
      1671,
      1476,
      1233,
      1219,
      1187,
      916,
      878,
      793,
      792,
      564,
      455,
      402,
      251,
      182,
      53,
      0
    ],
    "swim:geom": "approach",
    "swim:timestamps": [
      1775168936,
      1775168963,
      1775168977,
      1775169008,
      1775169023,
      1775169051,
      1775169080,
      1775169101,
      1775169134,
      1775169176,
      1775169188,
      1775169236,
      1775169263,
      1775169293,
      1775169301,
      1775169323,
      1775169356,
      1775169374,
      1775169413,
      1775169422,
      1775169472,
      1775169508,
      1775169520,
      1775169558,
      1775169596,
      1775169620,
      1775169635,
      1775169677,
      1775169707,
      1775169746,
      1775169755,
      1775169805,
      1775169834,
      1775169844,
      1775169892,
      1775169914,
      1775169954,
      1775169963
    ],
    "wof:geomhash": "c3298232ccf9e3503aef2b7d0acd1d60",
    "wof:id": 2015185883,
    "wof:repo": "sfomuseum-data-flights-2026-04"
  },
  "bbox": [
    -122.35843,
    36.71967,
    -121.87653,
    37.61176
  ],
  "geometry": {"coordinates":[[-121.87653,36.71967],[-121.89936,36.75907],[-121.90521,36.78048],[-121.91825,36.8287],[-121.92461,36.85158],[-121.93615,36.8925],[-121.95178,36.93562],[-121.97273,36.9604],[-122.00806,36.99742],[-122.0513,37.04194],[-122.06332,37.05438],[-122.1128,37.1045],[-122.14054,37.13243],[-122.17188,37.16389],[-122.17925,37.17137],[-122.20171,37.1936],[-122.23372,37.22514],[-122.25008,37.2411],[-122.28134,37.27462],[-122.28556,37.28357],[-122.25973,37.32637],[-122.22147,37.34686],[-122.20862,37.35403],[-122.18481,37.38246],[-122.17546,37.41612],[-122.16918,37.43773],[-122.16522,37.45137],[-122.16704,37.48801],[-122.17854,37.51173],[-122.19555,37.53946],[-122.20292,37.54469],[-122.24875,37.56568],[-122.27352,37.57608],[-122.28055,37.57906],[-122.31247,37.59251],[-122.32665,37.5984],[-122.3526,37.60931],[-122.35843,37.61176]],"type":"LineString"}
}
