{
  "id": 2015277359,
  "type": "Feature",
  "properties": {
    "geom:area": 0,
    "geom:bbox": "-122.348710,37.437120,-121.278470,37.609970",
    "geom:latitude": 37.538863273481084,
    "geom:longitude": -121.81904898345871,
    "src:alt_label": "swim-approach",
    "src:geom": "swim",
    "swim:elevations": [
      4378,
      4023,
      3905,
      3705,
      3406,
      3352,
      3353,
      3353,
      3353,
      3353,
      3353,
      3046,
      2937,
      2798,
      2743,
      2743,
      2691,
      2557,
      2440,
      2438,
      2438,
      2304,
      1980,
      1907,
      1828,
      1639,
      1607,
      1524,
      1370,
      1198,
      1034,
      851,
      695,
      518,
      421,
      307,
      211,
      74
    ],
    "swim:geom": "approach",
    "swim:timestamps": [
      1776079421,
      1776079461,
      1776079475,
      1776079502,
      1776079557,
      1776079587,
      1776079605,
      1776079623,
      1776079639,
      1776079676,
      1776079700,
      1776079731,
      1776079748,
      1776079780,
      1776079819,
      1776079830,
      1776079882,
      1776079905,
      1776079948,
      1776079952,
      1776079986,
      1776080013,
      1776080068,
      1776080080,
      1776080111,
      1776080157,
      1776080164,
      1776080205,
      1776080236,
      1776080261,
      1776080296,
      1776080329,
      1776080363,
      1776080398,
      1776080421,
      1776080448,
      1776080471,
      1776080508
    ],
    "wof:geomhash": "7fffe616c1090ad91c5ad28613ca9c6d",
    "wof:id": 2015277359,
    "wof:repo": "sfomuseum-data-flights-2026-04"
  },
  "bbox": [
    -122.34871,
    37.43712,
    -121.27847,
    37.60997
  ],
  "geometry": {"coordinates":[[-121.27847,37.5907],[-121.35567,37.58203],[-121.38406,37.57892],[-121.43644,37.57286],[-121.53206,37.56199],[-121.57831,37.55651],[-121.60473,37.55484],[-121.62872,37.56078],[-121.6489,37.56705],[-121.69577,37.58139],[-121.72778,37.59106],[-121.76892,37.60344],[-121.78978,37.60988],[-121.83273,37.60972],[-121.83765,37.57173],[-121.82664,37.56431],[-121.77294,37.5268],[-121.77417,37.50156],[-121.7902,37.45592],[-121.79365,37.45255],[-121.83626,37.44091],[-121.87252,37.43712],[-121.94341,37.43864],[-121.95684,37.4445],[-121.99117,37.4591],[-122.03833,37.47889],[-122.04537,37.48185],[-122.08513,37.49885],[-122.11568,37.51183],[-122.13995,37.52194],[-122.17247,37.53584],[-122.20273,37.54852],[-122.23329,37.56144],[-122.26461,37.57461],[-122.28284,37.58227],[-122.30292,37.59073],[-122.32037,37.59808],[-122.34871,37.60997]],"type":"LineString"}
}
