{
  "id": 2015304195,
  "type": "Feature",
  "properties": {
    "geom:area": 0,
    "geom:bbox": "-122.835640,37.305060,-122.087720,38.458960",
    "geom:latitude": 37.74017826663887,
    "geom:longitude": -122.45782326879372,
    "src:alt_label": "swim-approach",
    "src:geom": "swim",
    "swim:elevations": [
      7342,
      7248,
      6843,
      6595,
      6420,
      6194,
      5749,
      4883,
      4396,
      3542,
      3414,
      3353,
      3353,
      3100,
      3021,
      3017,
      3008,
      2669,
      2508,
      2408,
      2192,
      2150,
      1878,
      1829,
      1829,
      1618,
      1537,
      1350,
      1221,
      1219,
      1219,
      1219,
      1219,
      1096,
      910,
      913,
      759,
      617,
      591,
      504,
      395,
      337,
      273,
      212,
      135,
      85,
      37,
      20
    ],
    "swim:geom": "approach",
    "swim:timestamps": [
      1776358486,
      1776358535,
      1776358571,
      1776358597,
      1776358615,
      1776358637,
      1776358678,
      1776358760,
      1776358802,
      1776358944,
      1776358961,
      1776359007,
      1776359068,
      1776359146,
      1776359180,
      1776359186,
      1776359190,
      1776359242,
      1776359268,
      1776359287,
      1776359321,
      1776359328,
      1776359376,
      1776359425,
      1776359450,
      1776359480,
      1776359492,
      1776359511,
      1776359533,
      1776359555,
      1776359599,
      1776359624,
      1776359640,
      1776359681,
      1776359722,
      1776359736,
      1776359784,
      1776359817,
      1776359824,
      1776359847,
      1776359877,
      1776359905,
      1776359923,
      1776359940,
      1776359968,
      1776359986,
      1776359998,
      1776360002
    ],
    "wof:geomhash": "309996793e328f31de35fbc85fbe95d2",
    "wof:id": 2015304195,
    "wof:repo": "sfomuseum-data-flights-2026-04"
  },
  "bbox": [
    -122.83564,
    37.30506,
    -122.08772,
    38.45896
  ],
  "geometry": {"coordinates":[[-122.83564,38.45896],[-122.80978,38.37073],[-122.79101,38.30618],[-122.77773,38.26126],[-122.76814,38.22848],[-122.75737,38.1912],[-122.73704,38.12074],[-122.69768,37.9853],[-122.6779,37.91688],[-122.51411,37.74937],[-122.49567,37.73212],[-122.4468,37.68628],[-122.38281,37.62573],[-122.32389,37.53552],[-122.29925,37.49564],[-122.29568,37.48848],[-122.29437,37.484],[-122.32138,37.42475],[-122.34078,37.3967],[-122.34343,37.37479],[-122.33798,37.33318],[-122.33586,37.3244],[-122.28476,37.30506],[-122.23635,37.33296],[-122.21528,37.34959],[-122.18901,37.37032],[-122.17844,37.37826],[-122.1617,37.39072],[-122.1422,37.40483],[-122.12164,37.41985],[-122.09246,37.45579],[-122.08772,37.47866],[-122.09699,37.49047],[-122.12561,37.51315],[-122.15972,37.5282],[-122.17167,37.53308],[-122.21168,37.55007],[-122.23822,37.56115],[-122.24371,37.56351],[-122.26191,37.57119],[-122.28196,37.57964],[-122.29841,37.58658],[-122.30922,37.59096],[-122.31971,37.59544],[-122.33594,37.60236],[-122.34734,37.60708],[-122.35483,37.61023],[-122.35684,37.61108]],"type":"LineString"}
}
