{
  "id": 2031107989,
  "type": "Feature",
  "properties": {
    "geom:area": 0,
    "geom:bbox": "-122.380000,33.640000,-84.180000,39.690000",
    "geom:latitude": 38.19479914825208,
    "geom:longitude": -102.46077379240846,
    "src:alt_label": "swim-route",
    "src:geom": "swim",
    "swim:geom": "route",
    "wof:geomhash": "a991fa8a56c975b79b8b3d4fb9952377",
    "wof:id": 2031107989,
    "wof:repo": "sfomuseum-data-flights-2026-04"
  },
  "bbox": [
    -122.38,
    33.64,
    -84.18,
    39.69
  ],
  "geometry": {"coordinates":[[-84.43,33.64],[-84.18,33.68],[-84.18,33.85],[-84.46,34.06],[-84.47,34.07],[-84.71,34.26],[-84.83,34.54],[-85.02,34.97],[-85.08,35.11],[-85.12,35.16],[-85.47,35.6],[-85.5,35.61],[-86.9,36.4],[-88,37],[-88.03,37.01],[-89.17,37.46],[-89.61,37.63],[-90.05,37.79],[-90.72,38.04],[-91.12,38.19],[-91.76,38.3],[-92.03,38.35],[-92.56,38.43],[-93.9,38.64],[-94.71,38.75],[-95.19,38.82],[-95.76,38.89],[-96.33,38.96],[-97.47,39.1],[-98.04,39.16],[-98.61,39.22],[-99.18,39.28],[-103.22,39.61],[-104.62,39.69],[-105.16,39.62],[-107,39.38],[-109.98,38.92],[-111.3,38.69],[-111.82,38.59],[-113.01,38.36],[-113.97,38.29],[-114.39,38.25],[-117.03,38.03],[-117.22,38.02],[-117.77,38],[-118.76,37.9],[-119.1,37.86],[-119.81,37.77],[-119.99,37.75],[-120.04,37.74],[-120.26,37.72],[-120.28,37.72],[-120.38,37.7],[-120.4,37.7],[-120.75,37.66],[-120.78,37.66],[-120.83,37.65],[-120.96,37.63],[-121,37.63],[-121.08,37.62],[-121.18,37.6],[-121.26,37.59],[-121.39,37.58],[-121.41,37.58],[-121.6,37.55],[-121.61,37.55],[-121.62,37.55],[-121.7,37.53],[-121.8,37.51],[-121.83,37.5],[-121.88,37.49],[-122.08,37.54],[-122.14,37.56],[-122.18,37.57],[-122.28,37.59],[-122.33,37.61],[-122.36,37.61],[-122.38,37.62]],"type":"LineString"}
}
