{
  "id": 2015262357,
  "type": "Feature",
  "properties": {
    "geom:area": 0,
    "geom:bbox": "-123.062650,37.617850,-122.236630,38.468150",
    "geom:latitude": 38.06679304335744,
    "geom:longitude": -122.70987851627457,
    "src:alt_label": "swim-approach",
    "src:geom": "swim",
    "swim:elevations": [
      7925,
      7925,
      7925,
      7831,
      7782,
      7624,
      7343,
      7315,
      7315,
      7315,
      7315,
      7315,
      7315,
      7315,
      7315,
      7315,
      7315,
      7315,
      7315,
      7315,
      7248,
      7063,
      7009,
      7010,
      6933,
      6899,
      6797,
      6695,
      6326,
      6271,
      6096,
      5798,
      5721,
      5513,
      5421,
      5319,
      5166,
      4780,
      4600,
      4391,
      4287,
      4020,
      3998,
      3761,
      3462,
      3215,
      3148,
      2961,
      2907,
      2777,
      2624,
      2469,
      2438,
      2438,
      2438,
      2438,
      2438,
      2438,
      2438,
      2438,
      2438,
      2355,
      2261,
      2107,
      1951,
      1890,
      1831,
      1829,
      1829,
      1829,
      1829,
      1829,
      1829,
      1829,
      1829,
      1829,
      1829,
      1820,
      1670,
      1538,
      1258,
      1157,
      1087,
      943,
      945,
      945,
      945,
      854,
      826,
      760,
      604,
      512,
      457,
      322,
      213,
      0,
      0
    ],
    "swim:geom": "approach",
    "swim:timestamps": [
      1775919296,
      1775919308,
      1775919322,
      1775919357,
      1775919369,
      1775919397,
      1775919445,
      1775919461,
      1775919491,
      1775919518,
      1775919533,
      1775919542,
      1775919553,
      1775919582,
      1775919628,
      1775919647,
      1775919686,
      1775919696,
      1775919717,
      1775919723,
      1775919741,
      1775919768,
      1775919797,
      1775919834,
      1775919867,
      1775919873,
      1775919891,
      1775919907,
      1775919955,
      1775919967,
      1775920005,
      1775920048,
      1775920058,
      1775920072,
      1775920082,
      1775920094,
      1775920116,
      1775920160,
      1775920187,
      1775920220,
      1775920235,
      1775920279,
      1775920290,
      1775920330,
      1775920370,
      1775920401,
      1775920410,
      1775920442,
      1775920454,
      1775920481,
      1775920508,
      1775920539,
      1775920560,
      1775920617,
      1775920643,
      1775920673,
      1775920704,
      1775920733,
      1775920743,
      1775920770,
      1775920804,
      1775920828,
      1775920855,
      1775920884,
      1775920918,
      1775920937,
      1775920955,
      1775920976,
      1775920999,
      1775921016,
      1775921058,
      1775921070,
      1775921120,
      1775921152,
      1775921170,
      1775921185,
      1775921209,
      1775921238,
      1775921268,
      1775921289,
      1775921333,
      1775921356,
      1775921368,
      1775921397,
      1775921424,
      1775921452,
      1775921474,
      1775921512,
      1775921524,
      1775921536,
      1775921574,
      1775921592,
      1775921613,
      1775921645,
      1775921676,
      1775921728,
      1775921732
    ],
    "wof:geomhash": "3060364a6eb37505b292c9e740742a47",
    "wof:id": 2015262357,
    "wof:repo": "sfomuseum-data-flights-2026-04"
  },
  "bbox": [
    -123.06265,
    37.61785,
    -122.23663,
    38.46815
  ],
  "geometry": {"coordinates":[[-122.75967,38.25314],[-122.76381,38.23814],[-122.76871,38.22061],[-122.78847,38.18003],[-122.79932,38.16888],[-122.83207,38.14486],[-122.90563,38.12879],[-122.93263,38.13214],[-122.98395,38.15417],[-123.01684,38.19139],[-123.0258,38.21752],[-123.03048,38.23385],[-123.03698,38.25256],[-123.05361,38.30552],[-123.06265,38.3911],[-123.04302,38.42515],[-122.96309,38.46643],[-122.94215,38.46815],[-122.89785,38.46239],[-122.88689,38.45877],[-122.85836,38.44424],[-122.82892,38.41565],[-122.81432,38.38012],[-122.79643,38.33535],[-122.78395,38.29409],[-122.78204,38.28689],[-122.77666,38.26504],[-122.77225,38.24642],[-122.77374,38.1887],[-122.78079,38.1756],[-122.81932,38.14351],[-122.88574,38.15207],[-122.89893,38.16383],[-122.91139,38.18433],[-122.91517,38.20025],[-122.91633,38.22103],[-122.91017,38.25971],[-122.84172,38.3103],[-122.78663,38.3167],[-122.72788,38.30337],[-122.70656,38.29169],[-122.66677,38.24584],[-122.66215,38.23368],[-122.65999,38.18702],[-122.66249,38.14151],[-122.66405,38.10587],[-122.66463,38.09543],[-122.666,38.059],[-122.66669,38.04501],[-122.66789,38.01383],[-122.66927,37.98271],[-122.67103,37.947],[-122.67255,37.92351],[-122.67596,37.86807],[-122.67706,37.84513],[-122.67801,37.81932],[-122.67827,37.79275],[-122.67815,37.76743],[-122.67837,37.75903],[-122.67817,37.73462],[-122.67772,37.70462],[-122.67772,37.6848],[-122.67254,37.66424],[-122.64785,37.65009],[-122.6171,37.63388],[-122.60133,37.62539],[-122.58579,37.61785],[-122.56223,37.6189],[-122.5431,37.63763],[-122.53439,37.65527],[-122.5131,37.69778],[-122.50705,37.70973],[-122.48208,37.76003],[-122.45193,37.78444],[-122.43257,37.79521],[-122.4165,37.8043],[-122.39113,37.81799],[-122.3601,37.83504],[-122.32849,37.85288],[-122.30628,37.86489],[-122.25679,37.86774],[-122.24069,37.85644],[-122.23869,37.84802],[-122.23663,37.82752],[-122.24581,37.80928],[-122.25797,37.79159],[-122.26773,37.77686],[-122.28478,37.75136],[-122.28976,37.74383],[-122.29458,37.7365],[-122.30982,37.71361],[-122.31679,37.70318],[-122.32496,37.69083],[-122.33652,37.67336],[-122.34768,37.65666],[-122.36686,37.62782],[-122.36791,37.62611]],"type":"LineString"}
}
