{
  "id": 2031139835,
  "type": "Feature",
  "properties": {
    "geom:area": 0,
    "geom:bbox": "-122.751389,37.566667,-73.555000,44.139722",
    "geom:latitude": 41.99388625414057,
    "geom:longitude": -98.54597562847215,
    "src:alt_label": "swim-path",
    "src:geom": "swim",
    "swim:altitudes": [
      "025",
      "042",
      "042",
      "042",
      "042",
      "042",
      "042",
      "062",
      "062",
      "062",
      "089",
      "089",
      "089",
      "089",
      "113",
      "113",
      "113",
      "113",
      "148",
      "148",
      "148",
      "161",
      "161",
      "161",
      "171",
      "171",
      "171",
      "171",
      "171",
      "187",
      "187",
      "187",
      "187",
      "245",
      "245",
      "250",
      "250",
      "250",
      "250",
      "250",
      "250",
      "263",
      "263",
      "263",
      "263",
      "278",
      "278",
      "278",
      "296",
      "296",
      "296",
      "313",
      "313",
      "313",
      "313",
      "314",
      "314",
      "314",
      "320C",
      "320C",
      "320C",
      "320C",
      "320C",
      "320C",
      "320C",
      "320C",
      "320C",
      "320C",
      "320C",
      "320C",
      "320C",
      "320C",
      "320C",
      "320C",
      "320C",
      "320C",
      "320C",
      "320C",
      "320C",
      "320C",
      "320C",
      "320C",
      "320C",
      "320C",
      "320C",
      "320C",
      "320C",
      "320C",
      "320C",
      "320C",
      "320C",
      "320C",
      "320C",
      "320C",
      "320C",
      "320C",
      "320C",
      "320C",
      "320C",
      "320C",
      "320C",
      "320C",
      "320C",
      "320C",
      "320C",
      "320C",
      "320C",
      "320C",
      "320C",
      "320C",
      "320C",
      "320C",
      "320C",
      "320C",
      "320C",
      "320C",
      "320C",
      "320C",
      "320C",
      "320C",
      "320C",
      "320C",
      "320C",
      "320C",
      "320C",
      "320C",
      "320C",
      "320C",
      "320C",
      "320C",
      "320C",
      "320C",
      "320C",
      "320C",
      "320C",
      "320C",
      "320C",
      "320C",
      "320C",
      "320C",
      "320C",
      "320C",
      "320C",
      "320C",
      "320C",
      "320C",
      "320C",
      "320C",
      "320C",
      "320C",
      "320C",
      "320C",
      "320C",
      "320C",
      "320C",
      "320C",
      "320C",
      "320C",
      "320C",
      "320C",
      "320C",
      "320C",
      "320C",
      "320C",
      "320C",
      "320C",
      "320C",
      "320C",
      "320C",
      "320C",
      "320C",
      "320C",
      "320C",
      "320C",
      "320C",
      "320C",
      "320C",
      "320C",
      "320C",
      "320C",
      "320C",
      "320C",
      "320C",
      "320C",
      "320C",
      "320C",
      "320C",
      "320C",
      "320C",
      "320C",
      "320C",
      "320C",
      "320C",
      "320C",
      "320C",
      "320C",
      "320C",
      "320C",
      "320C",
      "320C",
      "320C",
      "320C",
      "320C",
      "320C",
      "320C",
      "320C",
      "320C",
      "320C",
      "320C",
      "320C",
      "320C",
      "320C",
      "320C",
      "320C",
      "320C",
      "320C",
      "320C",
      "320C",
      "320C",
      "320C",
      "320C",
      "320C",
      "320C",
      "320C",
      "320C",
      "320C",
      "320C",
      "320C",
      "320C",
      "320C",
      "320C",
      "320C",
      "320C",
      "320C",
      "320C",
      "320C",
      "320C",
      "320C",
      "320C",
      "320C",
      "320C",
      "320C",
      "320C",
      "320C",
      "320C",
      "320C",
      "320C",
      "320C",
      "320C",
      "320C",
      "320C",
      "320C",
      "320C",
      "320C",
      "320C",
      "320C",
      "320C",
      "320C",
      "320C",
      "320C",
      "320C",
      "320C",
      "320C",
      "320C",
      "320C",
      "320C",
      "320C",
      "320C",
      "320C",
      "320C",
      "320C",
      "320C",
      "320C",
      "320C",
      "320C",
      "320C",
      "320C",
      "320C",
      "320C",
      "320C",
      "320C",
      "320C",
      "320C",
      "320C",
      "320C",
      "320C",
      "320C",
      "320C",
      "320C",
      "320C",
      "320C",
      "320C",
      "320C",
      "320C",
      "320C",
      "320C",
      "320C",
      "320C",
      "320C",
      "320C",
      "320C",
      "320C",
      "320C",
      "320C",
      "320C",
      "320C",
      "320C",
      "320C",
      "320C",
      "320C",
      "320C",
      "320C",
      "320C",
      "320C",
      "320C",
      "320C",
      "320C",
      "320C",
      "320C",
      "320C",
      "320C",
      "320C",
      "320C",
      "320C",
      "320C",
      "320C",
      "320C",
      "320C",
      "320C",
      "320C",
      "320C",
      "320C",
      "320C",
      "320C",
      "320C",
      "320C",
      "320C",
      "320C",
      "320C",
      "320C",
      "320C",
      "320C",
      "320C",
      "320C",
      "320C",
      "320C",
      "320C",
      "320C",
      "320C",
      "320C",
      "320C",
      "320C",
      "320C",
      "320C",
      "320C",
      "320C",
      "320C",
      "320C",
      "320C",
      "320C",
      "320C",
      "320C",
      "320C",
      "320C",
      "320C",
      "320C",
      "320C",
      "320C",
      "320C",
      "320C",
      "320C",
      "320C",
      "320C",
      "320C",
      "320C",
      "320C",
      "320C",
      "320C",
      "320C",
      "320C",
      "320C",
      "320C",
      "320C",
      "320C",
      "320C",
      "320C",
      "320C",
      "320C",
      "320C",
      "320C",
      "320C",
      "320C",
      "320C",
      "320C",
      "320C",
      "320C",
      "320C",
      "320C",
      "320C",
      "320C",
      "320C",
      "320C",
      "320C",
      "320C",
      "320C",
      "320C",
      "320C",
      "320C",
      "320C",
      "320C",
      "320C",
      "320C",
      "320C",
      "320C",
      "320C",
      "320C",
      "320C",
      "320C",
      "320C",
      "320C",
      "320C",
      "320C",
      "320C",
      "320C",
      "320C",
      "320C",
      "320C",
      "320C",
      "320C",
      "320C",
      "320C",
      "320C",
      "320C",
      "320C",
      "320C",
      "320C",
      "320C",
      "320C",
      "320C",
      "320C",
      "320C",
      "320C",
      "320C",
      "320C",
      "320C",
      "320C",
      "320C",
      "320C",
      "320C",
      "320C",
      "320C",
      "320C",
      "320C",
      "320C",
      "320C",
      "320C",
      "320C",
      "320C",
      "320C",
      "320C",
      "320C",
      "320C",
      "320C",
      "320C",
      "320C",
      "320C",
      "320C",
      "320C",
      "320C",
      "320C",
      "320C",
      "320C",
      "320C",
      "320C",
      "320C",
      "320C",
      "320C",
      "320C",
      "320C",
      "320C",
      "320C",
      "320C",
      "320C",
      "320C",
      "320C",
      "320C",
      "320C",
      "320C",
      "320C",
      "320C",
      "320C",
      "320C",
      "320C",
      "320C",
      "320C",
      "320C",
      "320C",
      "320C",
      "320C",
      "320C",
      "320C",
      "320C",
      "320C",
      "320C",
      "320C",
      "320C",
      "320C",
      "320C",
      "320C",
      "320C",
      "320C",
      "320C",
      "320C",
      "320C",
      "320C",
      "320C",
      "320C",
      "320C",
      "320C",
      "320C",
      "320C",
      "320C",
      "320C",
      "320C",
      "320C",
      "320C",
      "320C",
      "320C",
      "320C",
      "320C",
      "320C",
      "320C",
      "320C",
      "320C",
      "320C",
      "320C",
      "320C",
      "320C",
      "320C",
      "320C",
      "320C",
      "320C",
      "320C",
      "320C",
      "320C",
      "320C",
      "320C",
      "320C",
      "320C",
      "320C",
      "320C",
      "320C",
      "320C",
      "320C",
      "320C",
      "320C",
      "320C",
      "320C",
      "320C",
      "320C",
      "320C",
      "320C",
      "320C",
      "320C",
      "320C",
      "320C",
      "320C",
      "320C",
      "320C",
      "320C",
      "320C",
      "320C",
      "320C",
      "320C",
      "320C",
      "320C",
      "320C",
      "320C",
      "320C",
      "320C",
      "320C",
      "320C",
      "320C",
      "320C",
      "320C",
      "320C",
      "320C",
      "320C",
      "320C",
      "320C",
      "320C",
      "320C",
      "320C",
      "320C",
      "320C",
      "320C",
      "320C",
      "320C",
      "320C",
      "320C",
      "320C",
      "320C",
      "320C",
      "320C",
      "320C",
      "320C",
      "320C",
      "320C",
      "320C",
      "320C",
      "320C",
      "320C",
      "320C",
      "320C",
      "320C",
      "320C",
      "320C",
      "320C",
      "320C",
      "320C",
      "320C",
      "320C",
      "320C",
      "320C",
      "320C",
      "320C",
      "320C",
      "320C",
      "320C",
      "320C",
      "320C",
      "320C",
      "320C",
      "320C",
      "320C",
      "320C",
      "320C",
      "320C",
      "320C",
      "320",
      "320",
      "320",
      "320",
      "298",
      "280C",
      "280C",
      "247",
      "247",
      "201",
      "201",
      "201",
      "163",
      "163",
      "143",
      "125",
      "092",
      "092",
      "076",
      "060",
      "060",
      "047",
      "047",
      "047",
      "018",
      "011",
      "011",
      "011"
    ],
    "swim:geom": "path",
    "swim:speeds": [
      231,
      259,
      259,
      259,
      259,
      259,
      259,
      286,
      286,
      286,
      289,
      289,
      289,
      289,
      298,
      298,
      298,
      298,
      325,
      325,
      325,
      343,
      343,
      343,
      363,
      363,
      363,
      363,
      363,
      375,
      375,
      375,
      375,
      395,
      395,
      397,
      397,
      397,
      397,
      397,
      397,
      397,
      397,
      397,
      397,
      389,
      389,
      389,
      389,
      389,
      389,
      413,
      413,
      413,
      413,
      413,
      413,
      413,
      409,
      409,
      409,
      415,
      415,
      415,
      416,
      416,
      416,
      416,
      417,
      417,
      417,
      417,
      417,
      418,
      418,
      419,
      419,
      419,
      419,
      419,
      419,
      419,
      419,
      419,
      420,
      420,
      420,
      430,
      430,
      430,
      437,
      437,
      440,
      440,
      441,
      441,
      443,
      443,
      444,
      444,
      447,
      447,
      447,
      447,
      448,
      448,
      452,
      452,
      455,
      455,
      457,
      457,
      457,
      457,
      457,
      458,
      458,
      458,
      458,
      458,
      458,
      458,
      458,
      458,
      458,
      451,
      451,
      451,
      451,
      451,
      451,
      431,
      431,
      431,
      431,
      431,
      431,
      428,
      428,
      428,
      428,
      428,
      427,
      427,
      427,
      426,
      426,
      426,
      426,
      427,
      427,
      427,
      427,
      427,
      427,
      431,
      431,
      431,
      429,
      429,
      429,
      429,
      429,
      424,
      424,
      423,
      423,
      423,
      423,
      423,
      421,
      421,
      420,
      420,
      420,
      420,
      420,
      420,
      420,
      417,
      417,
      418,
      418,
      418,
      418,
      418,
      419,
      419,
      419,
      419,
      424,
      424,
      424,
      424,
      423,
      423,
      423,
      423,
      423,
      423,
      423,
      423,
      422,
      422,
      421,
      421,
      421,
      417,
      417,
      417,
      417,
      417,
      417,
      415,
      415,
      415,
      415,
      415,
      415,
      415,
      415,
      415,
      415,
      414,
      414,
      414,
      414,
      414,
      414,
      414,
      413,
      413,
      413,
      413,
      414,
      414,
      414,
      414,
      413,
      413,
      413,
      413,
      409,
      409,
      398,
      398,
      398,
      398,
      398,
      399,
      399,
      399,
      399,
      399,
      402,
      402,
      402,
      402,
      402,
      402,
      402,
      402,
      402,
      402,
      402,
      402,
      402,
      402,
      402,
      401,
      401,
      401,
      401,
      401,
      401,
      402,
      402,
      402,
      405,
      405,
      405,
      407,
      407,
      409,
      409,
      409,
      409,
      409,
      409,
      409,
      409,
      408,
      408,
      408,
      408,
      408,
      408,
      408,
      408,
      408,
      408,
      408,
      408,
      408,
      408,
      409,
      409,
      409,
      409,
      409,
      409,
      408,
      408,
      408,
      408,
      408,
      407,
      407,
      407,
      407,
      407,
      408,
      408,
      408,
      408,
      408,
      408,
      408,
      408,
      408,
      408,
      408,
      408,
      408,
      408,
      408,
      408,
      408,
      408,
      408,
      408,
      408,
      408,
      411,
      411,
      411,
      411,
      412,
      412,
      412,
      412,
      414,
      414,
      414,
      414,
      414,
      414,
      414,
      414,
      414,
      413,
      413,
      413,
      413,
      413,
      413,
      414,
      414,
      414,
      414,
      413,
      413,
      413,
      414,
      414,
      414,
      414,
      414,
      415,
      415,
      415,
      415,
      415,
      415,
      415,
      415,
      415,
      415,
      414,
      414,
      412,
      412,
      412,
      412,
      409,
      409,
      409,
      406,
      406,
      406,
      406,
      404,
      403,
      403,
      404,
      404,
      404,
      404,
      404,
      404,
      404,
      404,
      404,
      403,
      403,
      403,
      403,
      402,
      403,
      403,
      398,
      398,
      398,
      398,
      405,
      405,
      405,
      408,
      408,
      408,
      408,
      412,
      412,
      408,
      412,
      412,
      412,
      412,
      411,
      411,
      411,
      415,
      415,
      411,
      411,
      411,
      408,
      409,
      409,
      409,
      409,
      409,
      407,
      407,
      406,
      406,
      406,
      406,
      402,
      399,
      399,
      399,
      398,
      398,
      399,
      399,
      399,
      399,
      399,
      399,
      398,
      398,
      399,
      399,
      399,
      399,
      399,
      399,
      399,
      399,
      399,
      399,
      399,
      399,
      399,
      399,
      399,
      399,
      399,
      399,
      399,
      399,
      405,
      405,
      405,
      405,
      405,
      403,
      403,
      403,
      403,
      403,
      404,
      404,
      404,
      404,
      404,
      404,
      404,
      404,
      404,
      406,
      406,
      406,
      407,
      407,
      407,
      407,
      409,
      409,
      409,
      409,
      411,
      411,
      411,
      418,
      418,
      418,
      418,
      421,
      421,
      421,
      421,
      423,
      423,
      423,
      423,
      423,
      424,
      424,
      424,
      428,
      428,
      428,
      428,
      428,
      428,
      429,
      429,
      429,
      429,
      429,
      428,
      428,
      429,
      429,
      429,
      429,
      429,
      429,
      429,
      429,
      430,
      430,
      430,
      430,
      430,
      430,
      430,
      430,
      430,
      430,
      430,
      432,
      435,
      435,
      440,
      440,
      440,
      440,
      440,
      443,
      439,
      439,
      439,
      443,
      446,
      446,
      446,
      446,
      446,
      448,
      448,
      448,
      449,
      449,
      449,
      449,
      451,
      451,
      451,
      451,
      451,
      449,
      449,
      449,
      449,
      449,
      445,
      445,
      445,
      445,
      443,
      443,
      443,
      443,
      443,
      443,
      443,
      443,
      443,
      446,
      446,
      446,
      446,
      446,
      455,
      455,
      456,
      459,
      459,
      459,
      459,
      462,
      484,
      484,
      484,
      484,
      484,
      485,
      485,
      485,
      485,
      480,
      458,
      458,
      427,
      427,
      423,
      423,
      423,
      382,
      382,
      382,
      346,
      252,
      252,
      240,
      234,
      234,
      227,
      227,
      227,
      163,
      144,
      144,
      144
    ],
    "swim:timestamps": [
      1777499832,
      1777499875,
      1777499875,
      1777499875,
      1777499875,
      1777499875,
      1777499875,
      1777499930,
      1777499930,
      1777499930,
      1777499995,
      1777499995,
      1777499995,
      1777499995,
      1777500072,
      1777500072,
      1777500072,
      1777500072,
      1777500192,
      1777500192,
      1777500192,
      1777500252,
      1777500252,
      1777500252,
      1777500312,
      1777500312,
      1777500312,
      1777500312,
      1777500312,
      1777500372,
      1777500372,
      1777500372,
      1777500372,
      1777500613,
      1777500613,
      1777500673,
      1777500673,
      1777500673,
      1777500673,
      1777500673,
      1777500673,
      1777500733,
      1777500733,
      1777500733,
      1777500733,
      1777500793,
      1777500793,
      1777500793,
      1777500913,
      1777500913,
      1777500913,
      1777501093,
      1777501093,
      1777501093,
      1777501093,
      1777501107,
      1777501107,
      1777501107,
      1777501154,
      1777501154,
      1777501154,
      1777501287,
      1777501287,
      1777501287,
      1777501347,
      1777501347,
      1777501347,
      1777501347,
      1777501407,
      1777501407,
      1777501407,
      1777501407,
      1777501407,
      1777501454,
      1777501454,
      1777501514,
      1777501514,
      1777501514,
      1777501574,
      1777501574,
      1777501588,
      1777501588,
      1777501588,
      1777501588,
      1777501634,
      1777501634,
      1777501634,
      1777501708,
      1777501708,
      1777501708,
      1777501768,
      1777501768,
      1777501815,
      1777501815,
      1777501828,
      1777501828,
      1777501875,
      1777501875,
      1777501888,
      1777501888,
      1777501935,
      1777501935,
      1777501935,
      1777501935,
      1777501948,
      1777501948,
      1777501995,
      1777501995,
      1777502055,
      1777502055,
      1777502115,
      1777502115,
      1777502115,
      1777502115,
      1777502115,
      1777502309,
      1777502309,
      1777502309,
      1777502309,
      1777502309,
      1777502366,
      1777502366,
      1777502366,
      1777502366,
      1777502366,
      1777502486,
      1777502486,
      1777502486,
      1777502486,
      1777502486,
      1777502486,
      1777502847,
      1777502847,
      1777502847,
      1777502847,
      1777502847,
      1777502847,
      1777502967,
      1777502967,
      1777502967,
      1777502967,
      1777502967,
      1777503027,
      1777503027,
      1777503027,
      1777503147,
      1777503147,
      1777503147,
      1777503147,
      1777503208,
      1777503208,
      1777503208,
      1777503208,
      1777503208,
      1777503208,
      1777503448,
      1777503448,
      1777503448,
      1777503508,
      1777503508,
      1777503508,
      1777503508,
      1777503508,
      1777503628,
      1777503628,
      1777503688,
      1777503688,
      1777503688,
      1777503688,
      1777503688,
      1777503809,
      1777503809,
      1777503869,
      1777503869,
      1777503869,
      1777503869,
      1777503869,
      1777503869,
      1777503869,
      1777504051,
      1777504051,
      1777504111,
      1777504111,
      1777504111,
      1777504111,
      1777504111,
      1777504171,
      1777504171,
      1777504171,
      1777504171,
      1777504291,
      1777504291,
      1777504291,
      1777504291,
      1777504351,
      1777504351,
      1777504351,
      1777504351,
      1777504351,
      1777504411,
      1777504411,
      1777504411,
      1777504531,
      1777504531,
      1777504569,
      1777504569,
      1777504569,
      1777504770,
      1777504770,
      1777504770,
      1777504810,
      1777504810,
      1777504810,
      1777504930,
      1777504930,
      1777504951,
      1777504951,
      1777504951,
      1777504951,
      1777504951,
      1777505011,
      1777505011,
      1777505011,
      1777505071,
      1777505071,
      1777505071,
      1777505071,
      1777505131,
      1777505131,
      1777505131,
      1777505170,
      1777505170,
      1777505170,
      1777505170,
      1777505411,
      1777505411,
      1777505411,
      1777505411,
      1777505471,
      1777505471,
      1777505471,
      1777505471,
      1777505591,
      1777505591,
      1777505709,
      1777505709,
      1777505709,
      1777505709,
      1777505709,
      1777505819,
      1777505819,
      1777505819,
      1777505819,
      1777505819,
      1777505939,
      1777505939,
      1777505939,
      1777505939,
      1777505939,
      1777505999,
      1777505999,
      1777505999,
      1777506010,
      1777506010,
      1777506060,
      1777506060,
      1777506060,
      1777506240,
      1777506240,
      1777506250,
      1777506300,
      1777506300,
      1777506300,
      1777506300,
      1777506300,
      1777506310,
      1777506310,
      1777506310,
      1777506420,
      1777506420,
      1777506420,
      1777506480,
      1777506480,
      1777506540,
      1777506540,
      1777506540,
      1777506540,
      1777506551,
      1777506551,
      1777506600,
      1777506600,
      1777506721,
      1777506721,
      1777506721,
      1777506721,
      1777506721,
      1777506721,
      1777506781,
      1777506781,
      1777506781,
      1777506781,
      1777506961,
      1777506961,
      1777506961,
      1777506961,
      1777507021,
      1777507021,
      1777507021,
      1777507081,
      1777507081,
      1777507092,
      1777507141,
      1777507141,
      1777507141,
      1777507141,
      1777507152,
      1777507212,
      1777507261,
      1777507261,
      1777507261,
      1777507272,
      1777507562,
      1777507562,
      1777507562,
      1777507562,
      1777507622,
      1777507622,
      1777507622,
      1777507622,
      1777507682,
      1777507682,
      1777507682,
      1777507802,
      1777507802,
      1777507802,
      1777507802,
      1777507802,
      1777507802,
      1777507922,
      1777507922,
      1777507922,
      1777507922,
      1777507922,
      1777508103,
      1777508103,
      1777508103,
      1777508103,
      1777508223,
      1777508223,
      1777508223,
      1777508223,
      1777508343,
      1777508343,
      1777508343,
      1777508343,
      1777508343,
      1777508343,
      1777508403,
      1777508403,
      1777508403,
      1777508463,
      1777508523,
      1777508523,
      1777508523,
      1777508523,
      1777508523,
      1777508643,
      1777508643,
      1777508643,
      1777508704,
      1777508764,
      1777508764,
      1777508764,
      1777508884,
      1777508884,
      1777508884,
      1777508884,
      1777508884,
      1777508944,
      1777508944,
      1777508944,
      1777508944,
      1777508944,
      1777509124,
      1777509124,
      1777509124,
      1777509124,
      1777509124,
      1777509184,
      1777509184,
      1777509244,
      1777509244,
      1777509244,
      1777509244,
      1777509305,
      1777509305,
      1777509305,
      1777509425,
      1777509425,
      1777509425,
      1777509425,
      1777509485,
      1777509545,
      1777509545,
      1777509605,
      1777509605,
      1777509605,
      1777509605,
      1777509725,
      1777509725,
      1777509725,
      1777509725,
      1777509725,
      1777509845,
      1777509845,
      1777509845,
      1777509845,
      1777509966,
      1777510026,
      1777510026,
      1777510098,
      1777510098,
      1777510098,
      1777510098,
      1777510158,
      1777510158,
      1777510158,
      1777510206,
      1777510206,
      1777510218,
      1777510218,
      1777510326,
      1777510326,
      1777510339,
      1777510402,
      1777510402,
      1777510446,
      1777510446,
      1777510566,
      1777510566,
      1777510566,
      1777510579,
      1777510579,
      1777510687,
      1777510747,
      1777510747,
      1777510759,
      1777510819,
      1777510819,
      1777510819,
      1777510927,
      1777510927,
      1777510987,
      1777510987,
      1777511003,
      1777511003,
      1777511003,
      1777511003,
      1777511047,
      1777511123,
      1777511123,
      1777511123,
      1777511183,
      1777511183,
      1777511240,
      1777511240,
      1777511240,
      1777511300,
      1777511300,
      1777511300,
      1777511364,
      1777511364,
      1777511420,
      1777511420,
      1777511420,
      1777511420,
      1777511420,
      1777511660,
      1777511660,
      1777511660,
      1777511780,
      1777511780,
      1777511780,
      1777511780,
      1777511780,
      1777511841,
      1777511841,
      1777511841,
      1777511961,
      1777511961,
      1777511961,
      1777511961,
      1777512085,
      1777512085,
      1777512085,
      1777512085,
      1777512085,
      1777512325,
      1777512325,
      1777512325,
      1777512325,
      1777512325,
      1777512381,
      1777512381,
      1777512381,
      1777512381,
      1777512501,
      1777512501,
      1777512501,
      1777512561,
      1777512561,
      1777512625,
      1777512625,
      1777512625,
      1777512686,
      1777512686,
      1777512686,
      1777512686,
      1777513282,
      1777513282,
      1777513282,
      1777513282,
      1777513346,
      1777513346,
      1777513346,
      1777513463,
      1777513463,
      1777513463,
      1777513463,
      1777513587,
      1777513587,
      1777513587,
      1777513587,
      1777513703,
      1777513703,
      1777513703,
      1777513703,
      1777513703,
      1777513767,
      1777513767,
      1777513767,
      1777513943,
      1777513943,
      1777513943,
      1777513943,
      1777513943,
      1777513943,
      1777514184,
      1777514184,
      1777514184,
      1777514184,
      1777514184,
      1777514364,
      1777514364,
      1777514484,
      1777514484,
      1777514484,
      1777514544,
      1777514544,
      1777514544,
      1777514544,
      1777514604,
      1777514724,
      1777514724,
      1777514724,
      1777514724,
      1777514724,
      1777514724,
      1777515025,
      1777515085,
      1777515085,
      1777515085,
      1777515085,
      1777515205,
      1777515265,
      1777515265,
      1777515445,
      1777515445,
      1777515445,
      1777515445,
      1777515445,
      1777515626,
      1777515986,
      1777515986,
      1777515986,
      1777516106,
      1777516226,
      1777516226,
      1777516226,
      1777516226,
      1777516226,
      1777516467,
      1777516467,
      1777516467,
      1777516587,
      1777516587,
      1777516587,
      1777516647,
      1777516947,
      1777516947,
      1777516947,
      1777516947,
      1777517007,
      1777517067,
      1777517128,
      1777517128,
      1777517128,
      1777517128,
      1777517428,
      1777517428,
      1777517428,
      1777517428,
      1777517548,
      1777517608,
      1777517608,
      1777517608,
      1777517668,
      1777517668,
      1777517728,
      1777517728,
      1777517728,
      1777517909,
      1777517909,
      1777517909,
      1777517909,
      1777517909,
      1777518449,
      1777518449,
      1777518569,
      1777518629,
      1777518629,
      1777518629,
      1777518629,
      1777518689,
      1777518869,
      1777518869,
      1777518869,
      1777518869,
      1777518869,
      1777519290,
      1777519290,
      1777519290,
      1777519290,
      1777519350,
      1777519410,
      1777519410,
      1777519530,
      1777519530,
      1777519650,
      1777519650,
      1777519650,
      1777519773,
      1777519773,
      1777519830,
      1777519899,
      1777520070,
      1777520070,
      1777520130,
      1777520191,
      1777520191,
      1777520251,
      1777520251,
      1777520251,
      1777520488,
      1777520551,
      1777520551,
      1777520551
    ],
    "wof:geomhash": "786435c71293c5e1307f8be2b234685f",
    "wof:id": 2031139835,
    "wof:repo": "sfomuseum-data-flights-2026-04"
  },
  "bbox": [
    -122.75138888888888,
    37.56666666666667,
    -73.55499999999999,
    44.13972222222222
  ],
  "geometry": {"coordinates":[[-73.80388888888889,40.559444444444445],[-73.73333333333333,40.55],[-73.73333333333333,40.55],[-73.73333333333333,40.55],[-73.73333333333333,40.55],[-73.73333333333333,40.55],[-73.73333333333333,40.55],[-73.65,40.56666666666667],[-73.65,40.56666666666667],[-73.65,40.56666666666667],[-73.58333333333333,40.63333333333333],[-73.58333333333333,40.63333333333333],[-73.58333333333333,40.63333333333333],[-73.58333333333333,40.63333333333333],[-73.55499999999999,40.731388888888894],[-73.55499999999999,40.731388888888894],[-73.55499999999999,40.731388888888894],[-73.55499999999999,40.731388888888894],[-73.60444444444444,40.901111111111106],[-73.60444444444444,40.901111111111106],[-73.60444444444444,40.901111111111106],[-73.69888888888889,40.95916666666667],[-73.69888888888889,40.95916666666667],[-73.69888888888889,40.95916666666667],[-73.82555555555555,40.98361111111111],[-73.82555555555555,40.98361111111111],[-73.82555555555555,40.98361111111111],[-73.82555555555555,40.98361111111111],[-73.82555555555555,40.98361111111111],[-73.96000000000001,41.007777777777775],[-73.96000000000001,41.007777777777775],[-73.96000000000001,41.007777777777775],[-73.96000000000001,41.007777777777775],[-74.52222222222223,41.109722222222224],[-74.52222222222223,41.109722222222224],[-74.6525,41.15861111111111],[-74.6525,41.15861111111111],[-74.6525,41.15861111111111],[-74.6525,41.15861111111111],[-74.6525,41.15861111111111],[-74.6525,41.15861111111111],[-74.78472222222221,41.209722222222226],[-74.78472222222221,41.209722222222226],[-74.78472222222221,41.209722222222226],[-74.78472222222221,41.209722222222226],[-74.91083333333334,41.25833333333333],[-74.91083333333334,41.25833333333333],[-74.91083333333334,41.25833333333333],[-75.165,41.355555555555554],[-75.165,41.355555555555554],[-75.165,41.355555555555554],[-75.57166666666666,41.50138888888889],[-75.57166666666666,41.50138888888889],[-75.57166666666666,41.50138888888889],[-75.57166666666666,41.50138888888889],[-75.5825,41.504444444444445],[-75.5825,41.504444444444445],[-75.5825,41.504444444444445],[-75.70972222222223,41.54083333333333],[-75.70972222222223,41.54083333333333],[-75.70972222222223,41.54083333333333],[-76.01222222222222,41.62694444444445],[-76.01222222222222,41.62694444444445],[-76.01222222222222,41.62694444444445],[-76.15611111111112,41.6675],[-76.15611111111112,41.6675],[-76.15611111111112,41.6675],[-76.15611111111112,41.6675],[-76.30305555555556,41.70861111111111],[-76.30305555555556,41.70861111111111],[-76.30305555555556,41.70861111111111],[-76.30305555555556,41.70861111111111],[-76.30305555555556,41.70861111111111],[-76.42888888888889,41.74388888888889],[-76.42888888888889,41.74388888888889],[-76.56416666666667,41.78138888888889],[-76.56416666666667,41.78138888888889],[-76.56416666666667,41.78138888888889],[-76.71222222222222,41.82277777777778],[-76.71222222222222,41.82277777777778],[-76.74166666666667,41.83083333333334],[-76.74166666666667,41.83083333333334],[-76.74166666666667,41.83083333333334],[-76.74166666666667,41.83083333333334],[-76.85888888888888,41.862500000000004],[-76.85888888888888,41.862500000000004],[-76.85888888888888,41.862500000000004],[-77.0425,41.91222222222222],[-77.0425,41.91222222222222],[-77.0425,41.91222222222222],[-77.19611111111111,41.95388888888889],[-77.19611111111111,41.95388888888889],[-77.32055555555556,41.98722222222222],[-77.32055555555556,41.98722222222222],[-77.35416666666666,41.99611111111111],[-77.35416666666666,41.99611111111111],[-77.47805555555556,42.029444444444444],[-77.47805555555556,42.029444444444444],[-77.51083333333334,42.038333333333334],[-77.51083333333334,42.038333333333334],[-77.63694444444445,42.073055555555555],[-77.63694444444445,42.073055555555555],[-77.63694444444445,42.073055555555555],[-77.63694444444445,42.073055555555555],[-77.67083333333333,42.08222222222223],[-77.67083333333333,42.08222222222223],[-77.79638888888888,42.11611111111111],[-77.79638888888888,42.11611111111111],[-77.95833333333334,42.159166666666664],[-77.95833333333334,42.159166666666664],[-78.12416666666665,42.20333333333333],[-78.12416666666665,42.20333333333333],[-78.12416666666665,42.20333333333333],[-78.12416666666665,42.20333333333333],[-78.12416666666665,42.20333333333333],[-78.64722222222223,42.33527777777778],[-78.64722222222223,42.33527777777778],[-78.64722222222223,42.33527777777778],[-78.64722222222223,42.33527777777778],[-78.64722222222223,42.33527777777778],[-78.81055555555555,42.375277777777775],[-78.81055555555555,42.375277777777775],[-78.81055555555555,42.375277777777775],[-78.81055555555555,42.375277777777775],[-78.81055555555555,42.375277777777775],[-79.15,42.458333333333336],[-79.15,42.458333333333336],[-79.15,42.458333333333336],[-79.15,42.458333333333336],[-79.15,42.458333333333336],[-79.15,42.458333333333336],[-80.0936111111111,42.625],[-80.0936111111111,42.625],[-80.0936111111111,42.625],[-80.0936111111111,42.625],[-80.0936111111111,42.625],[-80.0936111111111,42.625],[-80.41277777777778,42.638333333333335],[-80.41277777777778,42.638333333333335],[-80.41277777777778,42.638333333333335],[-80.41277777777778,42.638333333333335],[-80.41277777777778,42.638333333333335],[-80.57194444444444,42.644444444444446],[-80.57194444444444,42.644444444444446],[-80.57194444444444,42.644444444444446],[-80.8938888888889,42.655277777777776],[-80.8938888888889,42.655277777777776],[-80.8938888888889,42.655277777777776],[-80.8938888888889,42.655277777777776],[-81.05361111111111,42.66027777777778],[-81.05361111111111,42.66027777777778],[-81.05361111111111,42.66027777777778],[-81.05361111111111,42.66027777777778],[-81.05361111111111,42.66027777777778],[-81.05361111111111,42.66027777777778],[-81.7,42.71638888888889],[-81.7,42.71638888888889],[-81.7,42.71638888888889],[-81.86916666666666,42.73555555555556],[-81.86916666666666,42.73555555555556],[-81.86916666666666,42.73555555555556],[-81.86916666666666,42.73555555555556],[-81.86916666666666,42.73555555555556],[-82.18222222222222,42.76972222222222],[-82.18222222222222,42.76972222222222],[-82.33944444444444,42.78666666666666],[-82.33944444444444,42.78666666666666],[-82.33944444444444,42.78666666666666],[-82.33944444444444,42.78666666666666],[-82.33944444444444,42.78666666666666],[-82.65333333333334,42.82333333333334],[-82.65333333333334,42.82333333333334],[-82.80833333333334,42.844166666666666],[-82.80833333333334,42.844166666666666],[-82.80833333333334,42.844166666666666],[-82.80833333333334,42.844166666666666],[-82.80833333333334,42.844166666666666],[-82.80833333333334,42.844166666666666],[-82.80833333333334,42.844166666666666],[-83.25222222222222,42.90416666666667],[-83.25222222222222,42.90416666666667],[-83.40166666666667,42.94277777777778],[-83.40166666666667,42.94277777777778],[-83.40166666666667,42.94277777777778],[-83.40166666666667,42.94277777777778],[-83.40166666666667,42.94277777777778],[-83.54583333333333,42.99277777777778],[-83.54583333333333,42.99277777777778],[-83.54583333333333,42.99277777777778],[-83.54583333333333,42.99277777777778],[-83.86611111111111,43.1],[-83.86611111111111,43.1],[-83.86611111111111,43.1],[-83.86611111111111,43.1],[-84.01055555555556,43.147777777777776],[-84.01055555555556,43.147777777777776],[-84.01055555555556,43.147777777777776],[-84.01055555555556,43.147777777777776],[-84.01055555555556,43.147777777777776],[-84.15833333333335,43.196666666666665],[-84.15833333333335,43.196666666666665],[-84.15833333333335,43.196666666666665],[-84.44777777777779,43.291666666666664],[-84.44777777777779,43.291666666666664],[-84.53722222222223,43.32027777777778],[-84.53722222222223,43.32027777777778],[-84.53722222222223,43.32027777777778],[-85.02722222222222,43.47916666666667],[-85.02722222222222,43.47916666666667],[-85.02722222222222,43.47916666666667],[-85.11416666666666,43.50861111111111],[-85.11416666666666,43.50861111111111],[-85.11416666666666,43.50861111111111],[-85.40333333333334,43.60388888888889],[-85.40333333333334,43.60388888888889],[-85.45555555555556,43.62111111111111],[-85.45555555555556,43.62111111111111],[-85.45555555555556,43.62111111111111],[-85.45555555555556,43.62111111111111],[-85.45555555555556,43.62111111111111],[-85.60055555555554,43.66861111111111],[-85.60055555555554,43.66861111111111],[-85.60055555555554,43.66861111111111],[-85.74472222222222,43.71555555555556],[-85.74472222222222,43.71555555555556],[-85.74472222222222,43.71555555555556],[-85.74472222222222,43.71555555555556],[-85.88861111111112,43.76222222222222],[-85.88861111111112,43.76222222222222],[-85.88861111111112,43.76222222222222],[-85.97722222222222,43.79083333333333],[-85.97722222222222,43.79083333333333],[-85.97722222222222,43.79083333333333],[-85.97722222222222,43.79083333333333],[-86.55666666666666,43.975],[-86.55666666666666,43.975],[-86.55666666666666,43.975],[-86.55666666666666,43.975],[-86.70138888888889,44.02055555555555],[-86.70138888888889,44.02055555555555],[-86.70138888888889,44.02055555555555],[-86.70138888888889,44.02055555555555],[-86.99027777777778,44.11027777777778],[-86.99027777777778,44.11027777777778],[-87.28805555555556,44.13972222222222],[-87.28805555555556,44.13972222222222],[-87.28805555555556,44.13972222222222],[-87.28805555555556,44.13972222222222],[-87.28805555555556,44.13972222222222],[-87.58388888888888,44.12833333333333],[-87.58388888888888,44.12833333333333],[-87.58388888888888,44.12833333333333],[-87.58388888888888,44.12833333333333],[-87.58388888888888,44.12833333333333],[-87.89166666666668,44.11555555555556],[-87.89166666666668,44.11555555555556],[-87.89166666666668,44.11555555555556],[-87.89166666666668,44.11555555555556],[-87.89166666666668,44.11555555555556],[-88.0461111111111,44.10888888888889],[-88.0461111111111,44.10888888888889],[-88.0461111111111,44.10888888888889],[-88.07444444444444,44.10777777777778],[-88.07444444444444,44.10777777777778],[-88.20277777777778,44.10166666666667],[-88.20277777777778,44.10166666666667],[-88.20277777777778,44.10166666666667],[-88.66250000000001,44.080555555555556],[-88.66250000000001,44.080555555555556],[-88.69027777777778,44.07916666666667],[-88.81555555555555,44.07277777777778],[-88.81555555555555,44.07277777777778],[-88.81555555555555,44.07277777777778],[-88.81555555555555,44.07277777777778],[-88.81555555555555,44.07277777777778],[-88.84388888888888,44.07138888888889],[-88.84388888888888,44.07138888888889],[-88.84388888888888,44.07138888888889],[-89.12694444444443,44.05694444444444],[-89.12694444444443,44.05694444444444],[-89.12694444444443,44.05694444444444],[-89.28416666666666,44.04861111111111],[-89.28416666666666,44.04861111111111],[-89.44222222222223,44.03972222222222],[-89.44222222222223,44.03972222222222],[-89.44222222222223,44.03972222222222],[-89.44222222222223,44.03972222222222],[-89.46916666666667,44.038333333333334],[-89.46916666666667,44.038333333333334],[-89.59722222222221,44.03111111111111],[-89.59722222222221,44.03111111111111],[-89.9113888888889,44.01305555555555],[-89.9113888888889,44.01305555555555],[-89.9113888888889,44.01305555555555],[-89.9113888888889,44.01305555555555],[-89.9113888888889,44.01305555555555],[-89.9113888888889,44.01305555555555],[-90.06666666666666,44.00333333333333],[-90.06666666666666,44.00333333333333],[-90.06666666666666,44.00333333333333],[-90.06666666666666,44.00333333333333],[-90.53527777777778,43.97416666666667],[-90.53527777777778,43.97416666666667],[-90.53527777777778,43.97416666666667],[-90.53527777777778,43.97416666666667],[-90.69111111111111,43.96361111111111],[-90.69111111111111,43.96361111111111],[-90.69111111111111,43.96361111111111],[-90.84694444444445,43.95305555555556],[-90.84694444444445,43.95305555555556],[-90.87805555555555,43.95111111111111],[-91.005,43.94222222222222],[-91.005,43.94222222222222],[-91.005,43.94222222222222],[-91.005,43.94222222222222],[-91.03333333333333,43.94027777777777],[-91.19,43.92944444444444],[-91.31388888888888,43.92055555555555],[-91.31388888888888,43.92055555555555],[-91.31388888888888,43.92055555555555],[-91.34527777777777,43.91833333333333],[-92.095,43.86138888888889],[-92.095,43.86138888888889],[-92.095,43.86138888888889],[-92.095,43.86138888888889],[-92.24916666666667,43.84916666666667],[-92.24916666666667,43.84916666666667],[-92.24916666666667,43.84916666666667],[-92.24916666666667,43.84916666666667],[-92.40666666666667,43.836111111111116],[-92.40666666666667,43.836111111111116],[-92.40666666666667,43.836111111111116],[-92.71888888888888,43.81027777777778],[-92.71888888888888,43.81027777777778],[-92.71888888888888,43.81027777777778],[-92.71888888888888,43.81027777777778],[-92.71888888888888,43.81027777777778],[-92.71888888888888,43.81027777777778],[-93.02027777777778,43.78444444444444],[-93.02027777777778,43.78444444444444],[-93.02027777777778,43.78444444444444],[-93.02027777777778,43.78444444444444],[-93.02027777777778,43.78444444444444],[-93.50222222222222,43.74111111111111],[-93.50222222222222,43.74111111111111],[-93.50222222222222,43.74111111111111],[-93.50222222222222,43.74111111111111],[-93.81805555555555,43.711666666666666],[-93.81805555555555,43.711666666666666],[-93.81805555555555,43.711666666666666],[-93.81805555555555,43.711666666666666],[-94.13305555555554,43.68138888888889],[-94.13305555555554,43.68138888888889],[-94.13305555555554,43.68138888888889],[-94.13305555555554,43.68138888888889],[-94.13305555555554,43.68138888888889],[-94.13305555555554,43.68138888888889],[-94.30805555555555,43.66416666666667],[-94.30805555555555,43.66416666666667],[-94.30805555555555,43.66416666666667],[-94.46305555555556,43.64888888888889],[-94.61916666666666,43.63305555555556],[-94.61916666666666,43.63305555555556],[-94.61916666666666,43.63305555555556],[-94.61916666666666,43.63305555555556],[-94.61916666666666,43.63305555555556],[-94.93416666666667,43.60027777777778],[-94.93416666666667,43.60027777777778],[-94.93416666666667,43.60027777777778],[-95.09166666666667,43.58388888888889],[-95.24722222222222,43.56722222222223],[-95.24722222222222,43.56722222222223],[-95.24722222222222,43.56722222222223],[-95.56138888888889,43.532777777777774],[-95.56138888888889,43.532777777777774],[-95.56138888888889,43.532777777777774],[-95.56138888888889,43.532777777777774],[-95.56138888888889,43.532777777777774],[-95.72027777777778,43.515277777777776],[-95.72027777777778,43.515277777777776],[-95.72027777777778,43.515277777777776],[-95.72027777777778,43.515277777777776],[-95.72027777777778,43.515277777777776],[-96.15972222222223,43.465],[-96.15972222222223,43.465],[-96.15972222222223,43.465],[-96.15972222222223,43.465],[-96.15972222222223,43.465],[-96.31694444444445,43.446666666666665],[-96.31694444444445,43.446666666666665],[-96.47166666666666,43.42861111111111],[-96.47166666666666,43.42861111111111],[-96.47166666666666,43.42861111111111],[-96.47166666666666,43.42861111111111],[-96.62444444444444,43.41027777777778],[-96.62444444444444,43.41027777777778],[-96.62444444444444,43.41027777777778],[-96.93027777777779,43.373333333333335],[-96.93027777777779,43.373333333333335],[-96.93027777777779,43.373333333333335],[-96.93027777777779,43.373333333333335],[-97.08222222222221,43.35444444444445],[-97.2325,43.33555555555556],[-97.2325,43.33555555555556],[-97.38388888888889,43.31638888888889],[-97.38388888888889,43.31638888888889],[-97.38388888888889,43.31638888888889],[-97.38388888888889,43.31638888888889],[-97.68777777777778,43.27722222222222],[-97.68777777777778,43.27722222222222],[-97.68777777777778,43.27722222222222],[-97.68777777777778,43.27722222222222],[-97.68777777777778,43.27722222222222],[-97.98972222222223,43.237500000000004],[-97.98972222222223,43.237500000000004],[-97.98972222222223,43.237500000000004],[-97.98972222222223,43.237500000000004],[-98.29138888888889,43.19694444444444],[-98.44111111111111,43.17666666666666],[-98.44111111111111,43.17666666666666],[-98.63138888888888,43.15083333333333],[-98.63138888888888,43.15083333333333],[-98.63138888888888,43.15083333333333],[-98.63138888888888,43.15083333333333],[-98.78333333333333,43.12861111111111],[-98.78333333333333,43.12861111111111],[-98.78333333333333,43.12861111111111],[-98.89888888888889,43.11277777777778],[-98.89888888888889,43.11277777777778],[-98.93805555555556,43.10583333333334],[-98.93805555555556,43.10583333333334],[-99.22472222222223,43.066111111111105],[-99.22472222222223,43.066111111111105],[-99.24333333333334,43.06305555555555],[-99.40277777777779,43.04055555555556],[-99.40277777777779,43.04055555555556],[-99.53222222222222,43.021388888888886],[-99.53222222222222,43.021388888888886],[-99.83083333333333,42.97694444444445],[-99.83083333333333,42.97694444444445],[-99.83083333333333,42.97694444444445],[-99.86277777777777,42.97166666666667],[-99.86277777777777,42.97166666666667],[-100.1363888888889,42.93055555555555],[-100.28861111111111,42.907222222222224],[-100.28861111111111,42.907222222222224],[-100.33138888888888,42.89972222222222],[-100.4825,42.87583333333333],[-100.4825,42.87583333333333],[-100.4825,42.87583333333333],[-100.74222222222222,42.836111111111116],[-100.74222222222222,42.836111111111116],[-100.88972222222223,42.8125],[-100.88972222222223,42.8125],[-100.92,42.80777777777777],[-100.92,42.80777777777777],[-100.92,42.80777777777777],[-100.92,42.80777777777777],[-101.03694444444444,42.788888888888884],[-101.20916666666668,42.76083333333333],[-101.20916666666668,42.76083333333333],[-101.20916666666668,42.76083333333333],[-101.38527777777779,42.731944444444444],[-101.38527777777779,42.731944444444444],[-101.51583333333333,42.70805555555556],[-101.51583333333333,42.70805555555556],[-101.51583333333333,42.70805555555556],[-101.66194444444444,42.683611111111105],[-101.66194444444444,42.683611111111105],[-101.66194444444444,42.683611111111105],[-101.82138888888889,42.65888888888889],[-101.82138888888889,42.65888888888889],[-101.95444444444445,42.63388888888889],[-101.95444444444445,42.63388888888889],[-101.95444444444445,42.63388888888889],[-101.95444444444445,42.63388888888889],[-101.95444444444445,42.63388888888889],[-102.53694444444444,42.53194444444444],[-102.53694444444444,42.53194444444444],[-102.53694444444444,42.53194444444444],[-102.82833333333333,42.48083333333334],[-102.82833333333333,42.48083333333334],[-102.82833333333333,42.48083333333334],[-102.82833333333333,42.48083333333334],[-102.82833333333333,42.48083333333334],[-102.97500000000001,42.456944444444446],[-102.97500000000001,42.456944444444446],[-102.97500000000001,42.456944444444446],[-103.26777777777778,42.40333333333333],[-103.26777777777778,42.40333333333333],[-103.26777777777778,42.40333333333333],[-103.26777777777778,42.40333333333333],[-103.565,42.34916666666667],[-103.565,42.34916666666667],[-103.565,42.34916666666667],[-103.565,42.34916666666667],[-103.565,42.34916666666667],[-104.1525,42.238055555555555],[-104.1525,42.238055555555555],[-104.1525,42.238055555555555],[-104.1525,42.238055555555555],[-104.1525,42.238055555555555],[-104.3,42.20944444444445],[-104.3,42.20944444444445],[-104.3,42.20944444444445],[-104.3,42.20944444444445],[-104.59416666666667,42.151944444444446],[-104.59416666666667,42.151944444444446],[-104.59416666666667,42.151944444444446],[-104.71222222222222,42.12861111111111],[-104.71222222222222,42.12861111111111],[-104.88833333333334,42.094166666666666],[-104.88833333333334,42.094166666666666],[-104.88833333333334,42.094166666666666],[-105.03666666666666,42.06444444444444],[-105.03666666666666,42.06444444444444],[-105.03666666666666,42.06444444444444],[-105.03666666666666,42.06444444444444],[-106.4786111111111,41.76444444444444],[-106.4786111111111,41.76444444444444],[-106.4786111111111,41.76444444444444],[-106.4786111111111,41.76444444444444],[-106.6463888888889,41.72805555555556],[-106.6463888888889,41.72805555555556],[-106.6463888888889,41.72805555555556],[-106.94472222222223,41.66277777777778],[-106.94472222222223,41.66277777777778],[-106.94472222222223,41.66277777777778],[-106.94472222222223,41.66277777777778],[-107.24666666666667,41.596111111111114],[-107.24666666666667,41.596111111111114],[-107.24666666666667,41.596111111111114],[-107.24666666666667,41.596111111111114],[-107.55333333333333,41.553888888888885],[-107.55333333333333,41.553888888888885],[-107.55333333333333,41.553888888888885],[-107.55333333333333,41.553888888888885],[-107.55333333333333,41.553888888888885],[-107.71111111111111,41.53805555555555],[-107.71111111111111,41.53805555555555],[-107.71111111111111,41.53805555555555],[-108.18027777777779,41.48888888888889],[-108.18027777777779,41.48888888888889],[-108.18027777777779,41.48888888888889],[-108.18027777777779,41.48888888888889],[-108.18027777777779,41.48888888888889],[-108.18027777777779,41.48888888888889],[-108.81055555555555,41.42027777777778],[-108.81055555555555,41.42027777777778],[-108.81055555555555,41.42027777777778],[-108.81055555555555,41.42027777777778],[-108.81055555555555,41.42027777777778],[-109.25833333333334,41.36888888888889],[-109.25833333333334,41.36888888888889],[-109.57444444444444,41.331944444444446],[-109.57444444444444,41.331944444444446],[-109.57444444444444,41.331944444444446],[-109.72944444444444,41.31333333333333],[-109.72944444444444,41.31333333333333],[-109.72944444444444,41.31333333333333],[-109.72944444444444,41.31333333333333],[-109.88555555555556,41.29416666666666],[-110.19972222222222,41.255833333333335],[-110.19972222222222,41.255833333333335],[-110.19972222222222,41.255833333333335],[-110.19972222222222,41.255833333333335],[-110.19972222222222,41.255833333333335],[-110.19972222222222,41.255833333333335],[-111.00361111111111,41.152499999999996],[-111.15861111111111,41.13166666666667],[-111.15861111111111,41.13166666666667],[-111.15861111111111,41.13166666666667],[-111.15861111111111,41.13166666666667],[-111.47166666666666,41.089444444444446],[-111.63055555555555,41.06777777777778],[-111.63055555555555,41.06777777777778],[-112.09055555555555,41.00333333333333],[-112.09055555555555,41.00333333333333],[-112.09055555555555,41.00333333333333],[-112.09055555555555,41.00333333333333],[-112.09055555555555,41.00333333333333],[-112.57222222222222,40.93388888888889],[-113.51833333333333,40.79111111111111],[-113.51833333333333,40.79111111111111],[-113.51833333333333,40.79111111111111],[-113.83749999999999,40.74055555555556],[-114.1563888888889,40.69],[-114.1563888888889,40.69],[-114.1563888888889,40.69],[-114.1563888888889,40.69],[-114.1563888888889,40.69],[-114.79805555555555,40.58416666666667],[-114.79805555555555,40.58416666666667],[-114.79805555555555,40.58416666666667],[-115.11777777777777,40.53],[-115.11777777777777,40.53],[-115.11777777777777,40.53],[-115.27666666666667,40.50277777777778],[-116.07416666666666,40.362500000000004],[-116.07416666666666,40.362500000000004],[-116.07416666666666,40.362500000000004],[-116.07416666666666,40.362500000000004],[-116.25194444444445,40.33027777777778],[-116.41111111111111,40.30138888888889],[-116.56694444444445,40.272777777777776],[-116.56694444444445,40.272777777777776],[-116.56694444444445,40.272777777777776],[-116.56694444444445,40.272777777777776],[-117.35555555555555,40.12416666666667],[-117.35555555555555,40.12416666666667],[-117.35555555555555,40.12416666666667],[-117.35555555555555,40.12416666666667],[-117.66388888888889,40.06444444444444],[-117.82083333333333,40.03388888888889],[-117.82083333333333,40.03388888888889],[-117.82083333333333,40.03388888888889],[-117.97583333333334,40.00333333333333],[-117.97583333333334,40.00333333333333],[-118.12944444444443,39.972500000000004],[-118.12944444444443,39.972500000000004],[-118.12944444444443,39.972500000000004],[-118.59194444444444,39.87916666666667],[-118.59194444444444,39.87916666666667],[-118.59194444444444,39.87916666666667],[-118.59194444444444,39.87916666666667],[-118.59194444444444,39.87916666666667],[-120.005,39.580555555555556],[-120.005,39.580555555555556],[-120.32694444444444,39.50972222222222],[-120.48805555555556,39.473888888888894],[-120.48805555555556,39.473888888888894],[-120.48805555555556,39.473888888888894],[-120.48805555555556,39.473888888888894],[-120.64750000000001,39.43833333333333],[-121.10416666666666,39.281666666666666],[-121.10416666666666,39.281666666666666],[-121.10416666666666,39.281666666666666],[-121.10416666666666,39.281666666666666],[-121.10416666666666,39.281666666666666],[-122.04333333333334,38.69166666666666],[-122.04333333333334,38.69166666666666],[-122.04333333333334,38.69166666666666],[-122.04333333333334,38.69166666666666],[-122.17444444444445,38.60777777777778],[-122.30638888888889,38.522777777777776],[-122.30638888888889,38.522777777777776],[-122.54305555555555,38.37027777777778],[-122.54305555555555,38.37027777777778],[-122.75138888888888,38.21027777777778],[-122.75138888888888,38.21027777777778],[-122.75138888888888,38.21027777777778],[-122.7,37.96666666666667],[-122.7,37.96666666666667],[-122.65416666666667,37.88166666666667],[-122.55,37.78333333333333],[-122.34166666666667,37.66777777777777],[-122.34166666666667,37.66777777777777],[-122.26277777777777,37.64333333333333],[-122.1875,37.62138888888889],[-122.1875,37.62138888888889],[-122.11222222222221,37.60055555555556],[-122.11222222222221,37.60055555555556],[-122.11222222222221,37.60055555555556],[-122.25,37.56666666666667],[-122.29916666666666,37.58916666666667],[-122.29916666666666,37.58916666666667],[-122.29916666666666,37.58916666666667]],"type":"LineString"}
}
