{
  "id": 2015263541,
  "type": "Feature",
  "properties": {
    "geom:area": 0,
    "geom:bbox": "-123.338780,37.634740,-122.411400,38.517580",
    "geom:latitude": 38.03643750335357,
    "geom:longitude": -122.9071318261205,
    "src:alt_label": "swim-takeoff",
    "src:geom": "swim",
    "swim:elevations": [
      489,
      779,
      992,
      1210,
      1458,
      1726,
      1960,
      2236,
      2398,
      2945,
      3220,
      3460,
      3920,
      4214,
      4553,
      4604,
      4621,
      5109,
      5406,
      5812,
      6091,
      6457,
      6625,
      6896,
      7209,
      7351,
      7894
    ],
    "swim:geom": "takeoff",
    "swim:timestamps": [
      1775959283,
      1775959304,
      1775959325,
      1775959346,
      1775959376,
      1775959405,
      1775959438,
      1775959468,
      1775959480,
      1775959522,
      1775959543,
      1775959585,
      1775959615,
      1775959636,
      1775959669,
      1775959678,
      1775959682,
      1775959727,
      1775959754,
      1775959790,
      1775959820,
      1775959856,
      1775959879,
      1775959909,
      1775959939,
      1775959954,
      1775960004
    ],
    "wof:geomhash": "ffbffe5e2ba3177b9ece2c2610d14345",
    "wof:id": 2015263541,
    "wof:repo": "sfomuseum-data-flights-2026-04"
  },
  "bbox": [
    -123.33878,
    37.63474,
    -122.4114,
    38.51758
  ],
  "geometry": {"coordinates":[[-122.4114,37.63474],[-122.43126,37.6432],[-122.45164,37.65201],[-122.47235,37.66113],[-122.50471,37.6757],[-122.53709,37.69452],[-122.57707,37.71803],[-122.61793,37.74218],[-122.63475,37.75218],[-122.69508,37.78769],[-122.72601,37.80582],[-122.78234,37.85434],[-122.81699,37.89623],[-122.84114,37.92566],[-122.8798,37.97229],[-122.89081,37.98544],[-122.89565,37.99121],[-122.95215,38.05883],[-122.98683,38.10033],[-123.03406,38.15684],[-123.0746,38.20513],[-123.12403,38.26424],[-123.15547,38.30154],[-123.19866,38.35278],[-123.24183,38.40452],[-123.26372,38.43034],[-123.33878,38.51758]],"type":"LineString"}
}
