{
  "id": 2015351715,
  "type": "Feature",
  "properties": {
    "geom:area": 0,
    "geom:bbox": "-122.534980,36.718420,-121.553240,37.665860",
    "geom:latitude": 37.21489917995594,
    "geom:longitude": -122.1159059721852,
    "src:alt_label": "swim-takeoff",
    "src:geom": "swim",
    "swim:elevations": [
      269,
      709,
      958,
      991,
      1124,
      1549,
      1886,
      2200,
      3158,
      3331,
      3562,
      4073,
      4626,
      5168,
      5453,
      5691,
      5934,
      6378,
      7409,
      7437,
      7946,
      8077,
      8217,
      8352,
      8504,
      8585,
      8900,
      9085,
      9436,
      9445,
      9449,
      9449,
      9449
    ],
    "swim:geom": "takeoff",
    "swim:timestamps": [
      1776784001,
      1776784029,
      1776784048,
      1776784051,
      1776784065,
      1776784108,
      1776784132,
      1776784148,
      1776784193,
      1776784210,
      1776784238,
      1776784274,
      1776784308,
      1776784348,
      1776784368,
      1776784388,
      1776784407,
      1776784422,
      1776784467,
      1776784476,
      1776784527,
      1776784556,
      1776784576,
      1776784600,
      1776784637,
      1776784652,
      1776784687,
      1776784715,
      1776784762,
      1776784768,
      1776784780,
      1776784800,
      1776784831
    ],
    "wof:geomhash": "959ab10f0d43607fdcab130d893eb518",
    "wof:id": 2015351715,
    "wof:repo": "sfomuseum-data-flights-2026-04"
  },
  "bbox": [
    -122.53498,
    36.71842,
    -121.55324,
    37.66586
  ],
  "geometry": {"coordinates":[[-122.38724,37.62414],[-122.40949,37.63355],[-122.42442,37.63988],[-122.42682,37.64098],[-122.43866,37.64624],[-122.48564,37.66586],[-122.51817,37.66499],[-122.53498,37.652],[-122.52643,37.59879],[-122.51633,37.5786],[-122.49767,37.53928],[-122.46864,37.4871],[-122.42062,37.4457],[-122.36218,37.39728],[-122.33059,37.37108],[-122.30104,37.34662],[-122.27093,37.32157],[-122.24902,37.30343],[-122.18594,37.25091],[-122.17305,37.24004],[-122.09582,37.17547],[-122.04867,37.13613],[-122.01626,37.10904],[-121.97535,37.07476],[-121.91076,37.0201],[-121.88369,36.99724],[-121.81891,36.94313],[-121.76611,36.8985],[-121.6769,36.82325],[-121.66568,36.81383],[-121.64337,36.79489],[-121.60783,36.76488],[-121.55324,36.71842]],"type":"LineString"}
}
