{
  "id": 2031100783,
  "type": "Feature",
  "properties": {
    "geom:area": 0,
    "geom:bbox": "-122.380000,33.040000,-84.280000,38.330000",
    "geom:latitude": 35.64883561412377,
    "geom:longitude": -103.19126972538425,
    "src:alt_label": "swim-route",
    "src:geom": "swim",
    "swim:geom": "route",
    "wof:geomhash": "8d0a7c70a3f8c40aa3d019d6c2bcfc92",
    "wof:id": 2031100783,
    "wof:repo": "sfomuseum-data-flights-2026-04"
  },
  "bbox": [
    -122.38,
    33.04,
    -84.28,
    38.33
  ],
  "geometry": {"coordinates":[[-84.43,33.64],[-84.28,33.68],[-84.28,33.81],[-84.53,33.81],[-84.61,33.8],[-84.62,33.8],[-85.22,33.7],[-85.23,33.7],[-85.4,33.7],[-86.04,33.69],[-86.06,33.69],[-86.68,33.68],[-86.9,33.67],[-87.6,33.64],[-87.88,33.62],[-90.03,33.48],[-90.28,33.46],[-90.78,33.48],[-90.99,33.48],[-92.04,33.5],[-92.36,33.51],[-93.05,33.51],[-93.59,33.51],[-93.99,33.51],[-94.36,33.44],[-94.42,33.43],[-94.7,33.37],[-96.25,33.04],[-96.34,33.06],[-96.42,33.08],[-96.58,33.08],[-96.76,33.23],[-97.31,33.41],[-97.75,33.65],[-98.23,33.86],[-99.21,34.26],[-99.4,34.34],[-100.36,34.7],[-100.44,34.75],[-100.61,34.8],[-100.72,34.87],[-100.87,34.96],[-101.11,35.11],[-101.69,35.29],[-101.78,35.33],[-102.28,35.46],[-102.98,35.67],[-104.05,35.96],[-104.4,36.07],[-105.12,36.25],[-105.38,36.32],[-106.26,36.55],[-106.44,36.59],[-106.69,36.65],[-109.15,37.23],[-109.67,37.35],[-111.25,37.68],[-112,37.83],[-112.62,37.94],[-114.06,38.18],[-114.96,38.33],[-116.33,38.33],[-117.27,38.12],[-117.27,38.12],[-117.77,38],[-118.76,37.9],[-119.1,37.86],[-119.27,37.84],[-119.38,37.82],[-119.94,37.76],[-120.04,37.75],[-120.22,37.72],[-120.4,37.7],[-120.41,37.7],[-120.48,37.69],[-120.69,37.67],[-120.75,37.66],[-120.77,37.66],[-120.83,37.65],[-120.96,37.63],[-121,37.63],[-121.08,37.62],[-121.17,37.6],[-121.26,37.59],[-121.39,37.58],[-121.41,37.58],[-121.6,37.55],[-121.61,37.55],[-121.62,37.55],[-121.7,37.53],[-121.8,37.51],[-121.83,37.5],[-121.88,37.49],[-122.08,37.54],[-122.14,37.56],[-122.18,37.57],[-122.28,37.59],[-122.33,37.61],[-122.36,37.61],[-122.38,37.62]],"type":"LineString"}
}
