{
  "id": 2031144297,
  "type": "Feature",
  "properties": {
    "geom:area": 0,
    "geom:bbox": "-180.000000,22.320000,169.340000,54.100000",
    "geom:latitude": 51.0681588002563,
    "geom:longitude": -4.121180785637478,
    "src:alt_label": "swim-route",
    "src:geom": "swim",
    "swim:geom": "route",
    "wof:geomhash": "bde54530607f6222272792316a92da87",
    "wof:id": 2031144297,
    "wof:repo": "sfomuseum-data-flights-2026-04"
  },
  "bbox": [
    -180,
    22.32,
    169.34,
    54.1
  ],
  "geometry": {"coordinates":[[[-122.38,37.62],[-122.5,37.67],[-122.5,37.67],[-122.5,37.68],[-122.59,37.73],[-122.59,37.73],[-122.63,37.75],[-122.69,37.79],[-122.7,37.79],[-122.74,37.81],[-122.76,37.82],[-122.79,37.87],[-122.91,38.01],[-122.92,38.02],[-123.03,38.16],[-123.22,38.26],[-123.22,38.27],[-123.44,38.39],[-123.53,38.44],[-123.61,38.49],[-123.7,38.53],[-123.86,38.63],[-123.93,38.67],[-124.07,38.74],[-124.53,39],[-124.77,39.13],[-127,40.3],[-127,40.3],[-130,42],[-139.43,46.77],[-140,47],[-147.35,50.08],[-150,51],[-152.7,51.65],[-159.65,52.93],[-160,53],[-161.31,53.18],[-161.35,53.19],[-161.62,53.22],[-164.42,53.55],[-165.32,53.63],[-167.54,53.83],[-170,54],[-170.08,54],[-172.15,54.07],[-175.8,54.1],[-180,54]],[[169.34,53.63],[168.35,53.3],[163.7,51.61],[159.36,49.72],[159.35,49.71],[159.35,49.71],[158.39,49.23],[153,46.2],[147.48,42.39],[146.86,41.92],[145,40.42],[143.55,39.19],[143.23,38.91],[142.47,38.32],[141.26,37.38],[140.98,37.15],[139,36.22],[137.79,35.63],[137.46,35.47],[136.28,34.86],[135.8,34.61],[134.92,34.15],[134.2,33.75],[133.22,33.21],[131.42,32.16],[129.96,31.29],[129.41,30.92],[129.2,30.77],[128.08,30.02],[128.07,30.01],[124.72,27.62],[124,27.1],[122.08,25.62],[121.52,25.18],[120.84,24.71],[119.49,23.77],[118.82,23.29],[117.5,22.33],[116.45,22.34],[116.39,22.34],[116.3,22.34],[116.25,22.33],[116.02,22.33],[115.69,22.33],[115.41,22.33],[115.06,22.33],[114.88,22.33],[114.65,22.32],[114.6,22.32],[114.47,22.32],[114.38,22.32],[114.29,22.32],[114.2,22.32]]],"type":"MultiLineString"}
}
