{
  "id": 2031141561,
  "type": "Feature",
  "properties": {
    "geom:area": 0,
    "geom:bbox": "-122.329722,27.570833,-82.550000,37.599444",
    "geom:latitude": 31.53207465954399,
    "geom:longitude": -102.90667616939962,
    "src:alt_label": "swim-path",
    "src:geom": "swim",
    "swim:altitudes": [
      "005",
      "024",
      "024",
      "024",
      "024",
      "150",
      "153",
      "153",
      "185",
      "185",
      "212",
      "212",
      "212",
      "222",
      "222",
      "222",
      "249",
      "272",
      "272",
      "272",
      "280C",
      "280C",
      "280C",
      "280C",
      "280C",
      "280C",
      "280C",
      "280C",
      "280C",
      "280C",
      "280C",
      "280C",
      "280C",
      "280C",
      "280C",
      "280C",
      "280C",
      "286",
      "286",
      "291",
      "291",
      "300C",
      "300C",
      "300C",
      "300C",
      "300C",
      "300C",
      "300C",
      "300C",
      "300C",
      "300C",
      "300C",
      "300C",
      "300C",
      "300C",
      "300C",
      "300C",
      "300C",
      "300C",
      "300C",
      "300C",
      "300C",
      "300C",
      "300C",
      "300C",
      "300C",
      "300C",
      "300C",
      "300C",
      "300C",
      "300C",
      "300C",
      "300C",
      "300C",
      "300C",
      "300C",
      "300C",
      "300C",
      "300C",
      "300C",
      "300C",
      "300C",
      "300C",
      "300C",
      "300C",
      "300C",
      "300C",
      "300C",
      "300C",
      "300C",
      "300C",
      "300C",
      "300C",
      "300C",
      "300C",
      "300C",
      "323",
      "323",
      "323",
      "323",
      "340C",
      "340C",
      "340C",
      "340C",
      "340C",
      "340C",
      "340C",
      "340C",
      "340C",
      "340C",
      "340C",
      "340C",
      "340C",
      "340C",
      "340C",
      "340C",
      "340C",
      "340C",
      "340C",
      "340C",
      "340C",
      "340C",
      "340C",
      "340C",
      "340C",
      "340C",
      "340C",
      "340C",
      "340C",
      "340C",
      "340C",
      "340C",
      "340C",
      "340C",
      "340C",
      "340C",
      "340C",
      "340C",
      "340C",
      "340C",
      "340C",
      "340C",
      "340C",
      "340C",
      "340",
      "340",
      "340",
      "340",
      "323",
      "320C",
      "320C",
      "320C",
      "320C",
      "320C",
      "320C",
      "320C",
      "320C",
      "320C",
      "320C",
      "320C",
      "320C",
      "320C",
      "320C",
      "320C",
      "320C",
      "320C",
      "320C",
      "320C",
      "320C",
      "320C",
      "320C",
      "320C",
      "320C",
      "320C",
      "320C",
      "320C",
      "320C",
      "320C",
      "320C",
      "320C",
      "320C",
      "320C",
      "320C",
      "320C",
      "320C",
      "320C",
      "320C",
      "320C",
      "320C",
      "320C",
      "320C",
      "320C",
      "320C",
      "320C",
      "320C",
      "320C",
      "320C",
      "320C",
      "320C",
      "320C",
      "320C",
      "320C",
      "320C",
      "320C",
      "320C",
      "320C",
      "320C",
      "320C",
      "320C",
      "320C",
      "320C",
      "320C",
      "320C",
      "320C",
      "320C",
      "320C",
      "320C",
      "320C",
      "320C",
      "320C",
      "320C",
      "320C",
      "320C",
      "320C",
      "320C",
      "320C",
      "320C",
      "320C",
      "320C",
      "320C",
      "320C",
      "320C",
      "320C",
      "320C",
      "320C",
      "320C",
      "320C",
      "320C",
      "320C",
      "320C",
      "320C",
      "320C",
      "320C",
      "320C",
      "320C",
      "320C",
      "320C",
      "320C",
      "320C",
      "320C",
      "320C",
      "320C",
      "320C",
      "320C",
      "320C",
      "320C",
      "320C",
      "320C",
      "320C",
      "320C",
      "320C",
      "320C",
      "320C",
      "320C",
      "320C",
      "320C",
      "320C",
      "320C",
      "320C",
      "320C",
      "320C",
      "320C",
      "320C",
      "320C",
      "320C",
      "320C",
      "320C",
      "320C",
      "320C",
      "320C",
      "320C",
      "320C",
      "320C",
      "320C",
      "320C",
      "320C",
      "320C",
      "320C",
      "320C",
      "320C",
      "320C",
      "320C",
      "320C",
      "320C",
      "320C",
      "320C",
      "320C",
      "320C",
      "320C",
      "320C",
      "320C",
      "320C",
      "320C",
      "320C",
      "320C",
      "320C",
      "320C",
      "320C",
      "320C",
      "320C",
      "320C",
      "320C",
      "320C",
      "320C",
      "320C",
      "320C",
      "320C",
      "320C",
      "320C",
      "320C",
      "320C",
      "320C",
      "320C",
      "320C",
      "320C",
      "320C",
      "320C",
      "320C",
      "320C",
      "320C",
      "320C",
      "320C",
      "320C",
      "320C",
      "320C",
      "320C",
      "320C",
      "320C",
      "320C",
      "320C",
      "320C",
      "320C",
      "320C",
      "320C",
      "320C",
      "320C",
      "320C",
      "320C",
      "320C",
      "320C",
      "320C",
      "320C",
      "320C",
      "320C",
      "320C",
      "320C",
      "320C",
      "320C",
      "320C",
      "320C",
      "320C",
      "320C",
      "320C",
      "320C",
      "320C",
      "320C",
      "320C",
      "320C",
      "320C",
      "320C",
      "320C",
      "320C",
      "320C",
      "320C",
      "320C",
      "320C",
      "320C",
      "320C",
      "320C",
      "320C",
      "320C",
      "320C",
      "320C",
      "320C",
      "320C",
      "320C",
      "320C",
      "320C",
      "320C",
      "320C",
      "320C",
      "320C",
      "320C",
      "320C",
      "320C",
      "320C",
      "320C",
      "320C",
      "320C",
      "320C",
      "320C",
      "320C",
      "320C",
      "320C",
      "320C",
      "320C",
      "320C",
      "320C",
      "320C",
      "320C",
      "320C",
      "320C",
      "320C",
      "320C",
      "320C",
      "320C",
      "320C",
      "320C",
      "320C",
      "320C",
      "320C",
      "320C",
      "320C",
      "320C",
      "320C",
      "320C",
      "320C",
      "320C",
      "320C",
      "320C",
      "320C",
      "320C",
      "320C",
      "320C",
      "320C",
      "320C",
      "320C",
      "320C",
      "320C",
      "320",
      "320",
      "320",
      "320",
      "320",
      "320",
      "320",
      "320",
      "340C",
      "340C",
      "340C",
      "340C",
      "340C",
      "340C",
      "340C",
      "340C",
      "340C",
      "340C",
      "340C",
      "340C",
      "340C",
      "340C",
      "340C",
      "340C",
      "340C",
      "340C",
      "340C",
      "340C",
      "340C",
      "340C",
      "340C",
      "340C",
      "340C",
      "340C",
      "340C",
      "340C",
      "340C",
      "340C",
      "340C",
      "340C",
      "340C",
      "340C",
      "340C",
      "340C",
      "340C",
      "340C",
      "340C",
      "340C",
      "340C",
      "340C",
      "340C",
      "340C",
      "340C",
      "340C",
      "340C",
      "340C",
      "340C",
      "340C",
      "340C",
      "340C",
      "340C",
      "340C",
      "340C",
      "340C",
      "340C",
      "340C",
      "340C",
      "340C",
      "340C",
      "340C",
      "340C",
      "340C",
      "340C",
      "340C",
      "340C",
      "340C",
      "340C",
      "340C",
      "340C",
      "340C",
      "340C",
      "340C",
      "340C",
      "340C",
      "340C",
      "340C",
      "340C",
      "340C",
      "340C",
      "340C",
      "340C",
      "340C",
      "340C",
      "340C",
      "340C",
      "340C",
      "340C",
      "340C",
      "340C",
      "340C",
      "340C",
      "340C",
      "340C",
      "340C",
      "340C",
      "340C",
      "340C",
      "340C",
      "340C",
      "340C",
      "340C",
      "340C",
      "340C",
      "340C",
      "340C",
      "340C",
      "340C",
      "340C",
      "340C",
      "340C",
      "340C",
      "340C",
      "340C",
      "340C",
      "340C",
      "340C",
      "340C",
      "340C",
      "340C",
      "340C",
      "340C",
      "340C",
      "340C",
      "340C",
      "340C",
      "340C",
      "340C",
      "340C",
      "340C",
      "340C",
      "340C",
      "340C",
      "340C",
      "340C",
      "340C",
      "340C",
      "340C",
      "340C",
      "340C",
      "340C",
      "340C",
      "340C",
      "340C",
      "340C",
      "340C",
      "340C",
      "340C",
      "340C",
      "340C",
      "340C",
      "340C",
      "340C",
      "340C",
      "340C",
      "340C",
      "340C",
      "340C",
      "340C",
      "340C",
      "340C",
      "340C",
      "340C",
      "340C",
      "340C",
      "340C",
      "340C",
      "340C",
      "340C",
      "340C",
      "340C",
      "340C",
      "340C",
      "340C",
      "340C",
      "340C",
      "340C",
      "340C",
      "340C",
      "340C",
      "340C",
      "340C",
      "340C",
      "340C",
      "340C",
      "340C",
      "340C",
      "340C",
      "340C",
      "340C",
      "340C",
      "340C",
      "340C",
      "340C",
      "340C",
      "340C",
      "340C",
      "340C",
      "340C",
      "340C",
      "340C",
      "340C",
      "340C",
      "340C",
      "340C",
      "340C",
      "340C",
      "340C",
      "340C",
      "340C",
      "340C",
      "340C",
      "340C",
      "340C",
      "340C",
      "340C",
      "340C",
      "340C",
      "340C",
      "340C",
      "340C",
      "340C",
      "340C",
      "340C",
      "340C",
      "337",
      "337",
      "337",
      "337",
      "337",
      "337",
      "327",
      "327",
      "327",
      "320C",
      "320C",
      "320C",
      "320C",
      "320C",
      "320C",
      "320C",
      "320C",
      "320C",
      "320C",
      "320C",
      "320C",
      "320C",
      "320C",
      "320C",
      "320C",
      "320C",
      "320C",
      "320C",
      "320C",
      "320C",
      "320C",
      "320C",
      "320C",
      "320C",
      "320C",
      "320C",
      "320C",
      "320C",
      "320C",
      "320C",
      "320C",
      "320C",
      "320C",
      "320C",
      "320C",
      "320C",
      "320C",
      "320C",
      "320C",
      "320C",
      "320C",
      "320C",
      "320C",
      "320C",
      "320C",
      "320",
      "320",
      "295",
      "295",
      "295",
      "295",
      "295",
      "295",
      "273",
      "273",
      "273",
      "250",
      "250",
      "250",
      "236",
      "236",
      "236",
      "236",
      "236",
      "214",
      "215",
      "215",
      "215",
      "215",
      "173",
      "173",
      "173",
      "173",
      "151",
      "151",
      "151",
      "136",
      "124",
      "124",
      "124",
      "124",
      "124",
      "108",
      "108",
      "108",
      "083",
      "083",
      "083",
      "083",
      "083",
      "084",
      "084",
      "067",
      "067",
      "067",
      "068",
      "068",
      "068",
      "068",
      "052",
      "052",
      "052",
      "052",
      "052",
      "023",
      "023",
      "023",
      "023",
      "023",
      "023",
      "006",
      "006",
      "006",
      "006",
      "006"
    ],
    "swim:geom": "path",
    "swim:speeds": [
      189,
      223,
      223,
      223,
      223,
      363,
      363,
      363,
      377,
      377,
      398,
      398,
      398,
      401,
      401,
      401,
      419,
      438,
      438,
      438,
      443,
      446,
      446,
      446,
      446,
      446,
      446,
      438,
      438,
      438,
      438,
      438,
      438,
      438,
      437,
      437,
      437,
      436,
      436,
      432,
      432,
      415,
      415,
      423,
      423,
      423,
      424,
      424,
      424,
      424,
      423,
      423,
      423,
      423,
      423,
      421,
      421,
      423,
      423,
      423,
      423,
      423,
      422,
      422,
      422,
      416,
      416,
      416,
      412,
      412,
      412,
      411,
      411,
      411,
      413,
      413,
      414,
      414,
      414,
      414,
      415,
      415,
      415,
      415,
      415,
      415,
      414,
      414,
      414,
      414,
      414,
      413,
      413,
      413,
      413,
      413,
      415,
      415,
      415,
      415,
      413,
      411,
      411,
      411,
      411,
      410,
      410,
      410,
      410,
      410,
      410,
      410,
      401,
      401,
      401,
      398,
      398,
      398,
      398,
      398,
      398,
      399,
      399,
      400,
      400,
      398,
      398,
      398,
      396,
      396,
      396,
      396,
      396,
      395,
      395,
      395,
      393,
      393,
      393,
      390,
      390,
      390,
      390,
      390,
      390,
      390,
      390,
      390,
      394,
      395,
      395,
      395,
      395,
      395,
      394,
      394,
      394,
      394,
      393,
      393,
      393,
      394,
      394,
      394,
      394,
      395,
      395,
      395,
      395,
      395,
      398,
      398,
      398,
      398,
      398,
      396,
      396,
      396,
      396,
      396,
      390,
      390,
      390,
      390,
      390,
      390,
      390,
      390,
      390,
      389,
      389,
      389,
      389,
      389,
      386,
      386,
      386,
      386,
      383,
      383,
      383,
      383,
      383,
      383,
      383,
      381,
      381,
      381,
      381,
      381,
      381,
      381,
      381,
      383,
      383,
      383,
      383,
      383,
      384,
      384,
      384,
      384,
      384,
      383,
      383,
      383,
      381,
      381,
      378,
      378,
      378,
      378,
      378,
      378,
      378,
      378,
      378,
      378,
      378,
      378,
      378,
      378,
      378,
      378,
      389,
      389,
      389,
      389,
      389,
      389,
      380,
      380,
      380,
      380,
      376,
      376,
      376,
      376,
      376,
      376,
      374,
      374,
      374,
      374,
      374,
      374,
      374,
      374,
      374,
      374,
      374,
      374,
      374,
      374,
      376,
      376,
      376,
      377,
      377,
      377,
      377,
      377,
      377,
      377,
      377,
      377,
      377,
      377,
      377,
      377,
      377,
      377,
      377,
      377,
      377,
      377,
      377,
      377,
      378,
      378,
      378,
      378,
      378,
      380,
      380,
      379,
      379,
      379,
      379,
      379,
      377,
      377,
      377,
      377,
      377,
      377,
      376,
      376,
      376,
      376,
      375,
      375,
      374,
      374,
      374,
      374,
      374,
      375,
      375,
      375,
      375,
      375,
      375,
      375,
      375,
      375,
      375,
      376,
      377,
      377,
      377,
      377,
      377,
      378,
      378,
      378,
      378,
      379,
      379,
      379,
      379,
      379,
      379,
      379,
      382,
      382,
      382,
      382,
      382,
      382,
      382,
      382,
      378,
      378,
      378,
      378,
      378,
      378,
      378,
      378,
      378,
      378,
      376,
      376,
      376,
      376,
      376,
      376,
      372,
      372,
      372,
      372,
      370,
      370,
      370,
      370,
      368,
      368,
      368,
      368,
      368,
      369,
      369,
      369,
      369,
      369,
      369,
      371,
      371,
      371,
      371,
      371,
      371,
      371,
      371,
      371,
      371,
      371,
      371,
      371,
      371,
      371,
      371,
      371,
      371,
      375,
      375,
      375,
      375,
      375,
      375,
      375,
      375,
      376,
      376,
      376,
      376,
      376,
      376,
      376,
      375,
      372,
      372,
      372,
      372,
      370,
      370,
      370,
      370,
      369,
      369,
      369,
      369,
      369,
      369,
      369,
      369,
      375,
      375,
      375,
      375,
      368,
      368,
      368,
      368,
      368,
      368,
      368,
      368,
      368,
      367,
      367,
      367,
      367,
      367,
      367,
      367,
      367,
      369,
      369,
      369,
      369,
      371,
      371,
      371,
      371,
      371,
      371,
      371,
      371,
      371,
      371,
      370,
      370,
      370,
      370,
      369,
      369,
      369,
      369,
      369,
      369,
      369,
      369,
      370,
      370,
      370,
      370,
      370,
      370,
      370,
      370,
      370,
      370,
      370,
      370,
      370,
      370,
      370,
      370,
      370,
      370,
      370,
      370,
      370,
      370,
      370,
      370,
      373,
      373,
      373,
      373,
      374,
      374,
      374,
      374,
      374,
      378,
      378,
      378,
      378,
      378,
      378,
      379,
      379,
      379,
      379,
      379,
      379,
      380,
      380,
      380,
      380,
      380,
      380,
      381,
      381,
      381,
      381,
      382,
      382,
      382,
      382,
      382,
      382,
      382,
      382,
      386,
      386,
      386,
      386,
      386,
      387,
      387,
      387,
      387,
      387,
      387,
      387,
      387,
      386,
      386,
      386,
      386,
      385,
      385,
      385,
      385,
      384,
      384,
      384,
      384,
      384,
      384,
      384,
      384,
      380,
      380,
      380,
      380,
      380,
      380,
      376,
      376,
      376,
      376,
      376,
      376,
      376,
      376,
      376,
      375,
      375,
      375,
      375,
      375,
      375,
      375,
      375,
      375,
      375,
      375,
      375,
      375,
      382,
      382,
      382,
      382,
      382,
      384,
      384,
      384,
      384,
      384,
      386,
      386,
      386,
      386,
      386,
      386,
      386,
      387,
      387,
      387,
      387,
      387,
      387,
      389,
      389,
      389,
      402,
      402,
      402,
      402,
      402,
      405,
      405,
      405,
      405,
      403,
      403,
      403,
      403,
      396,
      396,
      396,
      396,
      396,
      396,
      396,
      401,
      401,
      402,
      402,
      405,
      405,
      405,
      405,
      405,
      409,
      409,
      409,
      409,
      412,
      412,
      412,
      412,
      412,
      412,
      418,
      418,
      418,
      426,
      426,
      426,
      426,
      426,
      435,
      435,
      436,
      436,
      436,
      438,
      438,
      438,
      437,
      437,
      437,
      437,
      437,
      441,
      441,
      441,
      441,
      441,
      444,
      444,
      447,
      447,
      448,
      448,
      448,
      448,
      448,
      448,
      448,
      448,
      448,
      448,
      448,
      448,
      449,
      449,
      449,
      449,
      449,
      449,
      449,
      447,
      447,
      447,
      447,
      447,
      447,
      447,
      447,
      438,
      438,
      438,
      425,
      425,
      425,
      380,
      380,
      380,
      380,
      380,
      360,
      365,
      365,
      365,
      365,
      358,
      358,
      358,
      358,
      350,
      350,
      350,
      325,
      288,
      288,
      288,
      288,
      288,
      267,
      267,
      267,
      256,
      256,
      256,
      256,
      256,
      260,
      260,
      249,
      249,
      249,
      252,
      252,
      252,
      252,
      248,
      248,
      248,
      248,
      248,
      206,
      206,
      206,
      206,
      206,
      206,
      154,
      154,
      154,
      154,
      154
    ],
    "swim:timestamps": [
      1777465146,
      1777465206,
      1777465206,
      1777465206,
      1777465206,
      1777465618,
      1777465638,
      1777465638,
      1777465758,
      1777465758,
      1777465878,
      1777465878,
      1777465878,
      1777465919,
      1777465919,
      1777465919,
      1777466058,
      1777466219,
      1777466219,
      1777466219,
      1777466292,
      1777466399,
      1777466399,
      1777466399,
      1777466459,
      1777466459,
      1777466459,
      1777466659,
      1777466659,
      1777466659,
      1777466659,
      1777466659,
      1777466659,
      1777466700,
      1777466713,
      1777466713,
      1777466713,
      1777466760,
      1777466760,
      1777466773,
      1777466773,
      1777466820,
      1777466820,
      1777466953,
      1777466953,
      1777466953,
      1777467060,
      1777467060,
      1777467060,
      1777467060,
      1777467120,
      1777467133,
      1777467133,
      1777467133,
      1777467133,
      1777467241,
      1777467241,
      1777467301,
      1777467301,
      1777467301,
      1777467361,
      1777467361,
      1777467494,
      1777467494,
      1777467494,
      1777467601,
      1777467601,
      1777467601,
      1777467674,
      1777467674,
      1777467674,
      1777467781,
      1777467781,
      1777467781,
      1777467914,
      1777467914,
      1777467974,
      1777468034,
      1777468034,
      1777468034,
      1777468154,
      1777468154,
      1777468154,
      1777468154,
      1777468154,
      1777468154,
      1777468214,
      1777468214,
      1777468214,
      1777468334,
      1777468334,
      1777468394,
      1777468394,
      1777468394,
      1777468394,
      1777468394,
      1777468755,
      1777468755,
      1777468755,
      1777468755,
      1777468875,
      1777468935,
      1777468935,
      1777468935,
      1777468935,
      1777469115,
      1777469115,
      1777469115,
      1777469115,
      1777469115,
      1777469115,
      1777469115,
      1777469356,
      1777469356,
      1777469356,
      1777469476,
      1777469476,
      1777469536,
      1777469536,
      1777469536,
      1777469536,
      1777469596,
      1777469596,
      1777469656,
      1777469656,
      1777469897,
      1777469897,
      1777469897,
      1777469957,
      1777469957,
      1777469957,
      1777469957,
      1777469957,
      1777470017,
      1777470017,
      1777470017,
      1777470137,
      1777470137,
      1777470137,
      1777470377,
      1777470377,
      1777470377,
      1777470377,
      1777470377,
      1777470437,
      1777470437,
      1777470437,
      1777470437,
      1777470558,
      1777470618,
      1777470618,
      1777470618,
      1777470618,
      1777470618,
      1777470798,
      1777470798,
      1777470798,
      1777470798,
      1777470918,
      1777470918,
      1777470918,
      1777470978,
      1777470978,
      1777470978,
      1777470978,
      1777471038,
      1777471038,
      1777471038,
      1777471038,
      1777471038,
      1777471219,
      1777471219,
      1777471219,
      1777471219,
      1777471219,
      1777471399,
      1777471399,
      1777471399,
      1777471399,
      1777471399,
      1777471579,
      1777471579,
      1777471579,
      1777471579,
      1777471579,
      1777471579,
      1777471699,
      1777471699,
      1777471699,
      1777471759,
      1777471759,
      1777471759,
      1777471759,
      1777471759,
      1777471940,
      1777471940,
      1777471940,
      1777471940,
      1777472120,
      1777472120,
      1777472120,
      1777472120,
      1777472120,
      1777472120,
      1777472120,
      1777472300,
      1777472300,
      1777472300,
      1777472300,
      1777472300,
      1777472300,
      1777472300,
      1777472300,
      1777472541,
      1777472541,
      1777472541,
      1777472541,
      1777472541,
      1777472781,
      1777472781,
      1777472781,
      1777472781,
      1777472781,
      1777472841,
      1777472841,
      1777472841,
      1777472901,
      1777472901,
      1777473081,
      1777473081,
      1777473081,
      1777473081,
      1777473142,
      1777473142,
      1777473142,
      1777473142,
      1777473142,
      1777473502,
      1777473502,
      1777473502,
      1777473502,
      1777473502,
      1777473502,
      1777473502,
      1777473742,
      1777473742,
      1777473742,
      1777473742,
      1777473742,
      1777473742,
      1777473863,
      1777473863,
      1777473863,
      1777473863,
      1777473983,
      1777473983,
      1777473983,
      1777473983,
      1777473983,
      1777473983,
      1777474103,
      1777474103,
      1777474103,
      1777474103,
      1777474103,
      1777474103,
      1777474103,
      1777474283,
      1777474283,
      1777474283,
      1777474283,
      1777474283,
      1777474283,
      1777474283,
      1777474354,
      1777474354,
      1777474354,
      1777474403,
      1777474403,
      1777474403,
      1777474475,
      1777474475,
      1777474475,
      1777474475,
      1777474475,
      1777474475,
      1777474524,
      1777474524,
      1777474524,
      1777474584,
      1777474584,
      1777474584,
      1777474584,
      1777474644,
      1777474644,
      1777474644,
      1777474655,
      1777474655,
      1777474704,
      1777474704,
      1777474715,
      1777474715,
      1777474715,
      1777474764,
      1777474824,
      1777474835,
      1777474835,
      1777474835,
      1777474835,
      1777474835,
      1777474944,
      1777474944,
      1777474944,
      1777474955,
      1777474955,
      1777474955,
      1777475004,
      1777475004,
      1777475004,
      1777475004,
      1777475136,
      1777475136,
      1777475196,
      1777475196,
      1777475196,
      1777475196,
      1777475196,
      1777475245,
      1777475245,
      1777475245,
      1777475256,
      1777475256,
      1777475256,
      1777475316,
      1777475316,
      1777475316,
      1777475316,
      1777475436,
      1777475556,
      1777475556,
      1777475556,
      1777475556,
      1777475556,
      1777475616,
      1777475616,
      1777475616,
      1777475616,
      1777475736,
      1777475736,
      1777475736,
      1777475736,
      1777475736,
      1777475736,
      1777475736,
      1777475917,
      1777475917,
      1777475917,
      1777475917,
      1777475917,
      1777475917,
      1777475917,
      1777475917,
      1777476157,
      1777476157,
      1777476157,
      1777476157,
      1777476217,
      1777476217,
      1777476217,
      1777476277,
      1777476277,
      1777476277,
      1777476337,
      1777476337,
      1777476337,
      1777476337,
      1777476337,
      1777476337,
      1777476458,
      1777476458,
      1777476458,
      1777476458,
      1777476518,
      1777476518,
      1777476518,
      1777476518,
      1777476638,
      1777476638,
      1777476638,
      1777476638,
      1777476638,
      1777476698,
      1777476698,
      1777476698,
      1777476698,
      1777476698,
      1777476698,
      1777476878,
      1777476878,
      1777476878,
      1777476998,
      1777476998,
      1777477058,
      1777477058,
      1777477119,
      1777477119,
      1777477119,
      1777477179,
      1777477179,
      1777477179,
      1777477179,
      1777477239,
      1777477239,
      1777477239,
      1777477239,
      1777477479,
      1777477479,
      1777477479,
      1777477479,
      1777477479,
      1777477479,
      1777477479,
      1777477479,
      1777477659,
      1777477659,
      1777477659,
      1777477659,
      1777477659,
      1777477659,
      1777477659,
      1777477719,
      1777477779,
      1777477779,
      1777477779,
      1777477779,
      1777477840,
      1777477840,
      1777477840,
      1777477840,
      1777477900,
      1777477900,
      1777477900,
      1777477900,
      1777477900,
      1777477900,
      1777477900,
      1777477900,
      1777478140,
      1777478140,
      1777478140,
      1777478140,
      1777478200,
      1777478200,
      1777478200,
      1777478200,
      1777478200,
      1777478320,
      1777478320,
      1777478320,
      1777478320,
      1777478380,
      1777478380,
      1777478380,
      1777478380,
      1777478440,
      1777478440,
      1777478440,
      1777478440,
      1777478561,
      1777478561,
      1777478561,
      1777478561,
      1777478681,
      1777478681,
      1777478681,
      1777478681,
      1777478681,
      1777478741,
      1777478741,
      1777478741,
      1777478741,
      1777478741,
      1777478801,
      1777478801,
      1777478801,
      1777478801,
      1777478861,
      1777478861,
      1777478861,
      1777478921,
      1777478921,
      1777478921,
      1777478921,
      1777478921,
      1777479097,
      1777479097,
      1777479097,
      1777479097,
      1777479097,
      1777479097,
      1777479097,
      1777479097,
      1777479337,
      1777479337,
      1777479337,
      1777479337,
      1777479337,
      1777479337,
      1777479337,
      1777479398,
      1777479398,
      1777479398,
      1777479398,
      1777479518,
      1777479518,
      1777479518,
      1777479518,
      1777479518,
      1777479578,
      1777479578,
      1777479578,
      1777479578,
      1777479638,
      1777479638,
      1777479638,
      1777479638,
      1777479638,
      1777479758,
      1777479758,
      1777479758,
      1777479758,
      1777479758,
      1777479758,
      1777479878,
      1777479878,
      1777479878,
      1777479878,
      1777479878,
      1777479878,
      1777479938,
      1777479938,
      1777479938,
      1777479938,
      1777479938,
      1777479938,
      1777479999,
      1777479999,
      1777479999,
      1777479999,
      1777480179,
      1777480179,
      1777480179,
      1777480179,
      1777480179,
      1777480179,
      1777480179,
      1777480179,
      1777480419,
      1777480419,
      1777480419,
      1777480419,
      1777480419,
      1777480539,
      1777480539,
      1777480539,
      1777480539,
      1777480539,
      1777480660,
      1777480660,
      1777480660,
      1777480720,
      1777480720,
      1777480720,
      1777480720,
      1777480780,
      1777480780,
      1777480780,
      1777480780,
      1777481080,
      1777481080,
      1777481080,
      1777481080,
      1777481140,
      1777481140,
      1777481140,
      1777481140,
      1777481261,
      1777481261,
      1777481261,
      1777481261,
      1777481261,
      1777481261,
      1777481441,
      1777481441,
      1777481441,
      1777481441,
      1777481501,
      1777481501,
      1777481501,
      1777481501,
      1777481501,
      1777481681,
      1777481681,
      1777481681,
      1777481681,
      1777481681,
      1777481681,
      1777481801,
      1777481801,
      1777481801,
      1777481801,
      1777481801,
      1777481801,
      1777481801,
      1777482342,
      1777482342,
      1777482342,
      1777482342,
      1777482342,
      1777482462,
      1777482462,
      1777482462,
      1777482462,
      1777482462,
      1777482583,
      1777482583,
      1777482583,
      1777482583,
      1777482583,
      1777482583,
      1777482583,
      1777482643,
      1777482643,
      1777482643,
      1777482643,
      1777482643,
      1777482643,
      1777482823,
      1777482823,
      1777482823,
      1777482883,
      1777482883,
      1777482883,
      1777482883,
      1777482883,
      1777482943,
      1777482943,
      1777482943,
      1777482943,
      1777483063,
      1777483063,
      1777483063,
      1777483063,
      1777483183,
      1777483183,
      1777483183,
      1777483183,
      1777483183,
      1777483183,
      1777483183,
      1777483304,
      1777483304,
      1777483339,
      1777483339,
      1777483364,
      1777483364,
      1777483364,
      1777483364,
      1777483364,
      1777483399,
      1777483399,
      1777483399,
      1777483399,
      1777483484,
      1777483484,
      1777483484,
      1777483484,
      1777483484,
      1777483484,
      1777483519,
      1777483519,
      1777483519,
      1777483579,
      1777483579,
      1777483579,
      1777483579,
      1777483579,
      1777483604,
      1777483604,
      1777483639,
      1777483639,
      1777483639,
      1777483699,
      1777483699,
      1777483699,
      1777483784,
      1777483784,
      1777483784,
      1777483784,
      1777483784,
      1777483844,
      1777483844,
      1777483844,
      1777483844,
      1777483844,
      1777483905,
      1777483905,
      1777484000,
      1777484000,
      1777484025,
      1777484025,
      1777484025,
      1777484060,
      1777484060,
      1777484060,
      1777484120,
      1777484120,
      1777484145,
      1777484145,
      1777484145,
      1777484145,
      1777484180,
      1777484180,
      1777484205,
      1777484205,
      1777484205,
      1777484205,
      1777484205,
      1777484420,
      1777484420,
      1777484480,
      1777484480,
      1777484480,
      1777484480,
      1777484480,
      1777484480,
      1777484540,
      1777484540,
      1777484540,
      1777484601,
      1777484601,
      1777484601,
      1777484652,
      1777484652,
      1777484652,
      1777484652,
      1777484652,
      1777484713,
      1777484721,
      1777484721,
      1777484721,
      1777484721,
      1777484841,
      1777484841,
      1777484841,
      1777484841,
      1777484901,
      1777484901,
      1777484901,
      1777484961,
      1777485013,
      1777485013,
      1777485013,
      1777485013,
      1777485013,
      1777485081,
      1777485081,
      1777485081,
      1777485193,
      1777485193,
      1777485193,
      1777485193,
      1777485193,
      1777485201,
      1777485201,
      1777485254,
      1777485254,
      1777485254,
      1777485262,
      1777485262,
      1777485262,
      1777485262,
      1777485322,
      1777485322,
      1777485322,
      1777485322,
      1777485322,
      1777485502,
      1777485502,
      1777485502,
      1777485502,
      1777485502,
      1777485502,
      1777485622,
      1777485622,
      1777485622,
      1777485622,
      1777485622
    ],
    "wof:geomhash": "78089690e9318527d639bd68fd1c03c9",
    "wof:id": 2031141561,
    "wof:repo": "sfomuseum-data-flights-2026-04"
  },
  "bbox": [
    -122.32972222222222,
    27.570833333333333,
    -82.55,
    37.599444444444444
  ],
  "geometry": {"coordinates":[[-82.55,27.95],[-82.56666666666666,27.9],[-82.56666666666666,27.9],[-82.56666666666666,27.9],[-82.56666666666666,27.9],[-83.14611111111111,27.656666666666666],[-83.16833333333334,27.654444444444444],[-83.16833333333334,27.654444444444444],[-83.40222222222222,27.631944444444446],[-83.40222222222222,27.631944444444446],[-83.64861111111112,27.608611111111113],[-83.64861111111112,27.608611111111113],[-83.64861111111112,27.608611111111113],[-83.74972222222222,27.599166666666665],[-83.74972222222222,27.599166666666665],[-83.74972222222222,27.599166666666665],[-84.035,27.570833333333333],[-84.41305555555556,27.598055555555554],[-84.41305555555556,27.598055555555554],[-84.41305555555556,27.598055555555554],[-84.57583333333334,27.624166666666667],[-84.82416666666666,27.663888888888888],[-84.82416666666666,27.663888888888888],[-84.82416666666666,27.663888888888888],[-84.96166666666667,27.685555555555556],[-84.96166666666667,27.685555555555556],[-84.96166666666667,27.685555555555556],[-85.4063888888889,27.75888888888889],[-85.4063888888889,27.75888888888889],[-85.4063888888889,27.75888888888889],[-85.4063888888889,27.75888888888889],[-85.4063888888889,27.75888888888889],[-85.4063888888889,27.75888888888889],[-85.50194444444445,27.776944444444442],[-85.52777777777777,27.781944444444445],[-85.52777777777777,27.781944444444445],[-85.52777777777777,27.781944444444445],[-85.63611111111112,27.802222222222223],[-85.63611111111112,27.802222222222223],[-85.66000000000001,27.80666666666667],[-85.66000000000001,27.80666666666667],[-85.76361111111112,27.82638888888889],[-85.76361111111112,27.82638888888889],[-86.05055555555555,27.88],[-86.05055555555555,27.88],[-86.05055555555555,27.88],[-86.28611111111111,27.923333333333336],[-86.28611111111111,27.923333333333336],[-86.28611111111111,27.923333333333336],[-86.28611111111111,27.923333333333336],[-86.41361111111112,27.94638888888889],[-86.43972222222223,27.95111111111111],[-86.43972222222223,27.95111111111111],[-86.43972222222223,27.95111111111111],[-86.43972222222223,27.95111111111111],[-86.67305555555556,27.99361111111111],[-86.67305555555556,27.99361111111111],[-86.80166666666666,28.021666666666665],[-86.80166666666666,28.021666666666665],[-86.80166666666666,28.021666666666665],[-86.92916666666667,28.059166666666666],[-86.92916666666667,28.059166666666666],[-87.20555555555556,28.141111111111112],[-87.20555555555556,28.141111111111112],[-87.20555555555556,28.141111111111112],[-87.43083333333334,28.20722222222222],[-87.43083333333334,28.20722222222222],[-87.43083333333334,28.20722222222222],[-87.57666666666667,28.249722222222225],[-87.57666666666667,28.249722222222225],[-87.57666666666667,28.249722222222225],[-87.7961111111111,28.31361111111111],[-87.7961111111111,28.31361111111111],[-87.7961111111111,28.31361111111111],[-88.06722222222221,28.395555555555553],[-88.06722222222221,28.395555555555553],[-88.18611111111112,28.441944444444445],[-88.30694444444444,28.489166666666666],[-88.30694444444444,28.489166666666666],[-88.30694444444444,28.489166666666666],[-88.54583333333333,28.5825],[-88.54583333333333,28.5825],[-88.54583333333333,28.5825],[-88.54583333333333,28.5825],[-88.54583333333333,28.5825],[-88.54583333333333,28.5825],[-88.66555555555556,28.628888888888888],[-88.66555555555556,28.628888888888888],[-88.66555555555556,28.628888888888888],[-88.9038888888889,28.72083333333333],[-88.9038888888889,28.72083333333333],[-89.02388888888889,28.766944444444444],[-89.02388888888889,28.766944444444444],[-89.02388888888889,28.766944444444444],[-89.02388888888889,28.766944444444444],[-89.02388888888889,28.766944444444444],[-89.74916666666667,29.042222222222225],[-89.74916666666667,29.042222222222225],[-89.74916666666667,29.042222222222225],[-89.74916666666667,29.042222222222225],[-89.99083333333333,29.13277777777778],[-90.1111111111111,29.17527777777778],[-90.1111111111111,29.17527777777778],[-90.1111111111111,29.17527777777778],[-90.1111111111111,29.17527777777778],[-90.4961111111111,29.241111111111113],[-90.4961111111111,29.241111111111113],[-90.4961111111111,29.241111111111113],[-90.4961111111111,29.241111111111113],[-90.4961111111111,29.241111111111113],[-90.4961111111111,29.241111111111113],[-90.4961111111111,29.241111111111113],[-90.99888888888889,29.324166666666667],[-90.99888888888889,29.324166666666667],[-90.99888888888889,29.324166666666667],[-91.24805555555555,29.364444444444445],[-91.24805555555555,29.364444444444445],[-91.37222222222222,29.384444444444444],[-91.37222222222222,29.384444444444444],[-91.37222222222222,29.384444444444444],[-91.37222222222222,29.384444444444444],[-91.49694444444445,29.404444444444444],[-91.49694444444445,29.404444444444444],[-91.62277777777777,29.424166666666668],[-91.62277777777777,29.424166666666668],[-92.10666666666665,29.499722222222225],[-92.10666666666665,29.499722222222225],[-92.10666666666665,29.499722222222225],[-92.23111111111112,29.51888888888889],[-92.23111111111112,29.51888888888889],[-92.23111111111112,29.51888888888889],[-92.23111111111112,29.51888888888889],[-92.23111111111112,29.51888888888889],[-92.35527777777777,29.53777777777778],[-92.35527777777777,29.53777777777778],[-92.35527777777777,29.53777777777778],[-92.60083333333333,29.57472222222222],[-92.60083333333333,29.57472222222222],[-92.60083333333333,29.57472222222222],[-93.09083333333332,29.6475],[-93.09083333333332,29.6475],[-93.09083333333332,29.6475],[-93.09083333333332,29.6475],[-93.09083333333332,29.6475],[-93.21555555555555,29.665555555555553],[-93.21555555555555,29.665555555555553],[-93.21555555555555,29.665555555555553],[-93.21555555555555,29.665555555555553],[-93.46416666666667,29.70138888888889],[-93.59138888888889,29.71944444444444],[-93.59138888888889,29.71944444444444],[-93.59138888888889,29.71944444444444],[-93.59138888888889,29.71944444444444],[-93.59138888888889,29.71944444444444],[-93.96388888888889,29.772222222222222],[-93.96388888888889,29.772222222222222],[-93.96388888888889,29.772222222222222],[-93.96388888888889,29.772222222222222],[-94.21527777777779,29.80666666666667],[-94.21527777777779,29.80666666666667],[-94.21527777777779,29.80666666666667],[-94.33944444444444,29.823888888888888],[-94.33944444444444,29.823888888888888],[-94.33944444444444,29.823888888888888],[-94.33944444444444,29.823888888888888],[-94.46444444444445,29.840833333333332],[-94.46444444444445,29.840833333333332],[-94.46444444444445,29.840833333333332],[-94.46444444444445,29.840833333333332],[-94.46444444444445,29.840833333333332],[-94.83916666666666,29.890833333333333],[-94.83916666666666,29.890833333333333],[-94.83916666666666,29.890833333333333],[-94.83916666666666,29.890833333333333],[-94.83916666666666,29.890833333333333],[-95.2375,29.942777777777778],[-95.2375,29.942777777777778],[-95.2375,29.942777777777778],[-95.2375,29.942777777777778],[-95.2375,29.942777777777778],[-95.60277777777777,29.998055555555556],[-95.60277777777777,29.998055555555556],[-95.60277777777777,29.998055555555556],[-95.60277777777777,29.998055555555556],[-95.60277777777777,29.998055555555556],[-95.60277777777777,29.998055555555556],[-95.84861111111111,30.036944444444448],[-95.84861111111111,30.036944444444448],[-95.84861111111111,30.036944444444448],[-95.97055555555556,30.05611111111111],[-95.97055555555556,30.05611111111111],[-95.97055555555556,30.05611111111111],[-95.97055555555556,30.05611111111111],[-95.97055555555556,30.05611111111111],[-96.31888888888888,30.110277777777778],[-96.31888888888888,30.110277777777778],[-96.31888888888888,30.110277777777778],[-96.31888888888888,30.110277777777778],[-96.68861111111111,30.16638888888889],[-96.68861111111111,30.16638888888889],[-96.68861111111111,30.16638888888889],[-96.68861111111111,30.16638888888889],[-96.68861111111111,30.16638888888889],[-96.68861111111111,30.16638888888889],[-96.68861111111111,30.16638888888889],[-97.05055555555555,30.220277777777778],[-97.05055555555555,30.220277777777778],[-97.05055555555555,30.220277777777778],[-97.05055555555555,30.220277777777778],[-97.05055555555555,30.220277777777778],[-97.05055555555555,30.220277777777778],[-97.05055555555555,30.220277777777778],[-97.05055555555555,30.220277777777778],[-97.53694444444444,30.291111111111114],[-97.53694444444444,30.291111111111114],[-97.53694444444444,30.291111111111114],[-97.53694444444444,30.291111111111114],[-97.53694444444444,30.291111111111114],[-98.02583333333334,30.360555555555557],[-98.02583333333334,30.360555555555557],[-98.02583333333334,30.360555555555557],[-98.02583333333334,30.360555555555557],[-98.02583333333334,30.360555555555557],[-98.14777777777779,30.377222222222223],[-98.14777777777779,30.377222222222223],[-98.14777777777779,30.377222222222223],[-98.26805555555555,30.394166666666667],[-98.26805555555555,30.394166666666667],[-98.6286111111111,30.443333333333335],[-98.6286111111111,30.443333333333335],[-98.6286111111111,30.443333333333335],[-98.6286111111111,30.443333333333335],[-98.74888888888889,30.459444444444443],[-98.74888888888889,30.459444444444443],[-98.74888888888889,30.459444444444443],[-98.74888888888889,30.459444444444443],[-98.74888888888889,30.459444444444443],[-99.43166666666667,30.620555555555555],[-99.43166666666667,30.620555555555555],[-99.43166666666667,30.620555555555555],[-99.43166666666667,30.620555555555555],[-99.43166666666667,30.620555555555555],[-99.43166666666667,30.620555555555555],[-99.43166666666667,30.620555555555555],[-99.84305555555555,30.900277777777777],[-99.84305555555555,30.900277777777777],[-99.84305555555555,30.900277777777777],[-99.84305555555555,30.900277777777777],[-99.84305555555555,30.900277777777777],[-99.84305555555555,30.900277777777777],[-100.07111111111111,30.96638888888889],[-100.07111111111111,30.96638888888889],[-100.07111111111111,30.96638888888889],[-100.07111111111111,30.96638888888889],[-100.30944444444444,31.004722222222224],[-100.30944444444444,31.004722222222224],[-100.30944444444444,31.004722222222224],[-100.30944444444444,31.004722222222224],[-100.30944444444444,31.004722222222224],[-100.30944444444444,31.004722222222224],[-100.54444444444444,31.041944444444447],[-100.54444444444444,31.041944444444447],[-100.54444444444444,31.041944444444447],[-100.54444444444444,31.041944444444447],[-100.54444444444444,31.041944444444447],[-100.54444444444444,31.041944444444447],[-100.54444444444444,31.041944444444447],[-100.90138888888889,31.098055555555554],[-100.90138888888889,31.098055555555554],[-100.90138888888889,31.098055555555554],[-100.90138888888889,31.098055555555554],[-100.90138888888889,31.098055555555554],[-100.90138888888889,31.098055555555554],[-100.90138888888889,31.098055555555554],[-101.03777777777778,31.11916666666667],[-101.03777777777778,31.11916666666667],[-101.03777777777778,31.11916666666667],[-101.14166666666668,31.135277777777777],[-101.14166666666668,31.135277777777777],[-101.14166666666668,31.135277777777777],[-101.27916666666667,31.15611111111111],[-101.27916666666667,31.15611111111111],[-101.27916666666667,31.15611111111111],[-101.27916666666667,31.15611111111111],[-101.27916666666667,31.15611111111111],[-101.27916666666667,31.15611111111111],[-101.37305555555555,31.170555555555556],[-101.37305555555555,31.170555555555556],[-101.37305555555555,31.170555555555556],[-101.49444444444444,31.18888888888889],[-101.49444444444444,31.18888888888889],[-101.49444444444444,31.18888888888889],[-101.49444444444444,31.18888888888889],[-101.615,31.206944444444442],[-101.615,31.206944444444442],[-101.615,31.206944444444442],[-101.64027777777778,31.210555555555555],[-101.64027777777778,31.210555555555555],[-101.73555555555555,31.224999999999998],[-101.73555555555555,31.224999999999998],[-101.76,31.22861111111111],[-101.76,31.22861111111111],[-101.76,31.22861111111111],[-101.85777777777777,31.243055555555557],[-101.97944444444444,31.260833333333334],[-102.00805555555556,31.265],[-102.00805555555556,31.265],[-102.00805555555556,31.265],[-102.00805555555556,31.265],[-102.00805555555556,31.265],[-102.21972222222223,31.295833333333334],[-102.21972222222223,31.295833333333334],[-102.21972222222223,31.295833333333334],[-102.24861111111112,31.3],[-102.24861111111112,31.3],[-102.24861111111112,31.3],[-102.35249999999999,31.315],[-102.35249999999999,31.315],[-102.35249999999999,31.315],[-102.35249999999999,31.315],[-102.59194444444444,31.349166666666665],[-102.59194444444444,31.349166666666665],[-102.71194444444444,31.366111111111113],[-102.71194444444444,31.366111111111113],[-102.71194444444444,31.366111111111113],[-102.71194444444444,31.366111111111113],[-102.71194444444444,31.366111111111113],[-102.83166666666666,31.383055555555558],[-102.83166666666666,31.383055555555558],[-102.83166666666666,31.383055555555558],[-102.83138888888888,31.383055555555558],[-102.83138888888888,31.383055555555558],[-102.83138888888888,31.383055555555558],[-102.95166666666667,31.399444444444445],[-102.95166666666667,31.399444444444445],[-102.95166666666667,31.399444444444445],[-102.95166666666667,31.399444444444445],[-103.21638888888889,31.435833333333335],[-103.45833333333334,31.46861111111111],[-103.45833333333334,31.46861111111111],[-103.45833333333334,31.46861111111111],[-103.45833333333334,31.46861111111111],[-103.45833333333334,31.46861111111111],[-103.58083333333333,31.485],[-103.58083333333333,31.485],[-103.58083333333333,31.485],[-103.58083333333333,31.485],[-103.81527777777778,31.516111111111112],[-103.81527777777778,31.516111111111112],[-103.81527777777778,31.516111111111112],[-103.81527777777778,31.516111111111112],[-103.81527777777778,31.516111111111112],[-103.81527777777778,31.516111111111112],[-103.81527777777778,31.516111111111112],[-104.1825,31.56388888888889],[-104.1825,31.56388888888889],[-104.1825,31.56388888888889],[-104.1825,31.56388888888889],[-104.1825,31.56388888888889],[-104.1825,31.56388888888889],[-104.1825,31.56388888888889],[-104.1825,31.56388888888889],[-104.66888888888889,31.625555555555557],[-104.66888888888889,31.625555555555557],[-104.66888888888889,31.625555555555557],[-104.66888888888889,31.625555555555557],[-104.78944444444444,31.640555555555554],[-104.78944444444444,31.640555555555554],[-104.78944444444444,31.640555555555554],[-104.91166666666668,31.655555555555555],[-104.91166666666668,31.655555555555555],[-104.91166666666668,31.655555555555555],[-105.03138888888888,31.67027777777778],[-105.03138888888888,31.67027777777778],[-105.03138888888888,31.67027777777778],[-105.03138888888888,31.67027777777778],[-105.03138888888888,31.67027777777778],[-105.03138888888888,31.67027777777778],[-105.26833333333333,31.698611111111113],[-105.26833333333333,31.698611111111113],[-105.26833333333333,31.698611111111113],[-105.26833333333333,31.698611111111113],[-105.38722222222223,31.713055555555556],[-105.38722222222223,31.713055555555556],[-105.38722222222223,31.713055555555556],[-105.38722222222223,31.713055555555556],[-105.62222222222222,31.740555555555556],[-105.62222222222222,31.740555555555556],[-105.62222222222222,31.740555555555556],[-105.62222222222222,31.740555555555556],[-105.62222222222222,31.740555555555556],[-105.76,31.756666666666668],[-105.76,31.756666666666668],[-105.76,31.756666666666668],[-105.76,31.756666666666668],[-105.76,31.756666666666668],[-105.76,31.756666666666668],[-106.11833333333333,31.797500000000003],[-106.11833333333333,31.797500000000003],[-106.11833333333333,31.797500000000003],[-106.35722222222222,31.828055555555554],[-106.35722222222222,31.828055555555554],[-106.47583333333334,31.847777777777775],[-106.47583333333334,31.847777777777775],[-106.59472222222222,31.86722222222222],[-106.59472222222222,31.86722222222222],[-106.59472222222222,31.86722222222222],[-106.71444444444445,31.88611111111111],[-106.71444444444445,31.88611111111111],[-106.71444444444445,31.88611111111111],[-106.71444444444445,31.88611111111111],[-106.83333333333333,31.905277777777776],[-106.83333333333333,31.905277777777776],[-106.83333333333333,31.905277777777776],[-106.83333333333333,31.905277777777776],[-107.3175,31.981944444444444],[-107.3175,31.981944444444444],[-107.3175,31.981944444444444],[-107.3175,31.981944444444444],[-107.3175,31.981944444444444],[-107.3175,31.981944444444444],[-107.3175,31.981944444444444],[-107.3175,31.981944444444444],[-107.65944444444445,32.03472222222222],[-107.65944444444445,32.03472222222222],[-107.65944444444445,32.03472222222222],[-107.65944444444445,32.03472222222222],[-107.65944444444445,32.03472222222222],[-107.65944444444445,32.03472222222222],[-107.65944444444445,32.03472222222222],[-107.77805555555555,32.05277777777778],[-107.89888888888889,32.071111111111115],[-107.89888888888889,32.071111111111115],[-107.89888888888889,32.071111111111115],[-107.89888888888889,32.071111111111115],[-108.01583333333333,32.08861111111111],[-108.01583333333333,32.08861111111111],[-108.01583333333333,32.08861111111111],[-108.01583333333333,32.08861111111111],[-108.13527777777779,32.10638888888889],[-108.13527777777779,32.10638888888889],[-108.13527777777779,32.10638888888889],[-108.13527777777779,32.10638888888889],[-108.13527777777779,32.10638888888889],[-108.13527777777779,32.10638888888889],[-108.13527777777779,32.10638888888889],[-108.13527777777779,32.10638888888889],[-108.62472222222222,32.17833333333333],[-108.62472222222222,32.17833333333333],[-108.62472222222222,32.17833333333333],[-108.62472222222222,32.17833333333333],[-108.74361111111111,32.19555555555555],[-108.74361111111111,32.19555555555555],[-108.74361111111111,32.19555555555555],[-108.74361111111111,32.19555555555555],[-108.74361111111111,32.19555555555555],[-108.97166666666666,32.26222222222222],[-108.97166666666666,32.26222222222222],[-108.97166666666666,32.26222222222222],[-108.97166666666666,32.26222222222222],[-109.08444444444444,32.29694444444444],[-109.08444444444444,32.29694444444444],[-109.08444444444444,32.29694444444444],[-109.08444444444444,32.29694444444444],[-109.19888888888889,32.331944444444446],[-109.19888888888889,32.331944444444446],[-109.19888888888889,32.331944444444446],[-109.19888888888889,32.331944444444446],[-109.42833333333334,32.401666666666664],[-109.42833333333334,32.401666666666664],[-109.42833333333334,32.401666666666664],[-109.42833333333334,32.401666666666664],[-109.65861111111111,32.471111111111114],[-109.65861111111111,32.471111111111114],[-109.65861111111111,32.471111111111114],[-109.65861111111111,32.471111111111114],[-109.65861111111111,32.471111111111114],[-109.77388888888889,32.505833333333335],[-109.77388888888889,32.505833333333335],[-109.77388888888889,32.505833333333335],[-109.77388888888889,32.505833333333335],[-109.77388888888889,32.505833333333335],[-109.89,32.54055555555556],[-109.89,32.54055555555556],[-109.89,32.54055555555556],[-109.89,32.54055555555556],[-110.0038888888889,32.574444444444445],[-110.0038888888889,32.574444444444445],[-110.0038888888889,32.574444444444445],[-110.11805555555554,32.60861111111111],[-110.11805555555554,32.60861111111111],[-110.11805555555554,32.60861111111111],[-110.11805555555554,32.60861111111111],[-110.11805555555554,32.60861111111111],[-110.4525,32.70472222222222],[-110.4525,32.70472222222222],[-110.4525,32.70472222222222],[-110.4525,32.70472222222222],[-110.4525,32.70472222222222],[-110.4525,32.70472222222222],[-110.4525,32.70472222222222],[-110.4525,32.70472222222222],[-110.91388888888889,32.83916666666667],[-110.91388888888889,32.83916666666667],[-110.91388888888889,32.83916666666667],[-110.91388888888889,32.83916666666667],[-110.91388888888889,32.83916666666667],[-110.91388888888889,32.83916666666667],[-110.91388888888889,32.83916666666667],[-111.02916666666667,32.8725],[-111.02916666666667,32.8725],[-111.02916666666667,32.8725],[-111.02916666666667,32.8725],[-111.26166666666667,32.93888888888888],[-111.26166666666667,32.93888888888888],[-111.26166666666667,32.93888888888888],[-111.26166666666667,32.93888888888888],[-111.26166666666667,32.93888888888888],[-111.3786111111111,32.973888888888894],[-111.3786111111111,32.973888888888894],[-111.3786111111111,32.973888888888894],[-111.3786111111111,32.973888888888894],[-111.4961111111111,33.007222222222225],[-111.4961111111111,33.007222222222225],[-111.4961111111111,33.007222222222225],[-111.4961111111111,33.007222222222225],[-111.4961111111111,33.007222222222225],[-111.73472222222222,33.07333333333334],[-111.73472222222222,33.07333333333334],[-111.73472222222222,33.07333333333334],[-111.73472222222222,33.07333333333334],[-111.73472222222222,33.07333333333334],[-111.73472222222222,33.07333333333334],[-111.97333333333333,33.14055555555556],[-111.97333333333333,33.14055555555556],[-111.97333333333333,33.14055555555556],[-111.97333333333333,33.14055555555556],[-111.97333333333333,33.14055555555556],[-111.97333333333333,33.14055555555556],[-112.09444444444443,33.17388888888889],[-112.09444444444443,33.17388888888889],[-112.09444444444443,33.17388888888889],[-112.09444444444443,33.17388888888889],[-112.09444444444443,33.17388888888889],[-112.09444444444443,33.17388888888889],[-112.21416666666667,33.20722222222223],[-112.21416666666667,33.20722222222223],[-112.21416666666667,33.20722222222223],[-112.21416666666667,33.20722222222223],[-112.57888888888888,33.30833333333333],[-112.57888888888888,33.30833333333333],[-112.57888888888888,33.30833333333333],[-112.57888888888888,33.30833333333333],[-112.57888888888888,33.30833333333333],[-112.57888888888888,33.30833333333333],[-112.57888888888888,33.30833333333333],[-112.57888888888888,33.30833333333333],[-113.06361111111111,33.43861111111111],[-113.06361111111111,33.43861111111111],[-113.06361111111111,33.43861111111111],[-113.06361111111111,33.43861111111111],[-113.06361111111111,33.43861111111111],[-113.30833333333334,33.50388888888889],[-113.30833333333334,33.50388888888889],[-113.30833333333334,33.50388888888889],[-113.30833333333334,33.50388888888889],[-113.30833333333334,33.50388888888889],[-113.56666666666666,33.57194444444445],[-113.56666666666666,33.57194444444445],[-113.56666666666666,33.57194444444445],[-113.68833333333333,33.60388888888889],[-113.68833333333333,33.60388888888889],[-113.68833333333333,33.60388888888889],[-113.68833333333333,33.60388888888889],[-113.80916666666667,33.63527777777778],[-113.80916666666667,33.63527777777778],[-113.80916666666667,33.63527777777778],[-113.80916666666667,33.63527777777778],[-114.42666666666668,33.75861111111111],[-114.42666666666668,33.75861111111111],[-114.42666666666668,33.75861111111111],[-114.42666666666668,33.75861111111111],[-114.54722222222222,33.78972222222222],[-114.54722222222222,33.78972222222222],[-114.54722222222222,33.78972222222222],[-114.54722222222222,33.78972222222222],[-114.78944444444444,33.85138888888889],[-114.78944444444444,33.85138888888889],[-114.78944444444444,33.85138888888889],[-114.78944444444444,33.85138888888889],[-114.78944444444444,33.85138888888889],[-114.78944444444444,33.85138888888889],[-115.14861111111112,33.94194444444444],[-115.14861111111112,33.94194444444444],[-115.14861111111112,33.94194444444444],[-115.14861111111112,33.94194444444444],[-115.26944444444445,33.97222222222222],[-115.26944444444445,33.97222222222222],[-115.26944444444445,33.97222222222222],[-115.26944444444445,33.97222222222222],[-115.26944444444445,33.97222222222222],[-115.62944444444443,34.06111111111111],[-115.62944444444443,34.06111111111111],[-115.62944444444443,34.06111111111111],[-115.62944444444443,34.06111111111111],[-115.62944444444443,34.06111111111111],[-115.62944444444443,34.06111111111111],[-115.86972222222222,34.12027777777778],[-115.86972222222222,34.12027777777778],[-115.86972222222222,34.12027777777778],[-115.86972222222222,34.12027777777778],[-115.86972222222222,34.12027777777778],[-115.86972222222222,34.12027777777778],[-115.86972222222222,34.12027777777778],[-116.97194444444445,34.3825],[-116.97194444444445,34.3825],[-116.97194444444445,34.3825],[-116.97194444444445,34.3825],[-116.97194444444445,34.3825],[-117.22083333333333,34.44027777777777],[-117.22083333333333,34.44027777777777],[-117.22083333333333,34.44027777777777],[-117.22083333333333,34.44027777777777],[-117.22083333333333,34.44027777777777],[-117.4725,34.49805555555556],[-117.4725,34.49805555555556],[-117.4725,34.49805555555556],[-117.4725,34.49805555555556],[-117.4725,34.49805555555556],[-117.4725,34.49805555555556],[-117.4725,34.49805555555556],[-117.59777777777778,34.526666666666664],[-117.59777777777778,34.526666666666664],[-117.59777777777778,34.526666666666664],[-117.59777777777778,34.526666666666664],[-117.59777777777778,34.526666666666664],[-117.59777777777778,34.526666666666664],[-117.97888888888889,34.612500000000004],[-117.97888888888889,34.612500000000004],[-117.97888888888889,34.612500000000004],[-118.10666666666665,34.651944444444446],[-118.10666666666665,34.651944444444446],[-118.10666666666665,34.651944444444446],[-118.10666666666665,34.651944444444446],[-118.10666666666665,34.651944444444446],[-118.22500000000001,34.70805555555556],[-118.22500000000001,34.70805555555556],[-118.22500000000001,34.70805555555556],[-118.22500000000001,34.70805555555556],[-118.46055555555556,34.81944444444445],[-118.46055555555556,34.81944444444445],[-118.46055555555556,34.81944444444445],[-118.46055555555556,34.81944444444445],[-118.68555555555555,34.92472222222222],[-118.68555555555555,34.92472222222222],[-118.68555555555555,34.92472222222222],[-118.68555555555555,34.92472222222222],[-118.68555555555555,34.92472222222222],[-118.68555555555555,34.92472222222222],[-118.68555555555555,34.92472222222222],[-118.92027777777778,35.03444444444444],[-118.92027777777778,35.03444444444444],[-118.99666666666667,35.069722222222225],[-118.99666666666667,35.069722222222225],[-119.04138888888889,35.09055555555556],[-119.04138888888889,35.09055555555556],[-119.04138888888889,35.09055555555556],[-119.04138888888889,35.09055555555556],[-119.04138888888889,35.09055555555556],[-119.11611111111111,35.125277777777775],[-119.11611111111111,35.125277777777775],[-119.11611111111111,35.125277777777775],[-119.11611111111111,35.125277777777775],[-119.28416666666666,35.2025],[-119.28416666666666,35.2025],[-119.28416666666666,35.2025],[-119.28416666666666,35.2025],[-119.28416666666666,35.2025],[-119.28416666666666,35.2025],[-119.36305555555555,35.23888888888889],[-119.36305555555555,35.23888888888889],[-119.36305555555555,35.23888888888889],[-119.48972222222223,35.29694444444444],[-119.48972222222223,35.29694444444444],[-119.48972222222223,35.29694444444444],[-119.48972222222223,35.29694444444444],[-119.48972222222223,35.29694444444444],[-119.53833333333333,35.31916666666667],[-119.53833333333333,35.31916666666667],[-119.61833333333333,35.35583333333334],[-119.61833333333333,35.35583333333334],[-119.61833333333333,35.35583333333334],[-119.74944444444445,35.415277777777774],[-119.74944444444445,35.415277777777774],[-119.74944444444445,35.415277777777774],[-119.92694444444444,35.49611111111111],[-119.92694444444444,35.49611111111111],[-119.92694444444444,35.49611111111111],[-119.92694444444444,35.49611111111111],[-119.92694444444444,35.49611111111111],[-120.05749999999999,35.55444444444444],[-120.05749999999999,35.55444444444444],[-120.05749999999999,35.55444444444444],[-120.05749999999999,35.55444444444444],[-120.05749999999999,35.55444444444444],[-120.18916666666667,35.61361111111111],[-120.18916666666667,35.61361111111111],[-120.40611111111112,35.70638888888889],[-120.40611111111112,35.70638888888889],[-120.45416666666667,35.730000000000004],[-120.45416666666667,35.730000000000004],[-120.45416666666667,35.730000000000004],[-120.53027777777778,35.77722222222222],[-120.53027777777778,35.77722222222222],[-120.53027777777778,35.77722222222222],[-120.65222222222222,35.85305555555556],[-120.65222222222222,35.85305555555556],[-120.69527777777778,35.88],[-120.69527777777778,35.88],[-120.69527777777778,35.88],[-120.69527777777778,35.88],[-120.77361111111111,35.92861111111111],[-120.77361111111111,35.92861111111111],[-120.81888888888888,35.956944444444446],[-120.81888888888888,35.956944444444446],[-120.81888888888888,35.956944444444446],[-120.81888888888888,35.956944444444446],[-120.81888888888888,35.956944444444446],[-121.26083333333334,36.22916666666667],[-121.26083333333334,36.22916666666667],[-121.38388888888889,36.30361111111111],[-121.38388888888889,36.30361111111111],[-121.38388888888889,36.30361111111111],[-121.38388888888889,36.30361111111111],[-121.38388888888889,36.30361111111111],[-121.38388888888889,36.30361111111111],[-121.50361111111111,36.376666666666665],[-121.50361111111111,36.376666666666665],[-121.50361111111111,36.376666666666665],[-121.62222222222222,36.448611111111106],[-121.62222222222222,36.448611111111106],[-121.62222222222222,36.448611111111106],[-121.71666666666667,36.53333333333333],[-121.71666666666667,36.53333333333333],[-121.71666666666667,36.53333333333333],[-121.71666666666667,36.53333333333333],[-121.71666666666667,36.53333333333333],[-121.8,36.61666666666667],[-121.78999999999999,36.609722222222224],[-121.78999999999999,36.609722222222224],[-121.78999999999999,36.609722222222224],[-121.78999999999999,36.609722222222224],[-121.9063888888889,36.78611111111111],[-121.9063888888889,36.78611111111111],[-121.9063888888889,36.78611111111111],[-121.9063888888889,36.78611111111111],[-121.93333333333334,36.88111111111111],[-121.93333333333334,36.88111111111111],[-121.93333333333334,36.88111111111111],[-121.96055555555556,36.971111111111114],[-122,37.05],[-122,37.05],[-122,37.05],[-122,37.05],[-122,37.05],[-122.01944444444445,37.12166666666667],[-122.01944444444445,37.12166666666667],[-122.01944444444445,37.12166666666667],[-122.06666666666666,37.266666666666666],[-122.06666666666666,37.266666666666666],[-122.06666666666666,37.266666666666666],[-122.06666666666666,37.266666666666666],[-122.06666666666666,37.266666666666666],[-122.07305555555556,37.259166666666665],[-122.07305555555556,37.259166666666665],[-122.1,37.333333333333336],[-122.1,37.333333333333336],[-122.1,37.333333333333336],[-122.09916666666666,37.325],[-122.09916666666666,37.325],[-122.09916666666666,37.325],[-122.09916666666666,37.325],[-122.12444444444444,37.39083333333333],[-122.12444444444444,37.39083333333333],[-122.12444444444444,37.39083333333333],[-122.12444444444444,37.39083333333333],[-122.12444444444444,37.39083333333333],[-122.2225,37.55444444444444],[-122.2225,37.55444444444444],[-122.2225,37.55444444444444],[-122.2225,37.55444444444444],[-122.2225,37.55444444444444],[-122.2225,37.55444444444444],[-122.32972222222222,37.599444444444444],[-122.32972222222222,37.599444444444444],[-122.32972222222222,37.599444444444444],[-122.32972222222222,37.599444444444444],[-122.32972222222222,37.599444444444444]],"type":"LineString"}
}
