{
  "id": 2015287525,
  "type": "Feature",
  "properties": {
    "geom:area": 0,
    "geom:bbox": "-122.357360,37.407390,-121.261250,37.621310",
    "geom:latitude": 37.52999184557424,
    "geom:longitude": -121.80951536469789,
    "src:alt_label": "swim-approach",
    "src:geom": "swim",
    "swim:elevations": [
      4465,
      4268,
      4000,
      3704,
      3643,
      3438,
      3348,
      3353,
      3353,
      3345,
      3233,
      3139,
      3048,
      3048,
      3013,
      2920,
      2803,
      2745,
      2743,
      2743,
      2743,
      2743,
      2743,
      2743,
      2696,
      2587,
      2427,
      2292,
      2188,
      1993,
      1913,
      1792,
      1521,
      1380,
      1246,
      1205,
      1057,
      871,
      796,
      609,
      545,
      388,
      289,
      214,
      93,
      0
    ],
    "swim:geom": "approach",
    "swim:timestamps": [
      1776197480,
      1776197505,
      1776197538,
      1776197574,
      1776197583,
      1776197612,
      1776197637,
      1776197666,
      1776197675,
      1776197724,
      1776197752,
      1776197766,
      1776197817,
      1776197820,
      1776197836,
      1776197871,
      1776197907,
      1776197937,
      1776197957,
      1776197971,
      1776197995,
      1776198001,
      1776198022,
      1776198055,
      1776198073,
      1776198096,
      1776198124,
      1776198142,
      1776198158,
      1776198203,
      1776198219,
      1776198240,
      1776198286,
      1776198322,
      1776198357,
      1776198363,
      1776198387,
      1776198416,
      1776198430,
      1776198467,
      1776198480,
      1776198519,
      1776198543,
      1776198565,
      1776198593,
      1776198616
    ],
    "wof:geomhash": "863d05d274f72f91e4910155bfacb9a8",
    "wof:id": 2015287525,
    "wof:repo": "sfomuseum-data-flights-2026-04"
  },
  "bbox": [
    -122.35736,
    37.40739,
    -121.26125,
    37.62131
  ],
  "geometry": {"coordinates":[[-121.26125,37.59291],[-121.30573,37.58767],[-121.36272,37.58122],[-121.42087,37.57452],[-121.43362,37.57301],[-121.47723,37.56797],[-121.51372,37.56379],[-121.55373,37.55909],[-121.56704,37.55749],[-121.63519,37.55096],[-121.66858,37.56481],[-121.68397,37.57549],[-121.73555,37.61291],[-121.73875,37.61491],[-121.75882,37.62131],[-121.79853,37.60337],[-121.79918,37.56212],[-121.77819,37.53115],[-121.75993,37.51174],[-121.74819,37.49784],[-121.7446,37.47034],[-121.74573,37.46339],[-121.75087,37.4394],[-121.77628,37.41061],[-121.80052,37.40739],[-121.83091,37.40757],[-121.86786,37.40876],[-121.89121,37.41553],[-121.90968,37.42366],[-121.96244,37.44642],[-121.98039,37.45399],[-122.00414,37.46414],[-122.05713,37.48672],[-122.0983,37.50427],[-122.13779,37.52108],[-122.14441,37.52385],[-122.17011,37.53481],[-122.19987,37.54726],[-122.21354,37.55304],[-122.24735,37.56735],[-122.25866,37.57206],[-122.28888,37.58481],[-122.30603,37.59202],[-122.32148,37.59853],[-122.34124,37.60682],[-122.35736,37.61368]],"type":"LineString"}
}
