{
  "id": 2015233019,
  "type": "Feature",
  "properties": {
    "geom:area": 0,
    "geom:bbox": "-122.433333,37.633333,-74.171389,41.950556",
    "geom:latitude": 40.590675114766974,
    "geom:longitude": -97.72620217420572,
    "src:alt_label": "swim-path",
    "src:geom": "swim",
    "swim:altitudes": [
      "017",
      "000",
      "000",
      "000",
      "000",
      "000",
      "000",
      "000",
      "000",
      "000",
      "000",
      "008",
      "008",
      "047",
      "047",
      "073",
      "121",
      "121",
      "121",
      "257",
      "257",
      "303",
      "303",
      "340",
      "340",
      "350C",
      "350C",
      "350C",
      "350C",
      "350C",
      "350C",
      "350C",
      "350C",
      "350C",
      "350C",
      "350C",
      "350C",
      "350C",
      "350C",
      "350C",
      "350C",
      "350C",
      "350C",
      "350C",
      "350C",
      "350C",
      "350C",
      "350C",
      "350C",
      "350C",
      "350C",
      "350C",
      "350C",
      "350C",
      "350C",
      "350C",
      "350C",
      "350C",
      "350C",
      "350C",
      "350C",
      "350C",
      "350C",
      "350C",
      "350C",
      "350C",
      "350C",
      "350C",
      "350C",
      "350C",
      "350C",
      "350C",
      "350C",
      "350C",
      "350",
      "370C",
      "370C",
      "370C",
      "370C",
      "370C",
      "370C",
      "370C",
      "370C",
      "370C",
      "370C",
      "370C",
      "370C",
      "370C",
      "370C",
      "370C",
      "370C",
      "370C",
      "370C",
      "370C",
      "370C",
      "370C",
      "370C",
      "370C",
      "370C",
      "370C",
      "370C",
      "370C",
      "370C",
      "370C",
      "370C",
      "370C",
      "370C",
      "370C",
      "370C",
      "370C",
      "370C",
      "370C",
      "370C",
      "370C",
      "370C",
      "370C",
      "370C",
      "370C",
      "370C",
      "370C",
      "370C",
      "370C",
      "370C",
      "370C",
      "370C",
      "370C",
      "370C",
      "370C",
      "370C",
      "370C",
      "370C",
      "370C",
      "370C",
      "370C",
      "370C",
      "370C",
      "370C",
      "370C",
      "370C",
      "370C",
      "370C",
      "370C",
      "370C",
      "370C",
      "370C",
      "370C",
      "370C",
      "370C",
      "370C",
      "370C",
      "370C",
      "370C",
      "370C",
      "370C",
      "370C",
      "370C",
      "370C",
      "370C",
      "370C",
      "370C",
      "370C",
      "370C",
      "370C",
      "370C",
      "370C",
      "370C",
      "370C",
      "370C",
      "370C",
      "370C",
      "370C",
      "370C",
      "370C",
      "370C",
      "370C",
      "370C",
      "370C",
      "370C",
      "370C",
      "370C",
      "370C",
      "370C",
      "370C",
      "370C",
      "370C",
      "370C",
      "370C",
      "370C",
      "370C",
      "370C",
      "370C",
      "370C",
      "370C",
      "370C",
      "370C",
      "370C",
      "370C",
      "370C",
      "370C",
      "370C",
      "370C",
      "370C",
      "370C",
      "370C",
      "370C",
      "370C",
      "370C",
      "370C",
      "370C",
      "370C",
      "370C",
      "370C",
      "370C",
      "370C",
      "370C",
      "370C",
      "370C",
      "370C",
      "370C",
      "370C",
      "370C",
      "356",
      "331C",
      "331C",
      "330",
      "330",
      "330",
      "330",
      "330",
      "315",
      "306",
      "293",
      "285",
      "285",
      "234",
      "215",
      "215",
      "209",
      "190",
      "174",
      "159",
      "159",
      "118",
      "118",
      "099",
      "099",
      "093",
      "070C",
      "070C",
      "060",
      "060",
      "060",
      "060",
      "052",
      "052",
      "050",
      "050",
      "050",
      "050",
      "033",
      "030",
      "030",
      "029",
      "030",
      "025",
      "025",
      "016",
      "007",
      "007",
      "70",
      "050",
      "050",
      "050",
      "050",
      "040",
      "040",
      "030",
      "030",
      "030",
      "030",
      "030",
      "030",
      "015",
      "015",
      "007",
      "007"
    ],
    "swim:geom": "path",
    "swim:speeds": [
      102,
      1,
      1,
      1,
      1,
      0,
      0,
      0,
      0,
      2,
      2,
      164,
      164,
      234,
      234,
      279,
      347,
      347,
      347,
      449,
      449,
      488,
      488,
      491,
      491,
      486,
      486,
      486,
      488,
      484,
      480,
      480,
      481,
      481,
      484,
      484,
      484,
      483,
      484,
      485,
      485,
      485,
      485,
      485,
      485,
      483,
      483,
      483,
      482,
      482,
      481,
      481,
      481,
      481,
      480,
      480,
      480,
      479,
      479,
      479,
      478,
      478,
      478,
      478,
      478,
      475,
      475,
      475,
      475,
      475,
      473,
      473,
      470,
      465,
      463,
      453,
      463,
      466,
      468,
      467,
      466,
      458,
      459,
      473,
      473,
      468,
      470,
      472,
      476,
      478,
      478,
      477,
      477,
      477,
      473,
      471,
      469,
      468,
      468,
      469,
      468,
      465,
      465,
      465,
      467,
      468,
      468,
      469,
      469,
      469,
      469,
      469,
      470,
      471,
      472,
      472,
      473,
      473,
      474,
      475,
      475,
      477,
      477,
      481,
      482,
      483,
      483,
      484,
      485,
      485,
      484,
      484,
      484,
      484,
      484,
      484,
      483,
      483,
      482,
      479,
      479,
      480,
      479,
      478,
      477,
      477,
      477,
      475,
      476,
      476,
      481,
      481,
      482,
      483,
      485,
      485,
      486,
      485,
      486,
      485,
      485,
      485,
      485,
      485,
      485,
      485,
      486,
      486,
      486,
      486,
      486,
      486,
      487,
      487,
      487,
      488,
      488,
      489,
      489,
      489,
      490,
      490,
      495,
      498,
      499,
      499,
      499,
      502,
      504,
      505,
      507,
      507,
      507,
      507,
      508,
      509,
      509,
      503,
      503,
      503,
      504,
      504,
      507,
      510,
      510,
      510,
      510,
      511,
      511,
      512,
      514,
      514,
      515,
      514,
      515,
      515,
      514,
      514,
      514,
      514,
      515,
      514,
      522,
      522,
      522,
      524,
      529,
      530,
      530,
      532,
      533,
      532,
      525,
      525,
      475,
      457,
      457,
      450,
      435,
      429,
      402,
      402,
      363,
      363,
      315,
      315,
      297,
      259,
      259,
      280,
      293,
      239,
      239,
      238,
      243,
      244,
      240,
      233,
      234,
      213,
      188,
      188,
      166,
      164,
      163,
      163,
      162,
      135,
      135,
      137,
      240,
      237,
      249,
      265,
      231,
      215,
      172,
      175,
      165,
      165,
      165,
      165,
      139,
      139,
      135,
      135
    ],
    "swim:timestamps": [
      1775585408,
      1775585450,
      1775585450,
      1775585450,
      1775585450,
      1775585624,
      1775585624,
      1775585756,
      1775585756,
      1775585877,
      1775585877,
      1775586489,
      1775586489,
      1775586601,
      1775586601,
      1775586661,
      1775586781,
      1775586781,
      1775586781,
      1775587141,
      1775587141,
      1775587322,
      1775587322,
      1775587442,
      1775587442,
      1775587562,
      1775587622,
      1775587622,
      1775587646,
      1775587826,
      1775587886,
      1775587886,
      1775587946,
      1775587946,
      1775588247,
      1775588247,
      1775588247,
      1775588295,
      1775588415,
      1775588475,
      1775588487,
      1775588487,
      1775588547,
      1775588547,
      1775588547,
      1775588607,
      1775588655,
      1775588655,
      1775588727,
      1775588727,
      1775588787,
      1775588836,
      1775588847,
      1775588847,
      1775588968,
      1775588968,
      1775588968,
      1775589016,
      1775589028,
      1775589148,
      1775589208,
      1775589268,
      1775589448,
      1775589448,
      1775589448,
      1775589809,
      1775589809,
      1775589809,
      1775589989,
      1775590049,
      1775590169,
      1775590169,
      1775590409,
      1775590530,
      1775590650,
      1775590884,
      1775591010,
      1775591070,
      1775591124,
      1775591244,
      1775591364,
      1775591731,
      1775591791,
      1775592085,
      1775592085,
      1775592566,
      1775592686,
      1775592806,
      1775592926,
      1775593046,
      1775593046,
      1775593287,
      1775593347,
      1775593347,
      1775593407,
      1775593527,
      1775593647,
      1775593707,
      1775593707,
      1775593827,
      1775593888,
      1775594008,
      1775594008,
      1775594068,
      1775594248,
      1775594308,
      1775594308,
      1775594428,
      1775594488,
      1775594488,
      1775594548,
      1775594548,
      1775594612,
      1775594793,
      1775594909,
      1775594909,
      1775594969,
      1775595033,
      1775595089,
      1775595149,
      1775595149,
      1775595209,
      1775595209,
      1775595393,
      1775595454,
      1775595514,
      1775595514,
      1775595574,
      1775595634,
      1775595634,
      1775595994,
      1775595994,
      1775596054,
      1775596054,
      1775596114,
      1775596295,
      1775596355,
      1775596415,
      1775596535,
      1775596584,
      1775596584,
      1775596595,
      1775596644,
      1775596715,
      1775596764,
      1775596764,
      1775596775,
      1775596884,
      1775597004,
      1775597016,
      1775597256,
      1775597256,
      1775597316,
      1775597365,
      1775597436,
      1775597436,
      1775597545,
      1775597556,
      1775597605,
      1775597617,
      1775597677,
      1775597737,
      1775597785,
      1775597846,
      1775597906,
      1775597906,
      1775598026,
      1775598146,
      1775598206,
      1775598266,
      1775598266,
      1775598326,
      1775598386,
      1775598386,
      1775598447,
      1775598807,
      1775598807,
      1775598927,
      1775598927,
      1775599048,
      1775599108,
      1775599108,
      1775599408,
      1775599522,
      1775599582,
      1775599589,
      1775599589,
      1775599709,
      1775599822,
      1775599829,
      1775599889,
      1775599889,
      1775599949,
      1775599949,
      1775600009,
      1775600123,
      1775600123,
      1775600483,
      1775600483,
      1775600543,
      1775600664,
      1775600664,
      1775600784,
      1775600982,
      1775601042,
      1775601042,
      1775601102,
      1775601162,
      1775601162,
      1775601204,
      1775601385,
      1775601385,
      1775601565,
      1775601583,
      1775601625,
      1775601625,
      1775601643,
      1775601805,
      1775601805,
      1775601865,
      1775601883,
      1775601986,
      1775602046,
      1775602046,
      1775602064,
      1775602124,
      1775602184,
      1775602226,
      1775602226,
      1775602286,
      1775602304,
      1775602346,
      1775602364,
      1775602364,
      1775602526,
      1775602587,
      1775602587,
      1775602604,
      1775602664,
      1775602725,
      1775602785,
      1775602785,
      1775602965,
      1775602965,
      1775603085,
      1775603085,
      1775603115,
      1775603325,
      1775603325,
      1775603452,
      1775603572,
      1775603626,
      1775603626,
      1775603746,
      1775603752,
      1775603812,
      1775603866,
      1775603872,
      1775603932,
      1775604053,
      1775604173,
      1775604173,
      1775604287,
      1775604347,
      1775604467,
      1775604467,
      1775604527,
      1775604593,
      1775604593,
      1775604647,
      1775604875,
      1775604888,
      1775604948,
      1775605128,
      1775605248,
      1775605295,
      1775605415,
      1775605429,
      1775605475,
      1775605549,
      1775605549,
      1775605609,
      1775605729,
      1775605729,
      1775605789,
      1775605789
    ],
    "wof:geomhash": "bc8beb8336c8f0fd23656b62ba2b43a6",
    "wof:id": 2015233019,
    "wof:repo": "sfomuseum-data-flights-2026-04"
  },
  "bbox": [
    -122.43333333333334,
    37.63333333333333,
    -74.1713888888889,
    41.95055555555556
  ],
  "geometry": {"coordinates":[[-122.13333333333334,37.983333333333334],[-122.43333333333334,37.65],[-122.43333333333334,37.65],[-122.43333333333334,37.65],[-122.43333333333334,37.65],[-122.43333333333334,37.65],[-122.43333333333334,37.65],[-122.43333333333334,37.65],[-122.43333333333334,37.65],[-122.43333333333334,37.65],[-122.43333333333334,37.65],[-122.4,37.63333333333333],[-122.4,37.63333333333333],[-122.33944444444444,37.67611111111111],[-122.33944444444444,37.67611111111111],[-122.25027777777778,37.70638888888889],[-122.06583333333333,37.79472222222222],[-122.06583333333333,37.79472222222222],[-122.06583333333333,37.79472222222222],[-121.27888888888889,38.11],[-121.27888888888889,38.11],[-120.79194444444444,38.19305555555555],[-120.79194444444444,38.19305555555555],[-120.45277777777778,38.245],[-120.45277777777778,38.245],[-120.11861111111111,38.29527777777778],[-119.94888888888889,38.32027777777778],[-119.94888888888889,38.32027777777778],[-119.88527777777779,38.32694444444445],[-119.38555555555556,38.400277777777774],[-119.2213888888889,38.425],[-119.2213888888889,38.425],[-119.05277777777778,38.4475],[-119.05277777777778,38.4475],[-118.19833333333334,38.56444444444444],[-118.19833333333334,38.56444444444444],[-118.19833333333334,38.56444444444444],[-118.05805555555555,38.58277777777778],[-117.71861111111112,38.62638888888889],[-117.54805555555555,38.64805555555556],[-117.51444444444445,38.65222222222222],[-117.51444444444445,38.65222222222222],[-117.34277777777777,38.67361111111111],[-117.34277777777777,38.67361111111111],[-117.34277777777777,38.67361111111111],[-117.17472222222223,38.70027777777778],[-117.07194444444444,38.717777777777776],[-117.07194444444444,38.717777777777776],[-116.87277777777777,38.75138888888889],[-116.87277777777777,38.75138888888889],[-116.70472222222223,38.77972222222222],[-116.56805555555555,38.80222222222222],[-116.53611111111111,38.8075],[-116.53611111111111,38.8075],[-116.20083333333334,38.862500000000004],[-116.20083333333334,38.862500000000004],[-116.20083333333334,38.862500000000004],[-116.05638888888889,38.885555555555555],[-116.03305555555555,38.88944444444444],[-115.69833333333334,38.942499999999995],[-115.53277777777778,38.968333333333334],[-115.36472222222221,38.99444444444445],[-114.85972222222222,39.071111111111115],[-114.85972222222222,39.071111111111115],[-114.85972222222222,39.071111111111115],[-113.85888888888888,39.21638888888889],[-113.85888888888888,39.21638888888889],[-113.85888888888888,39.21638888888889],[-113.35972222222222,39.28527777777778],[-113.19250000000001,39.308611111111105],[-112.86194444444443,39.36527777777778],[-112.86194444444443,39.36527777777778],[-112.17111111111112,39.47972222222222],[-111.85499999999999,39.558055555555555],[-111.54027777777777,39.635555555555555],[-110.93388888888889,39.78194444444444],[-110.61444444444444,39.8575],[-110.4525,39.89527777777778],[-110.28888888888889,39.93333333333333],[-109.96638888888889,40.005],[-109.63555555555556,40.05722222222222],[-108.65,40.20611111111111],[-108.49222222222222,40.22916666666667],[-107.66000000000001,40.34666666666667],[-107.66000000000001,40.34666666666667],[-106.28555555555555,40.44833333333333],[-105.95333333333333,40.45861111111111],[-105.60694444444444,40.468611111111116],[-105.26138888888889,40.477222222222224],[-104.90916666666668,40.485],[-104.90916666666668,40.485],[-104.21222222222222,40.49722222222222],[-104.03888888888889,40.499722222222225],[-104.03888888888889,40.499722222222225],[-103.86777777777777,40.51416666666667],[-103.52722222222222,40.551111111111105],[-103.18805555555556,40.586666666666666],[-103.02,40.60388888888889],[-103.02,40.60388888888889],[-102.67972222222222,40.63805555555555],[-102.51277777777777,40.654444444444444],[-102.17444444444445,40.68666666666666],[-102.17444444444445,40.68666666666666],[-102.00777777777778,40.702222222222225],[-101.49666666666667,40.74861111111111],[-101.3275,40.763333333333335],[-101.3275,40.763333333333335],[-100.98805555555556,40.79222222222222],[-100.81861111111111,40.80638888888888],[-100.81861111111111,40.80638888888888],[-100.65972222222223,40.81916666666667],[-100.65972222222223,40.81916666666667],[-100.47027777777778,40.83527777777778],[-99.95138888888889,40.87416666666667],[-99.60583333333332,40.89888888888889],[-99.60583333333332,40.89888888888889],[-99.43138888888889,40.91083333333333],[-99.25805555555556,40.922777777777775],[-99.08583333333333,40.93416666666666],[-98.93666666666667,40.943888888888885],[-98.93666666666667,40.943888888888885],[-98.76305555555555,40.95472222222222],[-98.76305555555555,40.95472222222222],[-98.21666666666667,40.98777777777778],[-98.03861111111111,40.99777777777778],[-97.86333333333333,41.01083333333333],[-97.86333333333333,41.01083333333333],[-97.6863888888889,41.02611111111111],[-97.50916666666667,41.040277777777774],[-97.50916666666667,41.040277777777774],[-96.42194444444445,41.12138888888889],[-96.42194444444445,41.12138888888889],[-96.26666666666667,41.13194444444444],[-96.26666666666667,41.13194444444444],[-96.09027777777777,41.14416666666666],[-95.55527777777777,41.19194444444444],[-95.37638888888888,41.21666666666667],[-95.20138888888889,41.24027777777778],[-94.85305555555556,41.28638888888889],[-94.70777777777778,41.30555555555555],[-94.70777777777778,41.30555555555555],[-94.67888888888889,41.30916666666666],[-94.53277777777778,41.32805555555556],[-94.33277777777778,41.35333333333333],[-94.18583333333333,41.371944444444445],[-94.18583333333333,41.371944444444445],[-94.15722222222223,41.375277777777775],[-93.83916666666666,41.41444444444444],[-93.49138888888889,41.45333333333333],[-93.45666666666666,41.45638888888889],[-92.74722222222222,41.5225],[-92.74722222222222,41.5225],[-92.57055555555556,41.538333333333334],[-92.44250000000001,41.54972222222222],[-92.21000000000001,41.569722222222225],[-92.21000000000001,41.569722222222225],[-91.9088888888889,41.59527777777778],[-91.85333333333332,41.599444444444444],[-91.72833333333334,41.61],[-91.69416666666667,41.61222222222222],[-91.51472222222222,41.62638888888889],[-91.33666666666666,41.64083333333333],[-91.19444444444444,41.651944444444446],[-91.01861111111111,41.665277777777774],[-90.83916666666666,41.67861111111111],[-90.83916666666666,41.67861111111111],[-90.47166666666666,41.705000000000005],[-90.1125,41.72944444444445],[-89.93222222222222,41.74138888888889],[-89.75,41.753055555555555],[-89.75,41.753055555555555],[-89.57,41.76444444444444],[-89.38861111111112,41.775555555555556],[-89.38861111111112,41.775555555555556],[-89.21027777777778,41.78611111111111],[-88.11611111111111,41.84527777777778],[-88.11611111111111,41.84527777777778],[-87.75138888888888,41.86277777777778],[-87.75138888888888,41.86277777777778],[-87.38611111111112,41.87888888888889],[-87.20305555555557,41.88666666666666],[-87.20305555555557,41.88666666666666],[-86.28805555555556,41.920833333333334],[-85.91861111111112,41.9325],[-85.73,41.937777777777775],[-85.72694444444444,41.93805555555555],[-85.72694444444444,41.93805555555555],[-85.34777777777778,41.948055555555555],[-85.00777777777778,41.95055555555556],[-84.96638888888889,41.95027777777778],[-84.77583333333334,41.94888888888889],[-84.77583333333334,41.94888888888889],[-84.58944444444444,41.94777777777777],[-84.58944444444444,41.94777777777777],[-84.39833333333334,41.94638888888888],[-84.02444444444444,41.942499999999995],[-84.02444444444444,41.942499999999995],[-82.90833333333335,41.931666666666665],[-82.90833333333335,41.931666666666665],[-82.72083333333333,41.93],[-82.3461111111111,41.925555555555555],[-82.3461111111111,41.925555555555555],[-81.95694444444445,41.91972222222222],[-81.33583333333333,41.87111111111111],[-81.14777777777779,41.85388888888889],[-81.14777777777779,41.85388888888889],[-80.95861111111111,41.83694444444445],[-80.76944444444445,41.81861111111112],[-80.76944444444445,41.81861111111112],[-80.66361111111112,41.809444444444445],[-80.09416666666667,41.75222222222222],[-80.09416666666667,41.75222222222222],[-79.51944444444445,41.69138888888889],[-79.44250000000001,41.6825],[-79.32944444444443,41.670833333333334],[-79.32944444444443,41.670833333333334],[-79.25333333333333,41.66166666666666],[-78.75944444444444,41.60666666666667],[-78.75944444444444,41.60666666666667],[-78.57111111111111,41.584722222222226],[-78.52333333333333,41.57916666666667],[-78.19416666666667,41.54],[-78.00111111111111,41.516666666666666],[-78.00111111111111,41.516666666666666],[-77.95805555555556,41.51138888888889],[-77.73166666666667,41.47944444444445],[-77.53861111111111,41.45111111111111],[-77.42166666666667,41.43416666666666],[-77.42166666666667,41.43416666666666],[-77.22611111111111,41.405833333333334],[-77.14861111111112,41.394444444444446],[-77.03666666666666,41.37777777777778],[-76.96055555555556,41.36666666666667],[-76.96055555555556,41.36666666666667],[-76.5038888888889,41.26638888888889],[-76.34416666666667,41.223055555555554],[-76.34416666666667,41.223055555555554],[-76.28999999999999,41.208333333333336],[-76.13444444444445,41.16611111111111],[-75.9925,41.12722222222222],[-75.84472222222222,41.08638888888889],[-75.84472222222222,41.08638888888889],[-75.45194444444445,40.977222222222224],[-75.45194444444445,40.977222222222224],[-75.22944444444444,40.914722222222224],[-75.22944444444444,40.914722222222224],[-75.16666666666667,40.9],[-74.87444444444444,40.93111111111111],[-74.87444444444444,40.93111111111111],[-74.7,40.983333333333334],[-74.5,40.95],[-74.52166666666666,40.89388888888889],[-74.52166666666666,40.89388888888889],[-74.58583333333333,40.78666666666666],[-74.58333333333333,40.78333333333333],[-74.56666666666666,40.71666666666667],[-74.54222222222222,40.656388888888884],[-74.53333333333333,40.65],[-74.51666666666667,40.583333333333336],[-74.48333333333333,40.46666666666667],[-74.4,40.38333333333333],[-74.4,40.38333333333333],[-74.31777777777778,40.44944444444444],[-74.29277777777777,40.49027777777778],[-74.24111111111111,40.57222222222222],[-74.24111111111111,40.57222222222222],[-74.215,40.61222222222222],[-74.18333333333334,40.65],[-74.18333333333334,40.65],[-74.1713888888889,40.68222222222222],[-74.2,40.8],[-74.22,40.79555555555555],[-74.30666666666666,40.775277777777774],[-74.52388888888889,40.64611111111111],[-74.53583333333333,40.51305555555555],[-74.48333333333333,40.483333333333334],[-74.36666666666666,40.416666666666664],[-74.36194444444443,40.427499999999995],[-74.31666666666666,40.45],[-74.28833333333333,40.49722222222222],[-74.28833333333333,40.49722222222222],[-74.26166666666667,40.53916666666667],[-74.21166666666667,40.61805555555556],[-74.21166666666667,40.61805555555556],[-74.19055555555556,40.651666666666664],[-74.19055555555556,40.651666666666664]],"type":"LineString"}
}
