{
  "id": 2015308921,
  "type": "Feature",
  "properties": {
    "geom:area": 0,
    "geom:bbox": "-122.410620,37.625690,-121.252310,38.121950",
    "geom:latitude": 37.88212192418936,
    "geom:longitude": -121.84730143497717,
    "src:alt_label": "swim-takeoff",
    "src:geom": "swim",
    "swim:elevations": [
      122,
      208,
      496,
      696,
      852,
      1013,
      1154,
      1619,
      1840,
      1989,
      2183,
      2339,
      2496,
      2729,
      2823,
      3037,
      3295,
      3481,
      3787,
      4100,
      4499,
      4797,
      4955,
      5283,
      5502,
      5715,
      5812,
      5966,
      6110,
      6132,
      6395,
      6608,
      6876,
      6950
    ],
    "swim:geom": "takeoff",
    "swim:timestamps": [
      1776375629,
      1776375637,
      1776375656,
      1776375673,
      1776375686,
      1776375704,
      1776375730,
      1776375778,
      1776375796,
      1776375807,
      1776375820,
      1776375830,
      1776375842,
      1776375861,
      1776375870,
      1776375889,
      1776375928,
      1776375955,
      1776375983,
      1776376011,
      1776376046,
      1776376076,
      1776376093,
      1776376134,
      1776376161,
      1776376183,
      1776376195,
      1776376213,
      1776376228,
      1776376231,
      1776376274,
      1776376303,
      1776376343,
      1776376354
    ],
    "wof:geomhash": "2617941f1670db3bfba51500692c8a2c",
    "wof:id": 2015308921,
    "wof:repo": "sfomuseum-data-flights-2026-04"
  },
  "bbox": [
    -122.41062,
    37.62569,
    -121.25231,
    38.12195
  ],
  "geometry": {"coordinates":[[-122.39161,37.62569],[-122.39988,37.62917],[-122.41062,37.64246],[-122.40444,37.65443],[-122.39401,37.661],[-122.37521,37.66722],[-122.34646,37.67633],[-122.2808,37.69696],[-122.25521,37.70499],[-122.23961,37.70983],[-122.22189,37.71545],[-122.20834,37.72116],[-122.19254,37.72907],[-122.16707,37.74235],[-122.15625,37.74802],[-122.13024,37.7615],[-122.07448,37.79],[-122.03194,37.81206],[-121.98503,37.83392],[-121.93458,37.85393],[-121.86935,37.87939],[-121.81429,37.90131],[-121.78146,37.91443],[-121.70372,37.9453],[-121.65065,37.96625],[-121.60576,37.98387],[-121.58184,37.99329],[-121.54581,38.0074],[-121.51516,38.01939],[-121.5091,38.02176],[-121.422,38.05601],[-121.36006,38.08009],[-121.2753,38.11304],[-121.25231,38.12195]],"type":"LineString"}
}
