{
  "id": 2031152999,
  "type": "Feature",
  "properties": {
    "geom:area": 0,
    "geom:bbox": "-122.396660,37.623890,-121.300920,37.991900",
    "geom:latitude": 37.933566924491856,
    "geom:longitude": -121.9655441588347,
    "src:alt_label": "swim-takeoff",
    "src:geom": "swim",
    "swim:elevations": [
      244,
      525,
      754,
      1196,
      1448,
      1820,
      2458,
      2560,
      3073,
      3381,
      3383,
      3833,
      4144,
      4481,
      4634,
      5118,
      5205,
      5249,
      5468,
      5627,
      5773,
      5987,
      6222,
      6387,
      6725,
      6948,
      6973
    ],
    "swim:geom": "takeoff",
    "swim:timestamps": [
      1777593207,
      1777593229,
      1777593255,
      1777593295,
      1777593317,
      1777593345,
      1777593387,
      1777593393,
      1777593426,
      1777593474,
      1777593494,
      1777593533,
      1777593559,
      1777593590,
      1777593604,
      1777593649,
      1777593658,
      1777593661,
      1777593688,
      1777593706,
      1777593726,
      1777593753,
      1777593794,
      1777593815,
      1777593862,
      1777593898,
      1777593901
    ],
    "wof:geomhash": "1277fbfce457e9784dabe8f750eed91d",
    "wof:id": 2031152999,
    "wof:repo": "sfomuseum-data-flights-2026-04"
  },
  "bbox": [
    -122.39666,
    37.62389,
    -121.30092,
    37.9919
  ],
  "geometry": {"coordinates":[[-122.38706,37.62389],[-122.39666,37.63602],[-122.38886,37.65628],[-122.36402,37.6898],[-122.34668,37.71118],[-122.33627,37.74198],[-122.36053,37.79312],[-122.3645,37.80039],[-122.38546,37.84252],[-122.37867,37.91279],[-122.35248,37.93802],[-122.26612,37.96384],[-122.20594,37.97655],[-122.13299,37.98867],[-122.09953,37.98904],[-121.98755,37.98939],[-121.96475,37.98964],[-121.95713,37.98969],[-121.88791,37.99007],[-121.84104,37.99031],[-121.78728,37.99053],[-121.71495,37.99095],[-121.60202,37.99148],[-121.54312,37.9918],[-121.41253,37.9919],[-121.30954,37.99149],[-121.30092,37.99146]],"type":"LineString"}
}
