{
  "id": 2031113163,
  "type": "Feature",
  "properties": {
    "geom:area": 0,
    "geom:bbox": "-122.391440,37.626100,-121.263600,38.323610",
    "geom:latitude": 38.05984365905369,
    "geom:longitude": -121.94408488062024,
    "src:alt_label": "swim-takeoff",
    "src:geom": "swim",
    "swim:elevations": [
      302,
      819,
      1140,
      1346,
      1462,
      2328,
      2883,
      3076,
      3309,
      3991,
      4586,
      5012,
      5343,
      5775,
      6056,
      6444,
      6574,
      6836,
      6871,
      7165,
      7269,
      7467,
      7650,
      7719,
      7773,
      7935
    ],
    "swim:geom": "takeoff",
    "swim:timestamps": [
      1777158521,
      1777158564,
      1777158612,
      1777158654,
      1777158671,
      1777158731,
      1777158777,
      1777158795,
      1777158828,
      1777158886,
      1777158923,
      1777158958,
      1777158983,
      1777159016,
      1777159037,
      1777159075,
      1777159097,
      1777159136,
      1777159142,
      1777159189,
      1777159207,
      1777159240,
      1777159278,
      1777159293,
      1777159309,
      1777159346
    ],
    "wof:geomhash": "5dbe3a51f762ed3cfb3e75a0dc484183",
    "wof:id": 2031113163,
    "wof:repo": "sfomuseum-data-flights-2026-04"
  },
  "bbox": [
    -122.39144,
    37.6261,
    -121.2636,
    38.32361
  ],
  "geometry": {"coordinates":[[-122.39144,37.6261],[-122.38886,37.65571],[-122.36212,37.69057],[-122.3369,37.73013],[-122.34034,37.75038],[-122.37396,37.82034],[-122.38415,37.87621],[-122.38357,37.89972],[-122.3677,37.94275],[-122.26478,37.98837],[-122.19407,38.01725],[-122.12644,38.04439],[-122.07493,38.06146],[-122.00543,38.08431],[-121.96078,38.09888],[-121.87805,38.12582],[-121.83105,38.141],[-121.74483,38.16888],[-121.73154,38.17319],[-121.62594,38.20733],[-121.58537,38.22044],[-121.51069,38.24437],[-121.42403,38.27232],[-121.38932,38.28353],[-121.35231,38.29535],[-121.2636,38.32361]],"type":"LineString"}
}
