{
  "id": 2015212101,
  "type": "Feature",
  "properties": {
    "geom:area": 0,
    "geom:bbox": "-122.937940,37.432600,-122.117650,38.501940",
    "geom:latitude": 37.845645426676846,
    "geom:longitude": -122.52056771924356,
    "src:alt_label": "swim-approach",
    "src:geom": "swim",
    "swim:elevations": [
      7620,
      7468,
      7308,
      6971,
      6698,
      6463,
      6215,
      6018,
      5721,
      5426,
      5411,
      5155,
      4827,
      4589,
      4383,
      4358,
      4114,
      3876,
      3785,
      3655,
      3379,
      3353,
      3353,
      3353,
      3306,
      3271,
      3099,
      2911,
      2819,
      2570,
      2425,
      2251,
      2225,
      2140,
      1843,
      1631,
      1533,
      1386,
      1280,
      1196,
      1009,
      880,
      701,
      614,
      525,
      404,
      241,
      212,
      88
    ],
    "swim:geom": "approach",
    "swim:timestamps": [
      1775385656,
      1775385674,
      1775385696,
      1775385736,
      1775385771,
      1775385800,
      1775385831,
      1775385855,
      1775385891,
      1775385928,
      1775385932,
      1775385964,
      1775386005,
      1775386030,
      1775386052,
      1775386056,
      1775386090,
      1775386136,
      1775386162,
      1775386179,
      1775386217,
      1775386252,
      1775386288,
      1775386306,
      1775386348,
      1775386352,
      1775386377,
      1775386409,
      1775386426,
      1775386466,
      1775386491,
      1775386514,
      1775386518,
      1775386535,
      1775386576,
      1775386610,
      1775386631,
      1775386652,
      1775386667,
      1775386684,
      1775386730,
      1775386757,
      1775386787,
      1775386804,
      1775386817,
      1775386845,
      1775386887,
      1775386894,
      1775386925
    ],
    "wof:geomhash": "084eac8250b7c29429681c7b92d0a728",
    "wof:id": 2015212101,
    "wof:repo": "sfomuseum-data-flights-2026-04"
  },
  "bbox": [
    -122.93794,
    37.4326,
    -122.11765,
    38.50194
  ],
  "geometry": {"coordinates":[[-122.93794,38.50194],[-122.92008,38.47308],[-122.89902,38.4389],[-122.86172,38.3783],[-122.82994,38.32644],[-122.80415,38.28447],[-122.77611,38.23807],[-122.76103,38.20204],[-122.74488,38.14708],[-122.72868,38.09109],[-122.72692,38.08496],[-122.71264,38.03559],[-122.69464,37.97352],[-122.68406,37.93703],[-122.67274,37.90583],[-122.66956,37.90047],[-122.63163,37.86014],[-122.57755,37.80914],[-122.54871,37.78211],[-122.53133,37.7657],[-122.49327,37.72968],[-122.45834,37.6968],[-122.42378,37.66426],[-122.40599,37.64752],[-122.3681,37.61177],[-122.36435,37.60749],[-122.35193,37.58303],[-122.33559,37.55198],[-122.32542,37.53489],[-122.30213,37.49825],[-122.27966,37.47861],[-122.25398,37.46566],[-122.24945,37.46341],[-122.2296,37.45373],[-122.18274,37.4326],[-122.14368,37.44548],[-122.1298,37.46352],[-122.11765,37.48169],[-122.11813,37.49615],[-122.12623,37.51003],[-122.17038,37.53456],[-122.19792,37.54653],[-122.22947,37.55969],[-122.24608,37.56679],[-122.25994,37.57266],[-122.28497,37.58322],[-122.31746,37.59682],[-122.32273,37.59908],[-122.34606,37.60884]],"type":"LineString"}
}
