{
  "id": 2031100853,
  "type": "Feature",
  "properties": {
    "geom:area": 0,
    "geom:bbox": "-122.380000,37.490000,-87.910000,42.160000",
    "geom:latitude": 40.29749884070714,
    "geom:longitude": -105.19853550023825,
    "src:alt_label": "swim-route",
    "src:geom": "swim",
    "swim:geom": "route",
    "wof:geomhash": "76d4125342c632dfcb56d4ab57c3948a",
    "wof:id": 2031100853,
    "wof:repo": "sfomuseum-data-flights-2026-04"
  },
  "bbox": [
    -122.38,
    37.49,
    -87.91,
    42.16
  ],
  "geometry": {"coordinates":[[-87.91,41.98],[-88.03,42],[-88.08,42.01],[-88.19,42.04],[-88.2,42.04],[-88.33,42.06],[-88.33,42.07],[-88.41,42.08],[-88.63,42.13],[-88.71,42.14],[-88.79,42.16],[-88.81,42.16],[-88.82,42.16],[-88.92,42.16],[-88.98,42.16],[-89.24,42.15],[-89.54,42.14],[-89.73,42.14],[-89.92,42.13],[-90.37,42.12],[-90.54,42.11],[-90.88,42.1],[-91.06,42.09],[-91.12,42.09],[-91.28,42.08],[-91.51,42.08],[-93.24,42.09],[-93.3,42.09],[-93.53,42.09],[-93.69,42.07],[-94.79,41.94],[-96.24,41.75],[-96.44,41.73],[-97,41.65],[-97.34,41.6],[-97.58,41.56],[-98,41.5],[-99.03,41.5],[-100,41.5],[-101.3,41.27],[-103.04,40.95],[-103.72,40.85],[-104.6,40.72],[-105.2,40.63],[-105.6,40.57],[-105.95,40.51],[-106,40.5],[-107.33,40.21],[-107.92,40.07],[-108.49,39.98],[-109.73,39.79],[-109.76,39.78],[-109.83,39.77],[-109.87,39.77],[-110.4,39.68],[-111.71,39.45],[-112.51,39.3],[-113.32,39.12],[-113.38,39.1],[-113.53,39.07],[-114.67,38.79],[-116.17,38.41],[-116.89,38.22],[-117.27,38.12],[-117.27,38.12],[-117.77,38],[-118.01,37.98],[-118.76,37.9],[-118.96,37.87],[-119.1,37.86],[-119.38,37.83],[-119.77,37.78],[-119.82,37.77],[-119.92,37.76],[-120.02,37.75],[-120.31,37.71],[-120.4,37.7],[-120.4,37.7],[-120.57,37.68],[-120.69,37.67],[-120.75,37.66],[-120.79,37.65],[-120.8,37.65],[-120.96,37.63],[-121,37.63],[-121.01,37.63],[-121.07,37.62],[-121.17,37.61],[-121.26,37.59],[-121.39,37.58],[-121.41,37.58],[-121.6,37.55],[-121.61,37.55],[-121.62,37.55],[-121.72,37.53],[-121.8,37.51],[-121.88,37.49],[-121.89,37.49],[-122.01,37.53],[-122.08,37.54],[-122.18,37.57],[-122.18,37.57],[-122.28,37.59],[-122.33,37.61],[-122.36,37.61],[-122.38,37.62]],"type":"LineString"}
}
