{
  "id": 2031138165,
  "type": "Feature",
  "properties": {
    "geom:area": 0,
    "geom:bbox": "-179.060000,-37.020000,179.150000,37.620000",
    "geom:latitude": -20.54784995107601,
    "geom:longitude": -28.148822400298158,
    "src:alt_label": "swim-route",
    "src:geom": "swim",
    "swim:geom": "route",
    "wof:geomhash": "9e38b97ae3e6dd6c557a68ac88cba0d8",
    "wof:id": 2031138165,
    "wof:repo": "sfomuseum-data-flights-2026-04"
  },
  "bbox": [
    -179.06,
    -37.02,
    179.15,
    37.62
  ],
  "geometry": {"coordinates":[[[-122.38,37.62],[-122.66,37.55],[-122.85,37.5],[-122.87,37.5],[-122.93,37.48],[-122.94,37.48],[-123.07,37.45],[-123.28,37.4],[-123.42,37.36],[-123.69,37.29],[-123.73,37.28],[-124.03,37.21],[-124.3,37.14],[-124.37,37.12],[-124.44,37.1],[-124.58,37.06],[-125,36.95],[-126.89,36.43],[-126.89,36.43],[-130.16,35.43],[-142.39,30.65],[-143.35,30.2],[-150.88,26.28],[-154.22,24.32],[-154.25,24.3],[-154.98,23.53],[-155.16,23.34],[-156.5,21.68],[-156.52,21.67],[-157.12,21.07],[-157.18,20.82],[-157.65,20.23],[-158.05,19.7],[-158.28,19.4],[-158.34,19.34],[-159.52,17.78],[-159.54,17.76],[-159.56,17.73],[-159.72,17.4],[-161,15],[-161.93,12.68],[-163,10],[-163.82,7.97],[-165,5],[-165.57,3.57],[-166.14,2.14],[-166.43,1.43],[-166.77,0.6],[-167,0],[-168.97,-5],[-171.09,-10],[-171.97,-12.03],[-173.36,-15.16],[-175.6,-20],[-178.08,-25],[-179.06,-26.84]],[[179.15,-30.07],[176.75,-34.07],[176.21,-34.9],[176.11,-35.04],[176.09,-35.09],[175.9,-35.38],[175.86,-35.43],[175.71,-35.66],[175.58,-35.85],[175.45,-36.04],[175.27,-36.32],[175.17,-36.46],[175.04,-36.65],[175.01,-36.69],[174.93,-36.8],[174.88,-36.87],[174.83,-36.94],[174.78,-37.02]]],"type":"MultiLineString"}
}
