{
  "id": 2031097015,
  "type": "Feature",
  "properties": {
    "geom:area": 0,
    "geom:bbox": "-122.525833,37.519444,-77.473611,38.992500",
    "geom:latitude": 38.25443598651315,
    "geom:longitude": -99.85508196279815,
    "src:alt_label": "swim-path",
    "src:geom": "swim",
    "swim:altitudes": [
      "028",
      "040",
      "060",
      "060",
      "060",
      "091",
      "096",
      "096",
      "132",
      "154",
      "170",
      "170",
      "189",
      "189",
      "227",
      "241",
      "241",
      "255",
      "255",
      "280",
      "280",
      "280",
      "295",
      "312",
      "321",
      "321",
      "330",
      "330",
      "337",
      "345",
      "370C",
      "370C",
      "370C",
      "370C",
      "370C",
      "370C",
      "370C",
      "370C",
      "370C",
      "370C",
      "370C",
      "370C",
      "370C",
      "370C",
      "370C",
      "371",
      "371",
      "385",
      "385",
      "385",
      "390C",
      "390C",
      "390C",
      "390C",
      "390C",
      "390C",
      "390C",
      "390C",
      "390C",
      "390C",
      "390C",
      "390C",
      "390C",
      "390C",
      "390C",
      "390C",
      "390C",
      "390C",
      "390C",
      "390C",
      "390C",
      "390C",
      "390C",
      "390C",
      "390C",
      "390C",
      "390C",
      "390C",
      "390C",
      "390C",
      "390C",
      "390C",
      "390C",
      "390C",
      "390C",
      "390C",
      "390C",
      "390C",
      "390C",
      "390C",
      "390C",
      "390C",
      "390C",
      "390C",
      "390C",
      "390C",
      "390C",
      "390C",
      "390C",
      "390C",
      "390C",
      "390C",
      "390C",
      "390C",
      "390C",
      "390C",
      "390C",
      "390C",
      "390C",
      "390C",
      "390C",
      "390C",
      "390C",
      "390C",
      "390C",
      "390C",
      "390C",
      "390C",
      "390C",
      "390C",
      "390C",
      "390C",
      "390C",
      "390C",
      "390C",
      "390C",
      "390C",
      "390C",
      "390C",
      "390C",
      "390C",
      "390C",
      "390C",
      "390C",
      "390C",
      "390C",
      "390C",
      "390C",
      "390C",
      "390C",
      "390C",
      "390C",
      "390C",
      "390C",
      "390C",
      "390C",
      "390C",
      "390C",
      "390C",
      "390C",
      "390C",
      "390C",
      "390C",
      "390C",
      "390C",
      "390C",
      "390C",
      "390C",
      "390C",
      "390C",
      "390C",
      "390C",
      "390C",
      "390C",
      "390C",
      "390C",
      "390C",
      "390C",
      "390C",
      "390C",
      "390C",
      "390C",
      "390C",
      "390C",
      "390C",
      "390C",
      "390C",
      "390C",
      "390C",
      "390C",
      "390C",
      "390C",
      "390C",
      "390C",
      "390C",
      "390C",
      "390C",
      "390C",
      "390C",
      "390C",
      "390C",
      "390C",
      "390C",
      "390C",
      "390C",
      "390C",
      "390C",
      "390C",
      "390C",
      "390C",
      "390C",
      "390C",
      "390C",
      "390C",
      "390C",
      "390C",
      "390C",
      "390C",
      "390C",
      "390C",
      "390C",
      "390C",
      "390C",
      "390C",
      "390C",
      "390C",
      "390C",
      "390C",
      "390C",
      "390C",
      "390C",
      "390C",
      "390C",
      "390C",
      "390C",
      "390C",
      "390C",
      "390C",
      "390C",
      "378",
      "332C",
      "330C",
      "330C",
      "330C",
      "330C",
      "330C",
      "330C",
      "330",
      "287",
      "234",
      "234",
      "168",
      "138",
      "100",
      "094",
      "060",
      "060",
      "058",
      "040",
      "032",
      "019",
      "003"
    ],
    "swim:geom": "path",
    "swim:speeds": [
      175,
      234,
      259,
      259,
      259,
      265,
      277,
      277,
      336,
      374,
      386,
      386,
      397,
      397,
      422,
      441,
      441,
      457,
      457,
      490,
      490,
      490,
      507,
      518,
      537,
      537,
      546,
      546,
      547,
      547,
      558,
      558,
      558,
      558,
      554,
      554,
      551,
      551,
      550,
      550,
      547,
      547,
      547,
      547,
      548,
      549,
      549,
      551,
      551,
      551,
      552,
      550,
      550,
      550,
      550,
      550,
      550,
      550,
      549,
      549,
      549,
      548,
      548,
      550,
      550,
      550,
      552,
      552,
      552,
      555,
      555,
      555,
      558,
      562,
      562,
      562,
      562,
      560,
      560,
      560,
      566,
      566,
      566,
      577,
      566,
      566,
      568,
      566,
      566,
      566,
      564,
      564,
      564,
      567,
      568,
      568,
      569,
      568,
      568,
      568,
      568,
      569,
      569,
      570,
      570,
      571,
      571,
      571,
      571,
      569,
      567,
      567,
      567,
      566,
      566,
      565,
      565,
      565,
      563,
      561,
      561,
      561,
      559,
      556,
      554,
      554,
      554,
      556,
      562,
      556,
      559,
      556,
      556,
      562,
      562,
      564,
      566,
      566,
      569,
      576,
      576,
      581,
      581,
      557,
      557,
      556,
      556,
      557,
      557,
      556,
      557,
      557,
      557,
      557,
      566,
      566,
      566,
      568,
      568,
      568,
      568,
      557,
      557,
      557,
      557,
      556,
      555,
      555,
      554,
      554,
      551,
      551,
      541,
      541,
      534,
      534,
      534,
      535,
      535,
      526,
      526,
      520,
      520,
      525,
      525,
      525,
      515,
      515,
      514,
      514,
      512,
      512,
      512,
      512,
      512,
      512,
      512,
      512,
      513,
      512,
      513,
      513,
      515,
      515,
      515,
      514,
      512,
      512,
      512,
      512,
      513,
      515,
      515,
      515,
      516,
      516,
      515,
      515,
      512,
      506,
      507,
      509,
      512,
      516,
      515,
      504,
      477,
      477,
      477,
      470,
      465,
      469,
      470,
      470,
      471,
      471,
      470,
      471,
      455,
      427,
      427,
      374,
      367,
      297,
      299,
      286,
      262,
      217,
      210,
      208,
      202,
      164
    ],
    "swim:timestamps": [
      1776975320,
      1776975375,
      1776975425,
      1776975425,
      1776975425,
      1776975485,
      1776975495,
      1776975495,
      1776975605,
      1776975676,
      1776975725,
      1776975725,
      1776975785,
      1776975785,
      1776975905,
      1776975965,
      1776975965,
      1776976025,
      1776976025,
      1776976146,
      1776976146,
      1776976146,
      1776976206,
      1776976294,
      1776976326,
      1776976326,
      1776976414,
      1776976414,
      1776976446,
      1776976474,
      1776976595,
      1776976595,
      1776976595,
      1776976655,
      1776976686,
      1776976686,
      1776976746,
      1776976746,
      1776976775,
      1776976835,
      1776977015,
      1776977047,
      1776977047,
      1776977047,
      1776977135,
      1776977195,
      1776977195,
      1776977287,
      1776977287,
      1776977287,
      1776977347,
      1776977436,
      1776977468,
      1776977496,
      1776977528,
      1776977528,
      1776977528,
      1776977588,
      1776977616,
      1776977676,
      1776977676,
      1776977796,
      1776977796,
      1776977916,
      1776977916,
      1776977916,
      1776978097,
      1776978097,
      1776978097,
      1776978217,
      1776978217,
      1776978217,
      1776978397,
      1776978577,
      1776978577,
      1776978577,
      1776978637,
      1776978697,
      1776978697,
      1776978697,
      1776978878,
      1776978878,
      1776978878,
      1776978970,
      1776978998,
      1776978998,
      1776979091,
      1776979118,
      1776979151,
      1776979151,
      1776979211,
      1776979238,
      1776979238,
      1776979298,
      1776979331,
      1776979331,
      1776979358,
      1776979418,
      1776979451,
      1776979451,
      1776979478,
      1776979599,
      1776979599,
      1776979691,
      1776979691,
      1776979751,
      1776979751,
      1776979779,
      1776979779,
      1776980052,
      1776980112,
      1776980172,
      1776980232,
      1776980292,
      1776980292,
      1776980472,
      1776980472,
      1776980472,
      1776980533,
      1776980593,
      1776980593,
      1776980593,
      1776980653,
      1776980713,
      1776980893,
      1776980893,
      1776980893,
      1776981193,
      1776981202,
      1776981262,
      1776981314,
      1776981322,
      1776981322,
      1776981374,
      1776981374,
      1776981434,
      1776981442,
      1776981442,
      1776981562,
      1776981614,
      1776981614,
      1776981674,
      1776981674,
      1776981914,
      1776981914,
      1776981983,
      1776981983,
      1776982035,
      1776982035,
      1776982043,
      1776982095,
      1776982103,
      1776982215,
      1776982215,
      1776982335,
      1776982335,
      1776982335,
      1776982464,
      1776982464,
      1776982524,
      1776982524,
      1776982764,
      1776982884,
      1776982884,
      1776982884,
      1776982944,
      1776983005,
      1776983005,
      1776983125,
      1776983125,
      1776983185,
      1776983185,
      1776983305,
      1776983305,
      1776983365,
      1776983365,
      1776983365,
      1776983545,
      1776983545,
      1776983666,
      1776983666,
      1776983786,
      1776983786,
      1776984086,
      1776984086,
      1776984086,
      1776984387,
      1776984387,
      1776984447,
      1776984447,
      1776984627,
      1776984627,
      1776984627,
      1776984687,
      1776984687,
      1776984988,
      1776984988,
      1776984988,
      1776985048,
      1776985108,
      1776985168,
      1776985168,
      1776985348,
      1776985348,
      1776985348,
      1776985408,
      1776985468,
      1776985468,
      1776985468,
      1776985529,
      1776985589,
      1776985707,
      1776985707,
      1776985707,
      1776985947,
      1776985947,
      1776986067,
      1776986067,
      1776986308,
      1776986550,
      1776986729,
      1776986789,
      1776986969,
      1776987329,
      1776987449,
      1776987690,
      1776987810,
      1776987870,
      1776987990,
      1776988351,
      1776988591,
      1776988674,
      1776988771,
      1776988854,
      1776988952,
      1776989012,
      1776989072,
      1776989154,
      1776989432,
      1776989613,
      1776989613,
      1776989829,
      1776989936,
      1776990130,
      1776990176,
      1776990417,
      1776990610,
      1776990670,
      1776990851,
      1776990958,
      1776991031,
      1776991198
    ],
    "wof:geomhash": "dc8749c5c99df5cc7cc48303b351d55d",
    "wof:id": 2031097015,
    "wof:repo": "sfomuseum-data-flights-2026-04"
  },
  "bbox": [
    -122.52583333333334,
    37.519444444444446,
    -77.47361111111111,
    38.9925
  ],
  "geometry": {"coordinates":[[-122.45,37.65],[-122.5,37.666666666666664],[-122.52583333333334,37.72138888888889],[-122.52583333333334,37.72138888888889],[-122.52583333333334,37.72138888888889],[-122.52305555555556,37.794444444444444],[-122.51666666666667,37.8],[-122.51666666666667,37.8],[-122.33027777777778,37.85],[-122.18333333333334,37.86666666666667],[-122.07305555555556,37.880833333333335],[-122.07305555555556,37.880833333333335],[-121.93527777777778,37.89694444444444],[-121.93527777777778,37.89694444444444],[-121.64888888888889,37.93],[-121.4975,37.947222222222216],[-121.4975,37.947222222222216],[-121.33888888888889,37.965],[-121.33888888888889,37.965],[-121.00777777777778,38.00611111111111],[-121.00777777777778,38.00611111111111],[-121.00777777777778,38.00611111111111],[-120.83277777777778,38.033055555555556],[-120.59305555555555,38.06888888888889],[-120.46916666666667,38.088055555555556],[-120.46916666666667,38.088055555555556],[-120.17611111111111,38.13],[-120.17611111111111,38.13],[-120.09166666666667,38.14416666666666],[-119.98722222222223,38.15833333333333],[-119.6,38.21388888888889],[-119.6,38.21388888888889],[-119.6,38.21388888888889],[-119.40833333333335,38.240833333333335],[-119.33083333333333,38.25333333333333],[-119.33083333333333,38.25333333333333],[-119.14166666666668,38.27972222222222],[-119.14166666666668,38.27972222222222],[-119.03,38.29416666666666],[-118.8386111111111,38.32055555555556],[-118.27555555555556,38.395833333333336],[-118.15444444444445,38.41166666666666],[-118.15444444444445,38.41166666666666],[-118.15444444444445,38.41166666666666],[-117.89166666666668,38.445277777777775],[-117.69833333333334,38.469722222222224],[-117.69833333333334,38.469722222222224],[-117.42277777777778,38.50388888888889],[-117.42277777777778,38.50388888888889],[-117.42277777777778,38.50388888888889],[-117.22472222222223,38.51916666666666],[-116.9113888888889,38.5125],[-116.82972222222222,38.51083333333333],[-116.71611111111112,38.50805555555556],[-116.63333333333334,38.50611111111111],[-116.63333333333334,38.50611111111111],[-116.63333333333334,38.50611111111111],[-116.43694444444445,38.50111111111111],[-116.32527777777777,38.49805555555556],[-116.13083333333333,38.4925],[-116.13083333333333,38.4925],[-115.73972222222223,38.480555555555554],[-115.73972222222223,38.480555555555554],[-115.35277777777777,38.4675],[-115.35277777777777,38.4675],[-115.35277777777777,38.4675],[-114.77638888888889,38.445277777777775],[-114.77638888888889,38.445277777777775],[-114.77638888888889,38.445277777777775],[-114.38305555555554,38.42861111111111],[-114.38305555555554,38.42861111111111],[-114.38305555555554,38.42861111111111],[-113.78944444444444,38.401111111111106],[-113.19333333333334,38.37027777777778],[-113.19333333333334,38.37027777777778],[-113.19333333333334,38.37027777777778],[-112.99527777777777,38.35],[-112.80555555555556,38.30722222222222],[-112.80555555555556,38.30722222222222],[-112.80555555555556,38.30722222222222],[-112.20055555555555,38.305277777777775],[-112.20055555555555,38.305277777777775],[-112.20055555555555,38.305277777777775],[-111.92194444444445,38.30416666666667],[-111.80194444444444,38.30361111111111],[-111.80194444444444,38.30361111111111],[-111.5213888888889,38.30166666666666],[-111.39944444444446,38.300555555555555],[-111.32083333333333,38.29972222222222],[-111.32083333333333,38.29972222222222],[-111.12138888888889,38.297777777777775],[-111.00138888888888,38.296388888888885],[-111.00138888888888,38.296388888888885],[-110.81777777777778,38.29388888888889],[-110.69861111111112,38.29222222222222],[-110.69861111111112,38.29222222222222],[-110.61749999999999,38.29083333333333],[-110.4175,38.28777777777778],[-110.29916666666666,38.285555555555554],[-110.29916666666666,38.285555555555554],[-110.21611111111112,38.28388888888889],[-109.81416666666667,38.275555555555556],[-109.81416666666667,38.275555555555556],[-109.49472222222222,38.268055555555556],[-109.49472222222222,38.268055555555556],[-109.29388888888889,38.26277777777778],[-109.29388888888889,38.26277777777778],[-109.21388888888889,38.260555555555555],[-109.21388888888889,38.260555555555555],[-108.29638888888888,38.23166666666667],[-108.09805555555555,38.224444444444444],[-107.8963888888889,38.21666666666667],[-107.69833333333334,38.20888888888889],[-107.50027777777778,38.200833333333335],[-107.50027777777778,38.200833333333335],[-106.89416666666668,38.17333333333333],[-106.89416666666668,38.17333333333333],[-106.89416666666668,38.17333333333333],[-106.70944444444444,38.16444444444444],[-106.51055555555556,38.154444444444444],[-106.51055555555556,38.154444444444444],[-106.51055555555556,38.154444444444444],[-106.30416666666666,38.14388888888889],[-106.10555555555555,38.13333333333333],[-105.51472222222222,38.099444444444444],[-105.51472222222222,38.099444444444444],[-105.51472222222222,38.099444444444444],[-104.53527777777778,38.0375],[-104.52916666666667,38.035555555555554],[-104.33638888888889,38.02027777777778],[-104.14222222222223,38.01027777777778],[-104.1413888888889,38.00861111111111],[-104.1413888888889,38.00861111111111],[-103.94194444444445,38.00055555555556],[-103.94194444444445,38.00055555555556],[-103.74194444444444,38.00194444444445],[-103.74555555555555,38.00194444444445],[-103.74555555555555,38.00194444444445],[-103.3436111111111,38.00361111111111],[-103.13444444444445,38.00416666666667],[-103.13444444444445,38.00416666666667],[-102.92777777777778,38.00388888888889],[-102.92777777777778,38.00388888888889],[-102.14333333333335,37.99916666666667],[-102.14333333333335,37.99916666666667],[-101.94833333333334,37.98861111111111],[-101.94833333333334,37.98861111111111],[-101.75111111111111,37.977222222222224],[-101.75111111111111,37.977222222222224],[-101.75638888888889,37.9775],[-101.55527777777777,37.965833333333336],[-101.55722222222222,37.965833333333336],[-101.16305555555556,37.94166666666666],[-101.16305555555556,37.94166666666666],[-100.79916666666666,37.91777777777777],[-100.79916666666666,37.91777777777777],[-100.79916666666666,37.91777777777777],[-100.36,37.88805555555555],[-100.36,37.88805555555555],[-100.15916666666668,37.87361111111111],[-100.15916666666668,37.87361111111111],[-99.375,37.81472222222222],[-98.98666666666666,37.78361111111111],[-98.98666666666666,37.78361111111111],[-98.98666666666666,37.78361111111111],[-98.79444444444444,37.76777777777777],[-98.60194444444444,37.75138888888889],[-98.60194444444444,37.75138888888889],[-98.21777777777778,37.71805555555556],[-98.21777777777778,37.71805555555556],[-98.03083333333333,37.70138888888889],[-98.03083333333333,37.70138888888889],[-97.65611111111112,37.666666666666664],[-97.65611111111112,37.666666666666664],[-97.47333333333333,37.64944444444444],[-97.47333333333333,37.64944444444444],[-97.47333333333333,37.64944444444444],[-96.91361111111112,37.595],[-96.91361111111112,37.595],[-96.54722222222222,37.558055555555555],[-96.54722222222222,37.558055555555555],[-96.1825,37.519444444444446],[-96.1825,37.519444444444446],[-95.28805555555556,37.66],[-95.28805555555556,37.66],[-95.28805555555556,37.66],[-94.41055555555556,37.85055555555556],[-94.41055555555556,37.85055555555556],[-94.23694444444445,37.88722222222222],[-94.23694444444445,37.88722222222222],[-93.71361111111112,37.99638888888889],[-93.71361111111112,37.99638888888889],[-93.71361111111112,37.99638888888889],[-93.53999999999999,38.03194444444444],[-93.53999999999999,38.03194444444444],[-92.6588888888889,38.208333333333336],[-92.6588888888889,38.208333333333336],[-92.6588888888889,38.208333333333336],[-92.48111111111112,38.24277777777778],[-92.30555555555556,38.276944444444446],[-92.1236111111111,38.31194444444444],[-92.1236111111111,38.31194444444444],[-91.58916666666666,38.41222222222222],[-91.58916666666666,38.41222222222222],[-91.58916666666666,38.41222222222222],[-91.41111111111111,38.445277777777775],[-91.24361111111111,38.475833333333334],[-91.24361111111111,38.475833333333334],[-91.24361111111111,38.475833333333334],[-91.0675,38.50805555555556],[-90.89083333333333,38.53972222222222],[-90.53805555555556,38.60111111111111],[-90.53805555555556,38.60111111111111],[-90.53805555555556,38.60111111111111],[-89.83833333333332,38.723888888888894],[-89.83833333333332,38.723888888888894],[-89.48333333333333,38.7825],[-89.48333333333333,38.7825],[-88.76166666666667,38.834722222222226],[-88.06388888888888,38.70277777777778],[-87.53583333333333,38.614444444444445],[-87.35416666666666,38.61083333333333],[-86.8,38.59666666666667],[-85.69777777777779,38.568333333333335],[-85.32972222222222,38.5575],[-84.62416666666665,38.53333333333333],[-84.28416666666666,38.519999999999996],[-84.11444444444444,38.51305555555555],[-83.77722222222222,38.49861111111111],[-82.77222222222223,38.44944444444444],[-82.10916666666667,38.41222222222222],[-81.87972222222221,38.39833333333333],[-81.61416666666666,38.38194444444444],[-81.38194444444444,38.36694444444444],[-81.11805555555554,38.349444444444444],[-80.95333333333333,38.338055555555556],[-80.7863888888889,38.32666666666667],[-80.55333333333333,38.315555555555555],[-79.8175,38.44333333333333],[-79.36472222222221,38.52472222222222],[-79.36472222222221,38.52472222222222],[-78.85,38.61666666666667],[-78.63444444444445,38.669999999999995],[-78.3,38.78333333333333],[-78.24027777777778,38.82944444444445],[-77.85499999999999,38.94222222222222],[-77.58333333333333,38.88333333333333],[-77.58333333333333,38.81666666666667],[-77.5,38.7],[-77.47722222222222,38.78944444444444],[-77.48333333333333,38.86666666666667],[-77.47361111111111,38.9925]],"type":"LineString"}
}
