{
  "id": 2015203423,
  "type": "Feature",
  "properties": {
    "geom:area": 0,
    "geom:bbox": "-122.353480,37.492220,-121.272130,37.611990",
    "geom:latitude": 37.541691628387795,
    "geom:longitude": -121.81969757086078,
    "src:alt_label": "swim-approach",
    "src:geom": "swim",
    "swim:elevations": [
      4559,
      4241,
      3921,
      3870,
      3386,
      3166,
      3081,
      3019,
      2667,
      2573,
      2405,
      2186,
      2054,
      1792,
      1691,
      1581,
      1314,
      1154,
      1033,
      943,
      739,
      599,
      456,
      371,
      265,
      147,
      32
    ],
    "swim:geom": "approach",
    "swim:timestamps": [
      1775347227,
      1775347257,
      1775347287,
      1775347294,
      1775347340,
      1775347372,
      1775347396,
      1775347423,
      1775347463,
      1775347480,
      1775347521,
      1775347548,
      1775347575,
      1775347617,
      1775347635,
      1775347654,
      1775347706,
      1775347736,
      1775347762,
      1775347779,
      1775347815,
      1775347848,
      1775347881,
      1775347900,
      1775347930,
      1775347960,
      1775347990
    ],
    "wof:geomhash": "0c8b13b0d8f04623c8b4e74f3ee3b2a4",
    "wof:id": 2015203423,
    "wof:repo": "sfomuseum-data-flights-2026-04"
  },
  "bbox": [
    -122.35348,
    37.49222,
    -121.27213,
    37.61199
  ],
  "geometry": {"coordinates":[[-121.27213,37.59151],[-121.33701,37.584],[-121.40059,37.57708],[-121.41445,37.57551],[-121.50927,37.56448],[-121.57293,37.55693],[-121.61831,37.55154],[-121.66216,37.54189],[-121.72656,37.5267],[-121.75302,37.52042],[-121.81586,37.50528],[-121.85738,37.49514],[-121.90167,37.49222],[-121.96706,37.49588],[-121.99455,37.49752],[-122.02378,37.49934],[-122.09946,37.50559],[-122.135,37.51997],[-122.16337,37.53197],[-122.18146,37.53967],[-122.21622,37.5542],[-122.24529,37.56649],[-122.27244,37.57793],[-122.28646,37.58384],[-122.30942,37.5935],[-122.3316,37.60278],[-122.35348,37.61199]],"type":"LineString"}
}
