{
  "id": 2015308319,
  "type": "Feature",
  "properties": {
    "geom:area": 0,
    "geom:bbox": "-122.553710,36.732660,-121.314840,37.669540",
    "geom:latitude": 37.21077091862091,
    "geom:longitude": -122.01402419196022,
    "src:alt_label": "swim-takeoff",
    "src:geom": "swim",
    "swim:elevations": [
      267,
      744,
      775,
      1192,
      1268,
      1471,
      1729,
      2009,
      2410,
      2923,
      3262,
      3441,
      3662,
      3836,
      4277,
      4626,
      4851,
      5002,
      5213,
      5451,
      5791,
      5972,
      6198,
      6426,
      6676,
      6782,
      6973,
      7249,
      7377,
      7631,
      7835,
      7894,
      8032,
      8138
    ],
    "swim:geom": "takeoff",
    "swim:timestamps": [
      1776383300,
      1776383337,
      1776383341,
      1776383394,
      1776383403,
      1776383421,
      1776383439,
      1776383462,
      1776383493,
      1776383530,
      1776383567,
      1776383596,
      1776383629,
      1776383647,
      1776383687,
      1776383727,
      1776383749,
      1776383767,
      1776383788,
      1776383814,
      1776383847,
      1776383871,
      1776383897,
      1776383922,
      1776383952,
      1776383968,
      1776383991,
      1776384024,
      1776384039,
      1776384081,
      1776384113,
      1776384127,
      1776384148,
      1776384168
    ],
    "wof:geomhash": "1bfb15b5eb3d4e4cc81fc8b82194c7a4",
    "wof:id": 2015308319,
    "wof:repo": "sfomuseum-data-flights-2026-04"
  },
  "bbox": [
    -122.55371,
    36.73266,
    -121.31484,
    37.66954
  ],
  "geometry": {"coordinates":[[-122.40374,37.63054],[-122.43899,37.64525],[-122.44259,37.64685],[-122.49835,37.66954],[-122.51148,37.66924],[-122.53723,37.66053],[-122.55371,37.6413],[-122.55349,37.6114],[-122.52839,37.57268],[-122.49781,37.52647],[-122.46255,37.48235],[-122.41955,37.45368],[-122.36597,37.41941],[-122.33503,37.39977],[-122.26663,37.35531],[-122.1943,37.30845],[-122.15366,37.28256],[-122.1204,37.26074],[-122.08097,37.23507],[-122.03222,37.20335],[-121.96827,37.16194],[-121.92165,37.13177],[-121.86951,37.09798],[-121.81917,37.06516],[-121.7613,37.02733],[-121.72914,37.00624],[-121.68342,36.97618],[-121.61437,36.93079],[-121.58388,36.91072],[-121.49784,36.85401],[-121.4315,36.81025],[-121.40231,36.7909],[-121.3578,36.76153],[-121.31484,36.73266]],"type":"LineString"}
}
