{
  "id": 2015211153,
  "type": "Feature",
  "properties": {
    "geom:area": 0,
    "geom:bbox": "-122.360990,37.492150,-121.246250,37.614050",
    "geom:latitude": 37.543075323867114,
    "geom:longitude": -121.81053748408371,
    "src:alt_label": "swim-approach",
    "src:geom": "swim",
    "swim:elevations": [
      4594,
      4385,
      3937,
      3640,
      3365,
      3202,
      3099,
      2879,
      2603,
      2439,
      2438,
      2307,
      2208,
      1990,
      1915,
      1801,
      1642,
      1521,
      1329,
      1187,
      995,
      885,
      765,
      603,
      489,
      383,
      312,
      163,
      120,
      0
    ],
    "swim:geom": "approach",
    "swim:timestamps": [
      1775434549,
      1775434570,
      1775434618,
      1775434648,
      1775434678,
      1775434698,
      1775434729,
      1775434766,
      1775434789,
      1775434825,
      1775434842,
      1775434885,
      1775434904,
      1775434943,
      1775434958,
      1775434983,
      1775435004,
      1775435026,
      1775435057,
      1775435084,
      1775435127,
      1775435151,
      1775435174,
      1775435208,
      1775435246,
      1775435274,
      1775435292,
      1775435335,
      1775435349,
      1775435380
    ],
    "wof:geomhash": "86cba36f0c97a3b749da9962fe6bb6ac",
    "wof:id": 2015211153,
    "wof:repo": "sfomuseum-data-flights-2026-04"
  },
  "bbox": [
    -122.36099,
    37.49215,
    -121.24625,
    37.61405
  ],
  "geometry": {"coordinates":[[-121.24625,37.5947],[-121.2896,37.58891],[-121.38436,37.57831],[-121.44324,37.57166],[-121.50042,37.56501],[-121.53806,37.56066],[-121.59359,37.55436],[-121.6551,37.54347],[-121.69194,37.53452],[-121.74638,37.52159],[-121.77073,37.51564],[-121.8314,37.50081],[-121.85731,37.49478],[-121.91187,37.49215],[-121.93332,37.49366],[-121.96875,37.49618],[-121.99886,37.49808],[-122.0289,37.49995],[-122.07055,37.50222],[-122.10626,37.50782],[-122.15401,37.52812],[-122.17921,37.53864],[-122.20139,37.54795],[-122.23481,37.56204],[-122.26741,37.57583],[-122.28784,37.58438],[-122.30071,37.58984],[-122.33,37.60214],[-122.33977,37.60626],[-122.36099,37.61405]],"type":"LineString"}
}
