{
  "id": 2015245153,
  "type": "Feature",
  "properties": {
    "geom:area": 0,
    "geom:bbox": "-122.361220,37.491140,-121.255640,37.615000",
    "geom:latitude": 37.542754195733664,
    "geom:longitude": -121.8155230763796,
    "src:alt_label": "swim-approach",
    "src:geom": "swim",
    "swim:elevations": [
      5087,
      4783,
      4739,
      4496,
      4427,
      4020,
      3778,
      3608,
      3351,
      3353,
      3353,
      3346,
      3036,
      2893,
      2546,
      2476,
      2317,
      2269,
      2077,
      1968,
      1805,
      1456,
      1320,
      1181,
      1125,
      990,
      755,
      683,
      652,
      422,
      386,
      364,
      272,
      228,
      42,
      192
    ],
    "swim:geom": "approach",
    "swim:timestamps": [
      1775723417,
      1775723456,
      1775723460,
      1775723487,
      1775723493,
      1775723538,
      1775723571,
      1775723594,
      1775723632,
      1775723640,
      1775723666,
      1775723681,
      1775723727,
      1775723745,
      1775723788,
      1775723797,
      1775723815,
      1775723820,
      1775723845,
      1775723861,
      1775723883,
      1775723936,
      1775723962,
      1775723998,
      1775724007,
      1775724036,
      1775724072,
      1775724088,
      1775724093,
      1775724141,
      1775724147,
      1775724153,
      1775724173,
      1775724187,
      1775724231,
      1775724244
    ],
    "wof:geomhash": "d90e9bec72a793245c1324c9bde73acd",
    "wof:id": 2015245153,
    "wof:repo": "sfomuseum-data-flights-2026-04"
  },
  "bbox": [
    -122.36122,
    37.49114,
    -121.25564,
    37.615
  ],
  "geometry": {"coordinates":[[-121.25564,37.59375],[-121.32181,37.5858],[-121.32845,37.58506],[-121.37461,37.57976],[-121.38537,37.57863],[-121.46136,37.57009],[-121.51653,37.56339],[-121.55441,37.55916],[-121.61586,37.5518],[-121.62918,37.5495],[-121.66922,37.54004],[-121.69175,37.53473],[-121.76134,37.51819],[-121.78829,37.51179],[-121.85192,37.49592],[-121.86531,37.49277],[-121.89325,37.49114],[-121.9006,37.49166],[-121.93955,37.49422],[-121.96239,37.49539],[-121.99546,37.49726],[-122.06776,37.50162],[-122.099,37.50527],[-122.13799,37.5215],[-122.14802,37.52545],[-122.17766,37.53794],[-122.2162,37.55424],[-122.23253,37.56125],[-122.23765,37.56336],[-122.28214,37.58205],[-122.28702,37.58414],[-122.29183,37.58607],[-122.30707,37.59252],[-122.31812,37.59708],[-122.35151,37.61116],[-122.36122,37.615]],"type":"LineString"}
}
