{
  "id": 2015347715,
  "type": "Feature",
  "properties": {
    "geom:area": 0,
    "geom:bbox": "-122.359200,37.486290,-122.099280,37.614220",
    "geom:latitude": 37.55864689679272,
    "geom:longitude": -122.21219499680335,
    "src:alt_label": "swim-approach",
    "src:geom": "swim",
    "swim:elevations": [
      1458,
      1253,
      1100,
      895,
      792,
      762,
      676,
      608,
      478,
      331,
      233,
      128,
      74
    ],
    "swim:geom": "approach",
    "swim:timestamps": [
      1776754808,
      1776754850,
      1776754878,
      1776754910,
      1776754947,
      1776754976,
      1776754993,
      1776755008,
      1776755035,
      1776755061,
      1776755087,
      1776755111,
      1776755139
    ],
    "wof:geomhash": "7ff92258904652f3c3a03092a920fce6",
    "wof:id": 2015347715,
    "wof:repo": "sfomuseum-data-flights-2026-04"
  },
  "bbox": [
    -122.3592,
    37.48629,
    -122.09928,
    37.61422
  ],
  "geometry": {"coordinates":[[-122.10438,37.48629],[-122.09928,37.52707],[-122.11721,37.54512],[-122.1504,37.54493],[-122.18859,37.54402],[-122.21726,37.55465],[-122.23305,37.56142],[-122.24722,37.56739],[-122.27297,37.57818],[-122.2961,37.58799],[-122.31707,37.59666],[-122.33624,37.6047],[-122.3592,37.61422]],"type":"LineString"}
}
