{
  "id": 2015233105,
  "type": "Feature",
  "properties": {
    "geom:area": 0,
    "geom:bbox": "-122.380000,30.190000,-97.670000,38.520000",
    "geom:latitude": 35.62101261348609,
    "geom:longitude": -109.68435938017132,
    "src:alt_label": "swim-route",
    "src:geom": "swim",
    "swim:geom": "route",
    "wof:geomhash": "2ca9d65a283f3ffffbe31d4b2bc840a7",
    "wof:id": 2015233105,
    "wof:repo": "sfomuseum-data-flights-2026-04"
  },
  "bbox": [
    -122.38,
    30.19,
    -97.67,
    38.52
  ],
  "geometry": {"coordinates":[[-122.38,37.62],[-122.27,37.69],[-122.24,37.71],[-122.23,37.71],[-122.21,37.72],[-122.17,37.74],[-122.17,37.74],[-122.16,37.75],[-122.15,37.75],[-122.14,37.75],[-122.1,37.78],[-122.09,37.78],[-122,37.83],[-121.93,37.84],[-121.73,37.88],[-121.7,37.88],[-121.64,37.89],[-121.56,37.91],[-121.4,37.94],[-121.39,37.94],[-121.34,37.95],[-121.2,37.97],[-121.1,37.99],[-121.06,38],[-121.02,38],[-120.93,38.02],[-120.81,38.04],[-120.62,38.07],[-120.52,38.08],[-120.41,38.1],[-120.31,38.11],[-119.94,38.17],[-119.79,38.19],[-119.18,38.27],[-117.29,38.52],[-117.28,38.52],[-114.33,38.4],[-113.95,38.31],[-112.57,37.97],[-112,37.83],[-111.56,37.55],[-110,36.5],[-109.29,36.07],[-109.22,36.03],[-109.03,35.9],[-108.96,35.85],[-108.81,35.74],[-108.3,35.61],[-108.05,35.74],[-107.72,35.42],[-107.42,35.28],[-107.3,35.22],[-106.61,34.86],[-106.16,34.62],[-105.68,34.37],[-105.2,34.11],[-105,34],[-104.23,33.58],[-104,33.44],[-103.8,33.32],[-103.78,33.31],[-103.41,33.15],[-103.16,33.02],[-101.76,32.33],[-101.53,32.22],[-101.38,32.14],[-101.19,32.05],[-100.92,31.91],[-100.13,31.5],[-99.91,31.4],[-99.9,31.39],[-99.77,31.34],[-99.74,31.33],[-99.68,31.3],[-99.5,31.23],[-99.46,31.21],[-99.42,31.19],[-99.11,31.06],[-99.05,31.04],[-98.81,30.94],[-98.45,30.78],[-98.39,30.75],[-98.28,30.7],[-98.15,30.65],[-98.12,30.64],[-98.1,30.63],[-97.94,30.57],[-97.93,30.56],[-97.88,30.52],[-97.84,30.49],[-97.75,30.43],[-97.75,30.41],[-97.74,30.39],[-97.74,30.39],[-97.72,30.33],[-97.69,30.25],[-97.67,30.19]],"type":"LineString"}
}
