{
  "id": 2031131063,
  "type": "Feature",
  "properties": {
    "geom:area": 0,
    "geom:bbox": "-122.359444,33.394167,-112.033333,37.614444",
    "geom:latitude": 34.863565742893,
    "geom:longitude": -117.60876285587806,
    "src:alt_label": "swim-path",
    "src:geom": "swim",
    "swim:altitudes": [
      "017",
      "017",
      "017",
      "028",
      "046",
      "053",
      "053",
      "071",
      "071",
      "071",
      "096",
      "113",
      "113",
      "138",
      "167",
      "167",
      "167",
      "219",
      "219",
      "241",
      "241",
      "241",
      "276",
      "276",
      "291",
      "291",
      "291",
      "308",
      "326",
      "326",
      "338C",
      "338C",
      "340C",
      "340C",
      "340C",
      "340C",
      "340C",
      "340C",
      "340C",
      "340C",
      "340C",
      "340C",
      "340C",
      "340C",
      "340C",
      "340C",
      "340C",
      "340C",
      "340C",
      "340C",
      "340C",
      "340C",
      "340C",
      "340C",
      "340C",
      "340C",
      "340C",
      "340C",
      "340C",
      "340C",
      "340C",
      "340C",
      "340C",
      "340C",
      "340C",
      "340C",
      "340C",
      "340C",
      "340C",
      "340C",
      "340C",
      "340C",
      "340C",
      "340C",
      "340C",
      "340C",
      "340C",
      "340C",
      "340C",
      "340C",
      "340C",
      "340C",
      "340C",
      "340C",
      "340C",
      "340C",
      "340C",
      "340C",
      "340C",
      "340C",
      "340C",
      "327",
      "327",
      "317",
      "317",
      "307",
      "307",
      "300",
      "300",
      "300",
      "300",
      "300C",
      "300C",
      "300C",
      "300C",
      "300C",
      "300C",
      "300C",
      "300C",
      "300C",
      "300C",
      "300C",
      "300C",
      "300C",
      "280",
      "245",
      "237",
      "237",
      "228",
      "178",
      "178",
      "156",
      "141",
      "134",
      "112",
      "112",
      "102",
      "071",
      "071",
      "048",
      "048",
      "032",
      "026",
      "001",
      "001"
    ],
    "swim:geom": "path",
    "swim:speeds": [
      183,
      183,
      183,
      184,
      237,
      268,
      268,
      269,
      269,
      269,
      275,
      276,
      276,
      312,
      335,
      335,
      335,
      349,
      349,
      357,
      357,
      357,
      368,
      368,
      378,
      378,
      378,
      384,
      379,
      379,
      373,
      373,
      369,
      369,
      369,
      369,
      369,
      369,
      366,
      366,
      366,
      366,
      377,
      377,
      377,
      377,
      378,
      379,
      379,
      380,
      380,
      382,
      382,
      384,
      384,
      384,
      387,
      387,
      387,
      387,
      385,
      385,
      385,
      384,
      384,
      382,
      382,
      382,
      383,
      383,
      383,
      383,
      383,
      376,
      376,
      376,
      370,
      370,
      370,
      370,
      370,
      370,
      370,
      391,
      391,
      391,
      392,
      392,
      392,
      392,
      392,
      389,
      389,
      389,
      389,
      390,
      390,
      395,
      395,
      395,
      395,
      395,
      395,
      394,
      394,
      394,
      399,
      399,
      399,
      402,
      414,
      418,
      418,
      418,
      340,
      334,
      327,
      327,
      328,
      314,
      314,
      303,
      294,
      294,
      283,
      283,
      260,
      233,
      233,
      233,
      233,
      216,
      213,
      140,
      140
    ],
    "swim:timestamps": [
      1777410852,
      1777410852,
      1777410852,
      1777410886,
      1777410946,
      1777410967,
      1777410967,
      1777411007,
      1777411007,
      1777411007,
      1777411062,
      1777411122,
      1777411122,
      1777411182,
      1777411242,
      1777411242,
      1777411242,
      1777411362,
      1777411362,
      1777411422,
      1777411422,
      1777411422,
      1777411542,
      1777411542,
      1777411602,
      1777411602,
      1777411602,
      1777411663,
      1777411723,
      1777411723,
      1777411783,
      1777411783,
      1777411843,
      1777411843,
      1777411843,
      1777411903,
      1777411903,
      1777411903,
      1777412083,
      1777412083,
      1777412083,
      1777412083,
      1777412264,
      1777412264,
      1777412264,
      1777412264,
      1777412324,
      1777412384,
      1777412384,
      1777412444,
      1777412444,
      1777412504,
      1777412504,
      1777412564,
      1777412564,
      1777412564,
      1777412744,
      1777412744,
      1777412744,
      1777412804,
      1777412864,
      1777412864,
      1777412864,
      1777412925,
      1777412925,
      1777413105,
      1777413105,
      1777413105,
      1777413285,
      1777413285,
      1777413345,
      1777413345,
      1777413345,
      1777413525,
      1777413525,
      1777413525,
      1777413706,
      1777413706,
      1777413706,
      1777413826,
      1777413826,
      1777413826,
      1777413826,
      1777414006,
      1777414006,
      1777414006,
      1777414187,
      1777414187,
      1777414187,
      1777414247,
      1777414247,
      1777414367,
      1777414367,
      1777414427,
      1777414427,
      1777414487,
      1777414487,
      1777414547,
      1777414547,
      1777414547,
      1777414547,
      1777414667,
      1777414667,
      1777414787,
      1777414787,
      1777414787,
      1777414968,
      1777414968,
      1777414968,
      1777415088,
      1777415208,
      1777415328,
      1777415328,
      1777415328,
      1777415749,
      1777415929,
      1777415955,
      1777415955,
      1777415989,
      1777416169,
      1777416169,
      1777416255,
      1777416315,
      1777416350,
      1777416435,
      1777416435,
      1777416495,
      1777416650,
      1777416650,
      1777416770,
      1777416770,
      1777416855,
      1777416890,
      1777417070,
      1777417070
    ],
    "wof:geomhash": "f7380e8b3be9d11c9caac2073d84c904",
    "wof:id": 2031131063,
    "wof:repo": "sfomuseum-data-flights-2026-04"
  },
  "bbox": [
    -122.35944444444443,
    33.39416666666666,
    -112.03333333333333,
    37.614444444444445
  ],
  "geometry": {"coordinates":[[-112.03333333333333,33.43333333333333],[-112.03333333333333,33.43333333333333],[-112.03333333333333,33.43333333333333],[-112.06638888888888,33.42666666666666],[-112.13583333333334,33.40694444444444],[-112.16666666666667,33.4],[-112.16666666666667,33.4],[-112.22277777777778,33.39416666666666],[-112.22277777777778,33.39416666666666],[-112.22277777777778,33.39416666666666],[-112.29555555555555,33.405277777777776],[-112.38777777777779,33.41777777777777],[-112.38777777777779,33.41777777777777],[-112.49527777777777,33.43416666666666],[-112.60722222222222,33.45027777777778],[-112.60722222222222,33.45027777777778],[-112.60722222222222,33.45027777777778],[-112.83555555555554,33.45944444444445],[-112.83555555555554,33.45944444444445],[-112.95138888888889,33.48111111111111],[-112.95138888888889,33.48111111111111],[-112.95138888888889,33.48111111111111],[-113.18694444444445,33.52472222222222],[-113.18694444444445,33.52472222222222],[-113.31083333333333,33.5475],[-113.31083333333333,33.5475],[-113.31083333333333,33.5475],[-113.44777777777779,33.572500000000005],[-113.57027777777778,33.595],[-113.57027777777778,33.595],[-113.69055555555556,33.617777777777775],[-113.69055555555556,33.617777777777775],[-113.8111111111111,33.64],[-113.8111111111111,33.64],[-113.8111111111111,33.64],[-113.93055555555556,33.66166666666666],[-113.93055555555556,33.66166666666666],[-113.93055555555556,33.66166666666666],[-114.28777777777778,33.72694444444445],[-114.28777777777778,33.72694444444445],[-114.28777777777778,33.72694444444445],[-114.28777777777778,33.72694444444445],[-114.64694444444446,33.80416666666667],[-114.64694444444446,33.80416666666667],[-114.64694444444446,33.80416666666667],[-114.64694444444446,33.80416666666667],[-114.76722222222222,33.83527777777778],[-114.88861111111112,33.86666666666667],[-114.88861111111112,33.86666666666667],[-115.01138888888889,33.897777777777776],[-115.01138888888889,33.897777777777776],[-115.13333333333334,33.928888888888885],[-115.13333333333334,33.928888888888885],[-115.2575,33.96027777777778],[-115.2575,33.96027777777778],[-115.2575,33.96027777777778],[-115.6286111111111,34.05333333333333],[-115.6286111111111,34.05333333333333],[-115.6286111111111,34.05333333333333],[-115.75277777777778,34.08416666666667],[-115.87472222222222,34.114444444444445],[-115.87472222222222,34.114444444444445],[-115.87472222222222,34.114444444444445],[-116,34.144999999999996],[-116,34.144999999999996],[-116.36805555555554,34.234722222222224],[-116.36805555555554,34.234722222222224],[-116.36805555555554,34.234722222222224],[-116.73972222222223,34.32416666666667],[-116.73972222222223,34.32416666666667],[-116.86277777777777,34.35333333333333],[-116.86277777777777,34.35333333333333],[-116.86277777777777,34.35333333333333],[-117.22638888888889,34.43888888888888],[-117.22638888888889,34.43888888888888],[-117.22638888888889,34.43888888888888],[-117.58916666666666,34.52305555555555],[-117.58916666666666,34.52305555555555],[-117.58916666666666,34.52305555555555],[-117.82888888888888,34.57805555555556],[-117.82888888888888,34.57805555555556],[-117.82888888888888,34.57805555555556],[-117.82888888888888,34.57805555555556],[-118.18416666666667,34.70777777777778],[-118.18416666666667,34.70777777777778],[-118.18416666666667,34.70777777777778],[-118.53361111111111,34.86944444444445],[-118.53361111111111,34.86944444444445],[-118.53361111111111,34.86944444444445],[-118.64027777777778,34.91861111111111],[-118.64027777777778,34.91861111111111],[-118.86666666666666,35.022777777777776],[-118.86666666666666,35.022777777777776],[-118.98527777777778,35.07638888888889],[-118.98527777777778,35.07638888888889],[-119.10166666666666,35.12972222222222],[-119.10166666666666,35.12972222222222],[-119.21555555555555,35.18138888888889],[-119.21555555555555,35.18138888888889],[-119.21555555555555,35.18138888888889],[-119.21555555555555,35.18138888888889],[-119.45,35.28666666666666],[-119.45,35.28666666666666],[-119.68527777777778,35.391666666666666],[-119.68527777777778,35.391666666666666],[-119.68527777777778,35.391666666666666],[-120.06527777777778,35.56055555555555],[-120.06527777777778,35.56055555555555],[-120.06527777777778,35.56055555555555],[-120.3086111111111,35.66722222222222],[-120.55749999999999,35.76444444444444],[-120.81222222222222,35.861111111111114],[-120.81222222222222,35.861111111111114],[-120.81222222222222,35.861111111111114],[-121.55444444444444,36.16555555555556],[-121.67,36.42805555555555],[-121.68333333333334,36.46666666666667],[-121.68333333333334,36.46666666666667],[-121.71222222222222,36.511944444444445],[-121.89083333333333,36.73916666666667],[-121.89083333333333,36.73916666666667],[-121.93333333333334,36.86666666666667],[-121.95,36.93333333333333],[-121.965,36.98222222222223],[-122,37.1],[-122,37.1],[-122.03333333333333,37.166666666666664],[-122.09861111111111,37.32416666666667],[-122.09861111111111,37.32416666666667],[-122.14416666666668,37.44916666666666],[-122.14416666666668,37.44916666666666],[-122.18333333333334,37.53333333333333],[-122.21305555555556,37.55277777777778],[-122.35944444444443,37.614444444444445],[-122.35944444444443,37.614444444444445]],"type":"LineString"}
}
