{
  "id": 2031149761,
  "type": "Feature",
  "properties": {
    "geom:area": 0,
    "geom:bbox": "-122.322778,29.952778,-95.286944,38.335000",
    "geom:latitude": 36.02627634745206,
    "geom:longitude": -107.92887135593587,
    "src:alt_label": "swim-path",
    "src:geom": "swim",
    "swim:altitudes": [
      "009",
      "009",
      "041",
      "046",
      "046",
      "071",
      "092",
      "092",
      "092",
      "144",
      "144",
      "144",
      "200",
      "200",
      "200",
      "249",
      "258",
      "258",
      "258",
      "277",
      "277",
      "277",
      "280C",
      "280C",
      "280C",
      "280C",
      "280C",
      "280C",
      "280C",
      "280C",
      "280C",
      "280C",
      "280C",
      "280C",
      "280C",
      "280C",
      "280C",
      "280C",
      "280C",
      "280C",
      "280C",
      "280C",
      "280C",
      "280C",
      "280C",
      "280C",
      "280C",
      "280C",
      "280C",
      "280C",
      "280C",
      "280C",
      "280C",
      "280C",
      "280C",
      "280C",
      "280C",
      "280C",
      "280C",
      "280C",
      "280C",
      "280C",
      "280C",
      "280C",
      "280C",
      "280C",
      "280C",
      "280C",
      "280C",
      "280C",
      "280C",
      "280C",
      "280C",
      "280C",
      "280C",
      "280C",
      "280C",
      "280C",
      "280C",
      "280C",
      "280C",
      "280C",
      "280C",
      "280C",
      "280C",
      "280C",
      "280C",
      "280C",
      "280C",
      "280C",
      "280C",
      "280C",
      "280C",
      "280C",
      "280C",
      "283",
      "289",
      "289",
      "298C",
      "300C",
      "300C",
      "300C",
      "300C",
      "300C",
      "300C",
      "300C",
      "300C",
      "300C",
      "300C",
      "300C",
      "300C",
      "300C",
      "300C",
      "300C",
      "300C",
      "300C",
      "300C",
      "300C",
      "300C",
      "300C",
      "300C",
      "300C",
      "300C",
      "300C",
      "300C",
      "300C",
      "300C",
      "300C",
      "300C",
      "300C",
      "300C",
      "300C",
      "300C",
      "300C",
      "300C",
      "300C",
      "300C",
      "300C",
      "300C",
      "300C",
      "300C",
      "300C",
      "300C",
      "300C",
      "300C",
      "300C",
      "300C",
      "300C",
      "300C",
      "300C",
      "300C",
      "300C",
      "300C",
      "300C",
      "300C",
      "300C",
      "300C",
      "300C",
      "300C",
      "300C",
      "300C",
      "300C",
      "300C",
      "300C",
      "300C",
      "300C",
      "300C",
      "300C",
      "300C",
      "300C",
      "300C",
      "300C",
      "300C",
      "300C",
      "300C",
      "300C",
      "300C",
      "300C",
      "300C",
      "300C",
      "300C",
      "300C",
      "300C",
      "300C",
      "300C",
      "300C",
      "300C",
      "300C",
      "300C",
      "300C",
      "300C",
      "300C",
      "300C",
      "300C",
      "300C",
      "300C",
      "300C",
      "300C",
      "300C",
      "300C",
      "300C",
      "300C",
      "300C",
      "300C",
      "300C",
      "300C",
      "300C",
      "300C",
      "300C",
      "300C",
      "300C",
      "300C",
      "300C",
      "300C",
      "300C",
      "300C",
      "300C",
      "300C",
      "300C",
      "300C",
      "300C",
      "300C",
      "300C",
      "300C",
      "300C",
      "300C",
      "300C",
      "300C",
      "300C",
      "300C",
      "300C",
      "300C",
      "300",
      "300",
      "300",
      "300",
      "280",
      "237",
      "237",
      "225",
      "225",
      "218",
      "218",
      "205",
      "199",
      "199",
      "179",
      "105",
      "099",
      "099",
      "096",
      "096",
      "092",
      "092",
      "064",
      "064",
      "056",
      "052",
      "052",
      "034",
      "025",
      "025",
      "016",
      "016",
      "007"
    ],
    "swim:geom": "path",
    "swim:speeds": [
      187,
      187,
      258,
      257,
      257,
      270,
      285,
      285,
      285,
      348,
      348,
      348,
      355,
      355,
      355,
      372,
      384,
      384,
      384,
      389,
      389,
      389,
      427,
      427,
      427,
      448,
      453,
      453,
      457,
      457,
      457,
      432,
      432,
      432,
      426,
      426,
      425,
      425,
      425,
      425,
      423,
      423,
      421,
      420,
      420,
      421,
      421,
      426,
      426,
      426,
      428,
      430,
      431,
      431,
      431,
      432,
      423,
      423,
      423,
      421,
      421,
      421,
      421,
      421,
      421,
      421,
      421,
      421,
      420,
      420,
      420,
      420,
      420,
      419,
      419,
      419,
      418,
      418,
      416,
      416,
      416,
      416,
      411,
      408,
      406,
      405,
      402,
      402,
      402,
      401,
      400,
      400,
      400,
      400,
      400,
      401,
      398,
      398,
      390,
      388,
      386,
      385,
      385,
      385,
      386,
      386,
      386,
      386,
      386,
      385,
      385,
      385,
      385,
      385,
      385,
      385,
      389,
      389,
      394,
      394,
      394,
      394,
      391,
      391,
      394,
      394,
      394,
      404,
      404,
      406,
      411,
      411,
      413,
      413,
      415,
      415,
      415,
      418,
      418,
      422,
      424,
      424,
      424,
      426,
      426,
      426,
      422,
      422,
      417,
      417,
      417,
      418,
      418,
      419,
      419,
      421,
      421,
      421,
      426,
      426,
      426,
      424,
      422,
      420,
      420,
      420,
      421,
      421,
      422,
      422,
      422,
      424,
      424,
      424,
      423,
      423,
      423,
      423,
      423,
      423,
      423,
      423,
      423,
      423,
      423,
      423,
      422,
      422,
      424,
      424,
      425,
      425,
      425,
      425,
      432,
      432,
      433,
      433,
      433,
      433,
      435,
      437,
      437,
      445,
      445,
      445,
      447,
      448,
      448,
      448,
      448,
      448,
      447,
      447,
      377,
      377,
      375,
      373,
      373,
      373,
      365,
      353,
      353,
      353,
      373,
      373,
      373,
      375,
      375,
      376,
      376,
      376,
      391,
      399,
      399,
      399,
      402,
      394,
      394,
      383,
      383,
      384,
      384,
      373,
      375,
      375,
      366,
      341,
      298,
      298,
      270,
      270,
      255,
      255,
      236,
      236,
      232,
      229,
      229,
      186,
      182,
      182,
      168,
      168,
      153
    ],
    "swim:timestamps": [
      1777599723,
      1777599723,
      1777599838,
      1777599853,
      1777599853,
      1777599913,
      1777599973,
      1777599973,
      1777599973,
      1777600151,
      1777600151,
      1777600151,
      1777600332,
      1777600332,
      1777600332,
      1777600572,
      1777600632,
      1777600632,
      1777600632,
      1777600752,
      1777600752,
      1777600752,
      1777600872,
      1777600872,
      1777600872,
      1777600932,
      1777600993,
      1777600993,
      1777601053,
      1777601053,
      1777601053,
      1777601233,
      1777601233,
      1777601233,
      1777601533,
      1777601533,
      1777601593,
      1777601593,
      1777601653,
      1777601653,
      1777601894,
      1777601894,
      1777601954,
      1777602014,
      1777602014,
      1777602134,
      1777602134,
      1777602194,
      1777602194,
      1777602194,
      1777602314,
      1777602374,
      1777602435,
      1777602435,
      1777602435,
      1777602495,
      1777602615,
      1777602615,
      1777602615,
      1777602795,
      1777602795,
      1777602795,
      1777602855,
      1777602855,
      1777602975,
      1777602975,
      1777603010,
      1777603130,
      1777603156,
      1777603156,
      1777603216,
      1777603216,
      1777603310,
      1777603336,
      1777603370,
      1777603370,
      1777603396,
      1777603396,
      1777603430,
      1777603430,
      1777603430,
      1777603456,
      1777603550,
      1777603636,
      1777603671,
      1777603696,
      1777603756,
      1777603756,
      1777603756,
      1777603791,
      1777603851,
      1777603851,
      1777603877,
      1777603877,
      1777603911,
      1777603997,
      1777604031,
      1777604031,
      1777604057,
      1777604091,
      1777604151,
      1777604177,
      1777604177,
      1777604211,
      1777604297,
      1777604332,
      1777604332,
      1777604332,
      1777604452,
      1777604572,
      1777604572,
      1777604572,
      1777604632,
      1777604752,
      1777604752,
      1777604752,
      1777604873,
      1777604873,
      1777604925,
      1777604925,
      1777605045,
      1777605045,
      1777605113,
      1777605113,
      1777605473,
      1777605473,
      1777605473,
      1777605525,
      1777605525,
      1777605586,
      1777605646,
      1777605646,
      1777605714,
      1777605714,
      1777605766,
      1777605766,
      1777605766,
      1777605834,
      1777605834,
      1777605954,
      1777606006,
      1777606014,
      1777606014,
      1777606066,
      1777606066,
      1777606066,
      1777606186,
      1777606186,
      1777606315,
      1777606315,
      1777606315,
      1777606435,
      1777606435,
      1777606555,
      1777606555,
      1777606667,
      1777606667,
      1777606667,
      1777606847,
      1777606847,
      1777606847,
      1777606967,
      1777607028,
      1777607148,
      1777607148,
      1777607148,
      1777607208,
      1777607208,
      1777607508,
      1777607508,
      1777607508,
      1777607689,
      1777607689,
      1777607689,
      1777607809,
      1777607809,
      1777607869,
      1777607869,
      1777607869,
      1777608410,
      1777608410,
      1777608530,
      1777608530,
      1777608709,
      1777608709,
      1777608709,
      1777608890,
      1777608890,
      1777609070,
      1777609070,
      1777609190,
      1777609190,
      1777609190,
      1777609250,
      1777609550,
      1777609550,
      1777609671,
      1777609791,
      1777609849,
      1777609849,
      1777609911,
      1777610029,
      1777610029,
      1777610151,
      1777610151,
      1777610151,
      1777610271,
      1777610331,
      1777610331,
      1777610389,
      1777610451,
      1777610451,
      1777610511,
      1777610570,
      1777610692,
      1777610692,
      1777610750,
      1777610812,
      1777610812,
      1777610812,
      1777610992,
      1777611172,
      1777611172,
      1777611172,
      1777611410,
      1777611410,
      1777611410,
      1777611531,
      1777611771,
      1777611891,
      1777611891,
      1777611891,
      1777612011,
      1777612071,
      1777612071,
      1777612071,
      1777612191,
      1777612311,
      1777612311,
      1777612345,
      1777612345,
      1777612371,
      1777612371,
      1777612405,
      1777612431,
      1777612431,
      1777612491,
      1777612732,
      1777612792,
      1777612792,
      1777612820,
      1777612820,
      1777612852,
      1777612852,
      1777613065,
      1777613065,
      1777613126,
      1777613152,
      1777613152,
      1777613272,
      1777613332,
      1777613332,
      1777613392,
      1777613392,
      1777613452
    ],
    "wof:geomhash": "2e8808463428e56334a202259d9d77bd",
    "wof:id": 2031149761,
    "wof:repo": "sfomuseum-data-flights-2026-04"
  },
  "bbox": [
    -122.32277777777777,
    29.952777777777776,
    -95.28694444444444,
    38.335
  ],
  "geometry": {"coordinates":[[-95.33749999999999,29.952777777777776],[-95.33749999999999,29.952777777777776],[-95.28777777777778,30.023888888888887],[-95.28694444444444,30.039722222222224],[-95.28694444444444,30.039722222222224],[-95.33027777777778,30.104722222222225],[-95.38027777777778,30.171944444444446],[-95.38027777777778,30.171944444444446],[-95.38027777777778,30.171944444444446],[-95.5525,30.40222222222222],[-95.5525,30.40222222222222],[-95.5525,30.40222222222222],[-95.72027777777778,30.663055555555555],[-95.72027777777778,30.663055555555555],[-95.72027777777778,30.663055555555555],[-95.9525,31.01888888888889],[-95.99861111111112,31.11777777777778],[-95.99861111111112,31.11777777777778],[-95.99861111111112,31.11777777777778],[-96.07166666666666,31.324166666666667],[-96.07166666666666,31.324166666666667],[-96.07166666666666,31.324166666666667],[-96.15055555555556,31.543333333333337],[-96.15055555555556,31.543333333333337],[-96.15055555555556,31.543333333333337],[-96.19305555555556,31.660833333333333],[-96.23694444444445,31.7825],[-96.23694444444445,31.7825],[-96.28055555555555,31.903333333333332],[-96.28055555555555,31.903333333333332],[-96.28055555555555,31.903333333333332],[-96.45111111111112,32.24805555555556],[-96.45111111111112,32.24805555555556],[-96.45111111111112,32.24805555555556],[-96.93361111111112,32.67444444444444],[-96.93361111111112,32.67444444444444],[-97.03138888888888,32.76],[-97.03138888888888,32.76],[-97.12944444444443,32.845555555555556],[-97.12944444444443,32.845555555555556],[-97.54305555555555,33.17611111111111],[-97.54305555555555,33.17611111111111],[-97.64555555555556,33.25611111111111],[-97.74111111111111,33.33083333333334],[-97.74111111111111,33.33083333333334],[-97.95277777777778,33.495],[-97.95277777777778,33.495],[-98.05611111111111,33.575],[-98.05611111111111,33.575],[-98.05611111111111,33.575],[-98.2675,33.738055555555555],[-98.37472222222222,33.82],[-98.48055555555555,33.901111111111106],[-98.48055555555555,33.901111111111106],[-98.48055555555555,33.901111111111106],[-98.59027777777777,33.98166666666667],[-98.83999999999999,34.09055555555556],[-98.83999999999999,34.09055555555556],[-98.83999999999999,34.09055555555556],[-99.21944444444445,34.24805555555556],[-99.21944444444445,34.24805555555556],[-99.21944444444445,34.24805555555556],[-99.34638888888888,34.300555555555555],[-99.34638888888888,34.300555555555555],[-99.59944444444444,34.40416666666667],[-99.59944444444444,34.40416666666667],[-99.66583333333334,34.43138888888889],[-99.92027777777778,34.53472222222222],[-99.97638888888889,34.55722222222222],[-99.97638888888889,34.55722222222222],[-100.10249999999999,34.60805555555556],[-100.10249999999999,34.60805555555556],[-100.30055555555555,34.6875],[-100.35166666666666,34.70777777777778],[-100.42777777777778,34.73861111111111],[-100.42777777777778,34.73861111111111],[-100.47611111111111,34.757777777777775],[-100.47611111111111,34.757777777777775],[-100.55222222222221,34.78777777777778],[-100.55222222222221,34.78777777777778],[-100.55222222222221,34.78777777777778],[-100.5761111111111,34.79722222222222],[-100.80305555555556,34.88722222222222],[-100.97333333333333,34.95388888888889],[-101.04861111111111,34.983333333333334],[-101.09638888888888,35.00194444444445],[-101.21833333333333,35.04944444444444],[-101.21833333333333,35.04944444444444],[-101.21833333333333,35.04944444444444],[-101.29222222222222,35.07805555555556],[-101.39416666666668,35.117777777777775],[-101.39416666666668,35.117777777777775],[-101.46305555555556,35.144444444444446],[-101.46305555555556,35.144444444444446],[-101.51666666666667,35.165],[-101.72,35.24055555555556],[-101.76722222222222,35.253055555555555],[-101.76722222222222,35.253055555555555],[-101.84583333333333,35.274166666666666],[-101.88972222222223,35.28583333333333],[-102.01861111111111,35.319722222222225],[-102.09444444444443,35.339444444444446],[-102.09444444444443,35.339444444444446],[-102.14722222222223,35.35333333333333],[-102.34527777777777,35.405],[-102.39750000000001,35.41861111111111],[-102.39750000000001,35.41861111111111],[-102.39750000000001,35.41861111111111],[-102.66444444444446,35.48777777777778],[-102.91416666666667,35.55166666666666],[-102.91416666666667,35.55166666666666],[-102.91416666666667,35.55166666666666],[-103.03972222222222,35.583333333333336],[-103.28916666666666,35.646388888888886],[-103.28916666666666,35.646388888888886],[-103.28916666666666,35.646388888888886],[-103.54388888888889,35.709722222222226],[-103.54388888888889,35.709722222222226],[-103.64611111111111,35.734722222222224],[-103.64611111111111,35.734722222222224],[-103.90277777777779,35.79694444444444],[-103.90277777777779,35.79694444444444],[-104.05805555555555,35.83638888888889],[-104.05805555555555,35.83638888888889],[-104.81,36.016666666666666],[-104.81,36.016666666666666],[-104.81,36.016666666666666],[-104.92805555555556,36.044444444444444],[-104.92805555555556,36.044444444444444],[-105.06416666666667,36.07638888888889],[-105.21805555555555,36.11222222222222],[-105.21805555555555,36.11222222222222],[-105.35138888888888,36.14333333333333],[-105.35138888888888,36.14333333333333],[-105.4875,36.17444444444444],[-105.4875,36.17444444444444],[-105.4875,36.17444444444444],[-105.63916666666667,36.20944444444445],[-105.63916666666667,36.20944444444445],[-105.92333333333333,36.27361111111111],[-106.04444444444444,36.30638888888888],[-106.05499999999999,36.309444444444445],[-106.05499999999999,36.309444444444445],[-106.18416666666667,36.34638888888889],[-106.18416666666667,36.34638888888889],[-106.18416666666667,36.34638888888889],[-106.46555555555555,36.42583333333333],[-106.46555555555555,36.42583333333333],[-106.74527777777777,36.50416666666667],[-106.74527777777777,36.50416666666667],[-106.74527777777777,36.50416666666667],[-107.01833333333333,36.580000000000005],[-107.01833333333333,36.580000000000005],[-107.29222222222222,36.655277777777776],[-107.29222222222222,36.655277777777776],[-107.54055555555556,36.72277777777778],[-107.54055555555556,36.72277777777778],[-107.54055555555556,36.72277777777778],[-107.95777777777778,36.834722222222226],[-107.95777777777778,36.834722222222226],[-107.95777777777778,36.834722222222226],[-108.23555555555555,36.90833333333333],[-108.37305555555555,36.94444444444444],[-108.67722222222223,37.02361111111111],[-108.67722222222223,37.02361111111111],[-108.67722222222223,37.02361111111111],[-108.81583333333333,37.05916666666666],[-108.81583333333333,37.05916666666666],[-109.51361111111112,37.23638888888889],[-109.51361111111112,37.23638888888889],[-109.51361111111112,37.23638888888889],[-109.93694444444445,37.34166666666667],[-109.93694444444445,37.34166666666667],[-109.93694444444445,37.34166666666667],[-110.21861111111112,37.410555555555554],[-110.21861111111112,37.410555555555554],[-110.35805555555555,37.44416666666666],[-110.35805555555555,37.44416666666666],[-110.35805555555555,37.44416666666666],[-111.63138888888888,37.744166666666665],[-111.63138888888888,37.744166666666665],[-111.91638888888889,37.80916666666666],[-111.91638888888889,37.80916666666666],[-112.34305555555555,37.89055555555556],[-112.34305555555555,37.89055555555556],[-112.34305555555555,37.89055555555556],[-112.77361111111111,37.966944444444444],[-112.77361111111111,37.966944444444444],[-113.20666666666666,38.04222222222222],[-113.20666666666666,38.04222222222222],[-113.49805555555555,38.09166666666667],[-113.49805555555555,38.09166666666667],[-113.49805555555555,38.09166666666667],[-113.64500000000001,38.11638888888889],[-114.38555555555556,38.23777777777778],[-114.38555555555556,38.23777777777778],[-114.68611111111112,38.28583333333333],[-114.98527777777778,38.32888888888889],[-115.14,38.335],[-115.14,38.335],[-115.3236111111111,38.33166666666667],[-115.60416666666666,38.30611111111111],[-115.60416666666666,38.30611111111111],[-115.94611111111111,38.263888888888886],[-115.94611111111111,38.263888888888886],[-115.94611111111111,38.263888888888886],[-116.25944444444444,38.22666666666667],[-116.38333333333334,38.21138888888889],[-116.38333333333334,38.21138888888889],[-116.5436111111111,38.19166666666666],[-116.69861111111112,38.1725],[-116.69861111111112,38.1725],[-116.85472222222222,38.153055555555554],[-117.01194444444444,38.132777777777775],[-117.29138888888889,38.09722222222222],[-117.29138888888889,38.09722222222222],[-117.4238888888889,38.07972222222222],[-117.54805555555555,38.05638888888888],[-117.54805555555555,38.05638888888888],[-117.54805555555555,38.05638888888888],[-117.78444444444445,37.79694444444444],[-118.1563888888889,37.78583333333333],[-118.1563888888889,37.78583333333333],[-118.1563888888889,37.78583333333333],[-118.6738888888889,37.76972222222222],[-118.6738888888889,37.76972222222222],[-118.6738888888889,37.76972222222222],[-118.92916666666667,37.76083333333333],[-119.45611111111111,37.74111111111111],[-119.71777777777778,37.73027777777778],[-119.71777777777778,37.73027777777778],[-119.71777777777778,37.73027777777778],[-119.98694444444445,37.718333333333334],[-120.12888888888888,37.71194444444445],[-120.12888888888888,37.71194444444445],[-120.12888888888888,37.71194444444445],[-120.41111111111111,37.69833333333333],[-120.68722222222223,37.66611111111111],[-120.68722222222223,37.66611111111111],[-120.76666666666667,37.65],[-120.76666666666667,37.65],[-120.81916666666666,37.650277777777774],[-120.81916666666666,37.650277777777774],[-120.9,37.63333333333333],[-120.94888888888889,37.63472222222222],[-120.94888888888889,37.63472222222222],[-121.07638888888889,37.617777777777775],[-121.55694444444444,37.55888888888889],[-121.66388888888889,37.54138888888889],[-121.66388888888889,37.54138888888889],[-121.71666666666667,37.53333333333333],[-121.71666666666667,37.53333333333333],[-121.75027777777778,37.51583333333333],[-121.75027777777778,37.51583333333333],[-121.95,37.43333333333333],[-121.95,37.43333333333333],[-122.01666666666667,37.46666666666667],[-122.04722222222222,37.48277777777778],[-122.04722222222222,37.48277777777778],[-122.16694444444445,37.53333333333333],[-122.22222222222223,37.556666666666665],[-122.22222222222223,37.556666666666665],[-122.27527777777777,37.57916666666667],[-122.27527777777777,37.57916666666667],[-122.32277777777777,37.59916666666667]],"type":"LineString"}
}
