{
  "id": 2015299685,
  "type": "Feature",
  "properties": {
    "geom:area": 0,
    "geom:bbox": "-122.412270,37.626580,-121.282130,37.959210",
    "geom:latitude": 37.827478555524955,
    "geom:longitude": -121.8685762217792,
    "src:alt_label": "swim-takeoff",
    "src:geom": "swim",
    "swim:elevations": [
      122,
      485,
      1027,
      1220,
      1489,
      1661,
      2001,
      2522,
      2759,
      3236,
      3325,
      3522,
      4002,
      4127,
      4409,
      4757,
      5003,
      5244,
      5559,
      5870,
      6061,
      6338,
      6504
    ],
    "swim:geom": "takeoff",
    "swim:timestamps": [
      1776255812,
      1776255841,
      1776255886,
      1776255907,
      1776255945,
      1776255969,
      1776255997,
      1776256038,
      1776256057,
      1776256099,
      1776256117,
      1776256149,
      1776256193,
      1776256208,
      1776256236,
      1776256278,
      1776256303,
      1776256327,
      1776256366,
      1776256402,
      1776256423,
      1776256453,
      1776256476
    ],
    "wof:geomhash": "809b30f3969c5ef9f1b682b5abcd5dde",
    "wof:id": 2015299685,
    "wof:repo": "sfomuseum-data-flights-2026-04"
  },
  "bbox": [
    -122.41227,
    37.62658,
    -121.28213,
    37.95921
  ],
  "geometry": {"coordinates":[[-122.39342,37.62658],[-122.41227,37.64373],[-122.37612,37.66728],[-122.35137,37.67418],[-122.30553,37.68948],[-122.27319,37.69976],[-122.22937,37.71346],[-122.17064,37.74054],[-122.14377,37.75435],[-122.08359,37.78589],[-122.05729,37.79974],[-122.00323,37.82502],[-121.9138,37.84386],[-121.88317,37.84938],[-121.82421,37.86018],[-121.73264,37.87723],[-121.67829,37.88748],[-121.62399,37.8974],[-121.53581,37.91259],[-121.45315,37.92753],[-121.40391,37.9366],[-121.33545,37.94922],[-121.28213,37.95921]],"type":"LineString"}
}
