{
  "id": 2015221051,
  "type": "Feature",
  "properties": {
    "geom:area": 0,
    "geom:bbox": "-122.333333,27.929722,-81.842222,37.897222",
    "geom:latitude": 34.383963779486535,
    "geom:longitude": -102.05648804996677,
    "src:alt_label": "swim-path",
    "src:geom": "swim",
    "swim:altitudes": [
      "320C",
      "320C",
      "320C",
      "320C",
      "320C",
      "320C",
      "320C",
      "320C",
      "320C",
      "320C",
      "320C",
      "320C",
      "320C",
      "320C",
      "320C",
      "320C",
      "320C",
      "320C",
      "320C",
      "320C",
      "320C",
      "320C",
      "320C",
      "320C",
      "320C",
      "320C",
      "320C",
      "320C",
      "320C",
      "320C",
      "320C",
      "320C",
      "320C",
      "320C",
      "320C",
      "320C",
      "320C",
      "320C",
      "320C",
      "320C",
      "320C",
      "320C",
      "320C",
      "320C",
      "320C",
      "320C",
      "320C",
      "320C",
      "320C",
      "320C",
      "320C",
      "320C",
      "320C",
      "320C",
      "320C",
      "320C",
      "320C",
      "320C",
      "320C",
      "320C",
      "320C",
      "320C",
      "320C",
      "320C",
      "320C",
      "320C",
      "320C",
      "320C",
      "320C",
      "320C",
      "320C",
      "320C",
      "320C",
      "320C",
      "320C",
      "320C",
      "320C",
      "320C",
      "320C",
      "320C",
      "320C",
      "320C",
      "320C",
      "320C",
      "320C",
      "320C",
      "320C",
      "320C",
      "320C",
      "320C",
      "320C",
      "320C",
      "320C",
      "320C",
      "320C",
      "320C",
      "320C",
      "320C",
      "320C",
      "320C",
      "320C",
      "320C",
      "320C",
      "320C",
      "320C",
      "320C",
      "320C",
      "320C",
      "320C",
      "320C",
      "320C",
      "320C",
      "320C",
      "320C",
      "320C",
      "320C",
      "320C",
      "320C",
      "320C",
      "320C",
      "320C",
      "320C",
      "320C",
      "320C",
      "320C",
      "320C",
      "320C",
      "320C",
      "320C",
      "320C",
      "320C",
      "320C",
      "320C",
      "320C",
      "320C",
      "320C",
      "320C",
      "320C",
      "320C",
      "320C",
      "320C",
      "320C",
      "320C",
      "320C",
      "320C",
      "320C",
      "320C",
      "320C",
      "320C",
      "320C",
      "320C",
      "320C",
      "320C",
      "320C",
      "320C",
      "320C",
      "320C",
      "320C",
      "320C",
      "320C",
      "320C",
      "320C",
      "320C",
      "320C",
      "320C",
      "320C",
      "320C",
      "320C",
      "320C",
      "320C",
      "320C",
      "320C",
      "320C",
      "320C",
      "320C",
      "320C",
      "320C",
      "320C",
      "320C",
      "320C",
      "320C",
      "320C",
      "320C",
      "320C",
      "320C",
      "320C",
      "320C",
      "320C",
      "320C",
      "320C",
      "320C",
      "320C",
      "320C",
      "320C",
      "320C",
      "320C",
      "320C",
      "320C",
      "320C",
      "320C",
      "320C",
      "320C",
      "320C",
      "320C",
      "320C",
      "320C",
      "320C",
      "320C",
      "320C",
      "320C",
      "320C",
      "320C",
      "320C",
      "320C",
      "320C",
      "320C",
      "320C",
      "320C",
      "320C",
      "320C",
      "320C",
      "320C",
      "320C",
      "320C",
      "320C",
      "320C",
      "320C",
      "320C",
      "320C",
      "320C",
      "320C",
      "320C",
      "320C",
      "320C",
      "320C",
      "320C",
      "320C",
      "320C",
      "320C",
      "320C",
      "320C",
      "320C",
      "320C",
      "320C",
      "320C",
      "320C",
      "320C",
      "320C",
      "320C",
      "320C",
      "320C",
      "320C",
      "320C",
      "320C",
      "320C",
      "320C",
      "320C",
      "320C",
      "320",
      "308",
      "300C",
      "300C",
      "300C",
      "300C",
      "300C",
      "300C",
      "300C",
      "300C",
      "300C",
      "300C",
      "300C",
      "300C",
      "300C",
      "300C",
      "300C",
      "300C",
      "300C",
      "300",
      "300",
      "300",
      "298",
      "298",
      "270",
      "259",
      "251",
      "251",
      "235",
      "230",
      "202",
      "202",
      "186",
      "181",
      "170",
      "166",
      "155",
      "130",
      "117",
      "117",
      "109",
      "109",
      "109",
      "109",
      "110",
      "100",
      "100",
      "100",
      "099",
      "092",
      "092",
      "090",
      "090",
      "090",
      "090",
      "088",
      "084",
      "084",
      "066",
      "060",
      "060",
      "049",
      "039",
      "030",
      "030",
      "018",
      "005"
    ],
    "swim:geom": "path",
    "swim:speeds": [
      454,
      456,
      458,
      462,
      455,
      456,
      457,
      459,
      457,
      453,
      445,
      444,
      444,
      443,
      443,
      443,
      443,
      443,
      443,
      444,
      444,
      445,
      443,
      443,
      446,
      444,
      444,
      446,
      444,
      444,
      444,
      444,
      443,
      443,
      443,
      443,
      436,
      433,
      433,
      433,
      433,
      432,
      432,
      432,
      433,
      433,
      434,
      434,
      434,
      434,
      435,
      436,
      436,
      436,
      436,
      436,
      436,
      436,
      436,
      436,
      435,
      433,
      433,
      431,
      431,
      431,
      431,
      431,
      431,
      432,
      432,
      431,
      429,
      429,
      429,
      429,
      431,
      432,
      433,
      433,
      433,
      433,
      433,
      432,
      432,
      432,
      432,
      432,
      432,
      432,
      432,
      433,
      434,
      434,
      434,
      434,
      434,
      433,
      431,
      430,
      430,
      430,
      430,
      430,
      430,
      427,
      427,
      426,
      425,
      425,
      424,
      424,
      423,
      423,
      421,
      421,
      419,
      419,
      418,
      416,
      415,
      414,
      415,
      415,
      415,
      413,
      410,
      410,
      409,
      408,
      407,
      407,
      415,
      415,
      416,
      417,
      416,
      416,
      416,
      416,
      417,
      417,
      417,
      418,
      418,
      418,
      418,
      420,
      420,
      420,
      421,
      421,
      422,
      421,
      422,
      422,
      423,
      424,
      424,
      422,
      422,
      424,
      424,
      424,
      422,
      422,
      422,
      422,
      422,
      420,
      423,
      424,
      427,
      427,
      425,
      431,
      431,
      428,
      429,
      429,
      430,
      429,
      430,
      430,
      430,
      429,
      429,
      428,
      428,
      428,
      428,
      428,
      429,
      430,
      430,
      432,
      437,
      437,
      437,
      439,
      442,
      445,
      445,
      445,
      445,
      447,
      448,
      449,
      449,
      450,
      451,
      452,
      453,
      453,
      452,
      451,
      451,
      450,
      449,
      447,
      447,
      447,
      446,
      446,
      446,
      444,
      443,
      443,
      442,
      443,
      446,
      446,
      442,
      442,
      441,
      441,
      441,
      437,
      429,
      429,
      425,
      425,
      424,
      421,
      423,
      422,
      421,
      421,
      421,
      422,
      426,
      427,
      427,
      415,
      397,
      389,
      389,
      386,
      386,
      386,
      385,
      384,
      380,
      381,
      381,
      381,
      379,
      379,
      390,
      390,
      393,
      394,
      394,
      394,
      418,
      418,
      419,
      420,
      420,
      422,
      423,
      423,
      365,
      349,
      344,
      344,
      334,
      337,
      332,
      332,
      330,
      329,
      326,
      328,
      310,
      278,
      254,
      254,
      251,
      244,
      244,
      246,
      246,
      241,
      241,
      239,
      241,
      244,
      244,
      242,
      249,
      245,
      247,
      247,
      234,
      234,
      223,
      222,
      224,
      228,
      193,
      173,
      173,
      151,
      147
    ],
    "swim:timestamps": [
      1775519168,
      1775519291,
      1775519349,
      1775519472,
      1775519889,
      1775519950,
      1775520010,
      1775520070,
      1775520243,
      1775520433,
      1775520553,
      1775520914,
      1775520914,
      1775521034,
      1775521034,
      1775521154,
      1775521154,
      1775521154,
      1775521274,
      1775521334,
      1775521334,
      1775521394,
      1775521410,
      1775521410,
      1775521515,
      1775521530,
      1775521530,
      1775521575,
      1775521590,
      1775521650,
      1775521695,
      1775521710,
      1775521755,
      1775521755,
      1775521755,
      1775521830,
      1775521891,
      1775521935,
      1775521935,
      1775521935,
      1775521951,
      1775521995,
      1775522055,
      1775522055,
      1775522071,
      1775522131,
      1775522191,
      1775522191,
      1775522191,
      1775522236,
      1775522296,
      1775522356,
      1775522356,
      1775522418,
      1775522418,
      1775522431,
      1775522538,
      1775522538,
      1775522598,
      1775522598,
      1775522672,
      1775522852,
      1775522852,
      1775522972,
      1775522972,
      1775522972,
      1775523152,
      1775523152,
      1775523152,
      1775523272,
      1775523272,
      1775523393,
      1775523513,
      1775523573,
      1775523573,
      1775523573,
      1775523738,
      1775523753,
      1775523873,
      1775523873,
      1775523873,
      1775523919,
      1775523979,
      1775523993,
      1775524039,
      1775524053,
      1775524053,
      1775524099,
      1775524099,
      1775524114,
      1775524114,
      1775524219,
      1775524294,
      1775524294,
      1775524294,
      1775524399,
      1775524399,
      1775524459,
      1775524580,
      1775524640,
      1775524640,
      1775524700,
      1775524880,
      1775524880,
      1775524880,
      1775525120,
      1775525120,
      1775525241,
      1775525301,
      1775525361,
      1775525481,
      1775525541,
      1775525601,
      1775525661,
      1775525841,
      1775525841,
      1775525962,
      1775525962,
      1775526022,
      1775526202,
      1775526262,
      1775526322,
      1775526442,
      1775526563,
      1775526563,
      1775526623,
      1775526743,
      1775526743,
      1775526803,
      1775526983,
      1775527103,
      1775527103,
      1775527284,
      1775527284,
      1775527344,
      1775527445,
      1775527464,
      1775527524,
      1775527626,
      1775527644,
      1775527686,
      1775527704,
      1775527704,
      1775527806,
      1775527825,
      1775527866,
      1775527945,
      1775528065,
      1775528125,
      1775528245,
      1775528286,
      1775528286,
      1775528486,
      1775528586,
      1775528706,
      1775528706,
      1775528726,
      1775529007,
      1775529007,
      1775529127,
      1775529127,
      1775529490,
      1775529550,
      1775529610,
      1775529791,
      1775529851,
      1775529911,
      1775529971,
      1775529971,
      1775530083,
      1775530143,
      1775530203,
      1775530271,
      1775530271,
      1775530324,
      1775530444,
      1775530444,
      1775530572,
      1775530624,
      1775530632,
      1775530684,
      1775530692,
      1775530744,
      1775530752,
      1775530804,
      1775530864,
      1775530924,
      1775530984,
      1775530992,
      1775531045,
      1775531052,
      1775531052,
      1775531105,
      1775531165,
      1775531165,
      1775531225,
      1775531405,
      1775531585,
      1775531645,
      1775531765,
      1775531886,
      1775531956,
      1775531956,
      1775532006,
      1775532006,
      1775532126,
      1775532186,
      1775532246,
      1775532246,
      1775532257,
      1775532306,
      1775532317,
      1775532426,
      1775532437,
      1775532486,
      1775532546,
      1775532557,
      1775532607,
      1775532678,
      1775532727,
      1775532738,
      1775532738,
      1775532798,
      1775533098,
      1775533098,
      1775533218,
      1775533278,
      1775533278,
      1775533399,
      1775533459,
      1775533699,
      1775533699,
      1775533879,
      1775533879,
      1775533939,
      1775534000,
      1775534000,
      1775534120,
      1775534300,
      1775534300,
      1775534420,
      1775534420,
      1775534480,
      1775534518,
      1775534540,
      1775534600,
      1775534639,
      1775534639,
      1775534699,
      1775534759,
      1775534901,
      1775534961,
      1775534961,
      1775534999,
      1775535021,
      1775535059,
      1775535059,
      1775535141,
      1775535179,
      1775535261,
      1775535322,
      1775535359,
      1775535479,
      1775535502,
      1775535502,
      1775535562,
      1775535600,
      1775535622,
      1775535780,
      1775535780,
      1775535960,
      1775536020,
      1775536020,
      1775536140,
      1775536260,
      1775536260,
      1775536320,
      1775536380,
      1775536380,
      1775536500,
      1775536561,
      1775536561,
      1775536681,
      1775536711,
      1775536741,
      1775536741,
      1775536776,
      1775536801,
      1775536897,
      1775536897,
      1775536957,
      1775536981,
      1775537017,
      1775537041,
      1775537077,
      1775537221,
      1775537281,
      1775537281,
      1775537317,
      1775537383,
      1775537383,
      1775537443,
      1775537461,
      1775537642,
      1775537702,
      1775537743,
      1775537762,
      1775537803,
      1775537803,
      1775537822,
      1775537857,
      1775537882,
      1775537942,
      1775538002,
      1775538032,
      1775538032,
      1775538157,
      1775538218,
      1775538242,
      1775538277,
      1775538337,
      1775538398,
      1775538398,
      1775538482,
      1775538578
    ],
    "wof:geomhash": "6d1ddaabb720564dbe2520dee271accd",
    "wof:id": 2015221051,
    "wof:repo": "sfomuseum-data-flights-2026-04"
  },
  "bbox": [
    -122.33333333333333,
    27.929722222222225,
    -81.84222222222222,
    37.89722222222222
  ],
  "geometry": {"coordinates":[[-81.84222222222222,27.929722222222225],[-81.9786111111111,28.157777777777778],[-82.06277777777777,28.260277777777777],[-82.24583333333334,28.46333333333333],[-82.88055555555555,29.163888888888888],[-82.97222222222223,29.264166666666668],[-83.06444444444445,29.364444444444445],[-83.1563888888889,29.46472222222222],[-83.40833333333335,29.7425],[-83.7213888888889,30.059166666666666],[-83.97833333333334,30.166944444444447],[-84.76388888888889,30.480277777777776],[-84.76388888888889,30.480277777777776],[-85.0225,30.58222222222222],[-85.0225,30.58222222222222],[-85.28111111111112,30.68305555555556],[-85.28111111111112,30.68305555555556],[-85.28111111111112,30.68305555555556],[-85.53944444444444,30.783055555555556],[-85.66861111111112,30.833055555555557],[-85.66861111111112,30.833055555555557],[-85.80055555555555,30.884166666666665],[-85.83361111111111,30.897222222222222],[-85.83361111111111,30.897222222222222],[-86.06333333333333,30.984166666666667],[-86.09694444444445,30.997500000000002],[-86.09694444444445,30.997500000000002],[-86.19500000000001,31.034166666666668],[-86.22888888888889,31.047222222222224],[-86.36055555555555,31.09638888888889],[-86.45,31.130555555555556],[-86.49027777777778,31.14638888888889],[-86.58,31.179722222222225],[-86.58,31.179722222222225],[-86.58,31.179722222222225],[-86.75138888888888,31.244722222222222],[-86.88027777777778,31.290833333333335],[-86.96916666666667,31.324444444444445],[-86.96916666666667,31.324444444444445],[-86.96916666666667,31.324444444444445],[-87.00833333333334,31.337777777777777],[-87.10916666666667,31.37638888888889],[-87.23833333333333,31.42388888888889],[-87.23833333333333,31.42388888888889],[-87.26444444444445,31.433611111111112],[-87.39416666666668,31.481388888888887],[-87.52305555555556,31.52861111111111],[-87.52305555555556,31.52861111111111],[-87.52305555555556,31.52861111111111],[-87.62694444444443,31.56638888888889],[-87.7575,31.61388888888889],[-87.88611111111112,31.660277777777775],[-87.88611111111112,31.660277777777775],[-88.01694444444445,31.7075],[-88.01694444444445,31.7075],[-88.04305555555555,31.716666666666665],[-88.2775,31.801111111111112],[-88.2775,31.801111111111112],[-88.40861111111111,31.847777777777775],[-88.40861111111111,31.847777777777775],[-88.565,31.903055555555554],[-88.97694444444444,32.04805555555556],[-88.97694444444444,32.04805555555556],[-89.23944444444444,32.13944444444444],[-89.23944444444444,32.13944444444444],[-89.23944444444444,32.13944444444444],[-89.63138888888888,32.275],[-89.63138888888888,32.275],[-89.63138888888888,32.275],[-89.89527777777778,32.36472222222223],[-89.89527777777778,32.36472222222223],[-90.16055555555556,32.45388888888889],[-90.39916666666667,32.53055555555555],[-90.53138888888888,32.573055555555555],[-90.53138888888888,32.573055555555555],[-90.53138888888888,32.573055555555555],[-90.90111111111112,32.69083333333333],[-90.93055555555556,32.7],[-91.2,32.78472222222222],[-91.2,32.78472222222222],[-91.2,32.78472222222222],[-91.30138888888888,32.81638888888889],[-91.43361111111112,32.8575],[-91.46805555555555,32.86833333333333],[-91.56666666666666,32.89888888888889],[-91.60166666666666,32.90972222222222],[-91.60166666666666,32.90972222222222],[-91.7025,32.94083333333333],[-91.7025,32.94083333333333],[-91.735,32.950833333333335],[-91.735,32.950833333333335],[-91.99722222222222,33.03111111111111],[-92.16000000000001,33.08083333333334],[-92.16000000000001,33.08083333333334],[-92.16000000000001,33.08083333333334],[-92.40138888888889,33.15361111111111],[-92.40138888888889,33.15361111111111],[-92.5375,33.19444444444444],[-92.80833333333334,33.266666666666666],[-92.94805555555556,33.28972222222222],[-92.94805555555556,33.28972222222222],[-93.08555555555554,33.31222222222222],[-93.50638888888889,33.38],[-93.50638888888889,33.38],[-93.50638888888889,33.38],[-94.05361111111111,33.465833333333336],[-94.05361111111111,33.465833333333336],[-94.33027777777778,33.50833333333333],[-94.46972222222223,33.529444444444444],[-94.60722222222222,33.55],[-94.88611111111112,33.59166666666667],[-95.02416666666666,33.611666666666665],[-95.16222222222223,33.63194444444444],[-95.29805555555555,33.651666666666664],[-95.71527777777779,33.71083333333333],[-95.71527777777779,33.71083333333333],[-95.99,33.74916666666667],[-95.99,33.74916666666667],[-96.12777777777777,33.768055555555556],[-96.53722222222223,33.82333333333334],[-96.67472222222223,33.84138888888889],[-96.81083333333333,33.85944444444445],[-97.08444444444444,33.894999999999996],[-97.35333333333332,33.92916666666667],[-97.35333333333332,33.92916666666667],[-97.51416666666667,33.95583333333334],[-97.77694444444444,34.0175],[-97.77694444444444,34.0175],[-97.90833333333335,34.047777777777775],[-98.30194444444444,34.138333333333335],[-98.56361111111111,34.1975],[-98.56361111111111,34.1975],[-98.9713888888889,34.288333333333334],[-98.9713888888889,34.288333333333334],[-99.10638888888889,34.318333333333335],[-99.33138888888888,34.3675],[-99.36027777777777,34.37388888888889],[-99.50944444444444,34.40611111111111],[-99.73611111111111,34.455000000000005],[-99.78305555555555,34.465],[-99.87444444444444,34.48444444444444],[-99.9175,34.493611111111115],[-99.9175,34.493611111111115],[-100.14555555555556,34.54194444444444],[-100.1888888888889,34.551111111111105],[-100.2825,34.57055555555556],[-100.44555555555556,34.60472222222222],[-100.72083333333333,34.66138888888889],[-100.85638888888889,34.68888888888888],[-101.13361111111112,34.74527777777778],[-101.24527777777777,34.7675],[-101.24527777777777,34.7675],[-101.69111111111111,34.85583333333334],[-101.91416666666667,34.89944444444444],[-102.19583333333334,34.95388888888889],[-102.19583333333334,34.95388888888889],[-102.25083333333333,34.964444444444446],[-102.89722222222223,35.08583333333333],[-102.89722222222223,35.08583333333333],[-103.19722222222222,35.14111111111111],[-103.19722222222222,35.14111111111111],[-104.04027777777777,35.291666666666664],[-104.17333333333333,35.31472222222222],[-104.31694444444445,35.33972222222222],[-104.72805555555556,35.40972222222222],[-104.86805555555554,35.433055555555555],[-105.00861111111111,35.45666666666667],[-105.14888888888889,35.480000000000004],[-105.14888888888889,35.480000000000004],[-105.42888888888889,35.525277777777774],[-105.57388888888889,35.54861111111111],[-105.71888888888888,35.57194444444445],[-105.875,35.59722222222222],[-105.875,35.59722222222222],[-105.9975,35.617222222222225],[-106.28027777777778,35.660555555555554],[-106.28027777777778,35.660555555555554],[-106.59305555555555,35.70861111111111],[-106.70777777777778,35.725833333333334],[-106.7375,35.73027777777778],[-106.85333333333332,35.74777777777778],[-106.88138888888888,35.75194444444445],[-106.99666666666667,35.76916666666666],[-107.02527777777777,35.77333333333333],[-107.14,35.790277777777774],[-107.28416666666666,35.811388888888885],[-107.42722222222223,35.83222222222223],[-107.57444444444444,35.85333333333333],[-107.60305555555556,35.8575],[-107.71638888888889,35.87361111111111],[-107.74583333333334,35.87777777777778],[-107.74583333333334,35.87777777777778],[-107.86194444444443,35.89416666666666],[-108.00694444444444,35.91444444444444],[-108.00694444444444,35.91444444444444],[-108.155,35.934999999999995],[-108.59833333333333,35.99527777777778],[-109.05749999999999,36.013333333333335],[-109.20694444444445,36.016666666666666],[-109.50916666666667,36.02222222222222],[-109.81222222222222,36.026944444444446],[-110.00222222222222,36.03],[-110.00222222222222,36.03],[-110.11916666666666,36.03111111111111],[-110.11916666666666,36.03111111111111],[-110.42694444444444,36.03444444444444],[-110.58277777777778,36.03611111111111],[-110.73666666666666,36.03722222222222],[-110.73666666666666,36.03722222222222],[-110.76972222222223,36.0375],[-110.89166666666668,36.038333333333334],[-110.92555555555556,36.038333333333334],[-111.20305555555557,36.03972222222222],[-111.23472222222222,36.03972222222222],[-111.3586111111111,36.04],[-111.51388888888889,36.040277777777774],[-111.545,36.040277777777774],[-111.66638888888889,36.040277777777774],[-111.85333333333332,36.04],[-111.9738888888889,36.03972222222222],[-112.00305555555556,36.03944444444444],[-112.00305555555556,36.03944444444444],[-112.1563888888889,36.038888888888884],[-112.9238888888889,36.032777777777774],[-112.9238888888889,36.032777777777774],[-113.22777777777777,36.02916666666667],[-113.37027777777777,36.02722222222222],[-113.37027777777777,36.02722222222222],[-113.67416666666666,36.02222222222222],[-113.82694444444444,36.019444444444446],[-114.43861111111111,36.00666666666667],[-114.43861111111111,36.00666666666667],[-114.88944444444445,36.009166666666665],[-114.88944444444445,36.009166666666665],[-115.02416666666666,36.066111111111105],[-115.15722222222223,36.12416666666667],[-115.15722222222223,36.12416666666667],[-115.42277777777778,36.23972222222222],[-115.82583333333334,36.41277777777778],[-115.82583333333334,36.41277777777778],[-116.07305555555556,36.51777777777777],[-116.07305555555556,36.51777777777777],[-116.2025,36.572500000000005],[-116.28138888888888,36.60583333333334],[-116.33333333333333,36.6275],[-116.46222222222222,36.681666666666665],[-116.53916666666666,36.71361111111111],[-116.53916666666666,36.71361111111111],[-116.66916666666667,36.768055555555556],[-116.78222222222222,36.842222222222226],[-116.98055555555555,37.07833333333333],[-117.06388888888888,37.177499999999995],[-117.06388888888888,37.177499999999995],[-117.11444444444444,37.23722222222222],[-117.14500000000001,37.27305555555555],[-117.19,37.32638888888889],[-117.19,37.32638888888889],[-117.29444444444444,37.45194444444445],[-117.33999999999999,37.505833333333335],[-117.44916666666667,37.63055555555555],[-117.52777777777777,37.717777777777776],[-117.57555555555555,37.77055555555555],[-117.76916666666666,37.89722222222222],[-117.82194444444444,37.89388888888889],[-117.82194444444444,37.89388888888889],[-117.95555555555556,37.88527777777778],[-118.03416666666666,37.88],[-118.08638888888889,37.876666666666665],[-118.44305555555556,37.852222222222224],[-118.44305555555556,37.852222222222224],[-118.83305555555555,37.824444444444445],[-118.97500000000001,37.81388888888888],[-118.97500000000001,37.81388888888888],[-119.24944444444445,37.79333333333333],[-119.53916666666666,37.770833333333336],[-119.53916666666666,37.770833333333336],[-119.6863888888889,37.75888888888889],[-119.83222222222221,37.74722222222222],[-119.83222222222221,37.74722222222222],[-120.13055555555555,37.722500000000004],[-120.27805555555555,37.71],[-120.27805555555555,37.71],[-120.55333333333333,37.681666666666665],[-120.63333333333334,37.666666666666664],[-120.67277777777778,37.66777777777777],[-120.67277777777778,37.66777777777777],[-120.75,37.65],[-120.78999999999999,37.653888888888886],[-120.96666666666667,37.61666666666667],[-120.96666666666667,37.61666666666667],[-121.03333333333333,37.53333333333333],[-121.04527777777777,37.50944444444445],[-121.08333333333333,37.45],[-121.10194444444444,37.43],[-121.16666666666667,37.38333333333333],[-121.34694444444445,37.41111111111111],[-121.36916666666666,37.47972222222222],[-121.36916666666666,37.47972222222222],[-121.38333333333334,37.53333333333333],[-121.46666666666667,37.56666666666667],[-121.46666666666667,37.56666666666667],[-121.56666666666666,37.583333333333336],[-121.58222222222221,37.58027777777778],[-121.82638888888889,37.63194444444444],[-121.90861111111111,37.649166666666666],[-121.96666666666667,37.65],[-121.98694444444445,37.64722222222222],[-121.98333333333333,37.6],[-121.98333333333333,37.6],[-121.96666666666667,37.590833333333336],[-121.91666666666667,37.56666666666667],[-121.8938888888889,37.55416666666667],[-121.82111111111111,37.51638888888889],[-121.7575,37.472500000000004],[-121.76666666666667,37.45],[-121.76666666666667,37.45],[-121.93333333333334,37.43333333333333],[-122,37.46666666666667],[-122.03027777777778,37.475833333333334],[-122.06666666666666,37.5],[-122.13333333333334,37.516666666666666],[-122.18333333333334,37.55],[-122.18333333333334,37.55],[-122.26138888888889,37.57333333333334],[-122.33333333333333,37.6]],"type":"LineString"}
}
