{
  "id": 2031092689,
  "type": "Feature",
  "properties": {
    "geom:area": 0,
    "geom:bbox": "-122.350000,34.147222,-118.428333,37.610556",
    "geom:latitude": 35.84138265703042,
    "geom:longitude": -120.45019206045842,
    "src:alt_label": "swim-path",
    "src:geom": "swim",
    "swim:altitudes": [
      "050",
      "050",
      "064",
      "064",
      "105",
      "105",
      "142",
      "142",
      "142",
      "174",
      "174",
      "174",
      "196",
      "196",
      "222",
      "222",
      "222",
      "222",
      "222",
      "246",
      "260C",
      "260C",
      "260C",
      "260C",
      "260C",
      "260C",
      "260C",
      "260C",
      "260C",
      "260C",
      "260C",
      "260C",
      "260C",
      "260C",
      "260C",
      "260C",
      "260C",
      "260C",
      "260C",
      "260C",
      "260C",
      "260C",
      "260C",
      "260C",
      "260C",
      "260C",
      "260C",
      "260C",
      "260",
      "260",
      "253",
      "253",
      "253",
      "208",
      "151",
      "151",
      "136",
      "136",
      "116",
      "104",
      "104",
      "092",
      "080",
      "080",
      "056",
      "056",
      "050",
      "035",
      "035",
      "035",
      "033",
      "015",
      "015",
      "002"
    ],
    "swim:geom": "path",
    "swim:speeds": [
      246,
      246,
      265,
      265,
      270,
      270,
      274,
      274,
      274,
      276,
      276,
      276,
      288,
      288,
      294,
      294,
      294,
      294,
      294,
      303,
      380,
      382,
      385,
      385,
      385,
      385,
      385,
      385,
      385,
      373,
      373,
      373,
      361,
      361,
      360,
      361,
      361,
      362,
      362,
      362,
      365,
      365,
      365,
      365,
      364,
      364,
      364,
      364,
      382,
      382,
      381,
      381,
      381,
      361,
      340,
      340,
      321,
      321,
      289,
      258,
      258,
      240,
      224,
      224,
      188,
      188,
      170,
      162,
      162,
      162,
      155,
      151,
      151,
      153
    ],
    "swim:timestamps": [
      1776954821,
      1776954821,
      1776954881,
      1776954881,
      1776954941,
      1776954941,
      1776955001,
      1776955001,
      1776955001,
      1776955061,
      1776955061,
      1776955061,
      1776955116,
      1776955116,
      1776955176,
      1776955176,
      1776955176,
      1776955176,
      1776955176,
      1776955236,
      1776955416,
      1776955422,
      1776955476,
      1776955476,
      1776955476,
      1776955536,
      1776955536,
      1776955536,
      1776955657,
      1776955837,
      1776955837,
      1776955837,
      1776955957,
      1776955957,
      1776956083,
      1776956137,
      1776956143,
      1776956203,
      1776956203,
      1776956263,
      1776956438,
      1776956438,
      1776956438,
      1776956438,
      1776956678,
      1776956678,
      1776956678,
      1776956678,
      1776957059,
      1776957059,
      1776957098,
      1776957098,
      1776957098,
      1776957219,
      1776957399,
      1776957399,
      1776957431,
      1776957431,
      1776957519,
      1776957579,
      1776957579,
      1776957639,
      1776957699,
      1776957699,
      1776957839,
      1776957839,
      1776957880,
      1776958000,
      1776958000,
      1776958000,
      1776958019,
      1776958145,
      1776958145,
      1776958240
    ],
    "wof:geomhash": "c6d463472beaa10be2644e3c672b945e",
    "wof:id": 2031092689,
    "wof:repo": "sfomuseum-data-flights-2026-04"
  },
  "bbox": [
    -122.35,
    34.14722222222222,
    -118.42833333333334,
    37.61055555555556
  ],
  "geometry": {"coordinates":[[-118.42833333333334,34.14722222222222],[-118.42833333333334,34.14722222222222],[-118.46944444444445,34.209722222222226],[-118.46944444444445,34.209722222222226],[-118.49472222222222,34.283055555555556],[-118.49472222222222,34.283055555555556],[-118.53027777777778,34.35166666666667],[-118.53027777777778,34.35166666666667],[-118.53027777777778,34.35166666666667],[-118.59333333333333,34.40694444444444],[-118.59333333333333,34.40694444444444],[-118.59333333333333,34.40694444444444],[-118.65,34.45861111111111],[-118.65,34.45861111111111],[-118.71944444444445,34.51916666666666],[-118.71944444444445,34.51916666666666],[-118.71944444444445,34.51916666666666],[-118.71944444444445,34.51916666666666],[-118.71944444444445,34.51916666666666],[-118.78999999999999,34.58444444444444],[-118.97194444444445,34.846111111111114],[-118.97833333333334,34.85527777777778],[-119.03861111111111,34.94],[-119.03861111111111,34.94],[-119.03861111111111,34.94],[-119.10499999999999,35.032222222222224],[-119.10499999999999,35.032222222222224],[-119.10499999999999,35.032222222222224],[-119.2375,35.21666666666667],[-119.44388888888889,35.48444444444444],[-119.44388888888889,35.48444444444444],[-119.44388888888889,35.48444444444444],[-119.67777777777778,35.54],[-119.67777777777778,35.54],[-119.93444444444445,35.595555555555556],[-120.03333333333333,35.61666666666667],[-120.05305555555556,35.62083333333334],[-120.17166666666667,35.64611111111111],[-120.17166666666667,35.64611111111111],[-120.28999999999999,35.671388888888885],[-120.63222222222221,35.79277777777778],[-120.63222222222221,35.79277777777778],[-120.63222222222221,35.79277777777778],[-120.63222222222221,35.79277777777778],[-121.08361111111111,35.96333333333334],[-121.08361111111111,35.96333333333334],[-121.08361111111111,35.96333333333334],[-121.08361111111111,35.96333333333334],[-121.63333333333334,36.416666666666664],[-121.63333333333334,36.416666666666664],[-121.68111111111112,36.472500000000004],[-121.68111111111112,36.472500000000004],[-121.68111111111112,36.472500000000004],[-121.8175,36.644999999999996],[-121.93722222222223,36.895833333333336],[-121.93722222222223,36.895833333333336],[-121.95,36.96666666666667],[-121.95,36.96666666666667],[-122.00305555555556,37.080555555555556],[-122.03055555555555,37.15],[-122.03055555555555,37.15],[-122.05555555555556,37.214444444444446],[-122.07916666666667,37.27444444444444],[-122.07916666666667,37.27444444444444],[-122.13333333333334,37.4],[-122.13333333333334,37.4],[-122.1388888888889,37.43416666666666],[-122.16722222222222,37.520833333333336],[-122.16722222222222,37.520833333333336],[-122.16722222222222,37.520833333333336],[-122.16666666666667,37.53333333333333],[-122.28333333333333,37.583333333333336],[-122.28333333333333,37.583333333333336],[-122.35,37.61055555555556]],"type":"LineString"}
}
