{
  "id": 2031125677,
  "type": "Feature",
  "properties": {
    "geom:area": 0,
    "geom:bbox": "-122.333333,35.247778,-77.500000,38.998056",
    "geom:latitude": 36.90345329587612,
    "geom:longitude": -100.10314958981253,
    "src:alt_label": "swim-path",
    "src:geom": "swim",
    "swim:altitudes": [
      "008",
      "008",
      "008",
      "036",
      "036",
      "036",
      "036",
      "050",
      "050",
      "133",
      "193",
      "193",
      "193",
      "209",
      "209",
      "209",
      "229",
      "255",
      "255",
      "286",
      "286",
      "300C",
      "300C",
      "300C",
      "300C",
      "300C",
      "300C",
      "300C",
      "300C",
      "288",
      "288",
      "288",
      "280",
      "280",
      "260C",
      "260C",
      "260C",
      "260C",
      "260C",
      "260C",
      "260C",
      "260C",
      "260C",
      "260C",
      "260C",
      "260C",
      "260C",
      "260C",
      "260C",
      "260C",
      "260C",
      "260C",
      "260C",
      "260C",
      "260C",
      "260C",
      "261C",
      "261C",
      "261C",
      "261C",
      "300C",
      "300C",
      "300C",
      "300C",
      "300C",
      "300C",
      "300C",
      "300C",
      "300C",
      "300C",
      "300C",
      "300C",
      "300C",
      "300C",
      "300C",
      "300C",
      "300C",
      "300C",
      "300C",
      "300C",
      "300C",
      "300C",
      "300C",
      "300C",
      "300C",
      "300C",
      "300C",
      "300C",
      "300C",
      "300C",
      "300C",
      "300C",
      "300C",
      "300C",
      "300C",
      "300C",
      "300C",
      "300C",
      "300",
      "300",
      "300",
      "300",
      "309",
      "309",
      "320C",
      "320C",
      "320C",
      "320C",
      "320C",
      "320C",
      "320C",
      "320C",
      "320C",
      "320C",
      "320C",
      "320C",
      "320C",
      "320C",
      "320C",
      "320C",
      "320C",
      "320C",
      "320C",
      "320C",
      "320C",
      "320C",
      "320C",
      "320C",
      "320C",
      "320C",
      "320C",
      "320C",
      "320C",
      "320C",
      "320C",
      "320C",
      "320C",
      "320C",
      "320C",
      "320C",
      "320C",
      "320C",
      "320C",
      "320C",
      "320C",
      "320C",
      "320C",
      "320C",
      "320C",
      "320C",
      "320C",
      "320C",
      "320C",
      "320C",
      "320C",
      "320C",
      "320C",
      "320C",
      "341",
      "341",
      "341",
      "341",
      "348",
      "348",
      "357",
      "360C",
      "360C",
      "360C",
      "360C",
      "360C",
      "360C",
      "360C",
      "360C",
      "360C",
      "360C",
      "360C",
      "360C",
      "360C",
      "360C",
      "360C",
      "360C",
      "360C",
      "360C",
      "360C",
      "360C",
      "360C",
      "360C",
      "360C",
      "360C",
      "360C",
      "360C",
      "360C",
      "360C",
      "360C",
      "360C",
      "360C",
      "360C",
      "360C",
      "360C",
      "360C",
      "360C",
      "360C",
      "360C",
      "360C",
      "360C",
      "360C",
      "360C",
      "360C",
      "360C",
      "360C",
      "360C",
      "360C",
      "360C",
      "360C",
      "360C",
      "360C",
      "360C",
      "360C",
      "360C",
      "360C",
      "360C",
      "360C",
      "360C",
      "360C",
      "360C",
      "360C",
      "360C",
      "360C",
      "360C",
      "360C",
      "360C",
      "360C",
      "360C",
      "360C",
      "360C",
      "360C",
      "360C",
      "360C",
      "360C",
      "360C",
      "360C",
      "360C",
      "360C",
      "360C",
      "360C",
      "360C",
      "360C",
      "360C",
      "360C",
      "360C",
      "360C",
      "360C",
      "360C",
      "360C",
      "360C",
      "360C",
      "360C",
      "360C",
      "360C",
      "360C",
      "360C",
      "360C",
      "360C",
      "360C",
      "360C",
      "360C",
      "360C",
      "360C",
      "360C",
      "360C",
      "360C",
      "360C",
      "360C",
      "360C",
      "360C",
      "360C",
      "360C",
      "360C",
      "360C",
      "360C",
      "360C",
      "360C",
      "360C",
      "360C",
      "360C",
      "360C",
      "360C",
      "360C",
      "360C",
      "360C",
      "360C",
      "360C",
      "360C",
      "360C",
      "360C",
      "360C",
      "360",
      "360",
      "360",
      "360",
      "360",
      "360",
      "360",
      "360",
      "360",
      "360",
      "360",
      "360",
      "365",
      "365",
      "378C",
      "380C",
      "380C",
      "380C",
      "380C",
      "380C",
      "380C",
      "380C",
      "380C",
      "380C",
      "380C",
      "380C",
      "380C",
      "380C",
      "380C",
      "380C",
      "380C",
      "380C",
      "380C",
      "380C",
      "380C",
      "380C",
      "380C",
      "380C",
      "380C",
      "380C",
      "380C",
      "380C",
      "380C",
      "380C",
      "380C",
      "380C",
      "380C",
      "380C",
      "380C",
      "380C",
      "380C",
      "380C",
      "380C",
      "380C",
      "380C",
      "380C",
      "380C",
      "380C",
      "380C",
      "380C",
      "380C",
      "380C",
      "380C",
      "380C",
      "380C",
      "380C",
      "380C",
      "380C",
      "380C",
      "380C",
      "380C",
      "380C",
      "380C",
      "380C",
      "380C",
      "380C",
      "380C",
      "380C",
      "380C",
      "380C",
      "380C",
      "380C",
      "380C",
      "380C",
      "380C",
      "380C",
      "380C",
      "380C",
      "380C",
      "380C",
      "380C",
      "380C",
      "380C",
      "380C",
      "380C",
      "380C",
      "380C",
      "380C",
      "380C",
      "380C",
      "380C",
      "380C",
      "380C",
      "380C",
      "380C",
      "380C",
      "380C",
      "380C",
      "380C",
      "380C",
      "380C",
      "380C",
      "380C",
      "380C",
      "380C",
      "380C",
      "380C",
      "380C",
      "380C",
      "380C",
      "380C",
      "380C",
      "380C",
      "380C",
      "380C",
      "380C",
      "380C",
      "380C",
      "380C",
      "380C",
      "380C",
      "380C",
      "380C",
      "380C",
      "380C",
      "380C",
      "380C",
      "380C",
      "380C",
      "380C",
      "380C",
      "380C",
      "380C",
      "380C",
      "380C",
      "380C",
      "380C",
      "380C",
      "380C",
      "380C",
      "380C",
      "380C",
      "380C",
      "380C",
      "380C",
      "380C",
      "380C",
      "380C",
      "380C",
      "380C",
      "380C",
      "380C",
      "380C",
      "380C",
      "380C",
      "380C",
      "380C",
      "380C",
      "380C",
      "380C",
      "380C",
      "380C",
      "380C",
      "380C",
      "380C",
      "380C",
      "380C",
      "380C",
      "380C",
      "380C",
      "369",
      "369",
      "360C",
      "360C",
      "360C",
      "360C",
      "360C",
      "360C",
      "360C",
      "360C",
      "360C",
      "360C",
      "360C",
      "360C",
      "360C",
      "360C",
      "360C",
      "360C",
      "360C",
      "360C",
      "360C",
      "360C",
      "360C",
      "360C",
      "360C",
      "360C",
      "360C",
      "360C",
      "360C",
      "360C",
      "360C",
      "360C",
      "360C",
      "360C",
      "360C",
      "360C",
      "360C",
      "360C",
      "360C",
      "360C",
      "360C",
      "360C",
      "360C",
      "360C",
      "360C",
      "360C",
      "360",
      "360",
      "360",
      "358",
      "358",
      "358",
      "358",
      "358",
      "320",
      "320",
      "320",
      "320",
      "302",
      "302",
      "302",
      "275",
      "275",
      "275",
      "275",
      "275",
      "183",
      "183",
      "183",
      "183",
      "171",
      "171",
      "171",
      "171",
      "171",
      "150",
      "150",
      "150",
      "150",
      "133",
      "133",
      "133",
      "130",
      "130",
      "130",
      "130",
      "130",
      "130",
      "130",
      "121",
      "121",
      "121",
      "090",
      "090",
      "090",
      "090",
      "090",
      "090",
      "075",
      "074",
      "074",
      "065",
      "065",
      "065",
      "065",
      "064",
      "064",
      "064",
      "044",
      "044",
      "044",
      "044",
      "044",
      "044",
      "020",
      "020",
      "020",
      "020",
      "012",
      "012",
      "012",
      "012",
      "005",
      "005",
      "005"
    ],
    "swim:geom": "path",
    "swim:speeds": [
      173,
      173,
      173,
      236,
      236,
      236,
      236,
      280,
      280,
      366,
      411,
      411,
      411,
      418,
      418,
      418,
      430,
      447,
      447,
      456,
      456,
      464,
      464,
      468,
      468,
      468,
      468,
      468,
      468,
      467,
      467,
      467,
      461,
      461,
      468,
      468,
      468,
      468,
      467,
      467,
      465,
      465,
      465,
      461,
      461,
      464,
      465,
      465,
      465,
      465,
      465,
      465,
      465,
      465,
      465,
      465,
      465,
      465,
      465,
      465,
      461,
      461,
      461,
      463,
      463,
      462,
      461,
      461,
      460,
      460,
      459,
      459,
      457,
      457,
      451,
      451,
      451,
      450,
      450,
      450,
      454,
      454,
      454,
      452,
      452,
      452,
      458,
      458,
      458,
      458,
      457,
      457,
      457,
      457,
      457,
      447,
      447,
      447,
      439,
      439,
      439,
      439,
      431,
      431,
      427,
      427,
      427,
      422,
      422,
      420,
      420,
      420,
      420,
      420,
      420,
      420,
      418,
      417,
      417,
      416,
      416,
      414,
      414,
      414,
      414,
      413,
      413,
      412,
      412,
      412,
      412,
      413,
      413,
      413,
      412,
      412,
      412,
      411,
      411,
      412,
      412,
      412,
      413,
      413,
      413,
      413,
      413,
      411,
      410,
      410,
      409,
      409,
      409,
      405,
      405,
      405,
      405,
      405,
      396,
      396,
      396,
      396,
      391,
      391,
      384,
      373,
      368,
      368,
      368,
      368,
      368,
      368,
      368,
      368,
      368,
      368,
      368,
      366,
      366,
      366,
      366,
      366,
      366,
      362,
      362,
      362,
      362,
      361,
      361,
      361,
      361,
      361,
      359,
      359,
      359,
      359,
      359,
      360,
      360,
      360,
      360,
      360,
      360,
      358,
      358,
      358,
      358,
      358,
      358,
      358,
      358,
      358,
      358,
      358,
      359,
      358,
      354,
      354,
      354,
      344,
      344,
      344,
      344,
      344,
      345,
      345,
      349,
      349,
      356,
      356,
      359,
      359,
      361,
      361,
      361,
      361,
      362,
      362,
      362,
      362,
      362,
      362,
      362,
      362,
      362,
      365,
      365,
      365,
      365,
      365,
      365,
      365,
      367,
      367,
      367,
      369,
      372,
      373,
      363,
      363,
      361,
      361,
      360,
      359,
      363,
      358,
      358,
      361,
      361,
      361,
      362,
      362,
      362,
      363,
      363,
      365,
      366,
      366,
      366,
      367,
      367,
      367,
      372,
      372,
      374,
      374,
      374,
      374,
      377,
      377,
      378,
      378,
      376,
      376,
      376,
      376,
      371,
      371,
      368,
      368,
      367,
      367,
      367,
      367,
      367,
      367,
      366,
      366,
      367,
      367,
      368,
      367,
      367,
      367,
      367,
      368,
      368,
      367,
      367,
      367,
      367,
      365,
      365,
      365,
      365,
      364,
      364,
      364,
      364,
      365,
      365,
      365,
      365,
      365,
      363,
      363,
      363,
      366,
      366,
      366,
      366,
      364,
      364,
      364,
      364,
      364,
      364,
      364,
      364,
      370,
      370,
      370,
      370,
      370,
      370,
      378,
      378,
      378,
      378,
      378,
      378,
      378,
      378,
      378,
      378,
      378,
      378,
      378,
      378,
      388,
      388,
      384,
      384,
      384,
      384,
      384,
      384,
      386,
      386,
      388,
      388,
      388,
      388,
      388,
      393,
      393,
      393,
      394,
      394,
      394,
      394,
      396,
      396,
      396,
      396,
      398,
      398,
      401,
      401,
      401,
      403,
      403,
      403,
      403,
      411,
      411,
      411,
      411,
      412,
      412,
      412,
      414,
      414,
      410,
      410,
      410,
      410,
      406,
      406,
      406,
      406,
      406,
      406,
      407,
      407,
      410,
      410,
      410,
      410,
      410,
      419,
      441,
      441,
      441,
      441,
      444,
      444,
      444,
      444,
      444,
      445,
      445,
      445,
      445,
      445,
      445,
      445,
      436,
      436,
      420,
      420,
      420,
      420,
      416,
      416,
      413,
      413,
      413,
      413,
      414,
      414,
      414,
      414,
      414,
      414,
      411,
      411,
      411,
      412,
      412,
      412,
      412,
      415,
      415,
      415,
      415,
      402,
      402,
      401,
      401,
      401,
      399,
      399,
      399,
      410,
      410,
      410,
      415,
      415,
      415,
      415,
      406,
      402,
      402,
      410,
      410,
      405,
      405,
      405,
      403,
      403,
      402,
      402,
      402,
      402,
      402,
      402,
      402,
      441,
      441,
      441,
      441,
      442,
      442,
      443,
      443,
      443,
      444,
      444,
      444,
      444,
      444,
      445,
      445,
      445,
      446,
      446,
      446,
      446,
      446,
      452,
      452,
      452,
      452,
      452,
      452,
      452,
      432,
      432,
      432,
      432,
      432,
      353,
      353,
      353,
      353,
      316,
      316,
      316,
      316,
      316,
      306,
      306,
      306,
      306,
      268,
      268,
      268,
      244,
      244,
      244,
      251,
      251,
      251,
      251,
      245,
      245,
      245,
      240,
      240,
      240,
      240,
      240,
      240,
      239,
      240,
      240,
      228,
      228,
      228,
      228,
      232,
      232,
      232,
      220,
      220,
      220,
      220,
      220,
      220,
      183,
      183,
      183,
      183,
      149,
      149,
      149,
      149,
      129,
      129,
      129
    ],
    "swim:timestamps": [
      1777286509,
      1777286509,
      1777286509,
      1777286601,
      1777286601,
      1777286601,
      1777286601,
      1777286661,
      1777286661,
      1777286901,
      1777287082,
      1777287082,
      1777287082,
      1777287146,
      1777287146,
      1777287146,
      1777287202,
      1777287322,
      1777287322,
      1777287446,
      1777287446,
      1777287562,
      1777287562,
      1777287743,
      1777287923,
      1777287923,
      1777287923,
      1777287923,
      1777287923,
      1777288043,
      1777288043,
      1777288043,
      1777288107,
      1777288107,
      1777288405,
      1777288405,
      1777288405,
      1777288405,
      1777288646,
      1777288646,
      1777288766,
      1777288766,
      1777288766,
      1777289127,
      1777289127,
      1777289247,
      1777289427,
      1777289427,
      1777289427,
      1777289487,
      1777289487,
      1777289535,
      1777289535,
      1777289535,
      1777289655,
      1777289655,
      1777289667,
      1777289667,
      1777289667,
      1777289667,
      1777289835,
      1777289835,
      1777289848,
      1777289895,
      1777289895,
      1777289955,
      1777290015,
      1777290015,
      1777290028,
      1777290028,
      1777290088,
      1777290088,
      1777290136,
      1777290136,
      1777290256,
      1777290268,
      1777290268,
      1777290328,
      1777290448,
      1777290448,
      1777290508,
      1777290508,
      1777290569,
      1777290689,
      1777290689,
      1777290689,
      1777290857,
      1777290857,
      1777291037,
      1777291037,
      1777291217,
      1777291217,
      1777291277,
      1777291277,
      1777291277,
      1777291397,
      1777291397,
      1777291397,
      1777291638,
      1777291638,
      1777291638,
      1777291638,
      1777291698,
      1777291698,
      1777291818,
      1777291818,
      1777291818,
      1777292058,
      1777292058,
      1777292178,
      1777292178,
      1777292178,
      1777292178,
      1777292238,
      1777292238,
      1777292238,
      1777292359,
      1777292419,
      1777292419,
      1777292479,
      1777292479,
      1777292539,
      1777292637,
      1777292637,
      1777292637,
      1777292659,
      1777292659,
      1777292719,
      1777292719,
      1777292779,
      1777292779,
      1777292818,
      1777292818,
      1777292818,
      1777292878,
      1777292878,
      1777292878,
      1777292899,
      1777292899,
      1777292960,
      1777292960,
      1777292960,
      1777292998,
      1777292998,
      1777292998,
      1777292998,
      1777292998,
      1777293140,
      1777293200,
      1777293200,
      1777293320,
      1777293320,
      1777293320,
      1777293620,
      1777293620,
      1777293620,
      1777293620,
      1777293620,
      1777293839,
      1777293839,
      1777293839,
      1777293839,
      1777293861,
      1777293861,
      1777293899,
      1777293959,
      1777294041,
      1777294041,
      1777294199,
      1777294199,
      1777294199,
      1777294199,
      1777294260,
      1777294260,
      1777294260,
      1777294260,
      1777294260,
      1777294560,
      1777294560,
      1777294560,
      1777294560,
      1777294560,
      1777294560,
      1777294860,
      1777294860,
      1777294860,
      1777294860,
      1777294981,
      1777294981,
      1777294981,
      1777294981,
      1777294981,
      1777295221,
      1777295221,
      1777295221,
      1777295221,
      1777295221,
      1777295461,
      1777295461,
      1777295521,
      1777295521,
      1777295521,
      1777295521,
      1777295727,
      1777295762,
      1777295762,
      1777295762,
      1777295762,
      1777295822,
      1777295908,
      1777295908,
      1777295908,
      1777295908,
      1777295908,
      1777296062,
      1777296149,
      1777296242,
      1777296242,
      1777296242,
      1777296329,
      1777296329,
      1777296389,
      1777296423,
      1777296423,
      1777296483,
      1777296483,
      1777296569,
      1777296569,
      1777296689,
      1777296689,
      1777296723,
      1777296723,
      1777296783,
      1777296783,
      1777296783,
      1777296783,
      1777296810,
      1777296810,
      1777296903,
      1777296903,
      1777296990,
      1777296990,
      1777296990,
      1777297024,
      1777297024,
      1777297230,
      1777297230,
      1777297230,
      1777297230,
      1777297230,
      1777297230,
      1777297230,
      1777297411,
      1777297411,
      1777297411,
      1777297770,
      1777297890,
      1777297950,
      1777298190,
      1777298190,
      1777298250,
      1777298250,
      1777298336,
      1777298431,
      1777298456,
      1777298491,
      1777298491,
      1777298516,
      1777298516,
      1777298516,
      1777298577,
      1777298577,
      1777298577,
      1777298611,
      1777298611,
      1777298637,
      1777298697,
      1777298697,
      1777298697,
      1777298757,
      1777298757,
      1777298757,
      1777298817,
      1777298817,
      1777298852,
      1777298852,
      1777298852,
      1777298852,
      1777298937,
      1777298937,
      1777298972,
      1777298972,
      1777299092,
      1777299092,
      1777299092,
      1777299092,
      1777299212,
      1777299212,
      1777299272,
      1777299272,
      1777299298,
      1777299298,
      1777299298,
      1777299298,
      1777299298,
      1777299298,
      1777299332,
      1777299358,
      1777299453,
      1777299453,
      1777299513,
      1777299538,
      1777299538,
      1777299538,
      1777299538,
      1777299573,
      1777299573,
      1777299598,
      1777299598,
      1777299598,
      1777299598,
      1777299693,
      1777299693,
      1777299693,
      1777299693,
      1777299838,
      1777299838,
      1777299838,
      1777299838,
      1777299873,
      1777299933,
      1777299933,
      1777299993,
      1777299993,
      1777300014,
      1777300014,
      1777300014,
      1777300054,
      1777300054,
      1777300054,
      1777300054,
      1777300074,
      1777300074,
      1777300074,
      1777300194,
      1777300194,
      1777300254,
      1777300254,
      1777300254,
      1777300434,
      1777300434,
      1777300434,
      1777300434,
      1777300434,
      1777300434,
      1777300554,
      1777300554,
      1777300554,
      1777300554,
      1777300674,
      1777300735,
      1777300735,
      1777300735,
      1777300795,
      1777300795,
      1777300795,
      1777300795,
      1777300795,
      1777300795,
      1777300975,
      1777300975,
      1777301155,
      1777301155,
      1777301215,
      1777301215,
      1777301215,
      1777301215,
      1777301335,
      1777301335,
      1777301395,
      1777301395,
      1777301395,
      1777301395,
      1777301395,
      1777301576,
      1777301576,
      1777301576,
      1777301636,
      1777301636,
      1777301636,
      1777301636,
      1777301756,
      1777301756,
      1777301756,
      1777301816,
      1777301936,
      1777301936,
      1777302013,
      1777302013,
      1777302013,
      1777302116,
      1777302116,
      1777302116,
      1777302116,
      1777302417,
      1777302417,
      1777302417,
      1777302417,
      1777302477,
      1777302477,
      1777302477,
      1777302537,
      1777302537,
      1777302657,
      1777302657,
      1777302657,
      1777302657,
      1777302717,
      1777302777,
      1777302777,
      1777302777,
      1777302777,
      1777302777,
      1777302837,
      1777302837,
      1777303018,
      1777303018,
      1777303018,
      1777303018,
      1777303018,
      1777303078,
      1777303198,
      1777303198,
      1777303198,
      1777303198,
      1777303318,
      1777303318,
      1777303318,
      1777303318,
      1777303318,
      1777303438,
      1777303438,
      1777303438,
      1777303438,
      1777303438,
      1777303438,
      1777303438,
      1777303646,
      1777303646,
      1777303679,
      1777303679,
      1777303679,
      1777303679,
      1777303887,
      1777303887,
      1777303919,
      1777303919,
      1777303919,
      1777303919,
      1777304067,
      1777304067,
      1777304067,
      1777304067,
      1777304067,
      1777304067,
      1777304219,
      1777304219,
      1777304247,
      1777304307,
      1777304307,
      1777304307,
      1777304307,
      1777304399,
      1777304399,
      1777304399,
      1777304399,
      1777304580,
      1777304580,
      1777304668,
      1777304668,
      1777304668,
      1777304728,
      1777304728,
      1777304760,
      1777304820,
      1777304820,
      1777304820,
      1777304908,
      1777304908,
      1777304940,
      1777304940,
      1777305028,
      1777305060,
      1777305060,
      1777305241,
      1777305241,
      1777305269,
      1777305269,
      1777305269,
      1777305301,
      1777305301,
      1777305329,
      1777305329,
      1777305329,
      1777305329,
      1777305389,
      1777305389,
      1777305389,
      1777305569,
      1777305569,
      1777305569,
      1777305569,
      1777305629,
      1777305629,
      1777305689,
      1777305689,
      1777305689,
      1777305749,
      1777305749,
      1777305749,
      1777305749,
      1777305749,
      1777305809,
      1777305809,
      1777305809,
      1777305870,
      1777305870,
      1777305870,
      1777305870,
      1777305870,
      1777305990,
      1777305990,
      1777305990,
      1777305990,
      1777306050,
      1777306050,
      1777306050,
      1777306110,
      1777306110,
      1777306110,
      1777306110,
      1777306110,
      1777306350,
      1777306350,
      1777306350,
      1777306350,
      1777306397,
      1777306397,
      1777306397,
      1777306397,
      1777306397,
      1777306470,
      1777306470,
      1777306470,
      1777306470,
      1777306577,
      1777306577,
      1777306577,
      1777306638,
      1777306638,
      1777306638,
      1777306651,
      1777306651,
      1777306651,
      1777306651,
      1777306711,
      1777306711,
      1777306711,
      1777306951,
      1777306951,
      1777306951,
      1777306951,
      1777306951,
      1777306951,
      1777307058,
      1777307071,
      1777307071,
      1777307118,
      1777307118,
      1777307118,
      1777307118,
      1777307131,
      1777307131,
      1777307131,
      1777307238,
      1777307238,
      1777307238,
      1777307238,
      1777307238,
      1777307238,
      1777307372,
      1777307372,
      1777307372,
      1777307372,
      1777307432,
      1777307432,
      1777307432,
      1777307432,
      1777307492,
      1777307492,
      1777307492
    ],
    "wof:geomhash": "5771feeb0f5e92c1a4952e315ebd20bc",
    "wof:id": 2031125677,
    "wof:repo": "sfomuseum-data-flights-2026-04"
  },
  "bbox": [
    -122.33333333333333,
    35.24777777777778,
    -77.5,
    38.99805555555556
  ],
  "geometry": {"coordinates":[[-77.5,38.95],[-77.5,38.95],[-77.5,38.95],[-77.59527777777777,38.9325],[-77.59527777777777,38.9325],[-77.59527777777777,38.9325],[-77.59527777777777,38.9325],[-77.69027777777778,38.90138888888889],[-77.69027777777778,38.90138888888889],[-78.1,38.84388888888889],[-78.5213888888889,38.82944444444445],[-78.5213888888889,38.82944444444445],[-78.5213888888889,38.82944444444445],[-78.6525,38.80722222222222],[-78.6525,38.80722222222222],[-78.6525,38.80722222222222],[-78.82055555555556,38.78],[-79.10666666666665,38.73166666666667],[-79.10666666666665,38.73166666666667],[-79.45833333333334,38.67305555555555],[-79.45833333333334,38.67305555555555],[-79.7461111111111,38.62444444444444],[-79.7461111111111,38.62444444444444],[-80.26,38.530833333333334],[-80.74194444444444,38.44027777777777],[-80.74194444444444,38.44027777777777],[-80.74194444444444,38.44027777777777],[-80.74194444444444,38.44027777777777],[-80.74194444444444,38.44027777777777],[-81.06527777777778,38.39194444444444],[-81.06527777777778,38.39194444444444],[-81.06527777777778,38.39194444444444],[-81.2363888888889,38.385],[-81.2363888888889,38.385],[-82.02416666666666,38.281666666666666],[-82.02416666666666,38.281666666666666],[-82.02416666666666,38.281666666666666],[-82.02416666666666,38.281666666666666],[-82.66388888888889,38.13611111111111],[-82.66388888888889,38.13611111111111],[-82.98083333333334,38.07138888888889],[-82.98083333333334,38.07138888888889],[-82.98083333333334,38.07138888888889],[-83.90583333333333,37.853611111111114],[-83.90583333333333,37.853611111111114],[-84.19444444444444,37.73388888888889],[-84.62527777777777,37.55166666666666],[-84.62527777777777,37.55166666666666],[-84.62527777777777,37.55166666666666],[-84.76805555555555,37.490833333333335],[-84.76805555555555,37.490833333333335],[-84.88944444444445,37.43888888888888],[-84.88944444444445,37.43888888888888],[-84.88944444444445,37.43888888888888],[-85.17416666666666,37.31638888888889],[-85.17416666666666,37.31638888888889],[-85.19416666666667,37.3075],[-85.19416666666667,37.3075],[-85.19416666666667,37.3075],[-85.19416666666667,37.3075],[-85.60499999999999,37.12861111111111],[-85.60499999999999,37.12861111111111],[-85.63388888888889,37.115833333333335],[-85.74777777777778,37.06583333333333],[-85.74777777777778,37.06583333333333],[-85.88611111111112,37.00472222222222],[-86.0261111111111,36.942499999999995],[-86.0261111111111,36.942499999999995],[-86.05305555555556,36.93055555555555],[-86.05305555555556,36.93055555555555],[-86.19055555555556,36.86944444444445],[-86.19055555555556,36.86944444444445],[-86.30194444444444,36.81944444444445],[-86.30194444444444,36.81944444444445],[-86.57305555555556,36.6975],[-86.6,36.68527777777778],[-86.6,36.68527777777778],[-86.73222222222222,36.625277777777775],[-86.99888888888889,36.50388888888889],[-86.99888888888889,36.50388888888889],[-87.13305555555554,36.44222222222222],[-87.13305555555554,36.44222222222222],[-87.26833333333333,36.38],[-87.53611111111111,36.25611111111111],[-87.53611111111111,36.25611111111111],[-87.53611111111111,36.25611111111111],[-87.91777777777779,36.0775],[-87.91777777777779,36.0775],[-88.3461111111111,35.874722222222225],[-88.3461111111111,35.874722222222225],[-88.75194444444445,35.680277777777775],[-88.75194444444445,35.680277777777775],[-88.88944444444445,35.61638888888889],[-88.88944444444445,35.61638888888889],[-88.88944444444445,35.61638888888889],[-89.19083333333333,35.59805555555556],[-89.19083333333333,35.59805555555556],[-89.19083333333333,35.59805555555556],[-89.78611111111111,35.584722222222226],[-89.78611111111111,35.584722222222226],[-89.78611111111111,35.584722222222226],[-89.78611111111111,35.584722222222226],[-89.93166666666667,35.58111111111111],[-89.93166666666667,35.58111111111111],[-90.22055555555556,35.573055555555555],[-90.22055555555556,35.573055555555555],[-90.22055555555556,35.573055555555555],[-90.79416666666667,35.555277777777775],[-90.79416666666667,35.555277777777775],[-91.07972222222222,35.54527777777778],[-91.07972222222222,35.54527777777778],[-91.07972222222222,35.54527777777778],[-91.07972222222222,35.54527777777778],[-91.22222222222223,35.540277777777774],[-91.22222222222223,35.540277777777774],[-91.22222222222223,35.540277777777774],[-91.51722222222222,35.528888888888886],[-91.65916666666668,35.52305555555555],[-91.65916666666668,35.52305555555555],[-91.79944444444445,35.5175],[-91.79944444444445,35.5175],[-91.9388888888889,35.51138888888889],[-92.16333333333334,35.50194444444445],[-92.16333333333334,35.50194444444445],[-92.16333333333334,35.50194444444445],[-92.21972222222223,35.49916666666667],[-92.21972222222223,35.49916666666667],[-92.3586111111111,35.49277777777778],[-92.3586111111111,35.49277777777778],[-92.49888888888889,35.486111111111114],[-92.49888888888889,35.486111111111114],[-92.58222222222221,35.48166666666667],[-92.58222222222221,35.48166666666667],[-92.58222222222221,35.48166666666667],[-92.7213888888889,35.47555555555556],[-92.7213888888889,35.47555555555556],[-92.7213888888889,35.47555555555556],[-92.77694444444444,35.472500000000004],[-92.77694444444444,35.472500000000004],[-92.91611111111112,35.46527777777778],[-92.91611111111112,35.46527777777778],[-92.91611111111112,35.46527777777778],[-92.995,35.46138888888889],[-92.995,35.46138888888889],[-92.995,35.46138888888889],[-92.995,35.46138888888889],[-92.995,35.46138888888889],[-93.33694444444444,35.44333333333333],[-93.47611111111111,35.43555555555555],[-93.47611111111111,35.43555555555555],[-93.75527777777778,35.419444444444444],[-93.75527777777778,35.419444444444444],[-93.75527777777778,35.419444444444444],[-94.44611111111111,35.38944444444444],[-94.44611111111111,35.38944444444444],[-94.44611111111111,35.38944444444444],[-94.44611111111111,35.38944444444444],[-94.44611111111111,35.38944444444444],[-94.935,35.390277777777776],[-94.935,35.390277777777776],[-94.935,35.390277777777776],[-94.935,35.390277777777776],[-94.98972222222223,35.390277777777776],[-94.98972222222223,35.390277777777776],[-95.0675,35.390277777777776],[-95.19583333333334,35.38972222222222],[-95.3425,35.38916666666667],[-95.3425,35.38916666666667],[-95.6975,35.38722222222222],[-95.6975,35.38722222222222],[-95.6975,35.38722222222222],[-95.6975,35.38722222222222],[-95.82416666666666,35.38638888888889],[-95.82416666666666,35.38638888888889],[-95.82416666666666,35.38638888888889],[-95.82416666666666,35.38638888888889],[-95.82416666666666,35.38638888888889],[-96.44222222222223,35.37972222222222],[-96.44222222222223,35.37972222222222],[-96.44222222222223,35.37972222222222],[-96.44222222222223,35.37972222222222],[-96.44222222222223,35.37972222222222],[-96.44222222222223,35.37972222222222],[-97.05916666666667,35.37],[-97.05916666666667,35.37],[-97.05916666666667,35.37],[-97.05916666666667,35.37],[-97.29055555555556,35.36555555555556],[-97.29055555555556,35.36555555555556],[-97.29055555555556,35.36555555555556],[-97.29055555555556,35.36555555555556],[-97.29055555555556,35.36555555555556],[-97.77638888888889,35.35638888888889],[-97.77638888888889,35.35638888888889],[-97.77638888888889,35.35638888888889],[-97.77638888888889,35.35638888888889],[-97.77638888888889,35.35638888888889],[-98.26638888888888,35.34805555555556],[-98.26638888888888,35.34805555555556],[-98.38777777777779,35.34583333333334],[-98.38777777777779,35.34583333333334],[-98.38777777777779,35.34583333333334],[-98.38777777777779,35.34583333333334],[-98.82055555555556,35.33638888888889],[-98.87388888888889,35.33527777777778],[-98.87388888888889,35.33527777777778],[-98.87388888888889,35.33527777777778],[-98.87388888888889,35.33527777777778],[-98.99472222222222,35.33222222222223],[-99.185,35.3275],[-99.185,35.3275],[-99.185,35.3275],[-99.185,35.3275],[-99.185,35.3275],[-99.48333333333333,35.31916666666667],[-99.67111111111112,35.31361111111111],[-99.86138888888888,35.30777777777777],[-99.86138888888888,35.30777777777777],[-99.86138888888888,35.30777777777777],[-100.02583333333334,35.30222222222222],[-100.02583333333334,35.30222222222222],[-100.14166666666668,35.29833333333333],[-100.21111111111111,35.29611111111111],[-100.21111111111111,35.29611111111111],[-100.32833333333333,35.29194444444444],[-100.32833333333333,35.29194444444444],[-100.49583333333334,35.28583333333333],[-100.49583333333334,35.28583333333333],[-100.73777777777778,35.276666666666664],[-100.73777777777778,35.276666666666664],[-100.81194444444444,35.27361111111111],[-100.81194444444444,35.27361111111111],[-100.935,35.26861111111111],[-100.935,35.26861111111111],[-100.935,35.26861111111111],[-100.935,35.26861111111111],[-100.98527777777778,35.266666666666666],[-100.98527777777778,35.266666666666666],[-101.18111111111112,35.25833333333333],[-101.18111111111112,35.25833333333333],[-101.36027777777777,35.25055555555556],[-101.36027777777777,35.25055555555556],[-101.36027777777777,35.25055555555556],[-101.42527777777778,35.24777777777778],[-101.42527777777778,35.24777777777778],[-101.84388888888888,35.27361111111111],[-101.84388888888888,35.27361111111111],[-101.84388888888888,35.27361111111111],[-101.84388888888888,35.27361111111111],[-101.84388888888888,35.27361111111111],[-101.84388888888888,35.27361111111111],[-101.84388888888888,35.27361111111111],[-102.18416666666667,35.36388888888889],[-102.18416666666667,35.36388888888889],[-102.18416666666667,35.36388888888889],[-102.915,35.55361111111111],[-103.15833333333335,35.61555555555556],[-103.27888888888889,35.64611111111111],[-103.76083333333334,35.76638888888889],[-103.76083333333334,35.76638888888889],[-103.8775,35.79527777777778],[-103.8775,35.79527777777778],[-104.0411111111111,35.83444444444444],[-104.22361111111111,35.88],[-104.27722222222222,35.893055555555556],[-104.33944444444444,35.908055555555556],[-104.33944444444444,35.908055555555556],[-104.39416666666668,35.92111111111111],[-104.39416666666668,35.92111111111111],[-104.39416666666668,35.92111111111111],[-104.51305555555555,35.94972222222222],[-104.51305555555555,35.94972222222222],[-104.51305555555555,35.94972222222222],[-104.5775,35.96527777777778],[-104.5775,35.96527777777778],[-104.635,35.97888888888889],[-104.75611111111111,36.007777777777775],[-104.75611111111111,36.007777777777775],[-104.75611111111111,36.007777777777775],[-104.8775,36.03666666666666],[-104.8775,36.03666666666666],[-104.8775,36.03666666666666],[-105.00055555555555,36.065555555555555],[-105.00055555555555,36.065555555555555],[-105.06361111111111,36.080555555555556],[-105.06361111111111,36.080555555555556],[-105.06361111111111,36.080555555555556],[-105.06361111111111,36.080555555555556],[-105.25861111111111,36.126111111111115],[-105.25861111111111,36.126111111111115],[-105.31333333333333,36.138888888888886],[-105.31333333333333,36.138888888888886],[-105.58111111111111,36.200833333333335],[-105.58111111111111,36.200833333333335],[-105.58111111111111,36.200833333333335],[-105.58111111111111,36.200833333333335],[-105.81944444444444,36.255],[-105.81944444444444,36.255],[-105.94194444444445,36.282777777777774],[-105.94194444444445,36.282777777777774],[-105.9925,36.294444444444444],[-105.9925,36.294444444444444],[-105.9925,36.294444444444444],[-105.9925,36.294444444444444],[-105.9925,36.294444444444444],[-105.9925,36.294444444444444],[-106.06472222222222,36.31055555555555],[-106.11388888888888,36.32166666666667],[-106.30361111111111,36.36388888888889],[-106.30361111111111,36.36388888888889],[-106.42722222222223,36.391666666666666],[-106.48555555555555,36.404444444444444],[-106.48555555555555,36.404444444444444],[-106.48555555555555,36.404444444444444],[-106.48555555555555,36.404444444444444],[-106.55111111111111,36.41888888888889],[-106.55111111111111,36.41888888888889],[-106.6,36.42972222222222],[-106.6,36.42972222222222],[-106.6,36.42972222222222],[-106.6,36.42972222222222],[-106.7925,36.47166666666667],[-106.7925,36.47166666666667],[-106.7925,36.47166666666667],[-106.7925,36.47166666666667],[-107.08305555555555,36.53472222222222],[-107.08305555555555,36.53472222222222],[-107.08305555555555,36.53472222222222],[-107.08305555555555,36.53472222222222],[-107.15611111111112,36.550555555555555],[-107.27722222222222,36.57638888888889],[-107.27722222222222,36.57638888888889],[-107.40027777777779,36.6025],[-107.40027777777779,36.6025],[-107.45166666666667,36.609722222222224],[-107.45166666666667,36.609722222222224],[-107.45166666666667,36.609722222222224],[-107.52305555555556,36.62833333333333],[-107.52305555555556,36.62833333333333],[-107.52305555555556,36.62833333333333],[-107.52305555555556,36.62833333333333],[-107.57277777777777,36.63666666666666],[-107.57277777777777,36.63666666666666],[-107.57277777777777,36.63666666666666],[-107.81694444444445,36.689166666666665],[-107.81694444444445,36.689166666666665],[-107.94194444444445,36.71472222222223],[-107.94194444444445,36.71472222222223],[-107.94194444444445,36.71472222222223],[-108.30444444444444,36.821111111111115],[-108.30444444444444,36.821111111111115],[-108.30444444444444,36.821111111111115],[-108.30444444444444,36.821111111111115],[-108.30444444444444,36.821111111111115],[-108.30444444444444,36.821111111111115],[-108.54861111111111,36.906666666666666],[-108.54861111111111,36.906666666666666],[-108.54861111111111,36.906666666666666],[-108.54861111111111,36.906666666666666],[-108.7875,36.99138888888889],[-108.90944444444445,37.03333333333333],[-108.90944444444445,37.03333333333333],[-108.90944444444445,37.03333333333333],[-109.02944444444444,37.07527777777778],[-109.02944444444444,37.07527777777778],[-109.02944444444444,37.07527777777778],[-109.02944444444444,37.07527777777778],[-109.02944444444444,37.07527777777778],[-109.02944444444444,37.07527777777778],[-109.40222222222222,37.20166666666667],[-109.40222222222222,37.20166666666667],[-109.76166666666667,37.32472222222223],[-109.76166666666667,37.32472222222223],[-109.88416666666667,37.365833333333335],[-109.88416666666667,37.365833333333335],[-109.88416666666667,37.365833333333335],[-109.88416666666667,37.365833333333335],[-110.13277777777778,37.44888888888889],[-110.13277777777778,37.44888888888889],[-110.25972222222222,37.49111111111111],[-110.25972222222222,37.49111111111111],[-110.25972222222222,37.49111111111111],[-110.25972222222222,37.49111111111111],[-110.25972222222222,37.49111111111111],[-110.64083333333333,37.61638888888889],[-110.64083333333333,37.61638888888889],[-110.64083333333333,37.61638888888889],[-110.76805555555555,37.658055555555556],[-110.76805555555555,37.658055555555556],[-110.76805555555555,37.658055555555556],[-110.76805555555555,37.658055555555556],[-111.02361111111111,37.740833333333335],[-111.02361111111111,37.740833333333335],[-111.02361111111111,37.740833333333335],[-111.15416666666667,37.782777777777774],[-111.4113888888889,37.865],[-111.4113888888889,37.865],[-111.60194444444444,37.925555555555555],[-111.60194444444444,37.925555555555555],[-111.60194444444444,37.925555555555555],[-111.80583333333333,37.98972222222222],[-111.80583333333333,37.98972222222222],[-111.80583333333333,37.98972222222222],[-111.80583333333333,37.98972222222222],[-112.50166666666667,38.20527777777778],[-112.50166666666667,38.20527777777778],[-112.50166666666667,38.20527777777778],[-112.50166666666667,38.20527777777778],[-112.6363888888889,38.24638888888889],[-112.6363888888889,38.24638888888889],[-112.6363888888889,38.24638888888889],[-112.77305555555556,38.28805555555555],[-112.77305555555556,38.28805555555555],[-113.04888888888888,38.356944444444444],[-113.04888888888888,38.356944444444444],[-113.04888888888888,38.356944444444444],[-113.04888888888888,38.356944444444444],[-113.19,38.34777777777778],[-113.33166666666666,38.33638888888889],[-113.33166666666666,38.33638888888889],[-113.33166666666666,38.33638888888889],[-113.33166666666666,38.33638888888889],[-113.33166666666666,38.33638888888889],[-113.47611111111111,38.325],[-113.47611111111111,38.325],[-113.90666666666667,38.29083333333333],[-113.90666666666667,38.29083333333333],[-113.90666666666667,38.29083333333333],[-113.90666666666667,38.29083333333333],[-113.90666666666667,38.29083333333333],[-114.04972222222221,38.30777777777777],[-114.26972222222223,38.480555555555554],[-114.26972222222223,38.480555555555554],[-114.26972222222223,38.480555555555554],[-114.26972222222223,38.480555555555554],[-114.48333333333333,38.66083333333333],[-114.48333333333333,38.66083333333333],[-114.48333333333333,38.66083333333333],[-114.48333333333333,38.66083333333333],[-114.48333333333333,38.66083333333333],[-114.69861111111112,38.843333333333334],[-114.69861111111112,38.843333333333334],[-114.69861111111112,38.843333333333334],[-114.69861111111112,38.843333333333334],[-114.69861111111112,38.843333333333334],[-114.69861111111112,38.843333333333334],[-114.69861111111112,38.843333333333334],[-115.14083333333333,38.99805555555556],[-115.14083333333333,38.99805555555556],[-115.20611111111111,38.96888888888889],[-115.20611111111111,38.96888888888889],[-115.20611111111111,38.96888888888889],[-115.20611111111111,38.96888888888889],[-115.67361111111111,38.79861111111111],[-115.67361111111111,38.79861111111111],[-115.72722222222222,38.778888888888886],[-115.72722222222222,38.778888888888886],[-115.72722222222222,38.778888888888886],[-115.72722222222222,38.778888888888886],[-116.07277777777777,38.65138888888889],[-116.07277777777777,38.65138888888889],[-116.07277777777777,38.65138888888889],[-116.07277777777777,38.65138888888889],[-116.07277777777777,38.65138888888889],[-116.07277777777777,38.65138888888889],[-116.38805555555557,38.53388888888889],[-116.38805555555557,38.53388888888889],[-116.46833333333333,38.50361111111111],[-116.59944444444444,38.45416666666667],[-116.59944444444444,38.45416666666667],[-116.59944444444444,38.45416666666667],[-116.59944444444444,38.45416666666667],[-116.78583333333333,38.38361111111111],[-116.78583333333333,38.38361111111111],[-116.78583333333333,38.38361111111111],[-116.78583333333333,38.38361111111111],[-117.20305555555557,38.223888888888894],[-117.20305555555557,38.223888888888894],[-117.38916666666667,38.151944444444446],[-117.38916666666667,38.151944444444446],[-117.38916666666667,38.151944444444446],[-117.50138888888888,38.108333333333334],[-117.50138888888888,38.108333333333334],[-117.56777777777778,38.07222222222222],[-117.64083333333333,37.975],[-117.64083333333333,37.975],[-117.64083333333333,37.975],[-117.73722222222223,37.82972222222222],[-117.73722222222223,37.82972222222222],[-117.7775,37.769444444444446],[-117.7775,37.769444444444446],[-117.89222222222223,37.638333333333335],[-117.97027777777778,37.62277777777778],[-117.97027777777778,37.62277777777778],[-118.32944444444443,37.785555555555554],[-118.32944444444443,37.785555555555554],[-118.38583333333334,37.797777777777775],[-118.38583333333334,37.797777777777775],[-118.38583333333334,37.797777777777775],[-118.46777777777778,37.79666666666667],[-118.46777777777778,37.79666666666667],[-118.5261111111111,37.794444444444444],[-118.5261111111111,37.794444444444444],[-118.5261111111111,37.794444444444444],[-118.5261111111111,37.794444444444444],[-118.66666666666667,37.78805555555555],[-118.66666666666667,37.78805555555555],[-118.66666666666667,37.78805555555555],[-119.12222222222222,37.76722222222222],[-119.12222222222222,37.76722222222222],[-119.12222222222222,37.76722222222222],[-119.12222222222222,37.76722222222222],[-119.2761111111111,37.75972222222222],[-119.2761111111111,37.75972222222222],[-119.43444444444445,37.75194444444445],[-119.43444444444445,37.75194444444445],[-119.43444444444445,37.75194444444445],[-119.58944444444444,37.744166666666665],[-119.58944444444444,37.744166666666665],[-119.58944444444444,37.744166666666665],[-119.58944444444444,37.744166666666665],[-119.58944444444444,37.744166666666665],[-119.74527777777777,37.73583333333333],[-119.74527777777777,37.73583333333333],[-119.74527777777777,37.73583333333333],[-119.90305555555557,37.7275],[-119.90305555555557,37.7275],[-119.90305555555557,37.7275],[-119.90305555555557,37.7275],[-119.90305555555557,37.7275],[-120.21861111111112,37.71],[-120.21861111111112,37.71],[-120.21861111111112,37.71],[-120.21861111111112,37.71],[-120.3775,37.70027777777778],[-120.3775,37.70027777777778],[-120.3775,37.70027777777778],[-120.52666666666667,37.684999999999995],[-120.52666666666667,37.684999999999995],[-120.52666666666667,37.684999999999995],[-120.52666666666667,37.684999999999995],[-120.52666666666667,37.684999999999995],[-121.06833333333333,37.61888888888889],[-121.06833333333333,37.61888888888889],[-121.06833333333333,37.61888888888889],[-121.06833333333333,37.61888888888889],[-121.16666666666667,37.6],[-121.16666666666667,37.6],[-121.16666666666667,37.6],[-121.16666666666667,37.6],[-121.16666666666667,37.6],[-121.26972222222223,37.59166666666667],[-121.26972222222223,37.59166666666667],[-121.26972222222223,37.59166666666667],[-121.26972222222223,37.59166666666667],[-121.38333333333334,37.46666666666667],[-121.38333333333334,37.46666666666667],[-121.38333333333334,37.46666666666667],[-121.45,37.43333333333333],[-121.45,37.43333333333333],[-121.45,37.43333333333333],[-121.45361111111112,37.42722222222222],[-121.45361111111112,37.42722222222222],[-121.45361111111112,37.42722222222222],[-121.45361111111112,37.42722222222222],[-121.51888888888888,37.47],[-121.51888888888888,37.47],[-121.51888888888888,37.47],[-121.76805555555555,37.51361111111111],[-121.76805555555555,37.51361111111111],[-121.76805555555555,37.51361111111111],[-121.76805555555555,37.51361111111111],[-121.76805555555555,37.51361111111111],[-121.76805555555555,37.51361111111111],[-121.9,37.46666666666667],[-121.90361111111112,37.459722222222226],[-121.90361111111112,37.459722222222226],[-121.98333333333333,37.46666666666667],[-121.98333333333333,37.46666666666667],[-121.98333333333333,37.46666666666667],[-121.98333333333333,37.46666666666667],[-121.98388888888888,37.46194444444445],[-121.98388888888888,37.46194444444445],[-121.98388888888888,37.46194444444445],[-122.11666666666666,37.516666666666666],[-122.11666666666666,37.516666666666666],[-122.11666666666666,37.516666666666666],[-122.11666666666666,37.516666666666666],[-122.11666666666666,37.516666666666666],[-122.11666666666666,37.516666666666666],[-122.24666666666667,37.566944444444445],[-122.24666666666667,37.566944444444445],[-122.24666666666667,37.566944444444445],[-122.24666666666667,37.566944444444445],[-122.29388888888889,37.58694444444445],[-122.29388888888889,37.58694444444445],[-122.29388888888889,37.58694444444445],[-122.29388888888889,37.58694444444445],[-122.33333333333333,37.603611111111114],[-122.33333333333333,37.603611111111114],[-122.33333333333333,37.603611111111114]],"type":"LineString"}
}
