{
  "id": 2015299401,
  "type": "Feature",
  "properties": {
    "geom:area": 0,
    "geom:bbox": "-122.410480,37.625500,-121.246090,38.165670",
    "geom:latitude": 37.98810170934345,
    "geom:longitude": -121.94095728045818,
    "src:alt_label": "swim-takeoff",
    "src:geom": "swim",
    "swim:elevations": [
      122,
      596,
      834,
      949,
      1318,
      1595,
      1764,
      2449,
      2711,
      3137,
      3293,
      3499,
      3652,
      4026,
      4410,
      4641,
      4759,
      4968,
      5329,
      5514,
      5768,
      5928,
      6212,
      6416,
      6722,
      6896,
      7125,
      7293,
      7433
    ],
    "swim:geom": "takeoff",
    "swim:timestamps": [
      1776296334,
      1776296367,
      1776296391,
      1776296400,
      1776296454,
      1776296483,
      1776296495,
      1776296546,
      1776296565,
      1776296602,
      1776296632,
      1776296663,
      1776296678,
      1776296709,
      1776296745,
      1776296771,
      1776296783,
      1776296804,
      1776296841,
      1776296871,
      1776296901,
      1776296921,
      1776296958,
      1776296982,
      1776297024,
      1776297049,
      1776297085,
      1776297112,
      1776297136
    ],
    "wof:geomhash": "eb2c89bea5f554b1c41d7761a9e7ed0d",
    "wof:id": 2015299401,
    "wof:repo": "sfomuseum-data-flights-2026-04"
  },
  "bbox": [
    -122.41048,
    37.6255,
    -121.24609,
    38.16567
  ],
  "geometry": {"coordinates":[[-122.39128,37.6255],[-122.41048,37.64612],[-122.39735,37.66472],[-122.39014,37.67092],[-122.34602,37.7157],[-122.34012,37.74866],[-122.34621,37.76219],[-122.37465,37.82093],[-122.38356,37.84335],[-122.38524,37.88942],[-122.36784,37.92835],[-122.31602,37.95335],[-122.28548,37.95961],[-122.22165,37.97316],[-122.14847,37.98869],[-122.09289,37.99991],[-122.06691,38.00502],[-122.02012,38.01418],[-121.93886,38.03007],[-121.87222,38.04325],[-121.80648,38.0563],[-121.75848,38.06586],[-121.67538,38.08226],[-121.61936,38.09323],[-121.52017,38.11259],[-121.45994,38.12436],[-121.37235,38.14134],[-121.30577,38.15422],[-121.24609,38.16567]],"type":"LineString"}
}
