{
  "id": 2031145535,
  "type": "Feature",
  "properties": {
    "geom:area": 0,
    "geom:bbox": "-122.549140,36.722150,-121.297730,37.667410",
    "geom:latitude": 37.20655505443842,
    "geom:longitude": -122.00512087884455,
    "src:alt_label": "swim-takeoff",
    "src:geom": "swim",
    "swim:elevations": [
      122,
      318,
      646,
      1087,
      1211,
      1396,
      1488,
      1666,
      2064,
      2430,
      2977,
      3264,
      3458,
      3577,
      3767,
      3851,
      4083,
      4409,
      4628,
      4825,
      5170,
      5542,
      5662,
      5763,
      5908,
      6275,
      6395,
      6699,
      6864,
      6963,
      7093,
      7246,
      7411,
      7585,
      7874,
      8000,
      8214,
      8390,
      8458
    ],
    "swim:geom": "takeoff",
    "swim:timestamps": [
      1777499248,
      1777499262,
      1777499292,
      1777499335,
      1777499357,
      1777499391,
      1777499402,
      1777499418,
      1777499445,
      1777499473,
      1777499513,
      1777499543,
      1777499574,
      1777499585,
      1777499604,
      1777499611,
      1777499633,
      1777499667,
      1777499690,
      1777499713,
      1777499742,
      1777499776,
      1777499788,
      1777499803,
      1777499820,
      1777499871,
      1777499884,
      1777499915,
      1777499933,
      1777499948,
      1777499966,
      1777499992,
      1777500015,
      1777500044,
      1777500088,
      1777500107,
      1777500138,
      1777500168,
      1777500180
    ],
    "wof:geomhash": "0d63af99bda6f7fe06ba5ab19794b7b7",
    "wof:id": 2031145535,
    "wof:repo": "sfomuseum-data-flights-2026-04"
  },
  "bbox": [
    -122.54914,
    36.72215,
    -121.29773,
    37.66741
  ],
  "geometry": {"coordinates":[[-122.39086,37.62539],[-122.40248,37.63014],[-122.42808,37.64101],[-122.46846,37.65794],[-122.49229,37.66741],[-122.53682,37.65893],[-122.54677,37.64713],[-122.54914,37.62689],[-122.53271,37.5959],[-122.51382,37.56245],[-122.48648,37.51233],[-122.45567,37.4781],[-122.41049,37.44962],[-122.39299,37.43832],[-122.36264,37.4188],[-122.35222,37.41193],[-122.31726,37.38913],[-122.2612,37.35256],[-122.22203,37.32708],[-122.18377,37.30236],[-122.13161,37.26869],[-122.07186,37.22978],[-122.05145,37.21654],[-122.02583,37.19989],[-121.9946,37.1797],[-121.90191,37.11935],[-121.87596,37.10231],[-121.81947,37.0653],[-121.78449,37.04253],[-121.7563,37.02407],[-121.72213,37.00171],[-121.67358,36.96974],[-121.6271,36.93917],[-121.57179,36.90273],[-121.48325,36.8452],[-121.44476,36.81992],[-121.38124,36.77782],[-121.32052,36.73736],[-121.29773,36.72215]],"type":"LineString"}
}
