{
  "id": 2015249003,
  "type": "Feature",
  "properties": {
    "geom:area": 0,
    "geom:bbox": "-122.547778,34.068333,-118.650278,37.630000",
    "geom:latitude": 35.627157172526154,
    "geom:longitude": -120.87758869084794,
    "src:alt_label": "swim-path",
    "src:geom": "swim",
    "swim:altitudes": [
      "055",
      "126",
      "269",
      "370C",
      "370C",
      "370C",
      "370C",
      "370C",
      "370C",
      "359"
    ],
    "swim:geom": "path",
    "swim:speeds": [
      251,
      331,
      422,
      438,
      445,
      448,
      432,
      433,
      429,
      430
    ],
    "swim:timestamps": [
      1775778077,
      1775778258,
      1775778618,
      1775779154,
      1775779394,
      1775779695,
      1775780235,
      1775780296,
      1775780476,
      1775780656
    ],
    "wof:geomhash": "865b5d10711305717ac9be9dc97fa9d8",
    "wof:id": 2015249003,
    "wof:repo": "sfomuseum-data-flights-2026-04"
  },
  "bbox": [
    -122.54777777777778,
    34.068333333333335,
    -118.65027777777779,
    37.63
  ],
  "geometry": {"coordinates":[[-122.5375,37.63],[-122.54777777777778,37.39277777777778],[-122.35416666666666,36.80638888888888],[-121.50194444444445,35.95638888888889],[-121.1275,35.57611111111112],[-120.52333333333333,35.198055555555555],[-119.46222222222222,34.565555555555555],[-119.34527777777777,34.49444444444445],[-118.99694444444445,34.282222222222224],[-118.65027777777779,34.068333333333335]],"type":"LineString"}
}
