{
  "id": 2015233099,
  "type": "Feature",
  "properties": {
    "geom:area": 0,
    "geom:bbox": "-122.400000,37.634167,-87.939444,42.609444",
    "geom:latitude": 41.6592281088992,
    "geom:longitude": -105.38689173961886,
    "src:alt_label": "swim-path",
    "src:geom": "swim",
    "swim:altitudes": [
      "016",
      "047",
      "047",
      "162",
      "178",
      "178",
      "193",
      "193",
      "254",
      "254",
      "272",
      "283",
      "283",
      "295",
      "297",
      "297",
      "306",
      "318",
      "330C",
      "330C",
      "330C",
      "330C",
      "329C",
      "329C",
      "330C",
      "330C",
      "330C",
      "330C",
      "330C",
      "330C",
      "330C",
      "330C",
      "330C",
      "330C",
      "330C",
      "330C",
      "330C",
      "330C",
      "330C",
      "330C",
      "330C",
      "330C",
      "330C",
      "330C",
      "330C",
      "330C",
      "330C",
      "330C",
      "330C",
      "330C",
      "330C",
      "330C",
      "329C",
      "330C",
      "330C",
      "330C",
      "330C",
      "330C",
      "330C",
      "329C",
      "329C",
      "330C",
      "330C",
      "330C",
      "330C",
      "330C",
      "330C",
      "330C",
      "330C",
      "330C",
      "330C",
      "330C",
      "330C",
      "330C",
      "330C",
      "330C",
      "344",
      "350C",
      "350C",
      "350C",
      "349C",
      "350C",
      "350C",
      "350C",
      "350C",
      "349C",
      "350C",
      "350C",
      "350C",
      "350C",
      "350C",
      "350C",
      "350C",
      "350C",
      "350C",
      "350C",
      "350C",
      "350C",
      "350C",
      "350C",
      "350C",
      "350C",
      "350C",
      "350C",
      "350C",
      "350C",
      "350C",
      "349",
      "340",
      "321",
      "311C",
      "311C",
      "310C",
      "310C",
      "310C",
      "310C",
      "309",
      "303",
      "301",
      "296",
      "295",
      "292",
      "292",
      "281",
      "265",
      "229",
      "206",
      "152",
      "127",
      "114",
      "110",
      "110",
      "106",
      "099",
      "093",
      "080",
      "072",
      "067",
      "062",
      "060",
      "060",
      "053",
      "050",
      "040",
      "035",
      "026",
      "022",
      "018",
      "015",
      "008"
    ],
    "swim:geom": "path",
    "swim:speeds": [
      149,
      258,
      258,
      409,
      420,
      420,
      432,
      432,
      479,
      479,
      485,
      490,
      490,
      489,
      489,
      489,
      489,
      489,
      483,
      483,
      482,
      480,
      479,
      478,
      477,
      478,
      478,
      479,
      479,
      478,
      480,
      480,
      480,
      482,
      481,
      483,
      486,
      486,
      487,
      487,
      488,
      488,
      489,
      489,
      490,
      490,
      494,
      495,
      495,
      493,
      493,
      493,
      492,
      491,
      491,
      492,
      494,
      494,
      493,
      494,
      494,
      495,
      498,
      498,
      498,
      496,
      496,
      492,
      492,
      492,
      492,
      494,
      494,
      493,
      488,
      494,
      501,
      496,
      501,
      497,
      490,
      487,
      483,
      478,
      480,
      478,
      486,
      484,
      490,
      493,
      487,
      485,
      489,
      489,
      490,
      490,
      492,
      493,
      491,
      489,
      487,
      487,
      488,
      492,
      493,
      493,
      493,
      492,
      492,
      488,
      489,
      489,
      493,
      495,
      498,
      499,
      500,
      486,
      486,
      484,
      483,
      481,
      481,
      477,
      469,
      450,
      448,
      381,
      352,
      336,
      317,
      300,
      285,
      264,
      263,
      253,
      219,
      218,
      214,
      189,
      183,
      184,
      175,
      170,
      168,
      148,
      131,
      124,
      127,
      126
    ],
    "swim:timestamps": [
      1775601945,
      1775602065,
      1775602065,
      1775602425,
      1775602485,
      1775602485,
      1775602545,
      1775602545,
      1775602846,
      1775602846,
      1775602954,
      1775603014,
      1775603014,
      1775603074,
      1775603086,
      1775603086,
      1775603134,
      1775603194,
      1775603266,
      1775603266,
      1775603315,
      1775603375,
      1775603495,
      1775603506,
      1775603566,
      1775603627,
      1775603627,
      1775603675,
      1775603675,
      1775603747,
      1775603855,
      1775603927,
      1775603927,
      1775603975,
      1775603987,
      1775604047,
      1775604096,
      1775604096,
      1775604156,
      1775604167,
      1775604227,
      1775604336,
      1775604396,
      1775604396,
      1775604456,
      1775604516,
      1775604636,
      1775604696,
      1775604696,
      1775604937,
      1775604997,
      1775604997,
      1775605177,
      1775605297,
      1775605297,
      1775605357,
      1775605477,
      1775605477,
      1775605538,
      1775605598,
      1775605598,
      1775605658,
      1775605778,
      1775605838,
      1775605838,
      1775605958,
      1775605958,
      1775606078,
      1775606138,
      1775606138,
      1775606198,
      1775606379,
      1775606379,
      1775606564,
      1775606739,
      1775607160,
      1775607340,
      1775607580,
      1775607754,
      1775608001,
      1775608121,
      1775608235,
      1775608535,
      1775608775,
      1775608895,
      1775609136,
      1775609376,
      1775609549,
      1775609909,
      1775610149,
      1775610450,
      1775610810,
      1775611051,
      1775611111,
      1775611171,
      1775611231,
      1775611351,
      1775611411,
      1775611531,
      1775611652,
      1775611892,
      1775611952,
      1775612014,
      1775612132,
      1775612192,
      1775612312,
      1775612372,
      1775612433,
      1775612493,
      1775612613,
      1775612673,
      1775612687,
      1775612733,
      1775612807,
      1775612973,
      1775612987,
      1775613047,
      1775613093,
      1775613107,
      1775613153,
      1775613167,
      1775613214,
      1775613228,
      1775613348,
      1775613405,
      1775613525,
      1775613585,
      1775613765,
      1775613866,
      1775613914,
      1775613946,
      1775613974,
      1775614006,
      1775614040,
      1775614066,
      1775614126,
      1775614160,
      1775614186,
      1775614208,
      1775614246,
      1775614334,
      1775614366,
      1775614394,
      1775614607,
      1775614701,
      1775614760,
      1775614787,
      1775614821,
      1775614847,
      1775614907
    ],
    "wof:geomhash": "d9d9b1bd43cf86eed7b6b7f8c0d24bc9",
    "wof:id": 2015233099,
    "wof:repo": "sfomuseum-data-flights-2026-04"
  },
  "bbox": [
    -122.4,
    37.634166666666665,
    -87.93944444444445,
    42.60944444444445
  ],
  "geometry": {"coordinates":[[-122.4,37.634166666666665],[-122.28583333333333,37.69027777777777],[-122.28583333333333,37.69027777777777],[-121.76722222222222,38.08388888888889],[-121.65333333333334,38.16027777777778],[-121.65333333333334,38.16027777777778],[-121.53722222222223,38.238055555555555],[-121.53722222222223,38.238055555555555],[-120.87833333333333,38.651944444444446],[-120.87833333333333,38.651944444444446],[-120.63055555555555,38.80166666666666],[-120.49166666666667,38.88583333333333],[-120.49166666666667,38.88583333333333],[-120.35472222222222,38.968333333333334],[-120.32972222222222,38.985],[-120.32972222222222,38.985],[-120.21638888888889,39.05083333333333],[-120.07916666666667,39.13361111111111],[-119.91416666666667,39.233333333333334],[-119.91416666666667,39.233333333333334],[-119.80611111111111,39.294999999999995],[-119.69833333333334,39.36],[-119.42444444444445,39.52111111111111],[-119.36749999999999,39.555277777777775],[-119.23055555555555,39.635],[-119.11833333333333,39.70027777777778],[-119.11833333333333,39.70027777777778],[-118.98138888888889,39.779444444444444],[-118.98138888888889,39.779444444444444],[-118.83944444444444,39.861111111111114],[-118.56722222222221,39.978611111111114],[-118.38027777777778,40.05444444444444],[-118.38027777777778,40.05444444444444],[-118.23166666666667,40.11416666666667],[-118.22611111111111,40.11638888888889],[-118.06861111111111,40.17944444444444],[-117.91250000000001,40.231388888888894],[-117.91250000000001,40.231388888888894],[-117.74777777777778,40.28111111111111],[-117.74361111111111,40.282222222222224],[-117.57944444444443,40.33111111111111],[-117.25027777777778,40.42805555555555],[-117.11416666666666,40.467777777777776],[-117.11416666666666,40.467777777777776],[-116.94277777777778,40.5175],[-116.77111111111111,40.56722222222223],[-116.42944444444444,40.664722222222224],[-116.26027777777777,40.71277777777778],[-116.26027777777777,40.71277777777778],[-115.58388888888888,40.90083333333333],[-115.41222222222223,40.94777777777777],[-115.41222222222223,40.94777777777777],[-114.90027777777779,41.086111111111116],[-114.55333333333333,41.17805555555555],[-114.55333333333333,41.17805555555555],[-114.38138888888888,41.223333333333336],[-114.03666666666666,41.31305555555555],[-114.03666666666666,41.31305555555555],[-113.86277777777777,41.3575],[-113.68722222222223,41.39111111111111],[-113.68722222222223,41.39111111111111],[-113.5075,41.424166666666665],[-113.15083333333334,41.488055555555555],[-112.96916666666667,41.519999999999996],[-112.96916666666667,41.519999999999996],[-112.61027777777777,41.58277777777778],[-112.61027777777777,41.58277777777778],[-112.25222222222222,41.64388888888889],[-112.07444444444444,41.67361111111111],[-112.07444444444444,41.67361111111111],[-111.89666666666668,41.70333333333333],[-111.35555555555555,41.791666666666664],[-111.35555555555555,41.791666666666664],[-110.80055555555555,41.88138888888889],[-110.30166666666666,41.95527777777778],[-109.02555555555556,42.068333333333335],[-108.46861111111112,42.10333333333333],[-107.72555555555556,42.145833333333336],[-107.16666666666667,42.17611111111111],[-106.415,42.26083333333333],[-106.05416666666666,42.3],[-105.73194444444445,42.33388888888889],[-104.83388888888888,42.42361111111111],[-104.09972222222221,42.49138888888889],[-103.73805555555556,42.49611111111111],[-103.02194444444444,42.48222222222223],[-102.2925,42.46333333333334],[-101.76555555555555,42.44916666666666],[-100.69527777777778,42.48222222222223],[-99.9525,42.50111111111111],[-99.02388888888889,42.52194444444444],[-97.92833333333334,42.536944444444444],[-97.19250000000001,42.54083333333333],[-97.00861111111111,42.54138888888889],[-96.82277777777777,42.54138888888889],[-96.63916666666667,42.546388888888885],[-96.26805555555555,42.559999999999995],[-96.08111111111111,42.56638888888889],[-95.71055555555556,42.57777777777778],[-95.34277777777777,42.58833333333334],[-94.61027777777777,42.605555555555554],[-94.41527777777779,42.60916666666667],[-94.23166666666667,42.60944444444445],[-93.85944444444443,42.597500000000004],[-93.67277777777778,42.59138888888889],[-93.30333333333333,42.57777777777778],[-93.11916666666666,42.57083333333334],[-92.93583333333333,42.56333333333333],[-92.74944444444445,42.55555555555555],[-92.38555555555556,42.53944444444444],[-92.20472222222223,42.53111111111111],[-92.20472222222223,42.53111111111111],[-92.02027777777778,42.524166666666666],[-91.79944444444445,42.52583333333333],[-91.2786111111111,42.527499999999996],[-91.24416666666667,42.527499999999996],[-91.05666666666666,42.52722222222222],[-90.9088888888889,42.526944444444446],[-90.87277777777777,42.526944444444446],[-90.7286111111111,42.52611111111111],[-90.69583333333334,42.52583333333333],[-90.55027777777778,42.525],[-90.51472222222222,42.52472222222222],[-90.15861111111111,42.52194444444444],[-89.98333333333333,42.52055555555555],[-89.64888888888889,42.503055555555555],[-89.48194444444445,42.4825],[-89.01222222222222,42.42444444444444],[-88.78333333333333,42.4],[-88.68333333333334,42.38333333333333],[-88.6261111111111,42.375],[-88.56666666666666,42.36666666666667],[-88.51666666666667,42.36083333333333],[-88.46666666666667,42.35],[-88.41972222222223,42.34777777777778],[-88.3425,42.31638888888889],[-88.31666666666666,42.28333333333333],[-88.32916666666667,42.26],[-88.33333333333333,42.233333333333334],[-88.35138888888888,42.200833333333335],[-88.35,42.13333333333333],[-88.35166666666666,42.10027777777778],[-88.35,42.083333333333336],[-88.20861111111111,41.975833333333334],[-88.11666666666666,41.96666666666667],[-88.05,41.96666666666667],[-88.03222222222222,41.96555555555556],[-88,41.96666666666667],[-87.98611111111111,41.96555555555556],[-87.93944444444445,41.96555555555556]],"type":"LineString"}
}
