{
  "id": 2031117541,
  "type": "Feature",
  "properties": {
    "geom:area": 0,
    "geom:bbox": "-122.336389,29.885000,-95.337500,38.231944",
    "geom:latitude": 34.934178009857575,
    "geom:longitude": -108.74041688881402,
    "src:alt_label": "swim-path",
    "src:geom": "swim",
    "swim:altitudes": [
      "008",
      "008",
      "008",
      "008",
      "020",
      "020",
      "020",
      "020",
      "041",
      "041",
      "041",
      "041",
      "041",
      "041",
      "041",
      "111",
      "111",
      "111",
      "111",
      "111",
      "111",
      "123",
      "123",
      "142",
      "142",
      "142",
      "142",
      "167",
      "167",
      "167",
      "167",
      "167",
      "190",
      "190",
      "190",
      "209",
      "213",
      "213",
      "213",
      "213",
      "292",
      "292",
      "292",
      "292",
      "292",
      "292",
      "318C",
      "318C",
      "318C",
      "318C",
      "318C",
      "318C",
      "320C",
      "320C",
      "320C",
      "320C",
      "320C",
      "320C",
      "320C",
      "320C",
      "320C",
      "320C",
      "320C",
      "320C",
      "320C",
      "320C",
      "320C",
      "320C",
      "320C",
      "320C",
      "320C",
      "320C",
      "320C",
      "320C",
      "320C",
      "320",
      "320",
      "320",
      "320",
      "320",
      "320",
      "335",
      "335",
      "335",
      "335",
      "337",
      "337",
      "337",
      "337",
      "337",
      "340C",
      "340C",
      "340C",
      "340C",
      "340C",
      "340C",
      "340C",
      "340C",
      "340C",
      "340C",
      "340C",
      "340C",
      "340C",
      "340C",
      "340C",
      "340C",
      "340C",
      "340C",
      "340C",
      "340C",
      "340C",
      "340C",
      "340C",
      "340C",
      "340C",
      "340C",
      "340C",
      "340C",
      "340C",
      "340C",
      "340C",
      "340C",
      "340C",
      "340C",
      "340C",
      "340C",
      "340C",
      "340C",
      "340C",
      "340C",
      "340C",
      "340C",
      "340C",
      "340C",
      "340C",
      "340C",
      "340C",
      "340C",
      "340C",
      "340C",
      "340C",
      "340C",
      "340C",
      "340C",
      "340C",
      "340C",
      "340C",
      "340C",
      "340C",
      "340C",
      "340C",
      "340C",
      "340C",
      "340C",
      "340C",
      "340C",
      "340C",
      "340C",
      "340C",
      "340C",
      "340C",
      "340C",
      "340C",
      "340C",
      "340C",
      "340C",
      "340C",
      "340C",
      "340C",
      "340C",
      "340C",
      "340C",
      "340C",
      "340C",
      "340C",
      "340C",
      "340C",
      "340C",
      "340C",
      "340C",
      "340C",
      "340C",
      "340C",
      "340C",
      "340C",
      "340C",
      "340C",
      "340C",
      "340C",
      "340C",
      "340C",
      "340C",
      "340C",
      "340C",
      "340C",
      "340C",
      "340C",
      "340C",
      "340C",
      "340C",
      "340C",
      "340C",
      "340C",
      "340C",
      "340C",
      "340C",
      "340C",
      "340C",
      "340C",
      "340C",
      "340C",
      "340C",
      "340C",
      "340C",
      "340C",
      "340C",
      "340C",
      "340C",
      "340C",
      "340C",
      "340C",
      "340C",
      "340C",
      "340C",
      "340C",
      "340C",
      "340C",
      "340C",
      "340C",
      "340C",
      "340C",
      "340C",
      "340C",
      "340C",
      "340C",
      "340C",
      "340C",
      "340C",
      "340C",
      "340C",
      "340C",
      "340C",
      "340C",
      "340C",
      "340C",
      "340C",
      "340C",
      "340C",
      "340C",
      "340C",
      "340C",
      "340C",
      "340C",
      "340C",
      "340C",
      "340C",
      "340C",
      "340C",
      "340C",
      "340C",
      "340C",
      "340C",
      "340C",
      "340C",
      "340C",
      "340C",
      "340C",
      "340C",
      "340C",
      "340C",
      "340C",
      "340C",
      "340C",
      "340C",
      "340C",
      "340C",
      "340C",
      "340C",
      "340C",
      "340C",
      "340C",
      "340C",
      "340C",
      "340C",
      "340C",
      "340C",
      "340C",
      "340C",
      "340C",
      "340C",
      "340C",
      "340C",
      "340C",
      "340C",
      "340C",
      "340C",
      "340C",
      "340C",
      "340C",
      "340C",
      "340C",
      "340C",
      "340C",
      "340C",
      "340C",
      "340C",
      "340C",
      "340C",
      "340C",
      "340C",
      "340C",
      "340C",
      "340C",
      "340C",
      "340C",
      "340C",
      "340C",
      "340C",
      "340C",
      "340C",
      "340C",
      "340C",
      "340C",
      "340C",
      "340C",
      "340C",
      "340C",
      "340C",
      "340C",
      "340C",
      "340C",
      "340C",
      "340C",
      "340C",
      "340C",
      "340C",
      "340C",
      "340C",
      "340C",
      "340C",
      "340C",
      "340C",
      "340C",
      "340C",
      "340C",
      "340C",
      "340C",
      "340C",
      "340C",
      "340C",
      "340C",
      "340C",
      "340C",
      "340C",
      "340C",
      "340C",
      "340C",
      "340C",
      "340C",
      "340C",
      "340C",
      "340C",
      "340C",
      "340C",
      "340C",
      "340C",
      "340C",
      "340C",
      "340C",
      "340C",
      "340C",
      "340C",
      "340C",
      "340C",
      "340C",
      "340C",
      "340C",
      "340C",
      "340C",
      "340C",
      "340C",
      "340C",
      "340C",
      "340C",
      "340C",
      "340C",
      "340C",
      "340C",
      "340C",
      "340C",
      "340C",
      "340C",
      "340C",
      "340C",
      "340C",
      "340C",
      "340C",
      "340C",
      "340C",
      "340C",
      "340C",
      "340C",
      "340C",
      "340C",
      "340C",
      "340C",
      "340C",
      "340C",
      "340C",
      "340C",
      "340C",
      "340C",
      "340C",
      "340C",
      "340C",
      "340C",
      "340C",
      "340C",
      "340C",
      "340C",
      "340C",
      "340C",
      "340C",
      "340C",
      "340C",
      "340C",
      "340C",
      "340C",
      "340C",
      "340C",
      "340C",
      "340C",
      "340C",
      "340C",
      "340C",
      "340C",
      "340C",
      "340C",
      "340C",
      "340C",
      "340C",
      "340C",
      "340C",
      "340C",
      "340C",
      "340C",
      "340C",
      "340C",
      "340C",
      "340C",
      "340C",
      "340C",
      "340C",
      "340C",
      "340C",
      "340C",
      "340C",
      "340C",
      "340C",
      "340C",
      "340C",
      "340C",
      "340C",
      "340C",
      "340C",
      "340C",
      "340C",
      "340C",
      "340C",
      "340C",
      "340C",
      "340C",
      "340C",
      "340C",
      "340C",
      "340C",
      "340C",
      "340C",
      "340C",
      "340C",
      "340C",
      "340C",
      "340C",
      "340C",
      "340C",
      "340C",
      "340C",
      "340C",
      "340C",
      "340C",
      "340C",
      "340C",
      "340C",
      "340C",
      "340C",
      "340C",
      "340C",
      "340C",
      "340C",
      "340C",
      "340C",
      "340C",
      "340C",
      "340C",
      "340C",
      "340C",
      "340C",
      "340C",
      "340C",
      "340C",
      "340C",
      "340C",
      "340C",
      "340C",
      "340C",
      "340C",
      "340C",
      "340C",
      "340C",
      "340C",
      "340C",
      "340C",
      "340C",
      "340C",
      "340C",
      "340C",
      "340C",
      "340C",
      "340C",
      "340C",
      "340C",
      "340C",
      "340C",
      "340C",
      "340C",
      "340C",
      "340C",
      "340C",
      "340C",
      "340C",
      "340C",
      "340C",
      "340C",
      "340C",
      "340C",
      "340C",
      "340C",
      "340C",
      "340C",
      "340C",
      "340C",
      "340C",
      "340C",
      "340C",
      "340C",
      "340C",
      "340C",
      "340C",
      "340C",
      "340C",
      "340C",
      "340C",
      "340C",
      "340C",
      "340C",
      "340C",
      "340C",
      "340C",
      "340C",
      "340C",
      "340C",
      "340C",
      "340C",
      "340C",
      "340C",
      "340C",
      "340C",
      "340C",
      "340C",
      "340C",
      "340C",
      "340C",
      "340C",
      "340C",
      "340C",
      "340C",
      "340C",
      "340C",
      "340C",
      "340C",
      "340C",
      "340C",
      "340C",
      "340C",
      "340C",
      "340C",
      "340C",
      "340C",
      "340C",
      "340C",
      "340C",
      "340C",
      "340C",
      "340C",
      "340C",
      "340C",
      "340C",
      "340C",
      "340C",
      "340C",
      "340C",
      "340C",
      "340C",
      "340C",
      "340C",
      "340C",
      "340C",
      "340C",
      "340C",
      "340C",
      "340C",
      "340C",
      "340C",
      "340C",
      "340C",
      "340C",
      "340C",
      "340C",
      "340C",
      "340C",
      "340C",
      "340C",
      "340C",
      "340C",
      "340C",
      "340C",
      "340C",
      "340C",
      "340C",
      "340C",
      "340C",
      "340C",
      "340C",
      "340C",
      "340C",
      "340C",
      "340C",
      "340C",
      "340C",
      "340C",
      "340C",
      "340C",
      "340C",
      "340C",
      "340C",
      "340C",
      "340C",
      "340C",
      "340C",
      "340C",
      "340",
      "340",
      "340",
      "340",
      "340",
      "340",
      "340",
      "340",
      "320C",
      "320C",
      "320C",
      "320C",
      "320C",
      "320C",
      "320C",
      "320C",
      "320C",
      "320C",
      "320C",
      "320C",
      "320C",
      "320C",
      "320C",
      "320C",
      "320C",
      "320C",
      "320C",
      "320",
      "320",
      "320",
      "320",
      "320",
      "320",
      "320",
      "290",
      "290",
      "290",
      "290",
      "290",
      "243",
      "243",
      "243",
      "243",
      "220",
      "220",
      "220",
      "220",
      "220",
      "220",
      "220",
      "220",
      "175",
      "175",
      "175",
      "175",
      "175",
      "160",
      "154",
      "154",
      "154",
      "154",
      "154",
      "154",
      "126",
      "126",
      "126",
      "126",
      "126",
      "113",
      "113",
      "113",
      "113",
      "105",
      "105",
      "105",
      "105",
      "101",
      "101",
      "101",
      "101",
      "101",
      "075",
      "075",
      "075",
      "075",
      "075",
      "075",
      "047",
      "047",
      "047",
      "047",
      "047",
      "047",
      "040",
      "040",
      "040",
      "027",
      "027",
      "027",
      "027",
      "027",
      "021",
      "021",
      "021",
      "021",
      "021",
      "004",
      "004",
      "004",
      "004"
    ],
    "swim:geom": "path",
    "swim:speeds": [
      177,
      177,
      177,
      177,
      228,
      228,
      228,
      228,
      260,
      260,
      260,
      260,
      260,
      260,
      260,
      309,
      309,
      309,
      309,
      309,
      309,
      367,
      367,
      360,
      360,
      360,
      360,
      378,
      378,
      378,
      378,
      378,
      385,
      385,
      385,
      392,
      396,
      396,
      396,
      396,
      431,
      431,
      431,
      431,
      431,
      431,
      436,
      436,
      436,
      436,
      436,
      436,
      435,
      435,
      435,
      435,
      435,
      435,
      414,
      414,
      414,
      414,
      414,
      414,
      399,
      399,
      399,
      399,
      399,
      399,
      399,
      399,
      399,
      399,
      399,
      400,
      400,
      400,
      400,
      400,
      400,
      420,
      420,
      420,
      420,
      423,
      423,
      423,
      423,
      423,
      424,
      424,
      424,
      425,
      425,
      425,
      426,
      426,
      426,
      426,
      426,
      426,
      428,
      428,
      428,
      428,
      428,
      428,
      429,
      429,
      429,
      429,
      429,
      429,
      430,
      430,
      430,
      430,
      430,
      430,
      430,
      428,
      428,
      428,
      428,
      428,
      428,
      428,
      428,
      428,
      428,
      428,
      428,
      428,
      428,
      428,
      428,
      428,
      428,
      428,
      428,
      428,
      428,
      428,
      429,
      429,
      429,
      429,
      429,
      429,
      429,
      429,
      429,
      429,
      429,
      429,
      429,
      429,
      429,
      429,
      429,
      427,
      427,
      427,
      427,
      427,
      427,
      427,
      427,
      426,
      426,
      426,
      426,
      426,
      421,
      421,
      421,
      421,
      421,
      428,
      428,
      428,
      428,
      428,
      428,
      427,
      427,
      427,
      429,
      429,
      429,
      429,
      430,
      430,
      430,
      430,
      430,
      430,
      430,
      430,
      430,
      430,
      430,
      429,
      429,
      429,
      429,
      429,
      429,
      426,
      426,
      426,
      426,
      426,
      426,
      426,
      426,
      426,
      426,
      426,
      426,
      426,
      424,
      424,
      424,
      424,
      424,
      424,
      425,
      425,
      425,
      425,
      425,
      425,
      425,
      425,
      425,
      425,
      425,
      425,
      425,
      424,
      424,
      424,
      424,
      424,
      424,
      424,
      424,
      424,
      424,
      424,
      423,
      423,
      423,
      423,
      423,
      423,
      423,
      423,
      424,
      424,
      424,
      424,
      424,
      424,
      425,
      425,
      425,
      425,
      425,
      425,
      425,
      425,
      425,
      425,
      425,
      426,
      426,
      426,
      426,
      426,
      426,
      426,
      426,
      427,
      427,
      427,
      427,
      427,
      427,
      427,
      430,
      430,
      430,
      430,
      430,
      430,
      430,
      430,
      430,
      433,
      433,
      433,
      433,
      436,
      436,
      436,
      436,
      436,
      436,
      436,
      436,
      433,
      433,
      433,
      433,
      433,
      425,
      425,
      425,
      425,
      425,
      425,
      425,
      425,
      425,
      426,
      426,
      426,
      426,
      426,
      426,
      426,
      427,
      427,
      421,
      421,
      421,
      421,
      421,
      421,
      421,
      421,
      415,
      415,
      415,
      415,
      415,
      415,
      415,
      415,
      415,
      406,
      406,
      406,
      405,
      405,
      405,
      405,
      405,
      405,
      405,
      406,
      406,
      406,
      406,
      406,
      405,
      405,
      405,
      405,
      405,
      405,
      405,
      404,
      404,
      402,
      402,
      403,
      403,
      403,
      403,
      403,
      402,
      402,
      402,
      402,
      402,
      402,
      402,
      402,
      402,
      402,
      402,
      402,
      402,
      401,
      401,
      401,
      401,
      399,
      398,
      398,
      398,
      398,
      398,
      398,
      395,
      395,
      395,
      395,
      395,
      395,
      395,
      394,
      394,
      394,
      394,
      394,
      394,
      395,
      395,
      395,
      395,
      396,
      396,
      396,
      396,
      396,
      396,
      396,
      396,
      396,
      396,
      396,
      397,
      397,
      397,
      397,
      398,
      398,
      398,
      398,
      401,
      401,
      401,
      401,
      411,
      411,
      420,
      420,
      420,
      423,
      423,
      424,
      424,
      426,
      426,
      426,
      426,
      428,
      429,
      429,
      429,
      431,
      428,
      428,
      428,
      449,
      449,
      443,
      443,
      456,
      456,
      456,
      456,
      456,
      461,
      461,
      461,
      461,
      461,
      461,
      461,
      461,
      461,
      461,
      468,
      468,
      468,
      468,
      469,
      469,
      468,
      468,
      468,
      468,
      468,
      470,
      470,
      473,
      473,
      473,
      473,
      474,
      474,
      474,
      474,
      474,
      475,
      475,
      475,
      475,
      475,
      475,
      475,
      477,
      477,
      477,
      477,
      477,
      477,
      477,
      477,
      467,
      467,
      467,
      466,
      466,
      466,
      466,
      466,
      466,
      463,
      463,
      463,
      462,
      462,
      462,
      462,
      462,
      462,
      462,
      462,
      462,
      460,
      460,
      460,
      460,
      460,
      460,
      459,
      459,
      459,
      459,
      459,
      459,
      458,
      458,
      458,
      458,
      458,
      458,
      458,
      458,
      458,
      458,
      458,
      458,
      458,
      458,
      459,
      459,
      459,
      459,
      459,
      459,
      459,
      459,
      459,
      459,
      459,
      460,
      460,
      460,
      460,
      460,
      460,
      461,
      461,
      461,
      460,
      460,
      460,
      460,
      460,
      460,
      460,
      460,
      460,
      460,
      460,
      458,
      458,
      458,
      458,
      458,
      457,
      457,
      457,
      457,
      457,
      457,
      457,
      456,
      456,
      456,
      456,
      420,
      420,
      420,
      420,
      414,
      414,
      414,
      414,
      414,
      414,
      428,
      428,
      428,
      428,
      428,
      433,
      433,
      433,
      433,
      433,
      436,
      436,
      436,
      436,
      436,
      436,
      436,
      436,
      436,
      436,
      436,
      427,
      427,
      427,
      427,
      427,
      427,
      427,
      427,
      427,
      427,
      405,
      405,
      405,
      405,
      405,
      405,
      405,
      405,
      409,
      409,
      409,
      409,
      410,
      410,
      410,
      410,
      410,
      412,
      412,
      412,
      412,
      415,
      415,
      415,
      415,
      415,
      415,
      414,
      414,
      414,
      414,
      414,
      414,
      414,
      353,
      353,
      353,
      353,
      353,
      325,
      325,
      325,
      325,
      311,
      311,
      311,
      311,
      311,
      311,
      311,
      311,
      294,
      294,
      294,
      294,
      294,
      290,
      293,
      293,
      293,
      293,
      293,
      293,
      287,
      287,
      287,
      287,
      287,
      282,
      282,
      282,
      282,
      276,
      276,
      276,
      276,
      276,
      276,
      276,
      276,
      276,
      268,
      268,
      268,
      268,
      268,
      268,
      225,
      225,
      225,
      225,
      225,
      225,
      227,
      227,
      227,
      229,
      229,
      229,
      229,
      229,
      224,
      224,
      224,
      224,
      224,
      134,
      134,
      134,
      134
    ],
    "swim:timestamps": [
      1777216671,
      1777216671,
      1777216671,
      1777216671,
      1777216720,
      1777216720,
      1777216720,
      1777216720,
      1777216780,
      1777216780,
      1777216780,
      1777216780,
      1777216780,
      1777216780,
      1777216780,
      1777216991,
      1777216991,
      1777216991,
      1777216991,
      1777216991,
      1777216991,
      1777217051,
      1777217051,
      1777217102,
      1777217102,
      1777217102,
      1777217102,
      1777217162,
      1777217162,
      1777217162,
      1777217162,
      1777217162,
      1777217222,
      1777217222,
      1777217222,
      1777217282,
      1777217291,
      1777217291,
      1777217291,
      1777217291,
      1777217591,
      1777217591,
      1777217591,
      1777217591,
      1777217591,
      1777217591,
      1777217703,
      1777217703,
      1777217703,
      1777217703,
      1777217703,
      1777217703,
      1777217772,
      1777217772,
      1777217772,
      1777217772,
      1777217772,
      1777217772,
      1777217892,
      1777217892,
      1777217892,
      1777217892,
      1777217892,
      1777217892,
      1777217943,
      1777217943,
      1777217943,
      1777217952,
      1777217952,
      1777217952,
      1777218012,
      1777218012,
      1777218012,
      1777218012,
      1777218012,
      1777218124,
      1777218124,
      1777218124,
      1777218124,
      1777218132,
      1777218132,
      1777218244,
      1777218244,
      1777218244,
      1777218244,
      1777218252,
      1777218252,
      1777218252,
      1777218252,
      1777218252,
      1777218313,
      1777218313,
      1777218313,
      1777218364,
      1777218364,
      1777218364,
      1777218373,
      1777218373,
      1777218373,
      1777218373,
      1777218373,
      1777218373,
      1777218433,
      1777218433,
      1777218433,
      1777218484,
      1777218484,
      1777218484,
      1777218553,
      1777218553,
      1777218553,
      1777218553,
      1777218604,
      1777218604,
      1777218664,
      1777218664,
      1777218664,
      1777218664,
      1777218664,
      1777218664,
      1777218664,
      1777218785,
      1777218785,
      1777218785,
      1777218785,
      1777218785,
      1777218785,
      1777218785,
      1777218845,
      1777218845,
      1777218845,
      1777218845,
      1777218845,
      1777218845,
      1777218965,
      1777218965,
      1777218965,
      1777218965,
      1777218965,
      1777218965,
      1777218973,
      1777218973,
      1777218973,
      1777218973,
      1777219025,
      1777219025,
      1777219094,
      1777219094,
      1777219094,
      1777219094,
      1777219094,
      1777219145,
      1777219145,
      1777219145,
      1777219145,
      1777219145,
      1777219145,
      1777219145,
      1777219145,
      1777219145,
      1777219145,
      1777219265,
      1777219265,
      1777219265,
      1777219265,
      1777219265,
      1777219265,
      1777219265,
      1777219265,
      1777219394,
      1777219394,
      1777219394,
      1777219394,
      1777219394,
      1777219457,
      1777219457,
      1777219457,
      1777219457,
      1777219457,
      1777219506,
      1777219506,
      1777219506,
      1777219506,
      1777219506,
      1777219506,
      1777219517,
      1777219517,
      1777219517,
      1777219566,
      1777219566,
      1777219566,
      1777219566,
      1777219686,
      1777219686,
      1777219686,
      1777219686,
      1777219686,
      1777219686,
      1777219746,
      1777219746,
      1777219746,
      1777219746,
      1777219746,
      1777219926,
      1777219926,
      1777219926,
      1777219926,
      1777219926,
      1777219926,
      1777219998,
      1777219998,
      1777219998,
      1777219998,
      1777219998,
      1777220046,
      1777220046,
      1777220046,
      1777220046,
      1777220058,
      1777220058,
      1777220058,
      1777220058,
      1777220166,
      1777220166,
      1777220166,
      1777220166,
      1777220166,
      1777220166,
      1777220178,
      1777220178,
      1777220178,
      1777220178,
      1777220238,
      1777220238,
      1777220238,
      1777220238,
      1777220238,
      1777220238,
      1777220238,
      1777220238,
      1777220299,
      1777220347,
      1777220347,
      1777220347,
      1777220347,
      1777220419,
      1777220479,
      1777220479,
      1777220479,
      1777220479,
      1777220479,
      1777220479,
      1777220587,
      1777220587,
      1777220587,
      1777220599,
      1777220599,
      1777220599,
      1777220599,
      1777220599,
      1777220659,
      1777220659,
      1777220659,
      1777220659,
      1777220659,
      1777220659,
      1777220827,
      1777220839,
      1777220839,
      1777220839,
      1777220839,
      1777220839,
      1777220839,
      1777220887,
      1777220887,
      1777220887,
      1777220887,
      1777220899,
      1777220899,
      1777220899,
      1777220899,
      1777220899,
      1777220948,
      1777220948,
      1777220948,
      1777221020,
      1777221020,
      1777221020,
      1777221020,
      1777221020,
      1777221020,
      1777221020,
      1777221248,
      1777221248,
      1777221248,
      1777221248,
      1777221248,
      1777221248,
      1777221248,
      1777221248,
      1777221248,
      1777221308,
      1777221308,
      1777221308,
      1777221308,
      1777221428,
      1777221428,
      1777221440,
      1777221440,
      1777221440,
      1777221440,
      1777221440,
      1777221440,
      1777221488,
      1777221488,
      1777221488,
      1777221488,
      1777221488,
      1777221608,
      1777221620,
      1777221620,
      1777221620,
      1777221620,
      1777221620,
      1777221620,
      1777221620,
      1777221620,
      1777221801,
      1777221801,
      1777221801,
      1777221801,
      1777221801,
      1777221801,
      1777221801,
      1777221861,
      1777221861,
      1777221981,
      1777221981,
      1777221981,
      1777221981,
      1777221981,
      1777221981,
      1777221981,
      1777221981,
      1777222161,
      1777222161,
      1777222161,
      1777222161,
      1777222161,
      1777222161,
      1777222161,
      1777222161,
      1777222161,
      1777222462,
      1777222462,
      1777222462,
      1777222479,
      1777222479,
      1777222479,
      1777222522,
      1777222522,
      1777222582,
      1777222582,
      1777222599,
      1777222599,
      1777222599,
      1777222599,
      1777222599,
      1777222780,
      1777222780,
      1777222780,
      1777222822,
      1777222822,
      1777222822,
      1777222822,
      1777222840,
      1777222840,
      1777222942,
      1777222942,
      1777222960,
      1777222960,
      1777222960,
      1777222960,
      1777222960,
      1777223003,
      1777223003,
      1777223020,
      1777223063,
      1777223063,
      1777223080,
      1777223123,
      1777223123,
      1777223123,
      1777223123,
      1777223123,
      1777223140,
      1777223140,
      1777223183,
      1777223183,
      1777223183,
      1777223183,
      1777223260,
      1777223303,
      1777223303,
      1777223303,
      1777223320,
      1777223320,
      1777223320,
      1777223381,
      1777223381,
      1777223381,
      1777223381,
      1777223381,
      1777223441,
      1777223441,
      1777223483,
      1777223483,
      1777223483,
      1777223501,
      1777223501,
      1777223543,
      1777223621,
      1777223621,
      1777223621,
      1777223621,
      1777223724,
      1777223724,
      1777223784,
      1777223784,
      1777223784,
      1777223784,
      1777223784,
      1777223844,
      1777223861,
      1777223861,
      1777223861,
      1777223904,
      1777223904,
      1777223904,
      1777223904,
      1777223964,
      1777223964,
      1777223964,
      1777223964,
      1777224037,
      1777224037,
      1777224037,
      1777224037,
      1777224204,
      1777224204,
      1777224217,
      1777224217,
      1777224217,
      1777224264,
      1777224264,
      1777224325,
      1777224325,
      1777224338,
      1777224338,
      1777224338,
      1777224338,
      1777224398,
      1777224445,
      1777224445,
      1777224445,
      1777224458,
      1777224484,
      1777224484,
      1777224484,
      1777224518,
      1777224518,
      1777224544,
      1777224544,
      1777224604,
      1777224604,
      1777224604,
      1777224604,
      1777224604,
      1777224724,
      1777224724,
      1777224724,
      1777224724,
      1777224724,
      1777224724,
      1777224818,
      1777224818,
      1777224818,
      1777224818,
      1777224878,
      1777224878,
      1777224878,
      1777224878,
      1777224964,
      1777224964,
      1777225024,
      1777225024,
      1777225024,
      1777225059,
      1777225059,
      1777225119,
      1777225119,
      1777225239,
      1777225239,
      1777225239,
      1777225239,
      1777225299,
      1777225299,
      1777225299,
      1777225299,
      1777225299,
      1777225479,
      1777225479,
      1777225479,
      1777225479,
      1777225479,
      1777225479,
      1777225479,
      1777225660,
      1777225660,
      1777225660,
      1777225660,
      1777225660,
      1777225660,
      1777225660,
      1777225660,
      1777225805,
      1777225805,
      1777225805,
      1777225840,
      1777225840,
      1777225840,
      1777225840,
      1777225840,
      1777225840,
      1777225925,
      1777225925,
      1777225925,
      1777225986,
      1777226020,
      1777226020,
      1777226020,
      1777226020,
      1777226020,
      1777226020,
      1777226020,
      1777226020,
      1777226166,
      1777226166,
      1777226166,
      1777226166,
      1777226166,
      1777226166,
      1777226200,
      1777226200,
      1777226226,
      1777226226,
      1777226226,
      1777226226,
      1777226286,
      1777226286,
      1777226286,
      1777226286,
      1777226416,
      1777226416,
      1777226416,
      1777226416,
      1777226416,
      1777226416,
      1777226416,
      1777226416,
      1777226466,
      1777226466,
      1777226526,
      1777226526,
      1777226526,
      1777226526,
      1777226526,
      1777226586,
      1777226586,
      1777226586,
      1777226586,
      1777226586,
      1777226586,
      1777226646,
      1777226646,
      1777226646,
      1777226656,
      1777226656,
      1777226656,
      1777226716,
      1777226716,
      1777226716,
      1777226767,
      1777226767,
      1777226776,
      1777226776,
      1777226776,
      1777226827,
      1777226827,
      1777226827,
      1777226827,
      1777226827,
      1777226827,
      1777226896,
      1777226896,
      1777226896,
      1777226896,
      1777226896,
      1777226956,
      1777226956,
      1777226956,
      1777226956,
      1777227007,
      1777227007,
      1777227007,
      1777227067,
      1777227067,
      1777227067,
      1777227067,
      1777227127,
      1777227127,
      1777227127,
      1777227127,
      1777227187,
      1777227187,
      1777227187,
      1777227197,
      1777227197,
      1777227197,
      1777227257,
      1777227257,
      1777227257,
      1777227257,
      1777227257,
      1777227367,
      1777227367,
      1777227367,
      1777227367,
      1777227367,
      1777227437,
      1777227437,
      1777227437,
      1777227437,
      1777227437,
      1777227497,
      1777227497,
      1777227497,
      1777227497,
      1777227497,
      1777227497,
      1777227557,
      1777227557,
      1777227557,
      1777227557,
      1777227617,
      1777227617,
      1777227617,
      1777227617,
      1777227617,
      1777227617,
      1777227858,
      1777227858,
      1777227858,
      1777227858,
      1777227858,
      1777227858,
      1777227858,
      1777227858,
      1777228038,
      1777228038,
      1777228038,
      1777228038,
      1777228098,
      1777228098,
      1777228098,
      1777228098,
      1777228098,
      1777228158,
      1777228158,
      1777228158,
      1777228158,
      1777228278,
      1777228278,
      1777228278,
      1777228278,
      1777228278,
      1777228278,
      1777228399,
      1777228399,
      1777228399,
      1777228399,
      1777228399,
      1777228399,
      1777228399,
      1777228579,
      1777228579,
      1777228579,
      1777228579,
      1777228579,
      1777228759,
      1777228759,
      1777228759,
      1777228759,
      1777228851,
      1777228851,
      1777228851,
      1777228851,
      1777228851,
      1777228851,
      1777228851,
      1777228851,
      1777229032,
      1777229032,
      1777229032,
      1777229032,
      1777229032,
      1777229092,
      1777229120,
      1777229120,
      1777229120,
      1777229120,
      1777229120,
      1777229120,
      1777229240,
      1777229240,
      1777229240,
      1777229240,
      1777229240,
      1777229300,
      1777229300,
      1777229300,
      1777229300,
      1777229331,
      1777229331,
      1777229331,
      1777229331,
      1777229360,
      1777229360,
      1777229360,
      1777229360,
      1777229360,
      1777229480,
      1777229480,
      1777229480,
      1777229480,
      1777229480,
      1777229480,
      1777229638,
      1777229638,
      1777229638,
      1777229638,
      1777229638,
      1777229638,
      1777229660,
      1777229660,
      1777229660,
      1777229752,
      1777229752,
      1777229752,
      1777229752,
      1777229752,
      1777229781,
      1777229781,
      1777229781,
      1777229781,
      1777229781,
      1777229901,
      1777229901,
      1777229901,
      1777229901
    ],
    "wof:geomhash": "036e106b2cc1e496b1cb7d6641f524a8",
    "wof:id": 2031117541,
    "wof:repo": "sfomuseum-data-flights-2026-04"
  },
  "bbox": [
    -122.33638888888889,
    29.884999999999998,
    -95.33749999999999,
    38.231944444444444
  ],
  "geometry": {"coordinates":[[-95.33749999999999,29.952777777777776],[-95.33749999999999,29.952777777777776],[-95.33749999999999,29.952777777777776],[-95.33749999999999,29.952777777777776],[-95.35388888888889,29.91638888888889],[-95.35388888888889,29.91638888888889],[-95.35388888888889,29.91638888888889],[-95.35388888888889,29.91638888888889],[-95.42472222222223,29.88722222222222],[-95.42472222222223,29.88722222222222],[-95.42472222222223,29.88722222222222],[-95.42472222222223,29.88722222222222],[-95.42472222222223,29.88722222222222],[-95.42472222222223,29.88722222222222],[-95.42472222222223,29.88722222222222],[-95.6863888888889,29.884999999999998],[-95.6863888888889,29.884999999999998],[-95.6863888888889,29.884999999999998],[-95.6863888888889,29.884999999999998],[-95.6863888888889,29.884999999999998],[-95.6863888888889,29.884999999999998],[-95.7825,29.932222222222222],[-95.7825,29.932222222222222],[-95.87277777777777,29.976388888888888],[-95.87277777777777,29.976388888888888],[-95.87277777777777,29.976388888888888],[-95.87277777777777,29.976388888888888],[-95.98111111111112,30.029444444444444],[-95.98111111111112,30.029444444444444],[-95.98111111111112,30.029444444444444],[-95.98111111111112,30.029444444444444],[-95.98111111111112,30.029444444444444],[-96.09333333333333,30.076944444444443],[-96.09333333333333,30.076944444444443],[-96.09333333333333,30.076944444444443],[-96.21833333333333,30.09638888888889],[-96.2475,30.099166666666665],[-96.2475,30.099166666666665],[-96.2475,30.099166666666665],[-96.2475,30.099166666666665],[-96.91666666666667,30.200555555555553],[-96.91666666666667,30.200555555555553],[-96.91666666666667,30.200555555555553],[-96.91666666666667,30.200555555555553],[-96.91666666666667,30.200555555555553],[-96.91666666666667,30.200555555555553],[-97.16722222222222,30.23777777777778],[-97.16722222222222,30.23777777777778],[-97.16722222222222,30.23777777777778],[-97.16722222222222,30.23777777777778],[-97.16722222222222,30.23777777777778],[-97.16722222222222,30.23777777777778],[-97.33138888888888,30.261944444444445],[-97.33138888888888,30.261944444444445],[-97.33138888888888,30.261944444444445],[-97.33138888888888,30.261944444444445],[-97.33138888888888,30.261944444444445],[-97.33138888888888,30.261944444444445],[-97.60472222222222,30.302222222222223],[-97.60472222222222,30.302222222222223],[-97.60472222222222,30.302222222222223],[-97.60472222222222,30.302222222222223],[-97.60472222222222,30.302222222222223],[-97.60472222222222,30.302222222222223],[-97.7075,30.31722222222222],[-97.7075,30.31722222222222],[-97.7075,30.31722222222222],[-97.73,30.32111111111111],[-97.73,30.32111111111111],[-97.73,30.32111111111111],[-97.85527777777777,30.346944444444443],[-97.85527777777777,30.346944444444443],[-97.85527777777777,30.346944444444443],[-97.85527777777777,30.346944444444443],[-97.85527777777777,30.346944444444443],[-98.08361111111111,30.395],[-98.08361111111111,30.395],[-98.08361111111111,30.395],[-98.08361111111111,30.395],[-98.10722222222222,30.4],[-98.10722222222222,30.4],[-98.32194444444444,30.4875],[-98.32194444444444,30.4875],[-98.32194444444444,30.4875],[-98.32194444444444,30.4875],[-98.34555555555555,30.50111111111111],[-98.34555555555555,30.50111111111111],[-98.34555555555555,30.50111111111111],[-98.34555555555555,30.50111111111111],[-98.34555555555555,30.50111111111111],[-98.45944444444444,30.56722222222222],[-98.45944444444444,30.56722222222222],[-98.45944444444444,30.56722222222222],[-98.55138888888888,30.62],[-98.55138888888888,30.62],[-98.55138888888888,30.62],[-98.5736111111111,30.633055555555558],[-98.5736111111111,30.633055555555558],[-98.5736111111111,30.633055555555558],[-98.5736111111111,30.633055555555558],[-98.5736111111111,30.633055555555558],[-98.5736111111111,30.633055555555558],[-98.68944444444445,30.699722222222224],[-98.68944444444445,30.699722222222224],[-98.68944444444445,30.699722222222224],[-98.77888888888889,30.75111111111111],[-98.77888888888889,30.75111111111111],[-98.77888888888889,30.75111111111111],[-98.9213888888889,30.8325],[-98.9213888888889,30.8325],[-98.9213888888889,30.8325],[-98.9213888888889,30.8325],[-99.00916666666667,30.88277777777778],[-99.00916666666667,30.88277777777778],[-99.12555555555555,30.948888888888888],[-99.12555555555555,30.948888888888888],[-99.12555555555555,30.948888888888888],[-99.12555555555555,30.948888888888888],[-99.12555555555555,30.948888888888888],[-99.12555555555555,30.948888888888888],[-99.12555555555555,30.948888888888888],[-99.37777777777777,31.091666666666665],[-99.37777777777777,31.091666666666665],[-99.37777777777777,31.091666666666665],[-99.37777777777777,31.091666666666665],[-99.37777777777777,31.091666666666665],[-99.37777777777777,31.091666666666665],[-99.37777777777777,31.091666666666665],[-99.49416666666667,31.1575],[-99.49416666666667,31.1575],[-99.49416666666667,31.1575],[-99.49416666666667,31.1575],[-99.49416666666667,31.1575],[-99.49416666666667,31.1575],[-99.72583333333334,31.2875],[-99.72583333333334,31.2875],[-99.72583333333334,31.2875],[-99.72583333333334,31.2875],[-99.72583333333334,31.2875],[-99.72583333333334,31.2875],[-99.7238888888889,31.28638888888889],[-99.7238888888889,31.28638888888889],[-99.7238888888889,31.28638888888889],[-99.7238888888889,31.28638888888889],[-99.84222222222222,31.352222222222224],[-99.84222222222222,31.352222222222224],[-99.95666666666666,31.41611111111111],[-99.95666666666666,31.41611111111111],[-99.95666666666666,31.41611111111111],[-99.95666666666666,31.41611111111111],[-99.95666666666666,31.41611111111111],[-100.07444444444444,31.481666666666666],[-100.07444444444444,31.481666666666666],[-100.07444444444444,31.481666666666666],[-100.07444444444444,31.481666666666666],[-100.07444444444444,31.481666666666666],[-100.07444444444444,31.481666666666666],[-100.07444444444444,31.481666666666666],[-100.07444444444444,31.481666666666666],[-100.07444444444444,31.481666666666666],[-100.07444444444444,31.481666666666666],[-100.30611111111111,31.609722222222224],[-100.30611111111111,31.609722222222224],[-100.30611111111111,31.609722222222224],[-100.30611111111111,31.609722222222224],[-100.30611111111111,31.609722222222224],[-100.30611111111111,31.609722222222224],[-100.30611111111111,31.609722222222224],[-100.30611111111111,31.609722222222224],[-100.54027777777777,31.738333333333333],[-100.54027777777777,31.738333333333333],[-100.54027777777777,31.738333333333333],[-100.54027777777777,31.738333333333333],[-100.54027777777777,31.738333333333333],[-100.66611111111112,31.806944444444444],[-100.66611111111112,31.806944444444444],[-100.66611111111112,31.806944444444444],[-100.66611111111112,31.806944444444444],[-100.66611111111112,31.806944444444444],[-100.76444444444445,31.860833333333336],[-100.76444444444445,31.860833333333336],[-100.76444444444445,31.860833333333336],[-100.76444444444445,31.860833333333336],[-100.76444444444445,31.860833333333336],[-100.76444444444445,31.860833333333336],[-100.78972222222222,31.874444444444446],[-100.78972222222222,31.874444444444446],[-100.78972222222222,31.874444444444446],[-100.88277777777778,31.92527777777778],[-100.88277777777778,31.92527777777778],[-100.88277777777778,31.92527777777778],[-100.88277777777778,31.92527777777778],[-101.12083333333332,32.053888888888885],[-101.12083333333332,32.053888888888885],[-101.12083333333332,32.053888888888885],[-101.12083333333332,32.053888888888885],[-101.12083333333332,32.053888888888885],[-101.12083333333332,32.053888888888885],[-101.23777777777778,32.117222222222225],[-101.23777777777778,32.117222222222225],[-101.23777777777778,32.117222222222225],[-101.23777777777778,32.117222222222225],[-101.23777777777778,32.117222222222225],[-101.59444444444443,32.308055555555555],[-101.59444444444443,32.308055555555555],[-101.59444444444443,32.308055555555555],[-101.59444444444443,32.308055555555555],[-101.59444444444443,32.308055555555555],[-101.59444444444443,32.308055555555555],[-101.73333333333333,32.38194444444444],[-101.73333333333333,32.38194444444444],[-101.73333333333333,32.38194444444444],[-101.73333333333333,32.38194444444444],[-101.73333333333333,32.38194444444444],[-101.83055555555555,32.43333333333333],[-101.83055555555555,32.43333333333333],[-101.83055555555555,32.43333333333333],[-101.83055555555555,32.43333333333333],[-101.85083333333333,32.44416666666666],[-101.85083333333333,32.44416666666666],[-101.85083333333333,32.44416666666666],[-101.85083333333333,32.44416666666666],[-102.06611111111111,32.5575],[-102.06611111111111,32.5575],[-102.06611111111111,32.5575],[-102.06611111111111,32.5575],[-102.06611111111111,32.5575],[-102.06611111111111,32.5575],[-102.08583333333333,32.56861111111112],[-102.08583333333333,32.56861111111112],[-102.08583333333333,32.56861111111112],[-102.08583333333333,32.56861111111112],[-102.20305555555557,32.62972222222222],[-102.20305555555557,32.62972222222222],[-102.20305555555557,32.62972222222222],[-102.20305555555557,32.62972222222222],[-102.20305555555557,32.62972222222222],[-102.20305555555557,32.62972222222222],[-102.20305555555557,32.62972222222222],[-102.20305555555557,32.62972222222222],[-102.32111111111111,32.69194444444444],[-102.42166666666667,32.74388888888889],[-102.42166666666667,32.74388888888889],[-102.42166666666667,32.74388888888889],[-102.42166666666667,32.74388888888889],[-102.56388888888888,32.81777777777778],[-102.68111111111112,32.87861111111111],[-102.68111111111112,32.87861111111111],[-102.68111111111112,32.87861111111111],[-102.68111111111112,32.87861111111111],[-102.68111111111112,32.87861111111111],[-102.68111111111112,32.87861111111111],[-102.90805555555556,32.995555555555555],[-102.90805555555556,32.995555555555555],[-102.90805555555556,32.995555555555555],[-102.93277777777779,33.00833333333333],[-102.93277777777779,33.00833333333333],[-102.93277777777779,33.00833333333333],[-102.93277777777779,33.00833333333333],[-102.93277777777779,33.00833333333333],[-103.05194444444444,33.06944444444445],[-103.05194444444444,33.06944444444445],[-103.05194444444444,33.06944444444445],[-103.05194444444444,33.06944444444445],[-103.05194444444444,33.06944444444445],[-103.05194444444444,33.06944444444445],[-103.38805555555557,33.240833333333335],[-103.41250000000001,33.25333333333333],[-103.41250000000001,33.25333333333333],[-103.41250000000001,33.25333333333333],[-103.41250000000001,33.25333333333333],[-103.41250000000001,33.25333333333333],[-103.41250000000001,33.25333333333333],[-103.50861111111111,33.301944444444445],[-103.50861111111111,33.301944444444445],[-103.50861111111111,33.301944444444445],[-103.50861111111111,33.301944444444445],[-103.53388888888888,33.31472222222222],[-103.53388888888888,33.31472222222222],[-103.53388888888888,33.31472222222222],[-103.53388888888888,33.31472222222222],[-103.53388888888888,33.31472222222222],[-103.62944444444443,33.363055555555555],[-103.62944444444443,33.363055555555555],[-103.62944444444443,33.363055555555555],[-103.7786111111111,33.43805555555555],[-103.7786111111111,33.43805555555555],[-103.7786111111111,33.43805555555555],[-103.7786111111111,33.43805555555555],[-103.7786111111111,33.43805555555555],[-103.7786111111111,33.43805555555555],[-103.7786111111111,33.43805555555555],[-104.24055555555556,33.66861111111111],[-104.24055555555556,33.66861111111111],[-104.24055555555556,33.66861111111111],[-104.24055555555556,33.66861111111111],[-104.24055555555556,33.66861111111111],[-104.24055555555556,33.66861111111111],[-104.24055555555556,33.66861111111111],[-104.24055555555556,33.66861111111111],[-104.24055555555556,33.66861111111111],[-104.36555555555555,33.730555555555554],[-104.36555555555555,33.730555555555554],[-104.36555555555555,33.730555555555554],[-104.36555555555555,33.730555555555554],[-104.61444444444444,33.85305555555556],[-104.61444444444444,33.85305555555556],[-104.65166666666667,33.87111111111111],[-104.65166666666667,33.87111111111111],[-104.65166666666667,33.87111111111111],[-104.65166666666667,33.87111111111111],[-104.65166666666667,33.87111111111111],[-104.65166666666667,33.87111111111111],[-104.73944444444444,33.91416666666667],[-104.73944444444444,33.91416666666667],[-104.73944444444444,33.91416666666667],[-104.73944444444444,33.91416666666667],[-104.73944444444444,33.91416666666667],[-104.98333333333333,34.033055555555556],[-105.00138888888888,34.041666666666664],[-105.00138888888888,34.041666666666664],[-105.00138888888888,34.041666666666664],[-105.00138888888888,34.041666666666664],[-105.00138888888888,34.041666666666664],[-105.00138888888888,34.041666666666664],[-105.00138888888888,34.041666666666664],[-105.00138888888888,34.041666666666664],[-105.37249999999999,34.22083333333334],[-105.37249999999999,34.22083333333334],[-105.37249999999999,34.22083333333334],[-105.37249999999999,34.22083333333334],[-105.37249999999999,34.22083333333334],[-105.37249999999999,34.22083333333334],[-105.37249999999999,34.22083333333334],[-105.49694444444445,34.28055555555555],[-105.49694444444445,34.28055555555555],[-105.74861111111112,34.39277777777778],[-105.74861111111112,34.39277777777778],[-105.74861111111112,34.39277777777778],[-105.74861111111112,34.39277777777778],[-105.74861111111112,34.39277777777778],[-105.74861111111112,34.39277777777778],[-105.74861111111112,34.39277777777778],[-105.74861111111112,34.39277777777778],[-106.13222222222221,34.532222222222224],[-106.13222222222221,34.532222222222224],[-106.13222222222221,34.532222222222224],[-106.13222222222221,34.532222222222224],[-106.13222222222221,34.532222222222224],[-106.13222222222221,34.532222222222224],[-106.13222222222221,34.532222222222224],[-106.13222222222221,34.532222222222224],[-106.13222222222221,34.532222222222224],[-106.77666666666667,34.76305555555555],[-106.77666666666667,34.76305555555555],[-106.77666666666667,34.76305555555555],[-106.81611111111111,34.776666666666664],[-106.81611111111111,34.776666666666664],[-106.81611111111111,34.776666666666664],[-106.90055555555556,34.80694444444444],[-106.90055555555556,34.80694444444444],[-107.02694444444444,34.85138888888889],[-107.02694444444444,34.85138888888889],[-107.0736111111111,34.86666666666667],[-107.0736111111111,34.86666666666667],[-107.0736111111111,34.86666666666667],[-107.0736111111111,34.86666666666667],[-107.0736111111111,34.86666666666667],[-107.45111111111112,34.99777777777778],[-107.45111111111112,34.99777777777778],[-107.45111111111112,34.99777777777778],[-107.52944444444444,35.02638888888889],[-107.52944444444444,35.02638888888889],[-107.52944444444444,35.02638888888889],[-107.52944444444444,35.02638888888889],[-107.55361111111111,35.034166666666664],[-107.55361111111111,35.034166666666664],[-107.78777777777778,35.11555555555556],[-107.78777777777778,35.11555555555556],[-107.83055555555555,35.13027777777778],[-107.83055555555555,35.13027777777778],[-107.83055555555555,35.13027777777778],[-107.83055555555555,35.13027777777778],[-107.83055555555555,35.13027777777778],[-107.91472222222222,35.159166666666664],[-107.91472222222222,35.159166666666664],[-107.93944444444445,35.1675],[-108.04138888888889,35.202222222222225],[-108.04138888888889,35.202222222222225],[-108.06444444444445,35.21],[-108.16583333333334,35.24444444444445],[-108.16583333333334,35.24444444444445],[-108.16583333333334,35.24444444444445],[-108.16583333333334,35.24444444444445],[-108.16583333333334,35.24444444444445],[-108.1913888888889,35.253055555555555],[-108.1913888888889,35.253055555555555],[-108.29138888888889,35.286944444444444],[-108.29138888888889,35.286944444444444],[-108.29138888888889,35.286944444444444],[-108.29138888888889,35.286944444444444],[-108.44305555555556,35.33777777777778],[-108.54166666666667,35.37111111111111],[-108.54166666666667,35.37111111111111],[-108.54166666666667,35.37111111111111],[-108.56666666666666,35.379444444444445],[-108.56666666666666,35.379444444444445],[-108.56666666666666,35.379444444444445],[-108.69166666666668,35.42111111111111],[-108.69166666666668,35.42111111111111],[-108.69166666666668,35.42111111111111],[-108.69166666666668,35.42111111111111],[-108.69166666666668,35.42111111111111],[-108.815,35.46194444444445],[-108.815,35.46194444444445],[-108.89111111111112,35.48722222222222],[-108.89111111111112,35.48722222222222],[-108.89111111111112,35.48722222222222],[-108.94055555555556,35.50361111111111],[-108.94055555555556,35.50361111111111],[-109.01611111111112,35.52861111111111],[-109.1913888888889,35.586111111111116],[-109.1913888888889,35.586111111111116],[-109.1913888888889,35.586111111111116],[-109.1913888888889,35.586111111111116],[-109.39444444444445,35.65222222222222],[-109.39444444444445,35.65222222222222],[-109.51972222222223,35.69305555555555],[-109.51972222222223,35.69305555555555],[-109.51972222222223,35.69305555555555],[-109.51972222222223,35.69305555555555],[-109.51972222222223,35.69305555555555],[-109.64583333333334,35.73388888888889],[-109.69666666666667,35.75],[-109.69666666666667,35.75],[-109.69666666666667,35.75],[-109.77305555555556,35.77472222222222],[-109.77305555555556,35.77472222222222],[-109.77305555555556,35.77472222222222],[-109.77305555555556,35.77472222222222],[-109.89805555555556,35.81472222222222],[-109.89805555555556,35.81472222222222],[-109.89805555555556,35.81472222222222],[-109.89805555555556,35.81472222222222],[-110.05527777777777,35.86555555555556],[-110.05527777777777,35.86555555555556],[-110.05527777777777,35.86555555555556],[-110.05527777777777,35.86555555555556],[-110.41972222222223,35.980000000000004],[-110.41972222222223,35.980000000000004],[-110.47722222222222,35.99805555555556],[-110.47722222222222,35.99805555555556],[-110.47722222222222,35.99805555555556],[-110.55666666666666,36.022777777777776],[-110.55666666666666,36.022777777777776],[-110.69166666666668,36.065],[-110.69166666666668,36.065],[-110.75166666666667,36.08361111111111],[-110.75166666666667,36.08361111111111],[-110.75166666666667,36.08361111111111],[-110.75166666666667,36.08361111111111],[-110.88777777777779,36.126111111111115],[-110.96972222222223,36.151111111111106],[-110.96972222222223,36.151111111111106],[-110.96972222222223,36.151111111111106],[-111.02888888888889,36.169444444444444],[-111.08388888888888,36.184999999999995],[-111.08388888888888,36.184999999999995],[-111.08388888888888,36.184999999999995],[-111.16305555555556,36.22694444444445],[-111.16305555555556,36.22694444444445],[-111.21388888888889,36.254444444444445],[-111.21388888888889,36.254444444444445],[-111.33694444444444,36.33638888888889],[-111.33694444444444,36.33638888888889],[-111.33694444444444,36.33638888888889],[-111.33694444444444,36.33638888888889],[-111.33694444444444,36.33638888888889],[-111.58111111111111,36.49916666666667],[-111.58111111111111,36.49916666666667],[-111.58111111111111,36.49916666666667],[-111.58111111111111,36.49916666666667],[-111.58111111111111,36.49916666666667],[-111.58111111111111,36.49916666666667],[-111.78166666666667,36.629444444444445],[-111.78166666666667,36.629444444444445],[-111.78166666666667,36.629444444444445],[-111.78166666666667,36.629444444444445],[-111.90083333333334,36.71666666666667],[-111.90083333333334,36.71666666666667],[-111.90083333333334,36.71666666666667],[-111.90083333333334,36.71666666666667],[-112.06277777777777,36.843333333333334],[-112.06277777777777,36.843333333333334],[-112.17972222222222,36.93444444444444],[-112.17972222222222,36.93444444444444],[-112.17972222222222,36.93444444444444],[-112.25083333333333,36.98972222222222],[-112.25083333333333,36.98972222222222],[-112.36833333333333,37.08027777777778],[-112.36833333333333,37.08027777777778],[-112.60749999999999,37.26277777777778],[-112.60749999999999,37.26277777777778],[-112.60749999999999,37.26277777777778],[-112.60749999999999,37.26277777777778],[-112.72777777777777,37.35444444444445],[-112.72777777777777,37.35444444444445],[-112.72777777777777,37.35444444444445],[-112.72777777777777,37.35444444444445],[-112.72777777777777,37.35444444444445],[-113.0736111111111,37.61527777777778],[-113.0736111111111,37.61527777777778],[-113.0736111111111,37.61527777777778],[-113.0736111111111,37.61527777777778],[-113.0736111111111,37.61527777777778],[-113.0736111111111,37.61527777777778],[-113.0736111111111,37.61527777777778],[-113.43916666666667,37.88805555555555],[-113.43916666666667,37.88805555555555],[-113.43916666666667,37.88805555555555],[-113.43916666666667,37.88805555555555],[-113.43916666666667,37.88805555555555],[-113.43916666666667,37.88805555555555],[-113.43916666666667,37.88805555555555],[-113.43916666666667,37.88805555555555],[-113.78444444444445,38.035],[-113.78444444444445,38.035],[-113.78444444444445,38.035],[-113.8761111111111,38.06777777777778],[-113.8761111111111,38.06777777777778],[-113.8761111111111,38.06777777777778],[-113.8761111111111,38.06777777777778],[-113.8761111111111,38.06777777777778],[-113.8761111111111,38.06777777777778],[-114.08222222222221,38.14083333333333],[-114.08222222222221,38.14083333333333],[-114.08222222222221,38.14083333333333],[-114.2286111111111,38.19222222222222],[-114.31916666666666,38.223888888888894],[-114.31916666666666,38.223888888888894],[-114.31916666666666,38.223888888888894],[-114.31916666666666,38.223888888888894],[-114.31916666666666,38.223888888888894],[-114.31916666666666,38.223888888888894],[-114.31916666666666,38.223888888888894],[-114.31916666666666,38.223888888888894],[-114.70222222222222,38.231944444444444],[-114.70222222222222,38.231944444444444],[-114.70222222222222,38.231944444444444],[-114.70222222222222,38.231944444444444],[-114.70222222222222,38.231944444444444],[-114.70222222222222,38.231944444444444],[-114.79888888888888,38.22555555555556],[-114.79888888888888,38.22555555555556],[-114.86166666666666,38.22166666666667],[-114.86166666666666,38.22166666666667],[-114.86166666666666,38.22166666666667],[-114.86166666666666,38.22166666666667],[-115.05555555555556,38.20944444444445],[-115.05555555555556,38.20944444444445],[-115.05555555555556,38.20944444444445],[-115.05555555555556,38.20944444444445],[-115.39611111111111,38.187777777777775],[-115.39611111111111,38.187777777777775],[-115.39611111111111,38.187777777777775],[-115.39611111111111,38.187777777777775],[-115.39611111111111,38.187777777777775],[-115.39611111111111,38.187777777777775],[-115.39611111111111,38.187777777777775],[-115.39611111111111,38.187777777777775],[-115.52444444444444,38.17861111111111],[-115.52444444444444,38.17861111111111],[-115.68694444444445,38.16722222222222],[-115.68694444444445,38.16722222222222],[-115.68694444444445,38.16722222222222],[-115.68694444444445,38.16722222222222],[-115.68694444444445,38.16722222222222],[-115.84722222222221,38.15611111111111],[-115.84722222222221,38.15611111111111],[-115.84722222222221,38.15611111111111],[-115.84722222222221,38.15611111111111],[-115.84722222222221,38.15611111111111],[-115.84722222222221,38.15611111111111],[-116.00944444444444,38.14416666666666],[-116.00944444444444,38.14416666666666],[-116.00944444444444,38.14416666666666],[-116.04472222222222,38.141666666666666],[-116.04472222222222,38.141666666666666],[-116.04472222222222,38.141666666666666],[-116.20861111111111,38.12972222222222],[-116.20861111111111,38.12972222222222],[-116.20861111111111,38.12972222222222],[-116.33444444444444,38.12027777777778],[-116.33444444444444,38.12027777777778],[-116.36861111111111,38.117777777777775],[-116.36861111111111,38.117777777777775],[-116.36861111111111,38.117777777777775],[-116.49555555555555,38.10805555555556],[-116.49555555555555,38.10805555555556],[-116.49555555555555,38.10805555555556],[-116.49555555555555,38.10805555555556],[-116.49555555555555,38.10805555555556],[-116.49555555555555,38.10805555555556],[-116.69111111111111,38.09305555555556],[-116.69111111111111,38.09305555555556],[-116.69111111111111,38.09305555555556],[-116.69111111111111,38.09305555555556],[-116.69111111111111,38.09305555555556],[-116.85027777777778,38.08027777777778],[-116.85027777777778,38.08027777777778],[-116.85027777777778,38.08027777777778],[-116.85027777777778,38.08027777777778],[-116.97638888888889,38.07027777777778],[-116.97638888888889,38.07027777777778],[-116.97638888888889,38.07027777777778],[-117.13944444444445,38.05694444444444],[-117.13944444444445,38.05694444444444],[-117.13944444444445,38.05694444444444],[-117.13944444444445,38.05694444444444],[-117.29472222222222,38.04388888888889],[-117.29472222222222,38.04388888888889],[-117.29472222222222,38.04388888888889],[-117.29472222222222,38.04388888888889],[-117.41027777777778,38.02583333333333],[-117.41027777777778,38.02583333333333],[-117.41027777777778,38.02583333333333],[-117.43722222222223,38.013888888888886],[-117.43722222222223,38.013888888888886],[-117.43722222222223,38.013888888888886],[-117.52916666666667,37.92222222222222],[-117.52916666666667,37.92222222222222],[-117.52916666666667,37.92222222222222],[-117.52916666666667,37.92222222222222],[-117.52916666666667,37.92222222222222],[-117.66194444444444,37.73277777777778],[-117.66194444444444,37.73277777777778],[-117.66194444444444,37.73277777777778],[-117.66194444444444,37.73277777777778],[-117.66194444444444,37.73277777777778],[-117.75222222222222,37.60416666666667],[-117.75222222222222,37.60416666666667],[-117.75222222222222,37.60416666666667],[-117.75222222222222,37.60416666666667],[-117.75222222222222,37.60416666666667],[-117.82722222222222,37.49666666666667],[-117.82722222222222,37.49666666666667],[-117.82722222222222,37.49666666666667],[-117.82722222222222,37.49666666666667],[-117.82722222222222,37.49666666666667],[-117.82722222222222,37.49666666666667],[-117.93027777777779,37.41583333333333],[-117.93027777777779,37.41583333333333],[-117.93027777777779,37.41583333333333],[-117.93027777777779,37.41583333333333],[-118.07777777777777,37.41861111111111],[-118.07777777777777,37.41861111111111],[-118.07777777777777,37.41861111111111],[-118.07777777777777,37.41861111111111],[-118.07777777777777,37.41861111111111],[-118.07777777777777,37.41861111111111],[-118.59666666666666,37.595555555555556],[-118.59666666666666,37.595555555555556],[-118.59666666666666,37.595555555555556],[-118.59666666666666,37.595555555555556],[-118.59666666666666,37.595555555555556],[-118.59666666666666,37.595555555555556],[-118.59666666666666,37.595555555555556],[-118.59666666666666,37.595555555555556],[-119.0325,37.62277777777778],[-119.0325,37.62277777777778],[-119.0325,37.62277777777778],[-119.0325,37.62277777777778],[-119.17555555555556,37.63166666666667],[-119.17555555555556,37.63166666666667],[-119.17555555555556,37.63166666666667],[-119.17555555555556,37.63166666666667],[-119.17555555555556,37.63166666666667],[-119.32027777777778,37.640277777777776],[-119.32027777777778,37.640277777777776],[-119.32027777777778,37.640277777777776],[-119.32027777777778,37.640277777777776],[-119.61222222222221,37.65694444444444],[-119.61222222222221,37.65694444444444],[-119.61222222222221,37.65694444444444],[-119.61222222222221,37.65694444444444],[-119.61222222222221,37.65694444444444],[-119.61222222222221,37.65694444444444],[-119.90166666666667,37.67305555555555],[-119.90166666666667,37.67305555555555],[-119.90166666666667,37.67305555555555],[-119.90166666666667,37.67305555555555],[-119.90166666666667,37.67305555555555],[-119.90166666666667,37.67305555555555],[-119.90166666666667,37.67305555555555],[-120.29305555555555,37.69361111111111],[-120.29305555555555,37.69361111111111],[-120.29305555555555,37.69361111111111],[-120.29305555555555,37.69361111111111],[-120.29305555555555,37.69361111111111],[-120.64,37.67166666666667],[-120.64,37.67166666666667],[-120.64,37.67166666666667],[-120.64,37.67166666666667],[-120.81666666666666,37.65],[-120.81666666666666,37.65],[-120.81666666666666,37.65],[-120.81666666666666,37.65],[-120.81666666666666,37.65],[-120.81666666666666,37.65],[-120.81666666666666,37.65],[-120.81666666666666,37.65],[-121.13333333333334,37.61666666666667],[-121.13333333333334,37.61666666666667],[-121.13333333333334,37.61666666666667],[-121.13333333333334,37.61666666666667],[-121.13333333333334,37.61666666666667],[-121.23333333333333,37.6],[-121.27083333333333,37.59166666666667],[-121.27083333333333,37.59166666666667],[-121.27083333333333,37.59166666666667],[-121.27083333333333,37.59166666666667],[-121.27083333333333,37.59166666666667],[-121.27083333333333,37.59166666666667],[-121.46972222222223,37.56888888888889],[-121.46972222222223,37.56888888888889],[-121.46972222222223,37.56888888888889],[-121.46972222222223,37.56888888888889],[-121.46972222222223,37.56888888888889],[-121.56611111111111,37.55777777777777],[-121.56611111111111,37.55777777777777],[-121.56611111111111,37.55777777777777],[-121.56611111111111,37.55777777777777],[-121.61666666666666,37.55],[-121.61666666666666,37.55],[-121.61666666666666,37.55],[-121.61666666666666,37.55],[-121.66000000000001,37.54222222222222],[-121.66000000000001,37.54222222222222],[-121.66000000000001,37.54222222222222],[-121.66000000000001,37.54222222222222],[-121.66000000000001,37.54222222222222],[-121.83777777777777,37.5],[-121.83777777777777,37.5],[-121.83777777777777,37.5],[-121.83777777777777,37.5],[-121.83777777777777,37.5],[-121.83777777777777,37.5],[-122.06666666666666,37.5],[-122.06666666666666,37.5],[-122.06666666666666,37.5],[-122.06666666666666,37.5],[-122.06666666666666,37.5],[-122.06666666666666,37.5],[-122.09916666666666,37.50555555555555],[-122.09916666666666,37.50555555555555],[-122.09916666666666,37.50555555555555],[-122.2,37.55],[-122.2,37.55],[-122.2,37.55],[-122.2,37.55],[-122.2,37.55],[-122.2388888888889,37.56388888888888],[-122.2388888888889,37.56388888888888],[-122.2388888888889,37.56388888888888],[-122.2388888888889,37.56388888888888],[-122.2388888888889,37.56388888888888],[-122.33638888888889,37.60472222222222],[-122.33638888888889,37.60472222222222],[-122.33638888888889,37.60472222222222],[-122.33638888888889,37.60472222222222]],"type":"LineString"}
}
