{
  "id": 2031125803,
  "type": "Feature",
  "properties": {
    "geom:area": 0,
    "geom:bbox": "-122.316667,30.172222,-97.658333,38.333889",
    "geom:latitude": 35.55067557772209,
    "geom:longitude": -109.64981618272834,
    "src:alt_label": "swim-path",
    "src:geom": "swim",
    "swim:altitudes": [
      "010",
      "010",
      "056",
      "056",
      "093",
      "093",
      "093",
      "124",
      "124",
      "124",
      "147",
      "147",
      "147",
      "198",
      "198",
      "198",
      "198",
      "198",
      "198",
      "198",
      "300",
      "300",
      "300",
      "300",
      "300",
      "330",
      "330",
      "330",
      "330",
      "340C",
      "340C",
      "340C",
      "340C",
      "340C",
      "340C",
      "340C",
      "340C",
      "340C",
      "340C",
      "340C",
      "340C",
      "340C",
      "340C",
      "340C",
      "340C",
      "340C",
      "340C",
      "340C",
      "340C",
      "340C",
      "340C",
      "340C",
      "340C",
      "340C",
      "340C",
      "340C",
      "340C",
      "340C",
      "340C",
      "340C",
      "340C",
      "340C",
      "340C",
      "340C",
      "340C",
      "340C",
      "340C",
      "340C",
      "340C",
      "340C",
      "340C",
      "340C",
      "340C",
      "340C",
      "340C",
      "340C",
      "340C",
      "340C",
      "340C",
      "340C",
      "340C",
      "340C",
      "340C",
      "340C",
      "340C",
      "340C",
      "340C",
      "340C",
      "340C",
      "340C",
      "340C",
      "340C",
      "340C",
      "340C",
      "340C",
      "340C",
      "340C",
      "340C",
      "340C",
      "340C",
      "340C",
      "340C",
      "340C",
      "340C",
      "340C",
      "340C",
      "340C",
      "340C",
      "340C",
      "340C",
      "340C",
      "340C",
      "340C",
      "340C",
      "340C",
      "340C",
      "340C",
      "340C",
      "340C",
      "340C",
      "340C",
      "340C",
      "340C",
      "340C",
      "340C",
      "340C",
      "340C",
      "340C",
      "340C",
      "340C",
      "340C",
      "340C",
      "340C",
      "340C",
      "340C",
      "340C",
      "340C",
      "340C",
      "340C",
      "340C",
      "340C",
      "340C",
      "340C",
      "340C",
      "340C",
      "340C",
      "340C",
      "340C",
      "340C",
      "340C",
      "340C",
      "340C",
      "340C",
      "340C",
      "340C",
      "340C",
      "340C",
      "340C",
      "341C",
      "341C",
      "341C",
      "341C",
      "341C",
      "341C",
      "341C",
      "341C",
      "340C",
      "340C",
      "340C",
      "340C",
      "340C",
      "340C",
      "340C",
      "340C",
      "340C",
      "340C",
      "340C",
      "340C",
      "340C",
      "340C",
      "340C",
      "340C",
      "340C",
      "340C",
      "340C",
      "340C",
      "340C",
      "340C",
      "340C",
      "340C",
      "340C",
      "340C",
      "340C",
      "340C",
      "340C",
      "340C",
      "340C",
      "340C",
      "340C",
      "340C",
      "340C",
      "340C",
      "340C",
      "340C",
      "340C",
      "340C",
      "340C",
      "340C",
      "340C",
      "340C",
      "340C",
      "340C",
      "340C",
      "340C",
      "340C",
      "340C",
      "340C",
      "340C",
      "340C",
      "340C",
      "340C",
      "340C",
      "340C",
      "340C",
      "340C",
      "340C",
      "340C",
      "340C",
      "340C",
      "340C",
      "340C",
      "340C",
      "340C",
      "340C",
      "340C",
      "340C",
      "340C",
      "340C",
      "340C",
      "340C",
      "340C",
      "340C",
      "340C",
      "340C",
      "340C",
      "340C",
      "340C",
      "340C",
      "340C",
      "340C",
      "340C",
      "340C",
      "340C",
      "340C",
      "340C",
      "340C",
      "340C",
      "340C",
      "340C",
      "340C",
      "340C",
      "340C",
      "340C",
      "340C",
      "340C",
      "340C",
      "340C",
      "340C",
      "340C",
      "340C",
      "340C",
      "340C",
      "340C",
      "340C",
      "340C",
      "340C",
      "341C",
      "341C",
      "341C",
      "341C",
      "341C",
      "341C",
      "340C",
      "340C",
      "340C",
      "340C",
      "340C",
      "340C",
      "340C",
      "340C",
      "340C",
      "340C",
      "340C",
      "340C",
      "340C",
      "341C",
      "341C",
      "341C",
      "340C",
      "340C",
      "340C",
      "340C",
      "340C",
      "340C",
      "340C",
      "340C",
      "340C",
      "340C",
      "340C",
      "340C",
      "340C",
      "340C",
      "340C",
      "340C",
      "340C",
      "340C",
      "340C",
      "340C",
      "340C",
      "340C",
      "340C",
      "340C",
      "340C",
      "340C",
      "340C",
      "340C",
      "340C",
      "340C",
      "340C",
      "340C",
      "340C",
      "340C",
      "340C",
      "340C",
      "340C",
      "340C",
      "340C",
      "340C",
      "340C",
      "340C",
      "340C",
      "340C",
      "340C",
      "340C",
      "321",
      "321",
      "321",
      "321",
      "321",
      "321",
      "304",
      "304",
      "280",
      "280",
      "280",
      "280",
      "236",
      "236",
      "236",
      "236",
      "236",
      "224",
      "222",
      "222",
      "214",
      "198",
      "198",
      "198",
      "198",
      "198",
      "165",
      "165",
      "165",
      "147",
      "147",
      "134",
      "134",
      "127",
      "125",
      "125",
      "125",
      "115",
      "115",
      "101",
      "101",
      "101",
      "101",
      "050",
      "050",
      "050",
      "050",
      "050",
      "031",
      "031",
      "022",
      "022",
      "021",
      "021",
      "014",
      "014",
      "014",
      "014",
      "008",
      "008",
      "007",
      "007",
      "007"
    ],
    "swim:geom": "path",
    "swim:speeds": [
      165,
      165,
      281,
      281,
      288,
      288,
      288,
      363,
      363,
      363,
      373,
      373,
      373,
      371,
      371,
      371,
      371,
      371,
      371,
      371,
      410,
      410,
      410,
      410,
      410,
      387,
      387,
      387,
      387,
      387,
      386,
      386,
      386,
      386,
      386,
      376,
      376,
      376,
      376,
      376,
      376,
      376,
      376,
      376,
      381,
      381,
      381,
      381,
      381,
      381,
      381,
      384,
      384,
      384,
      384,
      384,
      385,
      385,
      385,
      386,
      386,
      386,
      386,
      386,
      386,
      386,
      386,
      386,
      385,
      385,
      385,
      385,
      385,
      385,
      385,
      385,
      385,
      384,
      384,
      384,
      384,
      383,
      383,
      383,
      383,
      383,
      384,
      384,
      384,
      385,
      385,
      385,
      387,
      387,
      387,
      388,
      388,
      388,
      392,
      392,
      390,
      390,
      390,
      390,
      390,
      390,
      390,
      390,
      390,
      391,
      392,
      392,
      392,
      392,
      391,
      391,
      392,
      392,
      392,
      393,
      393,
      393,
      395,
      395,
      395,
      395,
      395,
      396,
      396,
      396,
      396,
      396,
      396,
      397,
      397,
      397,
      397,
      396,
      396,
      396,
      396,
      397,
      398,
      398,
      398,
      398,
      398,
      398,
      397,
      397,
      397,
      397,
      397,
      397,
      397,
      397,
      393,
      393,
      395,
      395,
      395,
      395,
      395,
      395,
      395,
      395,
      397,
      397,
      397,
      397,
      396,
      396,
      394,
      394,
      394,
      394,
      393,
      393,
      392,
      392,
      392,
      392,
      392,
      392,
      392,
      392,
      392,
      392,
      386,
      386,
      386,
      386,
      386,
      386,
      386,
      394,
      394,
      394,
      394,
      388,
      388,
      388,
      388,
      388,
      388,
      388,
      391,
      391,
      390,
      390,
      390,
      390,
      390,
      386,
      386,
      386,
      386,
      383,
      383,
      383,
      382,
      382,
      382,
      382,
      385,
      385,
      385,
      385,
      385,
      385,
      385,
      381,
      381,
      382,
      381,
      381,
      381,
      381,
      381,
      381,
      381,
      388,
      388,
      388,
      388,
      386,
      386,
      386,
      386,
      386,
      394,
      394,
      394,
      395,
      395,
      395,
      395,
      384,
      384,
      384,
      384,
      383,
      383,
      383,
      384,
      384,
      384,
      384,
      388,
      388,
      388,
      388,
      388,
      388,
      387,
      387,
      393,
      393,
      393,
      393,
      393,
      393,
      398,
      398,
      398,
      398,
      396,
      396,
      396,
      396,
      396,
      397,
      397,
      397,
      397,
      407,
      407,
      407,
      410,
      410,
      410,
      410,
      412,
      413,
      413,
      413,
      413,
      414,
      414,
      414,
      414,
      416,
      416,
      416,
      416,
      419,
      419,
      424,
      424,
      424,
      424,
      424,
      424,
      423,
      423,
      423,
      423,
      423,
      423,
      433,
      433,
      433,
      433,
      433,
      441,
      441,
      441,
      441,
      445,
      445,
      445,
      447,
      447,
      447,
      451,
      451,
      451,
      451,
      451,
      451,
      454,
      454,
      441,
      441,
      441,
      441,
      417,
      417,
      417,
      417,
      417,
      392,
      373,
      373,
      353,
      342,
      342,
      342,
      342,
      342,
      314,
      314,
      314,
      308,
      308,
      309,
      309,
      271,
      257,
      257,
      257,
      253,
      253,
      247,
      247,
      247,
      247,
      195,
      195,
      195,
      195,
      195,
      176,
      176,
      174,
      174,
      168,
      168,
      148,
      148,
      148,
      148,
      127,
      127,
      125,
      125,
      125
    ],
    "swim:timestamps": [
      1777304193,
      1777304193,
      1777304325,
      1777304325,
      1777304414,
      1777304414,
      1777304414,
      1777304534,
      1777304534,
      1777304534,
      1777304594,
      1777304594,
      1777304594,
      1777304714,
      1777304714,
      1777304714,
      1777304714,
      1777304714,
      1777304714,
      1777304714,
      1777305135,
      1777305135,
      1777305135,
      1777305135,
      1777305135,
      1777305255,
      1777305255,
      1777305255,
      1777305255,
      1777305377,
      1777305435,
      1777305435,
      1777305435,
      1777305435,
      1777305435,
      1777305616,
      1777305616,
      1777305616,
      1777305616,
      1777305676,
      1777305676,
      1777305676,
      1777305676,
      1777305676,
      1777305858,
      1777305858,
      1777305858,
      1777305858,
      1777305858,
      1777305858,
      1777305858,
      1777306038,
      1777306038,
      1777306038,
      1777306038,
      1777306038,
      1777306158,
      1777306158,
      1777306158,
      1777306243,
      1777306243,
      1777306243,
      1777306243,
      1777306277,
      1777306277,
      1777306277,
      1777306350,
      1777306350,
      1777306457,
      1777306457,
      1777306457,
      1777306484,
      1777306484,
      1777306517,
      1777306517,
      1777306517,
      1777306517,
      1777306577,
      1777306577,
      1777306577,
      1777306577,
      1777306604,
      1777306604,
      1777306604,
      1777306637,
      1777306637,
      1777306784,
      1777306784,
      1777306784,
      1777306817,
      1777306817,
      1777306817,
      1777306877,
      1777306877,
      1777306877,
      1777306904,
      1777306904,
      1777306904,
      1777306964,
      1777306964,
      1777306998,
      1777306998,
      1777306998,
      1777306998,
      1777307058,
      1777307058,
      1777307058,
      1777307058,
      1777307058,
      1777307118,
      1777307205,
      1777307205,
      1777307205,
      1777307205,
      1777307238,
      1777307238,
      1777307325,
      1777307325,
      1777307418,
      1777307445,
      1777307445,
      1777307445,
      1777307598,
      1777307598,
      1777307625,
      1777307625,
      1777307625,
      1777307659,
      1777307659,
      1777307659,
      1777307659,
      1777307659,
      1777307659,
      1777307719,
      1777307779,
      1777307779,
      1777307779,
      1777307839,
      1777307839,
      1777307839,
      1777307839,
      1777307899,
      1777307959,
      1777307959,
      1777307986,
      1777307986,
      1777307986,
      1777307986,
      1777308019,
      1777308019,
      1777308019,
      1777308046,
      1777308046,
      1777308046,
      1777308046,
      1777308046,
      1777308139,
      1777308139,
      1777308259,
      1777308259,
      1777308259,
      1777308259,
      1777308286,
      1777308286,
      1777308286,
      1777308286,
      1777308380,
      1777308380,
      1777308380,
      1777308380,
      1777308440,
      1777308440,
      1777308500,
      1777308500,
      1777308500,
      1777308500,
      1777308527,
      1777308560,
      1777308647,
      1777308647,
      1777308647,
      1777308647,
      1777308707,
      1777308707,
      1777308707,
      1777308707,
      1777308707,
      1777308707,
      1777309007,
      1777309007,
      1777309007,
      1777309007,
      1777309007,
      1777309007,
      1777309007,
      1777309128,
      1777309128,
      1777309128,
      1777309128,
      1777309428,
      1777309428,
      1777309428,
      1777309428,
      1777309428,
      1777309428,
      1777309428,
      1777309608,
      1777309608,
      1777309668,
      1777309668,
      1777309668,
      1777309668,
      1777309668,
      1777309848,
      1777309848,
      1777309848,
      1777309848,
      1777309969,
      1777309969,
      1777309969,
      1777310029,
      1777310029,
      1777310029,
      1777310029,
      1777310269,
      1777310269,
      1777310269,
      1777310389,
      1777310389,
      1777310389,
      1777310389,
      1777310864,
      1777310864,
      1777310870,
      1777310924,
      1777310924,
      1777310924,
      1777310924,
      1777310984,
      1777310984,
      1777310984,
      1777311285,
      1777311285,
      1777311285,
      1777311285,
      1777311405,
      1777311405,
      1777311471,
      1777311471,
      1777311471,
      1777311645,
      1777311645,
      1777311645,
      1777311711,
      1777311711,
      1777311711,
      1777311711,
      1777311831,
      1777311831,
      1777311886,
      1777311886,
      1777311946,
      1777311946,
      1777311946,
      1777312006,
      1777312006,
      1777312006,
      1777312006,
      1777312192,
      1777312246,
      1777312246,
      1777312246,
      1777312252,
      1777312252,
      1777312306,
      1777312306,
      1777312546,
      1777312546,
      1777312546,
      1777312546,
      1777312546,
      1777312546,
      1777312967,
      1777312967,
      1777312967,
      1777312967,
      1777313087,
      1777313087,
      1777313147,
      1777313147,
      1777313147,
      1777313327,
      1777313327,
      1777313327,
      1777313327,
      1777313508,
      1777313508,
      1777313508,
      1777313808,
      1777313808,
      1777313808,
      1777313808,
      1777313868,
      1777313928,
      1777313928,
      1777313928,
      1777313988,
      1777314169,
      1777314169,
      1777314169,
      1777314169,
      1777314229,
      1777314229,
      1777314229,
      1777314229,
      1777314289,
      1777314289,
      1777314529,
      1777314529,
      1777314529,
      1777314529,
      1777314529,
      1777314529,
      1777314829,
      1777314829,
      1777314829,
      1777314829,
      1777314829,
      1777314829,
      1777315075,
      1777315075,
      1777315075,
      1777315075,
      1777315075,
      1777315255,
      1777315255,
      1777315255,
      1777315255,
      1777315315,
      1777315315,
      1777315315,
      1777315375,
      1777315375,
      1777315375,
      1777315615,
      1777315615,
      1777315615,
      1777315615,
      1777315615,
      1777315615,
      1777315675,
      1777315675,
      1777315736,
      1777315736,
      1777315736,
      1777315736,
      1777315856,
      1777315856,
      1777315856,
      1777315856,
      1777315856,
      1777315916,
      1777315932,
      1777315932,
      1777315976,
      1777316036,
      1777316036,
      1777316036,
      1777316036,
      1777316036,
      1777316167,
      1777316167,
      1777316167,
      1777316232,
      1777316232,
      1777316276,
      1777316276,
      1777316336,
      1777316352,
      1777316352,
      1777316352,
      1777316396,
      1777316396,
      1777316457,
      1777316457,
      1777316457,
      1777316457,
      1777316772,
      1777316772,
      1777316772,
      1777316772,
      1777316772,
      1777316877,
      1777316877,
      1777316937,
      1777316937,
      1777316947,
      1777316947,
      1777316997,
      1777316997,
      1777316997,
      1777316997,
      1777317057,
      1777317057,
      1777317067,
      1777317067,
      1777317067
    ],
    "wof:geomhash": "b84556cbaf586fccbea570eb4edc8c63",
    "wof:id": 2031125803,
    "wof:repo": "sfomuseum-data-flights-2026-04"
  },
  "bbox": [
    -122.31666666666666,
    30.172222222222224,
    -97.65833333333335,
    38.33388888888889
  ],
  "geometry": {"coordinates":[[-97.65833333333335,30.17527777777778],[-97.65833333333335,30.17527777777778],[-97.74111111111111,30.172222222222224],[-97.74111111111111,30.172222222222224],[-97.82,30.255555555555556],[-97.82,30.255555555555556],[-97.82,30.255555555555556],[-98.01472222222222,30.334722222222222],[-98.01472222222222,30.334722222222222],[-98.01472222222222,30.334722222222222],[-98.12083333333332,30.38138888888889],[-98.12083333333332,30.38138888888889],[-98.12083333333332,30.38138888888889],[-98.33833333333332,30.476388888888888],[-98.33833333333332,30.476388888888888],[-98.33833333333332,30.476388888888888],[-98.33833333333332,30.476388888888888],[-98.33833333333332,30.476388888888888],[-98.33833333333332,30.476388888888888],[-98.33833333333332,30.476388888888888],[-99.14555555555556,30.825555555555557],[-99.14555555555556,30.825555555555557],[-99.14555555555556,30.825555555555557],[-99.14555555555556,30.825555555555557],[-99.14555555555556,30.825555555555557],[-99.37333333333332,30.9225],[-99.37333333333332,30.9225],[-99.37333333333332,30.9225],[-99.37333333333332,30.9225],[-99.59555555555555,31.016666666666666],[-99.70805555555556,31.06416666666667],[-99.70805555555556,31.06416666666667],[-99.70805555555556,31.06416666666667],[-99.70805555555556,31.06416666666667],[-99.70805555555556,31.06416666666667],[-100.03444444444445,31.200833333333332],[-100.03444444444445,31.200833333333332],[-100.03444444444445,31.200833333333332],[-100.03444444444445,31.200833333333332],[-100.14500000000001,31.246944444444445],[-100.14500000000001,31.246944444444445],[-100.14500000000001,31.246944444444445],[-100.14500000000001,31.246944444444445],[-100.14500000000001,31.246944444444445],[-100.49388888888889,31.399444444444445],[-100.49388888888889,31.399444444444445],[-100.49388888888889,31.399444444444445],[-100.49388888888889,31.399444444444445],[-100.49388888888889,31.399444444444445],[-100.49388888888889,31.399444444444445],[-100.49388888888889,31.399444444444445],[-100.79055555555556,31.580555555555556],[-100.79055555555556,31.580555555555556],[-100.79055555555556,31.580555555555556],[-100.79055555555556,31.580555555555556],[-100.79055555555556,31.580555555555556],[-100.99444444444444,31.704444444444444],[-100.99444444444444,31.704444444444444],[-100.99444444444444,31.704444444444444],[-101.1388888888889,31.79138888888889],[-101.1388888888889,31.79138888888889],[-101.1388888888889,31.79138888888889],[-101.1388888888889,31.79138888888889],[-101.2,31.828333333333333],[-101.2,31.828333333333333],[-101.2,31.828333333333333],[-101.30388888888889,31.890555555555554],[-101.30388888888889,31.890555555555554],[-101.50833333333334,32.01305555555555],[-101.50833333333334,32.01305555555555],[-101.50833333333334,32.01305555555555],[-101.56138888888889,32.04472222222222],[-101.56138888888889,32.04472222222222],[-101.61277777777777,32.07527777777778],[-101.61277777777777,32.07527777777778],[-101.61277777777777,32.07527777777778],[-101.61277777777777,32.07527777777778],[-101.715,32.13583333333333],[-101.715,32.13583333333333],[-101.715,32.13583333333333],[-101.715,32.13583333333333],[-101.76555555555555,32.16583333333333],[-101.76555555555555,32.16583333333333],[-101.76555555555555,32.16583333333333],[-101.82555555555555,32.20138888888889],[-101.82555555555555,32.20138888888889],[-102.07472222222222,32.348333333333336],[-102.07472222222222,32.348333333333336],[-102.07472222222222,32.348333333333336],[-102.13722222222223,32.38527777777778],[-102.13722222222223,32.38527777777778],[-102.13722222222223,32.38527777777778],[-102.24138888888889,32.44638888888888],[-102.24138888888889,32.44638888888888],[-102.24138888888889,32.44638888888888],[-102.26777777777778,32.46194444444445],[-102.26777777777778,32.46194444444445],[-102.26777777777778,32.46194444444445],[-102.37416666666665,32.52388888888889],[-102.37416666666665,32.52388888888889],[-102.44194444444445,32.56333333333333],[-102.44194444444445,32.56333333333333],[-102.44194444444445,32.56333333333333],[-102.44194444444445,32.56333333333333],[-102.54666666666667,32.62444444444444],[-102.54666666666667,32.62444444444444],[-102.54666666666667,32.62444444444444],[-102.54666666666667,32.62444444444444],[-102.54666666666667,32.62444444444444],[-102.65277777777779,32.68583333333333],[-102.80333333333333,32.772777777777776],[-102.80333333333333,32.772777777777776],[-102.80333333333333,32.772777777777776],[-102.80333333333333,32.772777777777776],[-102.86666666666666,32.809444444444445],[-102.86666666666666,32.809444444444445],[-103.01638888888888,32.89527777777778],[-103.01638888888888,32.89527777777778],[-103.18611111111112,32.9925],[-103.23027777777779,33.0175],[-103.23027777777779,33.0175],[-103.23027777777779,33.0175],[-103.51055555555556,33.176944444444445],[-103.51055555555556,33.176944444444445],[-103.55611111111111,33.2025],[-103.55611111111111,33.2025],[-103.55611111111111,33.2025],[-103.62027777777777,33.23888888888889],[-103.62027777777777,33.23888888888889],[-103.62027777777777,33.23888888888889],[-103.62027777777777,33.23888888888889],[-103.62027777777777,33.23888888888889],[-103.62027777777777,33.23888888888889],[-103.7286111111111,33.29972222222222],[-103.83749999999999,33.361111111111114],[-103.83749999999999,33.361111111111114],[-103.83749999999999,33.361111111111114],[-103.94722222222222,33.4225],[-103.94722222222222,33.4225],[-103.94722222222222,33.4225],[-103.94722222222222,33.4225],[-104.05666666666666,33.48361111111111],[-104.16722222222222,33.544999999999995],[-104.16722222222222,33.544999999999995],[-104.22666666666667,33.57805555555556],[-104.22666666666667,33.57805555555556],[-104.22666666666667,33.57805555555556],[-104.22666666666667,33.57805555555556],[-104.27777777777777,33.60638888888889],[-104.27777777777777,33.60638888888889],[-104.27777777777777,33.60638888888889],[-104.33555555555554,33.638333333333335],[-104.33555555555554,33.638333333333335],[-104.33555555555554,33.638333333333335],[-104.33555555555554,33.638333333333335],[-104.33555555555554,33.638333333333335],[-104.49361111111111,33.72527777777778],[-104.49361111111111,33.72527777777778],[-104.735,33.85805555555556],[-104.735,33.85805555555556],[-104.735,33.85805555555556],[-104.735,33.85805555555556],[-104.78027777777778,33.88305555555556],[-104.78027777777778,33.88305555555556],[-104.78027777777778,33.88305555555556],[-104.78027777777778,33.88305555555556],[-104.95833333333334,33.980000000000004],[-104.95833333333334,33.980000000000004],[-104.95833333333334,33.980000000000004],[-104.95833333333334,33.980000000000004],[-105.06694444444445,34.038888888888884],[-105.06694444444445,34.038888888888884],[-105.17694444444444,34.09861111111111],[-105.17694444444444,34.09861111111111],[-105.17694444444444,34.09861111111111],[-105.17694444444444,34.09861111111111],[-105.22277777777778,34.123333333333335],[-105.28694444444444,34.158055555555556],[-105.44361111111111,34.242222222222225],[-105.44361111111111,34.242222222222225],[-105.44361111111111,34.242222222222225],[-105.44361111111111,34.242222222222225],[-105.55361111111111,34.301111111111105],[-105.55361111111111,34.301111111111105],[-105.55361111111111,34.301111111111105],[-105.55361111111111,34.301111111111105],[-105.55361111111111,34.301111111111105],[-105.55361111111111,34.301111111111105],[-106.07694444444444,34.63055555555555],[-106.07694444444444,34.63055555555555],[-106.07694444444444,34.63055555555555],[-106.07694444444444,34.63055555555555],[-106.07694444444444,34.63055555555555],[-106.07694444444444,34.63055555555555],[-106.07694444444444,34.63055555555555],[-106.28277777777778,34.765],[-106.28277777777778,34.765],[-106.28277777777778,34.765],[-106.28277777777778,34.765],[-106.80638888888889,35.10333333333333],[-106.80638888888889,35.10333333333333],[-106.80638888888889,35.10333333333333],[-106.80638888888889,35.10333333333333],[-106.80638888888889,35.10333333333333],[-106.80638888888889,35.10333333333333],[-106.80638888888889,35.10333333333333],[-107.11305555555555,35.299166666666665],[-107.11305555555555,35.299166666666665],[-107.21722222222222,35.36555555555556],[-107.21722222222222,35.36555555555556],[-107.21722222222222,35.36555555555556],[-107.21722222222222,35.36555555555556],[-107.21722222222222,35.36555555555556],[-107.52916666666667,35.56222222222222],[-107.52916666666667,35.56222222222222],[-107.52916666666667,35.56222222222222],[-107.52916666666667,35.56222222222222],[-107.735,35.69166666666666],[-107.735,35.69166666666666],[-107.735,35.69166666666666],[-107.83833333333332,35.75611111111111],[-107.83833333333332,35.75611111111111],[-107.83833333333332,35.75611111111111],[-107.83833333333332,35.75611111111111],[-108.25583333333333,36.01444444444444],[-108.25583333333333,36.01444444444444],[-108.25583333333333,36.01444444444444],[-108.46555555555555,36.14277777777778],[-108.46555555555555,36.14277777777778],[-108.46555555555555,36.14277777777778],[-108.46555555555555,36.14277777777778],[-109.29583333333333,36.645833333333336],[-109.29583333333333,36.645833333333336],[-109.32194444444444,36.66027777777778],[-109.40222222222222,36.708333333333336],[-109.40222222222222,36.708333333333336],[-109.40222222222222,36.708333333333336],[-109.40222222222222,36.708333333333336],[-109.50944444444444,36.77111111111111],[-109.50944444444444,36.77111111111111],[-109.50944444444444,36.77111111111111],[-110.04694444444445,37.08833333333334],[-110.04694444444445,37.08833333333334],[-110.04694444444445,37.08833333333334],[-110.04694444444445,37.08833333333334],[-110.26333333333334,37.21388888888889],[-110.26333333333334,37.21388888888889],[-110.39750000000001,37.29194444444444],[-110.39750000000001,37.29194444444444],[-110.39750000000001,37.29194444444444],[-110.70555555555556,37.469166666666666],[-110.70555555555556,37.469166666666666],[-110.70555555555556,37.469166666666666],[-110.84444444444443,37.54666666666667],[-110.84444444444443,37.54666666666667],[-110.84444444444443,37.54666666666667],[-110.84444444444443,37.54666666666667],[-111.09444444444443,37.62],[-111.09444444444443,37.62],[-111.19361111111111,37.64333333333333],[-111.19361111111111,37.64333333333333],[-111.32333333333332,37.67361111111111],[-111.32333333333332,37.67361111111111],[-111.32333333333332,37.67361111111111],[-111.45111111111112,37.70305555555556],[-111.45111111111112,37.70305555555556],[-111.45111111111112,37.70305555555556],[-111.45111111111112,37.70305555555556],[-111.87305555555555,37.79972222222222],[-111.99916666666667,37.828611111111115],[-111.99916666666667,37.828611111111115],[-111.99916666666667,37.828611111111115],[-112.00416666666666,37.82944444444445],[-112.00416666666666,37.82944444444445],[-112.13055555555555,37.8525],[-112.13055555555555,37.8525],[-112.66361111111112,37.948055555555555],[-112.66361111111112,37.948055555555555],[-112.66361111111112,37.948055555555555],[-112.66361111111112,37.948055555555555],[-112.66361111111112,37.948055555555555],[-112.66361111111112,37.948055555555555],[-113.61361111111111,38.11138888888889],[-113.61361111111111,38.11138888888889],[-113.61361111111111,38.11138888888889],[-113.61361111111111,38.11138888888889],[-113.88416666666667,38.156388888888884],[-113.88416666666667,38.156388888888884],[-114.02194444444444,38.17916666666667],[-114.02194444444444,38.17916666666667],[-114.02194444444444,38.17916666666667],[-114.43194444444445,38.24583333333334],[-114.43194444444445,38.24583333333334],[-114.43194444444445,38.24583333333334],[-114.43194444444445,38.24583333333334],[-114.85166666666666,38.31222222222222],[-114.85166666666666,38.31222222222222],[-114.85166666666666,38.31222222222222],[-115.58416666666666,38.33305555555556],[-115.58416666666666,38.33305555555556],[-115.58416666666666,38.33305555555556],[-115.58416666666666,38.33305555555556],[-115.73222222222222,38.33388888888889],[-115.87722222222222,38.33388888888889],[-115.87722222222222,38.33388888888889],[-115.87722222222222,38.33388888888889],[-116.02555555555556,38.33388888888889],[-116.46055555555556,38.30472222222222],[-116.46055555555556,38.30472222222222],[-116.46055555555556,38.30472222222222],[-116.46055555555556,38.30472222222222],[-116.60055555555554,38.27333333333333],[-116.60055555555554,38.27333333333333],[-116.60055555555554,38.27333333333333],[-116.60055555555554,38.27333333333333],[-116.7461111111111,38.24055555555556],[-116.7461111111111,38.24055555555556],[-117.30416666666666,38.11194444444445],[-117.30416666666666,38.11194444444445],[-117.30416666666666,38.11194444444445],[-117.30416666666666,38.11194444444445],[-117.30416666666666,38.11194444444445],[-117.30416666666666,38.11194444444445],[-118.02944444444444,37.97638888888889],[-118.02944444444444,37.97638888888889],[-118.02944444444444,37.97638888888889],[-118.02944444444444,37.97638888888889],[-118.02944444444444,37.97638888888889],[-118.02944444444444,37.97638888888889],[-118.63305555555554,37.910555555555554],[-118.63305555555554,37.910555555555554],[-118.63305555555554,37.910555555555554],[-118.63305555555554,37.910555555555554],[-118.63305555555554,37.910555555555554],[-119.10916666666667,37.85666666666667],[-119.10916666666667,37.85666666666667],[-119.10916666666667,37.85666666666667],[-119.10916666666667,37.85666666666667],[-119.26527777777778,37.83861111111111],[-119.26527777777778,37.83861111111111],[-119.26527777777778,37.83861111111111],[-119.42111111111112,37.82],[-119.42111111111112,37.82],[-119.42111111111112,37.82],[-120.0475,37.744166666666665],[-120.0475,37.744166666666665],[-120.0475,37.744166666666665],[-120.0475,37.744166666666665],[-120.0475,37.744166666666665],[-120.0475,37.744166666666665],[-120.20555555555556,37.724444444444444],[-120.20555555555556,37.724444444444444],[-120.35916666666667,37.70527777777778],[-120.35916666666667,37.70527777777778],[-120.35916666666667,37.70527777777778],[-120.35916666666667,37.70527777777778],[-120.65333333333334,37.67027777777778],[-120.65333333333334,37.67027777777778],[-120.65333333333334,37.67027777777778],[-120.65333333333334,37.67027777777778],[-120.65333333333334,37.67027777777778],[-120.79444444444444,37.65361111111111],[-120.83333333333333,37.65],[-120.83333333333333,37.65],[-120.91861111111112,37.63861111111111],[-121.03694444444444,37.623333333333335],[-121.03694444444444,37.623333333333335],[-121.03694444444444,37.623333333333335],[-121.03694444444444,37.623333333333335],[-121.03694444444444,37.623333333333335],[-121.28333333333333,37.583333333333336],[-121.28333333333333,37.583333333333336],[-121.28333333333333,37.583333333333336],[-121.4,37.583333333333336],[-121.4,37.583333333333336],[-121.47888888888889,37.56805555555556],[-121.47888888888889,37.56805555555556],[-121.57694444444444,37.55638888888888],[-121.6,37.55],[-121.6,37.55],[-121.6,37.55],[-121.66166666666668,37.54194444444444],[-121.66166666666668,37.54194444444444],[-121.74361111111111,37.52222222222222],[-121.74361111111111,37.52222222222222],[-121.74361111111111,37.52222222222222],[-121.74361111111111,37.52222222222222],[-122.06666666666666,37.483333333333334],[-122.06666666666666,37.483333333333334],[-122.06666666666666,37.483333333333334],[-122.06666666666666,37.483333333333334],[-122.06666666666666,37.483333333333334],[-122.1713888888889,37.533055555555556],[-122.1713888888889,37.533055555555556],[-122.22444444444444,37.555277777777775],[-122.22444444444444,37.555277777777775],[-122.23333333333333,37.56666666666667],[-122.23333333333333,37.56666666666667],[-122.27416666666666,37.57638888888889],[-122.27416666666666,37.57638888888889],[-122.27416666666666,37.57638888888889],[-122.27416666666666,37.57638888888889],[-122.31277777777777,37.5925],[-122.31277777777777,37.5925],[-122.31666666666666,37.6],[-122.31666666666666,37.6],[-122.31666666666666,37.6]],"type":"LineString"}
}
