{
  "id": 2031145591,
  "type": "Feature",
  "properties": {
    "geom:area": 0,
    "geom:bbox": "-122.376667,37.657500,-87.966667,42.608056",
    "geom:latitude": 41.50780861836878,
    "geom:longitude": -105.40317286180371,
    "src:alt_label": "swim-path",
    "src:geom": "swim",
    "swim:altitudes": [
      "031",
      "031",
      "043",
      "043",
      "043",
      "055",
      "055",
      "055",
      "055",
      "083",
      "083",
      "083",
      "104",
      "104",
      "104",
      "104",
      "114",
      "114",
      "114",
      "114",
      "114",
      "114",
      "114",
      "140",
      "140",
      "140",
      "140",
      "140",
      "161",
      "161",
      "161",
      "174",
      "174",
      "174",
      "174",
      "174",
      "174",
      "189",
      "189",
      "189",
      "189",
      "214",
      "214",
      "214",
      "228",
      "228",
      "228",
      "228",
      "228",
      "228",
      "228",
      "228",
      "267",
      "267",
      "267",
      "267",
      "267",
      "267",
      "267",
      "267",
      "294",
      "294",
      "294",
      "307",
      "307",
      "307",
      "307",
      "307",
      "307",
      "310C",
      "310C",
      "310C",
      "310C",
      "310C",
      "310C",
      "310C",
      "310",
      "310",
      "310",
      "310",
      "310",
      "310",
      "319",
      "319",
      "319",
      "330C",
      "330C",
      "330C",
      "330C",
      "330C",
      "330C",
      "330C",
      "330C",
      "330C",
      "330C",
      "330C",
      "330C",
      "330C",
      "331C",
      "331C",
      "331C",
      "331C",
      "330C",
      "330C",
      "330C",
      "330C",
      "330C",
      "330C",
      "330C",
      "330C",
      "330C",
      "330C",
      "330C",
      "330C",
      "330C",
      "330C",
      "330C",
      "330C",
      "330C",
      "330C",
      "330C",
      "331C",
      "331C",
      "331C",
      "331C",
      "330C",
      "330C",
      "330C",
      "330C",
      "330C",
      "330C",
      "330C",
      "330C",
      "330C",
      "330C",
      "330C",
      "330C",
      "330C",
      "330C",
      "330C",
      "330C",
      "331C",
      "331C",
      "331C",
      "331C",
      "331C",
      "331C",
      "331C",
      "331C",
      "331C",
      "330C",
      "330C",
      "330C",
      "330C",
      "330C",
      "330C",
      "330C",
      "330C",
      "330C",
      "330C",
      "330C",
      "330C",
      "330C",
      "330C",
      "330C",
      "330C",
      "330C",
      "330C",
      "330C",
      "330C",
      "330C",
      "330C",
      "330C",
      "330C",
      "330C",
      "330C",
      "330C",
      "330C",
      "330C",
      "330C",
      "330C",
      "330C",
      "330C",
      "330C",
      "330C",
      "330C",
      "330C",
      "330C",
      "330C",
      "330C",
      "330C",
      "330C",
      "330C",
      "330C",
      "330C",
      "330C",
      "330C",
      "330C",
      "330C",
      "330C",
      "330C",
      "330C",
      "330C",
      "330C",
      "330C",
      "330C",
      "330C",
      "330C",
      "330C",
      "330C",
      "330C",
      "330C",
      "330C",
      "330C",
      "330C",
      "330C",
      "330C",
      "330C",
      "330C",
      "330C",
      "330C",
      "330C",
      "330C",
      "330C",
      "330C",
      "330C",
      "330C",
      "330C",
      "330C",
      "330C",
      "330C",
      "330C",
      "330C",
      "330C",
      "330C",
      "330C",
      "330C",
      "330C",
      "330C",
      "330C",
      "330C",
      "330C",
      "330C",
      "330C",
      "330C",
      "330C",
      "330C",
      "330C",
      "330C",
      "330C",
      "330C",
      "330C",
      "330C",
      "330C",
      "330C",
      "330C",
      "330C",
      "330C",
      "330C",
      "330C",
      "330C",
      "330C",
      "330C",
      "330C",
      "330C",
      "330C",
      "330C",
      "330C",
      "330C",
      "330C",
      "330C",
      "330C",
      "330C",
      "330C",
      "330C",
      "330C",
      "330C",
      "330C",
      "330C",
      "330C",
      "330C",
      "330C",
      "330C",
      "330C",
      "330C",
      "330C",
      "330C",
      "330C",
      "330C",
      "330C",
      "330C",
      "330C",
      "330C",
      "330C",
      "330C",
      "330C",
      "330C",
      "330C",
      "330C",
      "330C",
      "330C",
      "330C",
      "330C",
      "330C",
      "330C",
      "330C",
      "330C",
      "330C",
      "330C",
      "330C",
      "330C",
      "330C",
      "330C",
      "330C",
      "330C",
      "330C",
      "330C",
      "330C",
      "330C",
      "330C",
      "330C",
      "330C",
      "330C",
      "330C",
      "330C",
      "330C",
      "330C",
      "330C",
      "330C",
      "330C",
      "330C",
      "330C",
      "330C",
      "330C",
      "330C",
      "330C",
      "330C",
      "330C",
      "330C",
      "330C",
      "330C",
      "330C",
      "330C",
      "330C",
      "330C",
      "330C",
      "330C",
      "330C",
      "330C",
      "330C",
      "330C",
      "330C",
      "330C",
      "330C",
      "330C",
      "330C",
      "330C",
      "330C",
      "330C",
      "330C",
      "330C",
      "330C",
      "330C",
      "330C",
      "330C",
      "330C",
      "330C",
      "330C",
      "330C",
      "330C",
      "330C",
      "330C",
      "330C",
      "330C",
      "330C",
      "330C",
      "330C",
      "330C",
      "330C",
      "330C",
      "330C",
      "330C",
      "330C",
      "330C",
      "330C",
      "330C",
      "330C",
      "330C",
      "330C",
      "330C",
      "330C",
      "330C",
      "330C",
      "330C",
      "330C",
      "330C",
      "331C",
      "331C",
      "331C",
      "330C",
      "330C",
      "330C",
      "330C",
      "330C",
      "330C",
      "330C",
      "330C",
      "330C",
      "330C",
      "330C",
      "330C",
      "330C",
      "330C",
      "330C",
      "330C",
      "330C",
      "330C",
      "330C",
      "330C",
      "330C",
      "330C",
      "330C",
      "330C",
      "330C",
      "330C",
      "330C",
      "330C",
      "330C",
      "330C",
      "330C",
      "330C",
      "330C",
      "330C",
      "330C",
      "330C",
      "330C",
      "330C",
      "330C",
      "330C",
      "330C",
      "330C",
      "330C",
      "330C",
      "330C",
      "330C",
      "330C",
      "330C",
      "330C",
      "330C",
      "330C",
      "330C",
      "330C",
      "330C",
      "330C",
      "330C",
      "330C",
      "330C",
      "330C",
      "330C",
      "330C",
      "330C",
      "330C",
      "330C",
      "330C",
      "330C",
      "330C",
      "330C",
      "330C",
      "330C",
      "330C",
      "330C",
      "330C",
      "330C",
      "330C",
      "330C",
      "330C",
      "330C",
      "330C",
      "330C",
      "330C",
      "330C",
      "330C",
      "330C",
      "330C",
      "330C",
      "330C",
      "330C",
      "330C",
      "330C",
      "330C",
      "330C",
      "330C",
      "330C",
      "330C",
      "330C",
      "330C",
      "330C",
      "330C",
      "330C",
      "330C",
      "330C",
      "330C",
      "330C",
      "330C",
      "330C",
      "330C",
      "330C",
      "330C",
      "330C",
      "330C",
      "330C",
      "330C",
      "330C",
      "330C",
      "330C",
      "330C",
      "330C",
      "330C",
      "330C",
      "330C",
      "330C",
      "330C",
      "330C",
      "330C",
      "330C",
      "330C",
      "330C",
      "330C",
      "330C",
      "330C",
      "330C",
      "330C",
      "330C",
      "330C",
      "330C",
      "330C",
      "330C",
      "330C",
      "330C",
      "330C",
      "330C",
      "330C",
      "330C",
      "330C",
      "330C",
      "330C",
      "330C",
      "330C",
      "330C",
      "330C",
      "330C",
      "330C",
      "330C",
      "330C",
      "330C",
      "330C",
      "330C",
      "330C",
      "330C",
      "330C",
      "330C",
      "330C",
      "330C",
      "330C",
      "330C",
      "330C",
      "330C",
      "330C",
      "330C",
      "330C",
      "330C",
      "330C",
      "330C",
      "330C",
      "330C",
      "330C",
      "330C",
      "330C",
      "330C",
      "330C",
      "330C",
      "330C",
      "330C",
      "330C",
      "330C",
      "330C",
      "330C",
      "330C",
      "330C",
      "330C",
      "330C",
      "330C",
      "330C",
      "330C",
      "330C",
      "330C",
      "330C",
      "326",
      "326",
      "326",
      "322C",
      "322C",
      "320C",
      "320C",
      "320C",
      "320C",
      "320C",
      "320C",
      "320C",
      "320C",
      "320C",
      "320C",
      "320C",
      "320C",
      "320C",
      "320C",
      "320C",
      "320C",
      "320C",
      "320C",
      "320C",
      "320C",
      "320C",
      "320C",
      "294",
      "294",
      "294",
      "294",
      "281",
      "281",
      "281",
      "274",
      "274",
      "264",
      "264",
      "264",
      "264",
      "236",
      "236",
      "236",
      "236",
      "217",
      "217",
      "217",
      "217",
      "217",
      "217",
      "182",
      "182",
      "182",
      "182",
      "150",
      "150",
      "150",
      "150",
      "150",
      "144",
      "132",
      "132",
      "132",
      "130",
      "130",
      "130",
      "118",
      "118",
      "110",
      "110",
      "110",
      "098",
      "098",
      "098",
      "096",
      "096",
      "096",
      "081",
      "081",
      "081",
      "076",
      "076",
      "076",
      "048",
      "048",
      "048",
      "048",
      "044",
      "044",
      "044",
      "040",
      "040",
      "040",
      "040",
      "040",
      "040",
      "040",
      "040",
      "040",
      "040",
      "040",
      "040",
      "040",
      "040",
      "040",
      "032",
      "032",
      "032",
      "032",
      "032",
      "015",
      "015",
      "015",
      "015",
      "015"
    ],
    "swim:geom": "path",
    "swim:speeds": [
      166,
      166,
      203,
      203,
      203,
      266,
      266,
      266,
      266,
      273,
      273,
      273,
      290,
      290,
      290,
      290,
      342,
      342,
      342,
      342,
      342,
      342,
      342,
      407,
      407,
      407,
      407,
      407,
      413,
      413,
      413,
      428,
      428,
      428,
      428,
      428,
      428,
      431,
      431,
      431,
      431,
      441,
      441,
      441,
      445,
      445,
      445,
      445,
      445,
      445,
      445,
      445,
      446,
      446,
      446,
      446,
      446,
      446,
      446,
      446,
      448,
      448,
      448,
      437,
      437,
      437,
      437,
      437,
      437,
      425,
      425,
      425,
      425,
      425,
      425,
      425,
      423,
      423,
      423,
      423,
      423,
      423,
      424,
      424,
      424,
      419,
      419,
      419,
      419,
      419,
      420,
      420,
      420,
      420,
      420,
      420,
      420,
      421,
      426,
      426,
      426,
      426,
      427,
      427,
      427,
      427,
      427,
      427,
      431,
      431,
      428,
      431,
      431,
      431,
      431,
      431,
      443,
      443,
      443,
      443,
      443,
      448,
      448,
      448,
      448,
      451,
      451,
      451,
      451,
      451,
      451,
      451,
      452,
      452,
      452,
      452,
      452,
      452,
      452,
      452,
      452,
      465,
      465,
      465,
      465,
      465,
      466,
      467,
      467,
      467,
      468,
      468,
      468,
      468,
      469,
      469,
      469,
      469,
      469,
      469,
      469,
      470,
      470,
      470,
      470,
      470,
      470,
      472,
      472,
      472,
      472,
      473,
      473,
      473,
      476,
      476,
      476,
      476,
      477,
      477,
      477,
      477,
      477,
      477,
      477,
      477,
      477,
      476,
      476,
      476,
      476,
      476,
      476,
      476,
      477,
      477,
      477,
      477,
      478,
      478,
      478,
      478,
      478,
      478,
      478,
      478,
      478,
      478,
      478,
      478,
      478,
      478,
      478,
      480,
      480,
      480,
      480,
      480,
      480,
      480,
      481,
      481,
      481,
      480,
      480,
      480,
      480,
      481,
      481,
      481,
      481,
      482,
      482,
      483,
      483,
      483,
      483,
      483,
      483,
      483,
      483,
      483,
      483,
      482,
      482,
      482,
      482,
      482,
      482,
      482,
      484,
      484,
      484,
      484,
      484,
      485,
      485,
      486,
      486,
      486,
      486,
      486,
      486,
      486,
      486,
      486,
      486,
      486,
      486,
      486,
      486,
      486,
      486,
      487,
      487,
      487,
      487,
      487,
      487,
      487,
      487,
      488,
      488,
      488,
      487,
      487,
      487,
      487,
      488,
      488,
      488,
      487,
      487,
      487,
      487,
      487,
      487,
      487,
      486,
      486,
      486,
      486,
      486,
      486,
      486,
      484,
      484,
      483,
      483,
      483,
      482,
      482,
      482,
      482,
      481,
      481,
      481,
      481,
      481,
      481,
      481,
      481,
      481,
      481,
      481,
      481,
      481,
      481,
      481,
      482,
      482,
      481,
      481,
      481,
      481,
      481,
      481,
      481,
      481,
      480,
      480,
      480,
      480,
      480,
      479,
      479,
      479,
      479,
      479,
      479,
      479,
      479,
      479,
      479,
      478,
      478,
      479,
      479,
      479,
      479,
      479,
      479,
      479,
      479,
      479,
      480,
      480,
      480,
      480,
      480,
      480,
      480,
      480,
      480,
      480,
      480,
      480,
      480,
      480,
      480,
      480,
      481,
      481,
      481,
      481,
      481,
      481,
      481,
      481,
      482,
      482,
      482,
      484,
      484,
      484,
      484,
      486,
      486,
      486,
      486,
      486,
      486,
      486,
      486,
      486,
      486,
      486,
      486,
      486,
      487,
      487,
      487,
      487,
      487,
      487,
      488,
      488,
      488,
      488,
      488,
      488,
      489,
      489,
      489,
      489,
      489,
      489,
      489,
      490,
      490,
      490,
      490,
      490,
      490,
      490,
      490,
      490,
      490,
      490,
      491,
      491,
      491,
      491,
      491,
      491,
      491,
      491,
      491,
      488,
      492,
      492,
      492,
      489,
      489,
      493,
      493,
      490,
      491,
      491,
      491,
      494,
      494,
      494,
      494,
      494,
      494,
      494,
      494,
      495,
      495,
      495,
      495,
      495,
      495,
      495,
      498,
      498,
      498,
      498,
      498,
      500,
      500,
      500,
      501,
      503,
      503,
      503,
      503,
      503,
      503,
      503,
      503,
      503,
      504,
      504,
      504,
      504,
      504,
      504,
      504,
      504,
      505,
      506,
      506,
      506,
      509,
      509,
      509,
      509,
      511,
      511,
      511,
      511,
      511,
      511,
      511,
      512,
      512,
      512,
      512,
      512,
      512,
      512,
      512,
      512,
      512,
      512,
      512,
      512,
      512,
      512,
      512,
      513,
      513,
      513,
      513,
      513,
      513,
      513,
      513,
      513,
      513,
      513,
      513,
      514,
      514,
      514,
      514,
      514,
      514,
      514,
      514,
      518,
      518,
      518,
      518,
      518,
      518,
      519,
      519,
      519,
      519,
      519,
      519,
      519,
      519,
      519,
      519,
      519,
      519,
      519,
      519,
      519,
      519,
      519,
      519,
      519,
      519,
      520,
      520,
      520,
      520,
      520,
      520,
      522,
      522,
      522,
      523,
      523,
      523,
      523,
      524,
      524,
      524,
      524,
      524,
      524,
      524,
      524,
      524,
      524,
      524,
      520,
      520,
      520,
      520,
      520,
      520,
      520,
      520,
      520,
      518,
      518,
      517,
      517,
      516,
      516,
      516,
      516,
      516,
      516,
      515,
      515,
      515,
      500,
      500,
      500,
      500,
      493,
      493,
      493,
      480,
      480,
      476,
      476,
      476,
      476,
      460,
      460,
      460,
      460,
      444,
      444,
      444,
      444,
      444,
      444,
      409,
      409,
      409,
      409,
      387,
      387,
      387,
      387,
      387,
      385,
      360,
      360,
      360,
      362,
      362,
      362,
      348,
      348,
      312,
      312,
      312,
      298,
      298,
      298,
      301,
      301,
      301,
      290,
      290,
      290,
      286,
      286,
      286,
      275,
      275,
      275,
      275,
      280,
      280,
      280,
      278,
      278,
      278,
      278,
      278,
      243,
      243,
      243,
      239,
      239,
      239,
      239,
      241,
      241,
      241,
      216,
      216,
      216,
      216,
      216,
      145,
      145,
      145,
      145,
      145
    ],
    "swim:timestamps": [
      1777477210,
      1777477210,
      1777477270,
      1777477270,
      1777477270,
      1777477314,
      1777477314,
      1777477314,
      1777477314,
      1777477390,
      1777477390,
      1777477390,
      1777477435,
      1777477435,
      1777477435,
      1777477435,
      1777477511,
      1777477511,
      1777477511,
      1777477511,
      1777477511,
      1777477511,
      1777477511,
      1777477631,
      1777477631,
      1777477631,
      1777477631,
      1777477631,
      1777477691,
      1777477691,
      1777477691,
      1777477751,
      1777477751,
      1777477751,
      1777477751,
      1777477751,
      1777477751,
      1777477811,
      1777477811,
      1777477811,
      1777477811,
      1777477931,
      1777477931,
      1777477931,
      1777477991,
      1777477991,
      1777477991,
      1777477991,
      1777477991,
      1777477991,
      1777477991,
      1777477991,
      1777478171,
      1777478171,
      1777478171,
      1777478171,
      1777478171,
      1777478171,
      1777478171,
      1777478171,
      1777478304,
      1777478304,
      1777478304,
      1777478364,
      1777478364,
      1777478364,
      1777478364,
      1777478364,
      1777478364,
      1777478424,
      1777478424,
      1777478424,
      1777478424,
      1777478424,
      1777478424,
      1777478424,
      1777478532,
      1777478532,
      1777478532,
      1777478532,
      1777478532,
      1777478532,
      1777478592,
      1777478592,
      1777478592,
      1777478712,
      1777478712,
      1777478712,
      1777478712,
      1777478712,
      1777478784,
      1777478784,
      1777478784,
      1777478784,
      1777478784,
      1777478784,
      1777478784,
      1777478844,
      1777478892,
      1777478892,
      1777478892,
      1777478892,
      1777479013,
      1777479013,
      1777479013,
      1777479013,
      1777479013,
      1777479013,
      1777479025,
      1777479025,
      1777479073,
      1777479085,
      1777479085,
      1777479085,
      1777479085,
      1777479085,
      1777479145,
      1777479145,
      1777479145,
      1777479145,
      1777479145,
      1777479193,
      1777479193,
      1777479205,
      1777479205,
      1777479325,
      1777479325,
      1777479325,
      1777479325,
      1777479325,
      1777479325,
      1777479325,
      1777479373,
      1777479373,
      1777479373,
      1777479385,
      1777479385,
      1777479385,
      1777479445,
      1777479445,
      1777479445,
      1777479565,
      1777479565,
      1777479565,
      1777479565,
      1777479565,
      1777479613,
      1777479625,
      1777479625,
      1777479625,
      1777479674,
      1777479674,
      1777479674,
      1777479674,
      1777479734,
      1777479734,
      1777479734,
      1777479734,
      1777479734,
      1777479854,
      1777479854,
      1777479866,
      1777479866,
      1777479866,
      1777479914,
      1777479914,
      1777479914,
      1777479974,
      1777479974,
      1777479974,
      1777479974,
      1777479986,
      1777479986,
      1777479986,
      1777480106,
      1777480106,
      1777480106,
      1777480106,
      1777480166,
      1777480166,
      1777480166,
      1777480166,
      1777480166,
      1777480226,
      1777480226,
      1777480226,
      1777480226,
      1777480346,
      1777480346,
      1777480346,
      1777480346,
      1777480346,
      1777480346,
      1777480346,
      1777480466,
      1777480466,
      1777480466,
      1777480466,
      1777480527,
      1777480527,
      1777480527,
      1777480647,
      1777480647,
      1777480647,
      1777480647,
      1777480647,
      1777480647,
      1777480827,
      1777480827,
      1777480827,
      1777480827,
      1777480827,
      1777480827,
      1777481007,
      1777481007,
      1777481007,
      1777481007,
      1777481007,
      1777481007,
      1777481007,
      1777481127,
      1777481127,
      1777481127,
      1777481187,
      1777481187,
      1777481187,
      1777481187,
      1777481308,
      1777481308,
      1777481308,
      1777481308,
      1777481368,
      1777481368,
      1777481428,
      1777481428,
      1777481488,
      1777481488,
      1777481488,
      1777481488,
      1777481548,
      1777481548,
      1777481548,
      1777481548,
      1777481608,
      1777481608,
      1777481668,
      1777481668,
      1777481668,
      1777481668,
      1777481668,
      1777481848,
      1777481848,
      1777481848,
      1777481848,
      1777481848,
      1777481908,
      1777481908,
      1777481968,
      1777481968,
      1777481968,
      1777481968,
      1777482029,
      1777482029,
      1777482029,
      1777482029,
      1777482149,
      1777482149,
      1777482149,
      1777482149,
      1777482149,
      1777482149,
      1777482149,
      1777482149,
      1777482209,
      1777482209,
      1777482209,
      1777482209,
      1777482269,
      1777482269,
      1777482269,
      1777482269,
      1777482329,
      1777482329,
      1777482329,
      1777482354,
      1777482354,
      1777482354,
      1777482354,
      1777482389,
      1777482389,
      1777482389,
      1777482449,
      1777482449,
      1777482449,
      1777482449,
      1777482474,
      1777482474,
      1777482474,
      1777482509,
      1777482509,
      1777482509,
      1777482535,
      1777482535,
      1777482535,
      1777482535,
      1777482595,
      1777482595,
      1777482629,
      1777482629,
      1777482629,
      1777482655,
      1777482655,
      1777482655,
      1777482655,
      1777482715,
      1777482715,
      1777482750,
      1777482750,
      1777482750,
      1777482750,
      1777482750,
      1777482810,
      1777482810,
      1777482810,
      1777482835,
      1777482835,
      1777482895,
      1777482895,
      1777482895,
      1777482955,
      1777482955,
      1777482990,
      1777482990,
      1777482990,
      1777483015,
      1777483015,
      1777483015,
      1777483050,
      1777483050,
      1777483075,
      1777483075,
      1777483135,
      1777483135,
      1777483135,
      1777483170,
      1777483170,
      1777483195,
      1777483195,
      1777483230,
      1777483230,
      1777483230,
      1777483256,
      1777483256,
      1777483256,
      1777483290,
      1777483290,
      1777483316,
      1777483316,
      1777483316,
      1777483316,
      1777483376,
      1777483376,
      1777483410,
      1777483410,
      1777483410,
      1777483470,
      1777483470,
      1777483470,
      1777483470,
      1777483470,
      1777483531,
      1777483531,
      1777483531,
      1777483556,
      1777483556,
      1777483556,
      1777483556,
      1777483616,
      1777483616,
      1777483616,
      1777483616,
      1777483736,
      1777483736,
      1777483736,
      1777483736,
      1777483736,
      1777483736,
      1777483736,
      1777483736,
      1777483796,
      1777483796,
      1777483796,
      1777483856,
      1777483856,
      1777483856,
      1777483856,
      1777483917,
      1777483917,
      1777483917,
      1777484037,
      1777484037,
      1777484037,
      1777484037,
      1777484097,
      1777484097,
      1777484097,
      1777484097,
      1777484097,
      1777484097,
      1777484157,
      1777484157,
      1777484277,
      1777484277,
      1777484277,
      1777484277,
      1777484337,
      1777484337,
      1777484337,
      1777484397,
      1777484397,
      1777484397,
      1777484457,
      1777484457,
      1777484457,
      1777484457,
      1777484457,
      1777484457,
      1777484457,
      1777484638,
      1777484638,
      1777484638,
      1777484638,
      1777484638,
      1777484638,
      1777484698,
      1777484698,
      1777484698,
      1777484698,
      1777484698,
      1777484818,
      1777484818,
      1777484818,
      1777484818,
      1777484818,
      1777484878,
      1777484938,
      1777484938,
      1777484938,
      1777484944,
      1777484998,
      1777484998,
      1777484998,
      1777485004,
      1777485004,
      1777485058,
      1777485058,
      1777485064,
      1777485124,
      1777485124,
      1777485124,
      1777485178,
      1777485178,
      1777485178,
      1777485238,
      1777485238,
      1777485238,
      1777485238,
      1777485238,
      1777485359,
      1777485359,
      1777485359,
      1777485359,
      1777485359,
      1777485359,
      1777485359,
      1777485599,
      1777485599,
      1777485599,
      1777485599,
      1777485599,
      1777485659,
      1777485659,
      1777485659,
      1777485719,
      1777485779,
      1777485779,
      1777485779,
      1777485779,
      1777485779,
      1777485779,
      1777485845,
      1777485845,
      1777485845,
      1777485905,
      1777485905,
      1777485905,
      1777485905,
      1777485965,
      1777485965,
      1777485965,
      1777485965,
      1777486019,
      1777486025,
      1777486025,
      1777486025,
      1777486145,
      1777486145,
      1777486145,
      1777486145,
      1777486326,
      1777486326,
      1777486326,
      1777486326,
      1777486326,
      1777486326,
      1777486326,
      1777486506,
      1777486506,
      1777486506,
      1777486506,
      1777486506,
      1777486566,
      1777486566,
      1777486566,
      1777486626,
      1777486626,
      1777486626,
      1777486686,
      1777486686,
      1777486686,
      1777486686,
      1777486686,
      1777486806,
      1777486806,
      1777486806,
      1777486806,
      1777486866,
      1777486866,
      1777486866,
      1777486866,
      1777486866,
      1777486866,
      1777486866,
      1777486866,
      1777487167,
      1777487167,
      1777487167,
      1777487167,
      1777487167,
      1777487167,
      1777487167,
      1777487167,
      1777487373,
      1777487373,
      1777487373,
      1777487373,
      1777487373,
      1777487373,
      1777487433,
      1777487433,
      1777487433,
      1777487433,
      1777487433,
      1777487493,
      1777487493,
      1777487493,
      1777487553,
      1777487553,
      1777487553,
      1777487588,
      1777487588,
      1777487588,
      1777487588,
      1777487588,
      1777487613,
      1777487613,
      1777487613,
      1777487613,
      1777487708,
      1777487708,
      1777487733,
      1777487733,
      1777487733,
      1777487733,
      1777487794,
      1777487794,
      1777487794,
      1777487854,
      1777487854,
      1777487854,
      1777487854,
      1777487948,
      1777487948,
      1777487948,
      1777487948,
      1777487948,
      1777487948,
      1777488008,
      1777488008,
      1777488008,
      1777488034,
      1777488034,
      1777488128,
      1777488128,
      1777488128,
      1777488128,
      1777488154,
      1777488154,
      1777488154,
      1777488154,
      1777488154,
      1777488249,
      1777488249,
      1777488274,
      1777488274,
      1777488309,
      1777488309,
      1777488309,
      1777488309,
      1777488309,
      1777488309,
      1777488369,
      1777488369,
      1777488369,
      1777488575,
      1777488575,
      1777488575,
      1777488575,
      1777488609,
      1777488609,
      1777488609,
      1777488635,
      1777488635,
      1777488695,
      1777488695,
      1777488695,
      1777488695,
      1777488815,
      1777488815,
      1777488815,
      1777488815,
      1777488875,
      1777488875,
      1777488875,
      1777488875,
      1777488875,
      1777488875,
      1777488996,
      1777488996,
      1777488996,
      1777488996,
      1777489086,
      1777489086,
      1777489086,
      1777489086,
      1777489086,
      1777489116,
      1777489158,
      1777489158,
      1777489158,
      1777489176,
      1777489176,
      1777489176,
      1777489212,
      1777489212,
      1777489278,
      1777489278,
      1777489278,
      1777489339,
      1777489339,
      1777489339,
      1777489356,
      1777489356,
      1777489356,
      1777489393,
      1777489393,
      1777489393,
      1777489416,
      1777489416,
      1777489416,
      1777489513,
      1777489513,
      1777489513,
      1777489513,
      1777489533,
      1777489533,
      1777489533,
      1777489594,
      1777489594,
      1777489594,
      1777489594,
      1777489594,
      1777489714,
      1777489714,
      1777489714,
      1777489753,
      1777489753,
      1777489753,
      1777489753,
      1777489774,
      1777489774,
      1777489774,
      1777489834,
      1777489834,
      1777489834,
      1777489834,
      1777489834,
      1777489939,
      1777489939,
      1777489939,
      1777489939,
      1777489939
    ],
    "wof:geomhash": "fb7c1d9cbabbb105482e6f5c9bf82c74",
    "wof:id": 2031145591,
    "wof:repo": "sfomuseum-data-flights-2026-04"
  },
  "bbox": [
    -122.37666666666667,
    37.6575,
    -87.96666666666667,
    42.60805555555556
  ],
  "geometry": {"coordinates":[[-122.37666666666667,37.6575],[-122.37666666666667,37.6575],[-122.31805555555555,37.67861111111111],[-122.31805555555555,37.67861111111111],[-122.31805555555555,37.67861111111111],[-122.26666666666667,37.733333333333334],[-122.26666666666667,37.733333333333334],[-122.26666666666667,37.733333333333334],[-122.26666666666667,37.733333333333334],[-122.21138888888889,37.79361111111111],[-122.21138888888889,37.79361111111111],[-122.21138888888889,37.79361111111111],[-122.15,37.85],[-122.15,37.85],[-122.15,37.85],[-122.15,37.85],[-122.05722222222222,37.910555555555554],[-122.05722222222222,37.910555555555554],[-122.05722222222222,37.910555555555554],[-122.05722222222222,37.910555555555554],[-122.05722222222222,37.910555555555554],[-122.05722222222222,37.910555555555554],[-122.05722222222222,37.910555555555554],[-121.84194444444444,38.04888888888889],[-121.84194444444444,38.04888888888889],[-121.84194444444444,38.04888888888889],[-121.84194444444444,38.04888888888889],[-121.84194444444444,38.04888888888889],[-121.70861111111111,38.134166666666665],[-121.70861111111111,38.134166666666665],[-121.70861111111111,38.134166666666665],[-121.5925,38.20805555555556],[-121.5925,38.20805555555556],[-121.5925,38.20805555555556],[-121.5925,38.20805555555556],[-121.5925,38.20805555555556],[-121.5925,38.20805555555556],[-121.47194444444445,38.28444444444444],[-121.47194444444445,38.28444444444444],[-121.47194444444445,38.28444444444444],[-121.47194444444445,38.28444444444444],[-121.23027777777779,38.43527777777778],[-121.23027777777779,38.43527777777778],[-121.23027777777779,38.43527777777778],[-121.11055555555555,38.509166666666665],[-121.11055555555555,38.509166666666665],[-121.11055555555555,38.509166666666665],[-121.11055555555555,38.509166666666665],[-121.11055555555555,38.509166666666665],[-121.11055555555555,38.509166666666665],[-121.11055555555555,38.509166666666665],[-121.11055555555555,38.509166666666665],[-120.74138888888889,38.73555555555556],[-120.74138888888889,38.73555555555556],[-120.74138888888889,38.73555555555556],[-120.74138888888889,38.73555555555556],[-120.74138888888889,38.73555555555556],[-120.74138888888889,38.73555555555556],[-120.74138888888889,38.73555555555556],[-120.74138888888889,38.73555555555556],[-120.46583333333334,38.901111111111106],[-120.46583333333334,38.901111111111106],[-120.46583333333334,38.901111111111106],[-120.34527777777777,38.97361111111111],[-120.34527777777777,38.97361111111111],[-120.34527777777777,38.97361111111111],[-120.34527777777777,38.97361111111111],[-120.34527777777777,38.97361111111111],[-120.34527777777777,38.97361111111111],[-120.22722222222222,39.044999999999995],[-120.22722222222222,39.044999999999995],[-120.22722222222222,39.044999999999995],[-120.22722222222222,39.044999999999995],[-120.22722222222222,39.044999999999995],[-120.22722222222222,39.044999999999995],[-120.22722222222222,39.044999999999995],[-120.01,39.17638888888889],[-120.01,39.17638888888889],[-120.01,39.17638888888889],[-120.01,39.17638888888889],[-120.01,39.17638888888889],[-120.01,39.17638888888889],[-119.88972222222223,39.24777777777778],[-119.88972222222223,39.24777777777778],[-119.88972222222223,39.24777777777778],[-119.65,39.38944444444444],[-119.65,39.38944444444444],[-119.65,39.38944444444444],[-119.65,39.38944444444444],[-119.65,39.38944444444444],[-119.50666666666666,39.47222222222222],[-119.50666666666666,39.47222222222222],[-119.50666666666666,39.47222222222222],[-119.50666666666666,39.47222222222222],[-119.50666666666666,39.47222222222222],[-119.50666666666666,39.47222222222222],[-119.50666666666666,39.47222222222222],[-119.38444444444445,39.54361111111111],[-119.28333333333333,39.60444444444445],[-119.28333333333333,39.60444444444445],[-119.28333333333333,39.60444444444445],[-119.28333333333333,39.60444444444445],[-119.035,39.748333333333335],[-119.035,39.748333333333335],[-119.035,39.748333333333335],[-119.035,39.748333333333335],[-119.035,39.748333333333335],[-119.035,39.748333333333335],[-119.01305555555555,39.76083333333333],[-119.01305555555555,39.76083333333333],[-118.91055555555556,39.82055555555556],[-118.88833333333334,39.83305555555556],[-118.88833333333334,39.83305555555556],[-118.88833333333334,39.83305555555556],[-118.88833333333334,39.83305555555556],[-118.88833333333334,39.83305555555556],[-118.75305555555556,39.90277777777778],[-118.75305555555556,39.90277777777778],[-118.75305555555556,39.90277777777778],[-118.75305555555556,39.90277777777778],[-118.75305555555556,39.90277777777778],[-118.63555555555556,39.95055555555556],[-118.63555555555556,39.95055555555556],[-118.60888888888888,39.961666666666666],[-118.60888888888888,39.961666666666666],[-118.31638888888888,40.080000000000005],[-118.31638888888888,40.080000000000005],[-118.31638888888888,40.080000000000005],[-118.31638888888888,40.080000000000005],[-118.31638888888888,40.080000000000005],[-118.31638888888888,40.080000000000005],[-118.31638888888888,40.080000000000005],[-118.19888888888889,40.1275],[-118.19888888888889,40.1275],[-118.19888888888889,40.1275],[-118.17083333333333,40.13861111111111],[-118.17083333333333,40.13861111111111],[-118.17083333333333,40.13861111111111],[-118.02444444444444,40.19555555555555],[-118.02444444444444,40.19555555555555],[-118.02444444444444,40.19555555555555],[-117.70277777777778,40.27361111111111],[-117.70277777777778,40.27361111111111],[-117.70277777777778,40.27361111111111],[-117.70277777777778,40.27361111111111],[-117.70277777777778,40.27361111111111],[-117.56944444444444,40.30444444444444],[-117.53805555555556,40.31166666666666],[-117.53805555555556,40.31166666666666],[-117.53805555555556,40.31166666666666],[-117.4063888888889,40.341944444444444],[-117.4063888888889,40.341944444444444],[-117.4063888888889,40.341944444444444],[-117.4063888888889,40.341944444444444],[-117.24083333333333,40.379444444444445],[-117.24083333333333,40.379444444444445],[-117.24083333333333,40.379444444444445],[-117.24083333333333,40.379444444444445],[-117.24083333333333,40.379444444444445],[-116.91194444444444,40.470555555555556],[-116.91194444444444,40.470555555555556],[-116.89083333333333,40.47694444444445],[-116.89083333333333,40.47694444444445],[-116.89083333333333,40.47694444444445],[-116.76027777777777,40.51722222222222],[-116.76027777777777,40.51722222222222],[-116.76027777777777,40.51722222222222],[-116.59944444444444,40.566111111111105],[-116.59944444444444,40.566111111111105],[-116.59944444444444,40.566111111111105],[-116.59944444444444,40.566111111111105],[-116.56944444444444,40.57527777777778],[-116.56944444444444,40.57527777777778],[-116.56944444444444,40.57527777777778],[-116.2461111111111,40.67305555555555],[-116.2461111111111,40.67305555555555],[-116.2461111111111,40.67305555555555],[-116.2461111111111,40.67305555555555],[-116.09777777777778,40.7175],[-116.09777777777778,40.7175],[-116.09777777777778,40.7175],[-116.09777777777778,40.7175],[-116.09777777777778,40.7175],[-115.93611111111112,40.76555555555556],[-115.93611111111112,40.76555555555556],[-115.93611111111112,40.76555555555556],[-115.93611111111112,40.76555555555556],[-115.61138888888888,40.86138888888889],[-115.61138888888888,40.86138888888889],[-115.61138888888888,40.86138888888889],[-115.61138888888888,40.86138888888889],[-115.61138888888888,40.86138888888889],[-115.61138888888888,40.86138888888889],[-115.61138888888888,40.86138888888889],[-115.28583333333333,40.95611111111111],[-115.28583333333333,40.95611111111111],[-115.28583333333333,40.95611111111111],[-115.28583333333333,40.95611111111111],[-115.11999999999999,41.00416666666667],[-115.11999999999999,41.00416666666667],[-115.11999999999999,41.00416666666667],[-114.79055555555556,41.098333333333336],[-114.79055555555556,41.098333333333336],[-114.79055555555556,41.098333333333336],[-114.79055555555556,41.098333333333336],[-114.79055555555556,41.098333333333336],[-114.79055555555556,41.098333333333336],[-114.29861111111111,41.236666666666665],[-114.29861111111111,41.236666666666665],[-114.29861111111111,41.236666666666665],[-114.29861111111111,41.236666666666665],[-114.29861111111111,41.236666666666665],[-114.29861111111111,41.236666666666665],[-113.79638888888888,41.36638888888889],[-113.79638888888888,41.36638888888889],[-113.79638888888888,41.36638888888889],[-113.79638888888888,41.36638888888889],[-113.79638888888888,41.36638888888889],[-113.79638888888888,41.36638888888889],[-113.79638888888888,41.36638888888889],[-113.44111111111111,41.401111111111106],[-113.44111111111111,41.401111111111106],[-113.44111111111111,41.401111111111106],[-113.26722222222222,41.41722222222222],[-113.26722222222222,41.41722222222222],[-113.26722222222222,41.41722222222222],[-113.26722222222222,41.41722222222222],[-112.91388888888889,41.44916666666666],[-112.91388888888889,41.44916666666666],[-112.91388888888889,41.44916666666666],[-112.91388888888889,41.44916666666666],[-112.73472222222222,41.465],[-112.73472222222222,41.465],[-112.55555555555556,41.48027777777778],[-112.55555555555556,41.48027777777778],[-112.37777777777777,41.49527777777778],[-112.37777777777777,41.49527777777778],[-112.37777777777777,41.49527777777778],[-112.37777777777777,41.49527777777778],[-112.19861111111112,41.51027777777778],[-112.19861111111112,41.51027777777778],[-112.19861111111112,41.51027777777778],[-112.19861111111112,41.51027777777778],[-112.01972222222223,41.525],[-112.01972222222223,41.525],[-111.8436111111111,41.538888888888884],[-111.8436111111111,41.538888888888884],[-111.8436111111111,41.538888888888884],[-111.8436111111111,41.538888888888884],[-111.8436111111111,41.538888888888884],[-111.30555555555556,41.58027777777778],[-111.30555555555556,41.58027777777778],[-111.30555555555556,41.58027777777778],[-111.30555555555556,41.58027777777778],[-111.30555555555556,41.58027777777778],[-111.1236111111111,41.593611111111116],[-111.1236111111111,41.593611111111116],[-110.94444444444444,41.60638888888889],[-110.94444444444444,41.60638888888889],[-110.94444444444444,41.60638888888889],[-110.94444444444444,41.60638888888889],[-110.74944444444445,41.62027777777778],[-110.74944444444445,41.62027777777778],[-110.74944444444445,41.62027777777778],[-110.74944444444445,41.62027777777778],[-110.38972222222223,41.64472222222222],[-110.38972222222223,41.64472222222222],[-110.38972222222223,41.64472222222222],[-110.38972222222223,41.64472222222222],[-110.38972222222223,41.64472222222222],[-110.38972222222223,41.64472222222222],[-110.38972222222223,41.64472222222222],[-110.38972222222223,41.64472222222222],[-110.20944444444444,41.656388888888884],[-110.20944444444444,41.656388888888884],[-110.20944444444444,41.656388888888884],[-110.20944444444444,41.656388888888884],[-110.02916666666667,41.668055555555554],[-110.02916666666667,41.668055555555554],[-110.02916666666667,41.668055555555554],[-110.02916666666667,41.668055555555554],[-109.85055555555554,41.67916666666667],[-109.85055555555554,41.67916666666667],[-109.85055555555554,41.67916666666667],[-109.77722222222222,41.683611111111105],[-109.77722222222222,41.683611111111105],[-109.77722222222222,41.683611111111105],[-109.77722222222222,41.683611111111105],[-109.66861111111112,41.69027777777777],[-109.66861111111112,41.69027777777777],[-109.66861111111112,41.69027777777777],[-109.48666666666666,41.70111111111111],[-109.48666666666666,41.70111111111111],[-109.48666666666666,41.70111111111111],[-109.48666666666666,41.70111111111111],[-109.41416666666667,41.70527777777778],[-109.41416666666667,41.70527777777778],[-109.41416666666667,41.70527777777778],[-109.30527777777777,41.71138888888889],[-109.30527777777777,41.71138888888889],[-109.30527777777777,41.71138888888889],[-109.23472222222222,41.71527777777778],[-109.23472222222222,41.71527777777778],[-109.23472222222222,41.71527777777778],[-109.23472222222222,41.71527777777778],[-109.0525,41.72555555555556],[-109.0525,41.72555555555556],[-108.98194444444445,41.72944444444445],[-108.98194444444445,41.72944444444445],[-108.98194444444445,41.72944444444445],[-108.875,41.735],[-108.875,41.735],[-108.875,41.735],[-108.875,41.735],[-108.69583333333334,41.74444444444445],[-108.69583333333334,41.74444444444445],[-108.62277777777777,41.748333333333335],[-108.62277777777777,41.748333333333335],[-108.62277777777777,41.748333333333335],[-108.62277777777777,41.748333333333335],[-108.62277777777777,41.748333333333335],[-108.44472222222223,41.757222222222225],[-108.44472222222223,41.757222222222225],[-108.44472222222223,41.757222222222225],[-108.33805555555556,41.7625],[-108.33805555555556,41.7625],[-108.15777777777778,41.770833333333336],[-108.15777777777778,41.770833333333336],[-108.15777777777778,41.770833333333336],[-107.97888888888889,41.77916666666667],[-107.97888888888889,41.77916666666667],[-107.90777777777778,41.782222222222224],[-107.90777777777778,41.782222222222224],[-107.90777777777778,41.782222222222224],[-107.80166666666666,41.786944444444444],[-107.80166666666666,41.786944444444444],[-107.80166666666666,41.786944444444444],[-107.72972222222222,41.79],[-107.72972222222222,41.79],[-107.62249999999999,41.79472222222222],[-107.62249999999999,41.79472222222222],[-107.44555555555556,41.801944444444445],[-107.44555555555556,41.801944444444445],[-107.44555555555556,41.801944444444445],[-107.37472222222222,41.805],[-107.37472222222222,41.805],[-107.26722222222222,41.80916666666666],[-107.26722222222222,41.80916666666666],[-107.19638888888889,41.81166666666666],[-107.19638888888889,41.81166666666666],[-107.19638888888889,41.81166666666666],[-107.09055555555555,41.81583333333333],[-107.09055555555555,41.81583333333333],[-107.09055555555555,41.81583333333333],[-107.01694444444445,41.81861111111112],[-107.01694444444445,41.81861111111112],[-106.91361111111112,41.82222222222222],[-106.91361111111112,41.82222222222222],[-106.91361111111112,41.82222222222222],[-106.91361111111112,41.82222222222222],[-106.73388888888888,41.828611111111115],[-106.73388888888888,41.828611111111115],[-106.64944444444446,41.831388888888895],[-106.64944444444446,41.831388888888895],[-106.64944444444446,41.831388888888895],[-106.47222222222223,41.83722222222222],[-106.47222222222223,41.83722222222222],[-106.47222222222223,41.83722222222222],[-106.47222222222223,41.83722222222222],[-106.47222222222223,41.83722222222222],[-106.2936111111111,41.84277777777778],[-106.2936111111111,41.84277777777778],[-106.2936111111111,41.84277777777778],[-106.22500000000001,41.845],[-106.22500000000001,41.845],[-106.22500000000001,41.845],[-106.22500000000001,41.845],[-106.04444444444444,41.85027777777778],[-106.04444444444444,41.85027777777778],[-106.04444444444444,41.85027777777778],[-106.04444444444444,41.85027777777778],[-105.68944444444445,41.859722222222224],[-105.68944444444445,41.859722222222224],[-105.68944444444445,41.859722222222224],[-105.68944444444445,41.859722222222224],[-105.68944444444445,41.859722222222224],[-105.68944444444445,41.859722222222224],[-105.68944444444445,41.859722222222224],[-105.68944444444445,41.859722222222224],[-105.50972222222222,41.86416666666667],[-105.50972222222222,41.86416666666667],[-105.50972222222222,41.86416666666667],[-105.33055555555555,41.86833333333333],[-105.33055555555555,41.86833333333333],[-105.33055555555555,41.86833333333333],[-105.33055555555555,41.86833333333333],[-105.15,41.87222222222222],[-105.15,41.87222222222222],[-105.15,41.87222222222222],[-104.78972222222222,41.87888888888889],[-104.78972222222222,41.87888888888889],[-104.78972222222222,41.87888888888889],[-104.78972222222222,41.87888888888889],[-104.57416666666666,41.8825],[-104.57416666666666,41.8825],[-104.57416666666666,41.8825],[-104.57416666666666,41.8825],[-104.57416666666666,41.8825],[-104.57416666666666,41.8825],[-104.39361111111111,41.885],[-104.39361111111111,41.885],[-104.03222222222222,41.88972222222222],[-104.03222222222222,41.88972222222222],[-104.03222222222222,41.88972222222222],[-104.03222222222222,41.88972222222222],[-103.85027777777778,41.891666666666666],[-103.85027777777778,41.891666666666666],[-103.85027777777778,41.891666666666666],[-103.66888888888889,41.89333333333333],[-103.66888888888889,41.89333333333333],[-103.66888888888889,41.89333333333333],[-103.48944444444444,41.89555555555555],[-103.48944444444444,41.89555555555555],[-103.48944444444444,41.89555555555555],[-103.48944444444444,41.89555555555555],[-103.48944444444444,41.89555555555555],[-103.48944444444444,41.89555555555555],[-103.48944444444444,41.89555555555555],[-102.95,41.95638888888889],[-102.95,41.95638888888889],[-102.95,41.95638888888889],[-102.95,41.95638888888889],[-102.95,41.95638888888889],[-102.95,41.95638888888889],[-102.77055555555556,41.97694444444445],[-102.77055555555556,41.97694444444445],[-102.77055555555556,41.97694444444445],[-102.77055555555556,41.97694444444445],[-102.77055555555556,41.97694444444445],[-102.4075,42.01722222222222],[-102.4075,42.01722222222222],[-102.4075,42.01722222222222],[-102.4075,42.01722222222222],[-102.4075,42.01722222222222],[-102.22805555555556,42.03666666666666],[-102.06777777777778,42.053888888888885],[-102.06777777777778,42.053888888888885],[-102.06777777777778,42.053888888888885],[-102.02416666666666,42.06083333333333],[-101.88694444444445,42.073055555555555],[-101.88694444444445,42.073055555555555],[-101.88694444444445,42.073055555555555],[-101.84222222222222,42.078611111111115],[-101.84222222222222,42.078611111111115],[-101.7025,42.091944444444444],[-101.7025,42.091944444444444],[-101.65916666666668,42.097500000000004],[-101.47472222222223,42.115],[-101.47472222222223,42.115],[-101.47472222222223,42.115],[-101.33722222222222,42.12916666666667],[-101.33722222222222,42.12916666666667],[-101.33722222222222,42.12916666666667],[-101.15333333333334,42.14722222222222],[-101.15333333333334,42.14722222222222],[-101.15333333333334,42.14722222222222],[-101.15333333333334,42.14722222222222],[-101.15333333333334,42.14722222222222],[-100.78333333333333,42.183055555555555],[-100.78333333333333,42.183055555555555],[-100.78333333333333,42.183055555555555],[-100.78333333333333,42.183055555555555],[-100.78333333333333,42.183055555555555],[-100.78333333333333,42.183055555555555],[-100.78333333333333,42.183055555555555],[-100.04388888888889,42.25055555555556],[-100.04388888888889,42.25055555555556],[-100.04388888888889,42.25055555555556],[-100.04388888888889,42.25055555555556],[-100.04388888888889,42.25055555555556],[-99.85527777777777,42.26722222222222],[-99.85527777777777,42.26722222222222],[-99.85527777777777,42.26722222222222],[-99.66861111111112,42.283055555555556],[-99.46638888888889,42.3],[-99.46638888888889,42.3],[-99.46638888888889,42.3],[-99.46638888888889,42.3],[-99.46638888888889,42.3],[-99.46638888888889,42.3],[-99.27638888888889,42.31583333333333],[-99.27638888888889,42.31583333333333],[-99.27638888888889,42.31583333333333],[-99.08666666666666,42.33111111111111],[-99.08666666666666,42.33111111111111],[-99.08666666666666,42.33111111111111],[-99.08666666666666,42.33111111111111],[-98.89888888888889,42.34583333333334],[-98.89888888888889,42.34583333333334],[-98.89888888888889,42.34583333333334],[-98.89888888888889,42.34583333333334],[-98.71166666666667,42.36027777777778],[-98.70833333333334,42.36055555555556],[-98.70833333333334,42.36055555555556],[-98.70833333333334,42.36055555555556],[-98.32555555555555,42.388888888888886],[-98.32555555555555,42.388888888888886],[-98.32555555555555,42.388888888888886],[-98.32555555555555,42.388888888888886],[-97.75666666666666,42.42916666666667],[-97.75666666666666,42.42916666666667],[-97.75666666666666,42.42916666666667],[-97.75666666666666,42.42916666666667],[-97.75666666666666,42.42916666666667],[-97.75666666666666,42.42916666666667],[-97.75666666666666,42.42916666666667],[-97.18222222222222,42.46666666666667],[-97.18222222222222,42.46666666666667],[-97.18222222222222,42.46666666666667],[-97.18222222222222,42.46666666666667],[-97.18222222222222,42.46666666666667],[-96.9888888888889,42.478611111111114],[-96.9888888888889,42.478611111111114],[-96.9888888888889,42.478611111111114],[-96.79777777777778,42.49],[-96.79777777777778,42.49],[-96.79777777777778,42.49],[-96.60416666666666,42.50138888888889],[-96.60416666666666,42.50138888888889],[-96.60416666666666,42.50138888888889],[-96.60416666666666,42.50138888888889],[-96.60416666666666,42.50138888888889],[-96.21916666666667,42.52305555555555],[-96.21916666666667,42.52305555555555],[-96.21916666666667,42.52305555555555],[-96.21916666666667,42.52305555555555],[-96.02416666666666,42.53333333333333],[-96.02416666666666,42.53333333333333],[-96.02416666666666,42.53333333333333],[-96.02416666666666,42.53333333333333],[-96.02416666666666,42.53333333333333],[-96.02416666666666,42.53333333333333],[-96.02416666666666,42.53333333333333],[-96.02416666666666,42.53333333333333],[-95.05916666666667,42.580000000000005],[-95.05916666666667,42.580000000000005],[-95.05916666666667,42.580000000000005],[-95.05916666666667,42.580000000000005],[-95.05916666666667,42.580000000000005],[-95.05916666666667,42.580000000000005],[-95.05916666666667,42.580000000000005],[-95.05916666666667,42.580000000000005],[-94.38722222222223,42.60805555555556],[-94.38722222222223,42.60805555555556],[-94.38722222222223,42.60805555555556],[-94.38722222222223,42.60805555555556],[-94.38722222222223,42.60805555555556],[-94.38722222222223,42.60805555555556],[-94.19027777777778,42.60805555555556],[-94.19027777777778,42.60805555555556],[-94.19027777777778,42.60805555555556],[-94.19027777777778,42.60805555555556],[-94.19027777777778,42.60805555555556],[-93.99638888888889,42.602222222222224],[-93.99638888888889,42.602222222222224],[-93.99638888888889,42.602222222222224],[-93.80138888888888,42.59583333333334],[-93.80138888888888,42.59583333333334],[-93.80138888888888,42.59583333333334],[-93.68194444444445,42.59138888888889],[-93.68194444444445,42.59138888888889],[-93.68194444444445,42.59138888888889],[-93.68194444444445,42.59138888888889],[-93.68194444444445,42.59138888888889],[-93.60666666666665,42.58916666666667],[-93.60666666666665,42.58916666666667],[-93.60666666666665,42.58916666666667],[-93.60666666666665,42.58916666666667],[-93.29305555555555,42.5775],[-93.29305555555555,42.5775],[-93.21416666666667,42.574444444444445],[-93.21416666666667,42.574444444444445],[-93.21416666666667,42.574444444444445],[-93.21416666666667,42.574444444444445],[-93.01833333333333,42.56666666666667],[-93.01833333333333,42.56666666666667],[-93.01833333333333,42.56666666666667],[-92.82277777777777,42.55888888888889],[-92.82277777777777,42.55888888888889],[-92.82277777777777,42.55888888888889],[-92.82277777777777,42.55888888888889],[-92.50527777777778,42.544999999999995],[-92.50527777777778,42.544999999999995],[-92.50527777777778,42.544999999999995],[-92.50527777777778,42.544999999999995],[-92.50527777777778,42.544999999999995],[-92.50527777777778,42.544999999999995],[-92.31,42.53611111111111],[-92.31,42.53611111111111],[-92.31,42.53611111111111],[-92.23444444444445,42.5325],[-92.23444444444445,42.5325],[-91.9238888888889,42.525],[-91.9238888888889,42.525],[-91.9238888888889,42.525],[-91.9238888888889,42.525],[-91.84722222222221,42.525555555555556],[-91.84722222222221,42.525555555555556],[-91.84722222222221,42.525555555555556],[-91.84722222222221,42.525555555555556],[-91.84722222222221,42.525555555555556],[-91.5411111111111,42.526944444444446],[-91.5411111111111,42.526944444444446],[-91.46777777777778,42.52722222222222],[-91.46777777777778,42.52722222222222],[-91.35194444444444,42.52722222222222],[-91.35194444444444,42.52722222222222],[-91.35194444444444,42.52722222222222],[-91.35194444444444,42.52722222222222],[-91.35194444444444,42.52722222222222],[-91.35194444444444,42.52722222222222],[-91.12138888888889,42.52722222222222],[-91.12138888888889,42.52722222222222],[-91.12138888888889,42.52722222222222],[-90.47111111111111,42.52444444444444],[-90.47111111111111,42.52444444444444],[-90.47111111111111,42.52444444444444],[-90.47111111111111,42.52444444444444],[-90.35805555555555,42.52333333333333],[-90.35805555555555,42.52333333333333],[-90.35805555555555,42.52333333333333],[-90.28861111111111,42.522777777777776],[-90.28861111111111,42.522777777777776],[-90.11083333333333,42.52166666666667],[-90.11083333333333,42.52166666666667],[-90.11083333333333,42.52166666666667],[-90.11083333333333,42.52166666666667],[-89.7713888888889,42.51694444444444],[-89.7713888888889,42.51694444444444],[-89.7713888888889,42.51694444444444],[-89.7713888888889,42.51694444444444],[-89.60416666666666,42.49722222222222],[-89.60416666666666,42.49722222222222],[-89.60416666666666,42.49722222222222],[-89.60416666666666,42.49722222222222],[-89.60416666666666,42.49722222222222],[-89.60416666666666,42.49722222222222],[-89.29444444444444,42.45944444444445],[-89.29444444444444,42.45944444444445],[-89.29444444444444,42.45944444444445],[-89.29444444444444,42.45944444444445],[-89.05,42.43333333333333],[-89.05,42.43333333333333],[-89.05,42.43333333333333],[-89.05,42.43333333333333],[-89.05,42.43333333333333],[-89.00666666666666,42.42333333333333],[-88.88333333333334,42.416666666666664],[-88.88333333333334,42.416666666666664],[-88.88333333333334,42.416666666666664],[-88.8711111111111,42.406388888888884],[-88.8711111111111,42.406388888888884],[-88.8711111111111,42.406388888888884],[-88.76666666666667,42.4],[-88.76666666666667,42.4],[-88.63333333333334,42.38333333333333],[-88.63333333333334,42.38333333333333],[-88.63333333333334,42.38333333333333],[-88.53333333333333,42.36666666666667],[-88.53333333333333,42.36666666666667],[-88.53333333333333,42.36666666666667],[-88.51138888888889,42.359722222222224],[-88.51138888888889,42.359722222222224],[-88.51138888888889,42.359722222222224],[-88.43333333333334,42.333333333333336],[-88.43333333333334,42.333333333333336],[-88.43333333333334,42.333333333333336],[-88.42861111111111,42.31305555555555],[-88.42861111111111,42.31305555555555],[-88.42861111111111,42.31305555555555],[-88.4,42.18333333333333],[-88.4,42.18333333333333],[-88.4,42.18333333333333],[-88.4,42.18333333333333],[-88.40166666666667,42.15972222222222],[-88.40166666666667,42.15972222222222],[-88.40166666666667,42.15972222222222],[-88.39055555555557,42.08305555555556],[-88.39055555555557,42.08305555555556],[-88.39055555555557,42.08305555555556],[-88.39055555555557,42.08305555555556],[-88.39055555555557,42.08305555555556],[-88.26527777777778,42.00222222222222],[-88.26527777777778,42.00222222222222],[-88.26527777777778,42.00222222222222],[-88.2,42],[-88.2,42],[-88.2,42],[-88.2,42],[-88.17611111111111,42.0025],[-88.17611111111111,42.0025],[-88.17611111111111,42.0025],[-88.09305555555555,42.0025],[-88.09305555555555,42.0025],[-88.09305555555555,42.0025],[-88.09305555555555,42.0025],[-88.09305555555555,42.0025],[-87.96666666666667,42],[-87.96666666666667,42],[-87.96666666666667,42],[-87.96666666666667,42],[-87.96666666666667,42]],"type":"LineString"}
}
