{
  "id": 2015342691,
  "type": "Feature",
  "properties": {
    "geom:area": 0,
    "geom:bbox": "-122.350000,37.557778,-75.016667,42.065000",
    "geom:latitude": 41.16054686915107,
    "geom:longitude": -98.95966488504081,
    "src:alt_label": "swim-path",
    "src:geom": "swim",
    "swim:altitudes": [
      "006",
      "011",
      "022",
      "032",
      "032",
      "032",
      "047",
      "047",
      "098",
      "112",
      "112",
      "156",
      "156",
      "156",
      "156",
      "156",
      "219",
      "219",
      "246",
      "246",
      "246",
      "258",
      "272",
      "272",
      "279",
      "279",
      "290",
      "290",
      "309",
      "309",
      "321",
      "321",
      "330C",
      "330C",
      "330C",
      "330C",
      "330C",
      "330C",
      "330C",
      "330C",
      "330C",
      "330C",
      "330C",
      "330C",
      "330C",
      "330C",
      "330C",
      "330C",
      "330C",
      "330C",
      "330C",
      "330C",
      "330C",
      "330C",
      "330C",
      "330C",
      "330C",
      "330C",
      "330C",
      "330C",
      "330C",
      "330C",
      "330C",
      "330C",
      "330C",
      "330C",
      "330C",
      "330C",
      "330C",
      "330C",
      "330C",
      "330C",
      "330C",
      "330C",
      "330C",
      "330C",
      "330C",
      "330C",
      "330C",
      "330C",
      "330C",
      "330C",
      "330C",
      "330C",
      "330C",
      "330C",
      "330C",
      "330C",
      "330C",
      "330C",
      "330C",
      "330C",
      "330C",
      "330C",
      "330C",
      "330C",
      "330C",
      "330C",
      "330C",
      "330C",
      "330C",
      "330C",
      "330C",
      "330C",
      "330C",
      "330C",
      "330C",
      "330C",
      "330C",
      "330C",
      "330C",
      "330C",
      "330C",
      "330C",
      "330C",
      "330C",
      "330C",
      "330C",
      "330C",
      "330C",
      "330C",
      "330C",
      "330C",
      "330C",
      "330C",
      "330C",
      "330C",
      "330C",
      "330C",
      "330C",
      "330C",
      "330C",
      "330C",
      "330C",
      "330C",
      "330C",
      "330C",
      "330C",
      "330C",
      "330C",
      "330C",
      "330C",
      "330C",
      "330C",
      "330C",
      "330C",
      "330C",
      "330C",
      "330C",
      "330C",
      "330C",
      "330C",
      "330C",
      "330C",
      "330C",
      "330C",
      "330C",
      "330C",
      "330C",
      "330C",
      "330C",
      "330C",
      "330C",
      "330C",
      "330C",
      "330C",
      "330C",
      "330C",
      "330C",
      "330C",
      "330C",
      "330C",
      "330C",
      "330C",
      "330C",
      "330C",
      "330C",
      "330C",
      "330C",
      "330C",
      "330C",
      "330C",
      "330C",
      "330C",
      "330C",
      "330C",
      "330C",
      "330C",
      "330C",
      "330C",
      "330C",
      "330C",
      "330C",
      "330C",
      "330C",
      "330C",
      "330C",
      "330C",
      "330C",
      "330C",
      "330C",
      "330C",
      "330C",
      "330C",
      "330",
      "330",
      "340",
      "340",
      "340",
      "340",
      "350C",
      "350C",
      "350C",
      "350C",
      "350C",
      "350C",
      "350C",
      "350C",
      "350C",
      "350C",
      "350C",
      "350C",
      "350C",
      "350C",
      "350C",
      "350C",
      "350C",
      "350C",
      "350C",
      "350C",
      "350C",
      "350C",
      "350C",
      "350C",
      "350C",
      "350C",
      "350C",
      "350C",
      "350C",
      "350C",
      "350C",
      "350C",
      "350C",
      "350C",
      "350C",
      "350C",
      "350C",
      "350C",
      "350C",
      "350C",
      "350C",
      "350C",
      "350C",
      "350C",
      "350C",
      "350C",
      "350C",
      "350C",
      "350C",
      "350C",
      "350C",
      "350C",
      "350C",
      "350C",
      "350C",
      "350C",
      "350C",
      "350C",
      "350C",
      "350C",
      "350C",
      "350C",
      "350C",
      "350C",
      "350C",
      "350C",
      "350C",
      "350C",
      "350C",
      "350C",
      "350C",
      "350C",
      "350C",
      "350C",
      "350C",
      "350C",
      "350C",
      "350C",
      "350C",
      "350C",
      "350C",
      "350C",
      "350C",
      "350C",
      "350C",
      "350C",
      "350C",
      "350C",
      "350C",
      "350C",
      "350C",
      "350C",
      "350C",
      "350C",
      "350C",
      "350C",
      "350C",
      "350C",
      "350C",
      "350C",
      "350C",
      "350C",
      "350C",
      "350C",
      "350C",
      "350C",
      "350C",
      "350C",
      "350C",
      "350C",
      "350C",
      "350C",
      "350C",
      "350C",
      "350C",
      "350C",
      "350C",
      "350C",
      "350C",
      "350C",
      "350C",
      "350C",
      "350C",
      "350C",
      "350C",
      "350C",
      "350C",
      "350C",
      "350C",
      "350C",
      "350C",
      "350C",
      "350C",
      "350C",
      "350C",
      "350C",
      "350C",
      "350C",
      "350C",
      "350C",
      "350C",
      "350C",
      "350C",
      "350C",
      "350C",
      "350C",
      "350C",
      "350C",
      "350C",
      "350C",
      "350C",
      "350C",
      "350C",
      "350C",
      "350C",
      "350C",
      "350C",
      "350C",
      "350C",
      "350C",
      "350C",
      "350C",
      "350C",
      "350C",
      "350C",
      "350C",
      "350C",
      "350C",
      "350C",
      "350C",
      "350C",
      "350C",
      "350C",
      "350C",
      "350C",
      "350C",
      "350C",
      "350C",
      "350C",
      "350C",
      "350C",
      "350C",
      "350C",
      "350C",
      "350C",
      "350C",
      "350C",
      "350C",
      "350C",
      "350C",
      "350C",
      "350C",
      "350C",
      "350C",
      "350C",
      "350C",
      "350C",
      "350C",
      "350C",
      "350C",
      "350C",
      "350C",
      "350C",
      "350C",
      "350C",
      "350C",
      "350C",
      "350",
      "350",
      "350",
      "344",
      "340C",
      "340C",
      "340C",
      "340C",
      "340C",
      "340C",
      "340C",
      "340C",
      "340",
      "328",
      "328",
      "328",
      "311",
      "311",
      "291",
      "290",
      "270",
      "270",
      "270",
      "250C",
      "245",
      "224",
      "214",
      "214",
      "202",
      "184",
      "184",
      "177",
      "167",
      "167",
      "157",
      "156",
      "156",
      "140",
      "130",
      "114",
      "105",
      "105",
      "099",
      "094",
      "094",
      "088",
      "082C",
      "080",
      "075",
      "075",
      "075",
      "070",
      "061",
      "060",
      "060",
      "060",
      "060",
      "060",
      "060",
      "042",
      "042",
      "037",
      "029",
      "025",
      "018",
      "018",
      "006",
      "006",
      "80",
      "80"
    ],
    "swim:geom": "path",
    "swim:speeds": [
      177,
      180,
      178,
      184,
      184,
      184,
      246,
      246,
      314,
      359,
      359,
      401,
      401,
      401,
      401,
      401,
      467,
      467,
      488,
      488,
      488,
      495,
      498,
      498,
      501,
      501,
      513,
      513,
      516,
      516,
      516,
      516,
      512,
      512,
      512,
      512,
      512,
      509,
      509,
      511,
      509,
      509,
      510,
      510,
      509,
      509,
      507,
      507,
      507,
      508,
      508,
      508,
      507,
      504,
      504,
      504,
      503,
      503,
      503,
      503,
      502,
      502,
      503,
      503,
      503,
      503,
      503,
      502,
      502,
      502,
      502,
      502,
      501,
      501,
      500,
      500,
      500,
      500,
      499,
      498,
      498,
      495,
      495,
      495,
      495,
      495,
      495,
      494,
      494,
      495,
      495,
      495,
      495,
      495,
      495,
      495,
      496,
      496,
      496,
      495,
      495,
      495,
      495,
      495,
      495,
      495,
      491,
      491,
      491,
      487,
      487,
      487,
      487,
      487,
      487,
      486,
      486,
      486,
      486,
      483,
      483,
      483,
      481,
      481,
      480,
      480,
      480,
      480,
      480,
      481,
      481,
      481,
      481,
      481,
      481,
      481,
      473,
      473,
      473,
      473,
      473,
      474,
      472,
      472,
      472,
      471,
      471,
      471,
      470,
      469,
      469,
      469,
      469,
      469,
      469,
      471,
      469,
      469,
      470,
      470,
      470,
      470,
      471,
      471,
      471,
      471,
      472,
      472,
      472,
      476,
      476,
      477,
      477,
      478,
      478,
      479,
      479,
      479,
      479,
      478,
      478,
      478,
      478,
      478,
      478,
      478,
      478,
      478,
      478,
      478,
      478,
      478,
      478,
      478,
      478,
      478,
      477,
      477,
      477,
      477,
      477,
      476,
      476,
      476,
      478,
      478,
      482,
      482,
      482,
      482,
      481,
      481,
      481,
      480,
      480,
      480,
      478,
      478,
      479,
      479,
      480,
      480,
      480,
      485,
      485,
      485,
      485,
      482,
      482,
      483,
      483,
      482,
      483,
      483,
      483,
      483,
      483,
      482,
      482,
      482,
      482,
      482,
      482,
      482,
      483,
      483,
      485,
      485,
      485,
      485,
      485,
      487,
      487,
      487,
      489,
      490,
      491,
      490,
      490,
      490,
      490,
      491,
      491,
      490,
      490,
      490,
      488,
      488,
      487,
      487,
      488,
      486,
      485,
      485,
      485,
      486,
      486,
      487,
      487,
      487,
      487,
      487,
      487,
      488,
      489,
      489,
      489,
      489,
      489,
      489,
      489,
      487,
      487,
      486,
      486,
      483,
      483,
      483,
      483,
      482,
      481,
      481,
      481,
      478,
      478,
      481,
      481,
      482,
      484,
      484,
      484,
      487,
      487,
      487,
      490,
      490,
      489,
      489,
      489,
      489,
      489,
      487,
      487,
      487,
      487,
      485,
      485,
      485,
      485,
      484,
      484,
      484,
      487,
      489,
      489,
      499,
      499,
      499,
      500,
      499,
      499,
      499,
      499,
      499,
      498,
      498,
      497,
      498,
      498,
      498,
      494,
      493,
      494,
      494,
      494,
      494,
      498,
      498,
      501,
      501,
      501,
      501,
      500,
      500,
      500,
      500,
      500,
      500,
      500,
      498,
      498,
      487,
      487,
      487,
      489,
      489,
      489,
      487,
      486,
      486,
      482,
      483,
      483,
      483,
      483,
      484,
      484,
      484,
      484,
      483,
      478,
      478,
      475,
      475,
      474,
      474,
      475,
      476,
      476,
      478,
      478,
      478,
      480,
      480,
      480,
      480,
      490,
      490,
      490,
      495,
      496,
      496,
      496,
      497,
      497,
      497,
      487,
      488,
      488,
      488,
      488,
      484,
      484,
      484,
      485,
      484,
      484,
      481,
      481,
      481,
      473,
      473,
      473,
      487,
      487,
      481,
      480,
      462,
      462,
      462,
      447,
      428,
      418,
      412,
      412,
      405,
      391,
      391,
      387,
      376,
      376,
      371,
      371,
      371,
      358,
      356,
      347,
      336,
      336,
      293,
      292,
      292,
      283,
      286,
      270,
      272,
      272,
      272,
      274,
      274,
      268,
      270,
      270,
      273,
      273,
      233,
      217,
      217,
      209,
      208,
      173,
      166,
      166,
      157,
      157,
      141,
      141
    ],
    "swim:timestamps": [
      1776702109,
      1776702124,
      1776702146,
      1776702184,
      1776702184,
      1776702184,
      1776702244,
      1776702244,
      1776702364,
      1776702424,
      1776702424,
      1776702544,
      1776702544,
      1776702544,
      1776702544,
      1776702544,
      1776702784,
      1776702784,
      1776702905,
      1776702905,
      1776702905,
      1776702965,
      1776703025,
      1776703025,
      1776703061,
      1776703061,
      1776703145,
      1776703145,
      1776703241,
      1776703241,
      1776703301,
      1776703301,
      1776703361,
      1776703361,
      1776703421,
      1776703421,
      1776703481,
      1776703505,
      1776703505,
      1776703541,
      1776703565,
      1776703565,
      1776703625,
      1776703625,
      1776703661,
      1776703661,
      1776703746,
      1776703746,
      1776703746,
      1776703782,
      1776703782,
      1776703782,
      1776703806,
      1776703986,
      1776703986,
      1776704022,
      1776704046,
      1776704046,
      1776704046,
      1776704046,
      1776704106,
      1776704106,
      1776704142,
      1776704142,
      1776704142,
      1776704202,
      1776704202,
      1776704226,
      1776704226,
      1776704226,
      1776704262,
      1776704262,
      1776704322,
      1776704322,
      1776704406,
      1776704442,
      1776704442,
      1776704442,
      1776704467,
      1776704503,
      1776704503,
      1776704587,
      1776704623,
      1776704623,
      1776704647,
      1776704647,
      1776704647,
      1776704683,
      1776704683,
      1776704743,
      1776704803,
      1776704803,
      1776704803,
      1776704863,
      1776704863,
      1776704863,
      1776704923,
      1776704923,
      1776704923,
      1776704983,
      1776704983,
      1776705043,
      1776705043,
      1776705043,
      1776705043,
      1776705043,
      1776705163,
      1776705163,
      1776705163,
      1776705344,
      1776705344,
      1776705344,
      1776705344,
      1776705524,
      1776705524,
      1776705644,
      1776705644,
      1776705644,
      1776705644,
      1776705704,
      1776705704,
      1776705704,
      1776705764,
      1776705764,
      1776705884,
      1776706005,
      1776706005,
      1776706005,
      1776706005,
      1776706125,
      1776706125,
      1776706125,
      1776706185,
      1776706185,
      1776706185,
      1776706185,
      1776706605,
      1776706605,
      1776706605,
      1776706605,
      1776706605,
      1776706846,
      1776706906,
      1776706906,
      1776706906,
      1776706966,
      1776706966,
      1776706966,
      1776707026,
      1776707146,
      1776707146,
      1776707146,
      1776707146,
      1776707206,
      1776707206,
      1776707231,
      1776707266,
      1776707266,
      1776707291,
      1776707291,
      1776707326,
      1776707326,
      1776707351,
      1776707386,
      1776707386,
      1776707386,
      1776707411,
      1776707411,
      1776707411,
      1776707591,
      1776707591,
      1776707652,
      1776707652,
      1776707712,
      1776707712,
      1776707772,
      1776707772,
      1776707772,
      1776707807,
      1776707832,
      1776707832,
      1776707832,
      1776707867,
      1776707867,
      1776707892,
      1776707892,
      1776707952,
      1776707952,
      1776707987,
      1776707987,
      1776707987,
      1776708072,
      1776708072,
      1776708107,
      1776708107,
      1776708107,
      1776708167,
      1776708192,
      1776708493,
      1776708493,
      1776708493,
      1776708553,
      1776708553,
      1776708553,
      1776708733,
      1776708733,
      1776708793,
      1776708793,
      1776708793,
      1776708793,
      1776708913,
      1776708913,
      1776708913,
      1776708973,
      1776708973,
      1776708973,
      1776709093,
      1776709093,
      1776709274,
      1776709274,
      1776709334,
      1776709334,
      1776709334,
      1776709574,
      1776709574,
      1776709574,
      1776709574,
      1776709703,
      1776709703,
      1776709754,
      1776709754,
      1776709763,
      1776709814,
      1776709814,
      1776709875,
      1776709875,
      1776709875,
      1776709883,
      1776709935,
      1776709935,
      1776709943,
      1776709943,
      1776709995,
      1776709995,
      1776710063,
      1776710063,
      1776710115,
      1776710175,
      1776710175,
      1776710175,
      1776710175,
      1776710304,
      1776710304,
      1776710304,
      1776710355,
      1776710424,
      1776710475,
      1776710484,
      1776710484,
      1776710484,
      1776710484,
      1776710535,
      1776710535,
      1776710544,
      1776710604,
      1776710604,
      1776710656,
      1776710656,
      1776710716,
      1776710716,
      1776710724,
      1776710776,
      1776710896,
      1776710896,
      1776710905,
      1776710965,
      1776710965,
      1776711025,
      1776711025,
      1776711085,
      1776711085,
      1776711085,
      1776711085,
      1776711265,
      1776711325,
      1776711325,
      1776711385,
      1776711385,
      1776711385,
      1776711445,
      1776711445,
      1776711626,
      1776711626,
      1776711686,
      1776711686,
      1776711806,
      1776711806,
      1776711806,
      1776711806,
      1776711866,
      1776711926,
      1776711986,
      1776711986,
      1776712032,
      1776712032,
      1776712092,
      1776712092,
      1776712153,
      1776712166,
      1776712166,
      1776712213,
      1776712273,
      1776712273,
      1776712273,
      1776712407,
      1776712407,
      1776712453,
      1776712453,
      1776712513,
      1776712527,
      1776712527,
      1776712587,
      1776712587,
      1776712633,
      1776712633,
      1776712754,
      1776712754,
      1776712767,
      1776712767,
      1776712814,
      1776712814,
      1776712814,
      1776712948,
      1776713008,
      1776713008,
      1776713068,
      1776713068,
      1776713068,
      1776713234,
      1776713294,
      1776713294,
      1776713308,
      1776713355,
      1776713355,
      1776713415,
      1776713415,
      1776713475,
      1776713488,
      1776713488,
      1776713488,
      1776713595,
      1776713655,
      1776713715,
      1776713715,
      1776713715,
      1776713715,
      1776713895,
      1776713895,
      1776714016,
      1776714016,
      1776714016,
      1776714016,
      1776714133,
      1776714133,
      1776714253,
      1776714253,
      1776714253,
      1776714373,
      1776714373,
      1776714433,
      1776714433,
      1776714494,
      1776714494,
      1776714494,
      1776714825,
      1776714825,
      1776714825,
      1776714945,
      1776714974,
      1776714974,
      1776715155,
      1776715185,
      1776715246,
      1776715246,
      1776715426,
      1776715486,
      1776715486,
      1776715546,
      1776715575,
      1776715636,
      1776715756,
      1776715756,
      1776715786,
      1776715786,
      1776715847,
      1776715847,
      1776715876,
      1776715967,
      1776715967,
      1776716027,
      1776716027,
      1776716027,
      1776716267,
      1776716267,
      1776716327,
      1776716327,
      1776716508,
      1776716508,
      1776716508,
      1776716688,
      1776716740,
      1776716740,
      1776716740,
      1776716748,
      1776716808,
      1776716808,
      1776717040,
      1776717100,
      1776717109,
      1776717109,
      1776717160,
      1776717229,
      1776717229,
      1776717229,
      1776717280,
      1776717340,
      1776717340,
      1776717409,
      1776717409,
      1776717461,
      1776717521,
      1776717521,
      1776717529,
      1776717589,
      1776717589,
      1776717641,
      1776717649,
      1776717701,
      1776717701,
      1776717701,
      1776717761,
      1776717821,
      1776717941,
      1776718010,
      1776718010,
      1776718070,
      1776718182,
      1776718182,
      1776718242,
      1776718302,
      1776718302,
      1776718362,
      1776718371,
      1776718371,
      1776718454,
      1776718514,
      1776718602,
      1776718634,
      1776718634,
      1776718700,
      1776718723,
      1776718723,
      1776718754,
      1776718783,
      1776718814,
      1776718843,
      1776718843,
      1776718843,
      1776718874,
      1776718929,
      1776718988,
      1776719023,
      1776719023,
      1776719143,
      1776719143,
      1776719175,
      1776719263,
      1776719263,
      1776719295,
      1776719323,
      1776719355,
      1776719415,
      1776719415,
      1776719504,
      1776719504,
      1776719564,
      1776719564
    ],
    "wof:geomhash": "fb783fa05ca96e3fc6d04e42e5b21ce0",
    "wof:id": 2015342691,
    "wof:repo": "sfomuseum-data-flights-2026-04"
  },
  "bbox": [
    -122.35,
    37.55777777777777,
    -75.01666666666667,
    42.065
  ],
  "geometry": {"coordinates":[[-122.35,37.61666666666667],[-122.3461111111111,37.60666666666667],[-122.31666666666666,37.6],[-122.28888888888889,37.584722222222226],[-122.28888888888889,37.584722222222226],[-122.28888888888889,37.584722222222226],[-122.21694444444445,37.55777777777777],[-122.21694444444445,37.55777777777777],[-122.0525,37.61694444444444],[-121.97277777777778,37.68555555555555],[-121.97277777777778,37.68555555555555],[-121.80444444444444,37.85944444444445],[-121.80444444444444,37.85944444444445],[-121.80444444444444,37.85944444444445],[-121.80444444444444,37.85944444444445],[-121.80444444444444,37.85944444444445],[-121.4475,38.27027777777778],[-121.4475,38.27027777777778],[-121.20583333333333,38.45027777777778],[-121.20583333333333,38.45027777777778],[-121.20583333333333,38.45027777777778],[-121.07027777777778,38.534166666666664],[-120.93277777777779,38.61833333333333],[-120.93277777777779,38.61833333333333],[-120.84416666666667,38.67166666666667],[-120.84416666666667,38.67166666666667],[-120.64944444444446,38.79111111111111],[-120.64944444444446,38.79111111111111],[-120.4088888888889,38.93472222222222],[-120.4088888888889,38.93472222222222],[-120.26583333333333,39.02388888888889],[-120.26583333333333,39.02388888888889],[-120.1211111111111,39.10888888888889],[-120.1211111111111,39.10888888888889],[-119.97611111111111,39.19555555555555],[-119.97611111111111,39.19555555555555],[-119.83111111111111,39.281666666666666],[-119.77388888888889,39.31638888888889],[-119.77388888888889,39.31638888888889],[-119.68694444444445,39.367222222222225],[-119.62638888888888,39.40333333333333],[-119.62638888888888,39.40333333333333],[-119.48027777777779,39.48916666666667],[-119.48027777777779,39.48916666666667],[-119.39472222222223,39.53944444444444],[-119.39472222222223,39.53944444444444],[-119.18916666666667,39.65861111111111],[-119.18916666666667,39.65861111111111],[-119.18916666666667,39.65861111111111],[-119.10166666666666,39.70861111111111],[-119.10166666666666,39.70861111111111],[-119.10166666666666,39.70861111111111],[-119.03972222222222,39.74472222222222],[-118.57916666666667,39.973333333333336],[-118.57916666666667,39.973333333333336],[-118.485,40.01166666666666],[-118.41777777777779,40.038888888888884],[-118.41777777777779,40.038888888888884],[-118.41777777777779,40.038888888888884],[-118.41777777777779,40.038888888888884],[-118.25583333333333,40.10416666666667],[-118.25583333333333,40.10416666666667],[-118.165,40.14055555555556],[-118.165,40.14055555555556],[-118.165,40.14055555555556],[-118.00166666666667,40.20388888888889],[-118.00166666666667,40.20388888888889],[-117.92805555555556,40.225833333333334],[-117.92805555555556,40.225833333333334],[-117.92805555555556,40.225833333333334],[-117.83333333333333,40.25416666666667],[-117.83333333333333,40.25416666666667],[-117.66527777777779,40.305],[-117.66527777777779,40.305],[-117.42416666666666,40.3775],[-117.32444444444444,40.406666666666666],[-117.32444444444444,40.406666666666666],[-117.32444444444444,40.406666666666666],[-117.2538888888889,40.42722222222222],[-117.15416666666667,40.45638888888889],[-117.15416666666667,40.45638888888889],[-116.91111111111111,40.52638888888889],[-116.81055555555555,40.555277777777775],[-116.81055555555555,40.555277777777775],[-116.77416666666666,40.56583333333333],[-116.77416666666666,40.56583333333333],[-116.77416666666666,40.56583333333333],[-116.67305555555556,40.595],[-116.67305555555556,40.595],[-116.50333333333333,40.64388888888889],[-116.335,40.69166666666666],[-116.335,40.69166666666666],[-116.335,40.69166666666666],[-116.16194444444444,40.74027777777778],[-116.16194444444444,40.74027777777778],[-116.16194444444444,40.74027777777778],[-115.99333333333334,40.78722222222222],[-115.99333333333334,40.78722222222222],[-115.99333333333334,40.78722222222222],[-115.82388888888889,40.83416666666667],[-115.82388888888889,40.83416666666667],[-115.65333333333334,40.88166666666667],[-115.65333333333334,40.88166666666667],[-115.65333333333334,40.88166666666667],[-115.65333333333334,40.88166666666667],[-115.65333333333334,40.88166666666667],[-115.31472222222222,40.973888888888894],[-115.31472222222222,40.973888888888894],[-115.31472222222222,40.973888888888894],[-114.81055555555555,41.11027777777778],[-114.81055555555555,41.11027777777778],[-114.81055555555555,41.11027777777778],[-114.81055555555555,41.11027777777778],[-114.29305555555555,41.24611111111111],[-114.29305555555555,41.24611111111111],[-113.9538888888889,41.33388888888889],[-113.9538888888889,41.33388888888889],[-113.9538888888889,41.33388888888889],[-113.9538888888889,41.33388888888889],[-113.78583333333333,41.37305555555555],[-113.78583333333333,41.37305555555555],[-113.78583333333333,41.37305555555555],[-113.61361111111111,41.40472222222222],[-113.61361111111111,41.40472222222222],[-113.26611111111112,41.467222222222226],[-112.92277777777778,41.528055555555554],[-112.92277777777778,41.528055555555554],[-112.92277777777778,41.528055555555554],[-112.92277777777778,41.528055555555554],[-112.57222222222222,41.58888888888889],[-112.57222222222222,41.58888888888889],[-112.57222222222222,41.58888888888889],[-112.39888888888889,41.61833333333333],[-112.39888888888889,41.61833333333333],[-112.39888888888889,41.61833333333333],[-112.39888888888889,41.61833333333333],[-111.18916666666667,41.81777777777778],[-111.18916666666667,41.81777777777778],[-111.18916666666667,41.81777777777778],[-111.18916666666667,41.81777777777778],[-111.18916666666667,41.81777777777778],[-110.48111111111112,41.92777777777778],[-110.31166666666667,41.95333333333333],[-110.31166666666667,41.95333333333333],[-110.31166666666667,41.95333333333333],[-110.14027777777778,41.97916666666667],[-110.14027777777778,41.97916666666667],[-110.14027777777778,41.97916666666667],[-109.96638888888889,42],[-109.61416666666666,42.003055555555555],[-109.61416666666666,42.003055555555555],[-109.61416666666666,42.003055555555555],[-109.61416666666666,42.003055555555555],[-109.47277777777778,42.00361111111111],[-109.47277777777778,42.00361111111111],[-109.40333333333334,42.004444444444445],[-109.30083333333333,42.004444444444445],[-109.30083333333333,42.004444444444445],[-109.19472222222223,42.00472222222222],[-109.19472222222223,42.00472222222222],[-109.12249999999999,42.00472222222222],[-109.12249999999999,42.00472222222222],[-109.01611111111112,42.00472222222222],[-108.94333333333334,42.00472222222222],[-108.94333333333334,42.00472222222222],[-108.94333333333334,42.00472222222222],[-108.87527777777777,42.00472222222222],[-108.87527777777777,42.00472222222222],[-108.87527777777777,42.00472222222222],[-108.33944444444444,42.00277777777778],[-108.33944444444444,42.00277777777778],[-108.1588888888889,42.00416666666667],[-108.1588888888889,42.00416666666667],[-107.98194444444445,42.00833333333333],[-107.98194444444445,42.00833333333333],[-107.80055555555555,42.01083333333333],[-107.80055555555555,42.01083333333333],[-107.80055555555555,42.01083333333333],[-107.69472222222223,42.01222222222222],[-107.62305555555555,42.01305555555555],[-107.62305555555555,42.01305555555555],[-107.62305555555555,42.01305555555555],[-107.51611111111112,42.01416666666667],[-107.51611111111112,42.01416666666667],[-107.44361111111111,42.015],[-107.44361111111111,42.015],[-107.26777777777778,42.016666666666666],[-107.26777777777778,42.016666666666666],[-107.15916666666668,42.0175],[-107.15916666666668,42.0175],[-107.15916666666668,42.0175],[-106.91027777777778,42.019444444444446],[-106.91027777777778,42.019444444444446],[-106.80138888888888,42.019999999999996],[-106.80138888888888,42.019999999999996],[-106.80138888888888,42.019999999999996],[-106.61166666666666,42.020833333333336],[-106.55611111111111,42.02111111111111],[-105.65361111111112,42.019999999999996],[-105.65361111111112,42.019999999999996],[-105.65361111111112,42.019999999999996],[-105.4786111111111,42.01916666666666],[-105.4786111111111,42.01916666666666],[-105.4786111111111,42.01916666666666],[-104.94472222222223,42.01416666666667],[-104.94472222222223,42.01416666666667],[-104.76861111111111,42.01222222222222],[-104.76861111111111,42.01222222222222],[-104.76861111111111,42.01222222222222],[-104.76861111111111,42.01222222222222],[-104.41083333333334,42.0075],[-104.41083333333334,42.0075],[-104.41083333333334,42.0075],[-104.23444444444445,42.00388888888889],[-104.23444444444445,42.00388888888889],[-104.23444444444445,42.00388888888889],[-103.88,42.00083333333333],[-103.88,42.00083333333333],[-103.31,42.00416666666667],[-103.31,42.00416666666667],[-103.13,42.00416666666667],[-103.13,42.00416666666667],[-103.13,42.00416666666667],[-102.40972222222223,42.0025],[-102.40972222222223,42.0025],[-102.40972222222223,42.0025],[-102.40972222222223,42.0025],[-102.02694444444444,42.00416666666667],[-102.02694444444444,42.00416666666667],[-101.89361111111111,41.99916666666667],[-101.89361111111111,41.99916666666667],[-101.84694444444445,42.0025],[-101.7125,41.99722222222222],[-101.7125,41.99722222222222],[-101.53222222222222,41.995],[-101.53222222222222,41.995],[-101.53222222222222,41.995],[-101.48944444444444,41.995555555555555],[-101.35166666666666,41.9925],[-101.35166666666666,41.9925],[-101.30916666666667,41.99277777777778],[-101.30916666666667,41.99277777777778],[-101.17305555555556,41.98972222222222],[-101.17305555555556,41.98972222222222],[-100.9475,41.98638888888889],[-100.9475,41.98638888888889],[-100.80777777777777,41.98305555555556],[-100.62555555555555,41.983333333333334],[-100.62555555555555,41.983333333333334],[-100.62555555555555,41.983333333333334],[-100.62555555555555,41.983333333333334],[-100.21555555555555,41.99],[-100.21555555555555,41.99],[-100.21555555555555,41.99],[-100.11555555555555,41.99138888888889],[-99.8436111111111,41.99444444444445],[-99.71111111111111,41.99611111111111],[-99.66277777777778,41.99638888888889],[-99.66277777777778,41.99638888888889],[-99.66277777777778,41.99638888888889],[-99.66277777777778,41.99638888888889],[-99.51416666666667,41.99777777777778],[-99.51416666666667,41.99777777777778],[-99.51305555555555,41.99777777777778],[-99.33027777777778,41.99916666666667],[-99.33027777777778,41.99916666666667],[-99.14972222222222,42.000277777777775],[-99.14972222222222,42.000277777777775],[-98.96805555555555,42.00083333333333],[-98.96805555555555,42.00083333333333],[-98.96805555555555,42.00083333333333],[-98.78694444444444,42.00138888888889],[-98.42555555555556,42.00138888888889],[-98.42555555555556,42.00138888888889],[-98.42222222222223,42.00138888888889],[-98.24027777777778,42.00111111111111],[-98.24027777777778,42.00111111111111],[-98.02472222222222,42],[-98.02472222222222,42],[-97.8436111111111,42.00527777777778],[-97.8436111111111,42.00527777777778],[-97.8436111111111,42.00527777777778],[-97.8436111111111,42.00527777777778],[-97.33527777777778,42.02166666666667],[-97.11527777777778,42.02777777777778],[-97.11527777777778,42.02777777777778],[-96.96805555555555,42.03194444444444],[-96.96805555555555,42.03194444444444],[-96.96805555555555,42.03194444444444],[-96.7875,42.03666666666666],[-96.7875,42.03666666666666],[-96.23944444444444,42.04861111111111],[-96.23944444444444,42.04861111111111],[-96.05888888888889,42.052499999999995],[-96.05888888888889,42.052499999999995],[-95.69638888888889,42.058055555555555],[-95.69638888888889,42.058055555555555],[-95.69638888888889,42.058055555555555],[-95.69638888888889,42.058055555555555],[-95.51527777777778,42.06083333333333],[-95.33638888888889,42.06361111111111],[-95.1575,42.065],[-95.1575,42.065],[-95.0038888888889,42.06333333333333],[-95.0038888888889,42.06333333333333],[-94.82416666666666,42.06222222222222],[-94.82416666666666,42.06222222222222],[-94.64444444444445,42.05972222222222],[-94.61222222222221,42.059444444444445],[-94.61222222222221,42.059444444444445],[-94.46083333333334,42.0575],[-94.28,42.055],[-94.28,42.055],[-94.28,42.055],[-93.88055555555555,42.04861111111111],[-93.88055555555555,42.04861111111111],[-93.73166666666667,42.045833333333334],[-93.73166666666667,42.045833333333334],[-93.55055555555555,42.04222222222222],[-93.51388888888889,42.04138888888889],[-93.51388888888889,42.04138888888889],[-93.3325,42.03777777777778],[-93.3325,42.03777777777778],[-93.1888888888889,42.03472222222222],[-93.1888888888889,42.03472222222222],[-92.83,42.025277777777774],[-92.83,42.025277777777774],[-92.79277777777777,42.024166666666666],[-92.79277777777777,42.024166666666666],[-92.65027777777779,42.02027777777778],[-92.65027777777779,42.02027777777778],[-92.65027777777779,42.02027777777778],[-92.24861111111112,42.00805555555556],[-92.06722222222221,42.00222222222222],[-92.06722222222221,42.00222222222222],[-91.88694444444445,41.98222222222223],[-91.88694444444445,41.98222222222223],[-91.88694444444445,41.98222222222223],[-91.37888888888888,41.90277777777778],[-91.19888888888889,41.87416666666667],[-91.19888888888889,41.87416666666667],[-91.12666666666667,41.862500000000004],[-91.01666666666667,41.844722222222224],[-91.01666666666667,41.844722222222224],[-90.83722222222222,41.815555555555555],[-90.83722222222222,41.815555555555555],[-90.66083333333334,41.78611111111111],[-90.62194444444444,41.780277777777776],[-90.62194444444444,41.780277777777776],[-90.62194444444444,41.780277777777776],[-90.29194444444444,41.72361111111111],[-90.11361111111111,41.693888888888885],[-89.93444444444445,41.66305555555555],[-89.93444444444445,41.66305555555555],[-89.93444444444445,41.66305555555555],[-89.93444444444445,41.66305555555555],[-89.39361111111111,41.56777777777778],[-89.39361111111111,41.56777777777778],[-89.03083333333333,41.50222222222222],[-89.03083333333333,41.50222222222222],[-89.03083333333333,41.50222222222222],[-89.03083333333333,41.50222222222222],[-88.67361111111111,41.4375],[-88.67361111111111,41.4375],[-88.3175,41.37],[-88.3175,41.37],[-88.3175,41.37],[-87.96944444444445,41.30361111111111],[-87.96944444444445,41.30361111111111],[-87.79194444444444,41.269999999999996],[-87.79194444444444,41.269999999999996],[-87.61527777777778,41.254444444444445],[-87.61527777777778,41.254444444444445],[-87.61527777777778,41.254444444444445],[-86.6325,41.163888888888884],[-86.6325,41.163888888888884],[-86.6325,41.163888888888884],[-86.24638888888889,41.13472222222222],[-86.17027777777778,41.12888888888889],[-86.17027777777778,41.12888888888889],[-85.64750000000001,41.08694444444445],[-85.54222222222222,41.07805555555556],[-85.36833333333333,41.06333333333333],[-85.36833333333333,41.06333333333333],[-84.84055555555555,41.0175],[-84.66333333333334,41.00138888888889],[-84.66333333333334,41.00138888888889],[-84.48916666666666,40.98527777777778],[-84.41888888888889,40.978611111111114],[-84.24722222222222,40.96277777777778],[-83.93555555555555,40.93277777777777],[-83.93555555555555,40.93277777777777],[-83.78694444444444,40.918055555555554],[-83.78694444444444,40.918055555555554],[-83.6125,40.90083333333333],[-83.6125,40.90083333333333],[-83.56,40.89555555555555],[-83.3,40.869166666666665],[-83.3,40.869166666666665],[-83.12333333333332,40.85111111111111],[-83.12333333333332,40.85111111111111],[-83.12333333333332,40.85111111111111],[-82.39555555555556,40.77166666666667],[-82.39555555555556,40.77166666666667],[-82.2225,40.75222222222222],[-82.2225,40.75222222222222],[-81.69777777777779,40.69166666666666],[-81.69777777777779,40.69166666666666],[-81.69777777777779,40.69166666666666],[-81.16361111111112,40.6275],[-81.0275,40.61055555555556],[-81.0275,40.61055555555556],[-81.0275,40.61055555555556],[-80.97805555555556,40.60444444444445],[-80.79833333333333,40.585],[-80.79833333333333,40.585],[-80.13916666666667,40.54416666666666],[-79.96222222222222,40.5325],[-79.93694444444445,40.53055555555555],[-79.93694444444445,40.53055555555555],[-79.78611111111111,40.51972222222222],[-79.58111111111111,40.50611111111111],[-79.58111111111111,40.50611111111111],[-79.58111111111111,40.50611111111111],[-79.43555555555555,40.495555555555555],[-79.23194444444445,40.48111111111111],[-79.23194444444445,40.48111111111111],[-79.05555555555556,40.46805555555556],[-79.05555555555556,40.46805555555556],[-78.885,40.45527777777778],[-78.7125,40.44194444444444],[-78.7125,40.44194444444444],[-78.7125,40.44194444444444],[-78.53999999999999,40.42833333333333],[-78.53999999999999,40.42833333333333],[-78.36888888888888,40.41444444444444],[-78.36777777777777,40.41444444444444],[-78.20055555555555,40.401111111111106],[-78.20055555555555,40.401111111111106],[-78.20055555555555,40.401111111111106],[-78.03916666666666,40.38777777777778],[-77.8863888888889,40.374722222222225],[-77.57944444444443,40.34805555555556],[-77.43472222222222,40.33527777777778],[-77.43472222222222,40.33527777777778],[-77.26027777777777,40.31444444444444],[-77.00805555555556,40.276944444444446],[-77.00805555555556,40.276944444444446],[-76.86694444444444,40.25611111111111],[-76.73722222222223,40.23638888888889],[-76.73722222222223,40.23638888888889],[-76.60055555555554,40.21555555555556],[-76.59583333333333,40.215],[-76.59583333333333,40.215],[-76.4,40.18333333333333],[-76.26666666666667,40.166666666666664],[-76.09472222222222,40.13722222222222],[-76.03333333333333,40.13333333333333],[-76.03333333333333,40.13333333333333],[-75.9,40.1],[-75.87277777777777,40.10194444444445],[-75.87277777777777,40.10194444444445],[-75.81666666666666,40.1],[-75.77277777777778,40.086111111111116],[-75.71666666666667,40.083333333333336],[-75.67361111111111,40.078611111111115],[-75.67361111111111,40.078611111111115],[-75.67361111111111,40.078611111111115],[-75.61666666666666,40.083333333333336],[-75.53333333333333,40.06666666666667],[-75.43333333333334,40.06666666666667],[-75.38138888888888,40.058055555555555],[-75.38138888888888,40.058055555555555],[-75.19,40.015277777777776],[-75.19,40.015277777777776],[-75.15,40],[-75.03416666666666,39.978611111111114],[-75.03416666666666,39.978611111111114],[-75.01666666666667,39.95],[-75.02416666666666,39.927499999999995],[-75.05,39.916666666666664],[-75.1,39.9],[-75.1,39.9],[-75.18666666666667,39.882222222222225],[-75.18666666666667,39.882222222222225],[-75.23805555555556,39.87222222222222],[-75.23805555555556,39.87222222222222]],"type":"LineString"}
}
