{
  "id": 2015357685,
  "type": "Feature",
  "properties": {
    "geom:area": 0,
    "geom:bbox": "-122.537600,36.729600,-121.425920,37.668000",
    "geom:latitude": 37.23218901505821,
    "geom:longitude": -122.03918234032302,
    "src:alt_label": "swim-takeoff",
    "src:geom": "swim",
    "swim:elevations": [
      122,
      546,
      1035,
      1484,
      1828,
      2036,
      2238,
      2470,
      2787,
      2947,
      3267,
      3543,
      3969,
      4282,
      4714,
      4857,
      5428,
      5781,
      5936,
      6579,
      6981,
      7277,
      7347,
      7503,
      7738,
      8120,
      8454,
      8518,
      8798,
      8938,
      9012,
      9038,
      9446,
      9654
    ],
    "swim:geom": "takeoff",
    "swim:timestamps": [
      1776845732,
      1776845767,
      1776845813,
      1776845843,
      1776845871,
      1776845888,
      1776845910,
      1776845933,
      1776845958,
      1776845970,
      1776845995,
      1776846019,
      1776846057,
      1776846081,
      1776846117,
      1776846127,
      1776846175,
      1776846202,
      1776846214,
      1776846263,
      1776846297,
      1776846326,
      1776846332,
      1776846347,
      1776846369,
      1776846408,
      1776846444,
      1776846451,
      1776846483,
      1776846498,
      1776846510,
      1776846513,
      1776846568,
      1776846595
    ],
    "wof:geomhash": "2ef64aca70d433dbc7338bf81aee2620",
    "wof:id": 2015357685,
    "wof:repo": "sfomuseum-data-flights-2026-04"
  },
  "bbox": [
    -122.5376,
    36.7296,
    -121.42592,
    37.668
  ],
  "geometry": {"coordinates":[[-122.38647,37.62356],[-122.41581,37.63598],[-122.46342,37.65671],[-122.49567,37.668],[-122.5262,37.65967],[-122.5376,37.64585],[-122.53656,37.62216],[-122.51481,37.60077],[-122.48626,37.5779],[-122.47192,37.5668],[-122.44074,37.54287],[-122.41018,37.51921],[-122.3587,37.4784],[-122.32258,37.45044],[-122.26785,37.40777],[-122.25307,37.39605],[-122.17555,37.33356],[-122.13176,37.29826],[-122.11308,37.28297],[-122.03005,37.21589],[-121.97142,37.16929],[-121.92142,37.12937],[-121.91051,37.1207],[-121.88354,37.09901],[-121.84444,37.06776],[-121.77553,37.01277],[-121.70887,36.95931],[-121.69641,36.94914],[-121.63755,36.90103],[-121.60917,36.87788],[-121.58717,36.85969],[-121.58152,36.85519],[-121.47767,36.77144],[-121.42592,36.7296]],"type":"LineString"}
}
