{
  "id": 2015358643,
  "type": "Feature",
  "properties": {
    "date:inception_lower": "2026-04-22",
    "date:inception_upper": "2026-04-22",
    "edtf:cessation": "",
    "edtf:inception": "2026-04-22",
    "flysfo:actual_timestamp": -1,
    "flysfo:airline": "HA",
    "flysfo:date": "2026-04-22",
    "flysfo:estimated_timestamp": 1776871200,
    "flysfo:event": "D",
    "flysfo:flight_number": "HA811",
    "flysfo:gate": "",
    "flysfo:journey": "SFO-HNL",
    "flysfo:scheduled_timestamp": 1776871200,
    "flysfo:timestamp": 1776871200,
    "geom:area": 0,
    "geom:bbox": "-157.918416,21.332508,-122.370943,37.617990",
    "geom:latitude": 29.475248999999998,
    "geom:longitude": -140.1446795,
    "iata:airline": "HA",
    "icao:airline": "HAL",
    "lbl:latitude": 37.61799,
    "lbl:longitude": -122.370943,
    "sfomuseum:airline_id": 1159284489,
    "sfomuseum:arrival_id": 102533997,
    "sfomuseum:departure_id": 102527513,
    "sfomuseum:flight_id": "20260422-D-HAL-811",
    "sfomuseum:flight_number": [
      "HAL811",
      "HA811"
    ],
    "sfomuseum:placetype": "flight",
    "src:geom": "flysfo",
    "wof:belongsto": [],
    "wof:country": "US",
    "wof:created": 1776960837,
    "wof:geomhash": "ff961493fc59fc665836e174da62aa8e",
    "wof:hierarchy": [
      {
        "custom_id": 2015358643,
        "flight_id": 2015358643
      }
    ],
    "wof:id": 2015358643,
    "wof:involves": [
      102533997,
      102527513,
      1159284489,
      -1
    ],
    "wof:lastmodified": 1776960837,
    "wof:name": "HA811 (SFO-HNL)",
    "wof:parent_id": -1,
    "wof:placetype": "custom",
    "wof:placetype_alt": [
      "flight"
    ],
    "wof:repo": "sfomuseum-data-flights-2026-04",
    "wof:superseded_by": [],
    "wof:supersedes": []
  },
  "bbox": [
    -157.918416,
    21.332508,
    -122.370943,
    37.61799
  ],
  "geometry": {"coordinates":[[-122.370943,37.61799],[-157.918416,21.332508]],"type":"MultiPoint"}
}
