{
  "id": 2031130155,
  "type": "Feature",
  "properties": {
    "geom:area": 0,
    "geom:bbox": "-122.395040,37.625330,-121.283570,38.402590",
    "geom:latitude": 38.01621895562664,
    "geom:longitude": -121.8496508756293,
    "src:alt_label": "swim-takeoff",
    "src:geom": "swim",
    "swim:elevations": [
      245,
      333,
      851,
      1039,
      1221,
      1393,
      1910,
      2282,
      2789,
      3203,
      3456,
      3575,
      3892,
      4136,
      4358,
      4788,
      5191,
      5283,
      5593,
      5949,
      6336,
      6515,
      6675,
      6880,
      7261,
      7581,
      7632
    ],
    "swim:geom": "takeoff",
    "swim:timestamps": [
      1777301155,
      1777301161,
      1777301215,
      1777301234,
      1777301263,
      1777301287,
      1777301335,
      1777301360,
      1777301394,
      1777301424,
      1777301455,
      1777301472,
      1777301513,
      1777301532,
      1777301552,
      1777301585,
      1777301631,
      1777301641,
      1777301675,
      1777301716,
      1777301754,
      1777301777,
      1777301796,
      1777301828,
      1777301886,
      1777301930,
      1777301942
    ],
    "wof:geomhash": "7221cf4cf53fc1ae3fc8157a7527db0f",
    "wof:id": 2031130155,
    "wof:repo": "sfomuseum-data-flights-2026-04"
  },
  "bbox": [
    -122.39504,
    37.62533,
    -121.28357,
    38.40259
  ],
  "geometry": {"coordinates":[[-122.39108,37.62533],[-122.39504,37.62744],[-122.3793,37.65846],[-122.36179,37.6643],[-122.33164,37.67323],[-122.30469,37.68334],[-122.24039,37.70798],[-122.20726,37.72559],[-122.176,37.76027],[-122.14699,37.79234],[-122.11547,37.82697],[-122.09728,37.84732],[-122.04575,37.89628],[-122.01415,37.91741],[-121.98276,37.93772],[-121.92828,37.97382],[-121.85359,38.02518],[-121.83694,38.03677],[-121.77707,38.0767],[-121.70628,38.12398],[-121.63919,38.16874],[-121.59659,38.1974],[-121.56236,38.22088],[-121.50357,38.26042],[-121.39452,38.33269],[-121.30717,38.38845],[-121.28357,38.40259]],"type":"LineString"}
}
