{
  "id": 2015351681,
  "type": "Feature",
  "properties": {
    "geom:area": 0,
    "geom:bbox": "-122.515780,37.627330,-122.073370,38.505050",
    "geom:latitude": 38.03633563944691,
    "geom:longitude": -122.29989531020352,
    "src:alt_label": "swim-takeoff",
    "src:geom": "swim",
    "swim:elevations": [
      213,
      603,
      717,
      1346,
      2093,
      3441,
      3865,
      4233,
      4410,
      4552,
      4834,
      4875,
      4877,
      4922,
      5178,
      5403,
      5721,
      5899
    ],
    "swim:geom": "takeoff",
    "swim:timestamps": [
      1776780297,
      1776780327,
      1776780337,
      1776780415,
      1776780473,
      1776780598,
      1776780652,
      1776780684,
      1776780701,
      1776780713,
      1776780746,
      1776780767,
      1776780785,
      1776780863,
      1776780885,
      1776780908,
      1776780940,
      1776780963
    ],
    "wof:geomhash": "0e7aa5535d5956115d59730dafacee15",
    "wof:id": 2015351681,
    "wof:repo": "sfomuseum-data-flights-2026-04"
  },
  "bbox": [
    -122.51578,
    37.62733,
    -122.07337,
    38.50505
  ],
  "geometry": {"coordinates":[[-122.39458,37.62733],[-122.42175,37.63904],[-122.43147,37.64304],[-122.51132,37.67769],[-122.51578,37.74696],[-122.40712,37.90621],[-122.35231,37.98616],[-122.31744,38.03707],[-122.2965,38.06382],[-122.28183,38.0823],[-122.24119,38.13353],[-122.2161,38.16483],[-122.19285,38.19418],[-122.09869,38.31698],[-122.07947,38.35528],[-122.07337,38.39698],[-122.0785,38.4594],[-122.08294,38.50505]],"type":"LineString"}
}
