{
  "id": 2015241125,
  "type": "Feature",
  "properties": {
    "geom:area": 0,
    "geom:bbox": "-158.300000,21.316667,-122.448333,37.831111",
    "geom:latitude": 31.02757494189506,
    "geom:longitude": -141.17483393571152,
    "src:alt_label": "swim-path",
    "src:geom": "swim",
    "swim:altitudes": [
      "030",
      "030",
      "030",
      "030",
      "107",
      "107",
      "107",
      "107",
      "107",
      "163",
      "163",
      "163",
      "163",
      "183",
      "183",
      "183",
      "183",
      "183",
      "217",
      "217",
      "217",
      "217",
      "279",
      "279",
      "279",
      "279",
      "279",
      "360C",
      "360C",
      "360C",
      "360C",
      "360C",
      "360C",
      "360C",
      "360C",
      "360C",
      "360C",
      "360C",
      "360C",
      "360C",
      "360C",
      "360C",
      "360C",
      "360C",
      "360C",
      "360C",
      "360C",
      "380",
      "380",
      "380",
      "380",
      "380",
      "380",
      "380",
      "380",
      "380",
      "380",
      "380",
      "380",
      "380",
      "380",
      "380",
      "380",
      "380",
      "380",
      "380",
      "380",
      "380",
      "380",
      "380",
      "380",
      "380",
      "380",
      "380",
      "367T",
      "367T",
      "367T",
      "346T",
      "346T",
      "339T",
      "339T",
      "339T",
      "339T",
      "295T",
      "295T",
      "295T",
      "279T",
      "279T",
      "249T",
      "249T",
      "249T",
      "249T",
      "243T",
      "243T",
      "243T",
      "238T",
      "231T",
      "231T",
      "231T",
      "227T",
      "227T",
      "219T",
      "219T",
      "210T",
      "210T",
      "175T",
      "175T",
      "175T",
      "117T",
      "117T",
      "117T",
      "035T",
      "035T",
      "026T",
      "026T",
      "026T"
    ],
    "swim:geom": "path",
    "swim:speeds": [
      169,
      169,
      169,
      169,
      310,
      310,
      310,
      310,
      310,
      387,
      387,
      387,
      387,
      393,
      393,
      393,
      393,
      393,
      410,
      410,
      410,
      410,
      436,
      436,
      436,
      436,
      436,
      441,
      441,
      441,
      441,
      438,
      438,
      438,
      438,
      438,
      438,
      433,
      433,
      431,
      431,
      431,
      430,
      430,
      430,
      430,
      430,
      380,
      380,
      380,
      380,
      380,
      390,
      390,
      390,
      390,
      390,
      390,
      390,
      380,
      380,
      380,
      380,
      380,
      380,
      380,
      400,
      400,
      400,
      400,
      400,
      400,
      400,
      400,
      400,
      400,
      400,
      410,
      410,
      400,
      400,
      400,
      400,
      380,
      380,
      380,
      370,
      370,
      370,
      370,
      370,
      370,
      370,
      370,
      370,
      370,
      370,
      370,
      370,
      370,
      370,
      370,
      370,
      360,
      360,
      350,
      350,
      350,
      330,
      330,
      330,
      200,
      200,
      180,
      180,
      180
    ],
    "swim:timestamps": [
      1775683545,
      1775683545,
      1775683545,
      1775683545,
      1775683785,
      1775683785,
      1775683785,
      1775683785,
      1775683785,
      1775683965,
      1775683965,
      1775683965,
      1775683965,
      1775684025,
      1775684025,
      1775684025,
      1775684025,
      1775684025,
      1775684146,
      1775684146,
      1775684146,
      1775684146,
      1775684386,
      1775684386,
      1775684386,
      1775684386,
      1775684386,
      1775684806,
      1775684806,
      1775684806,
      1775684806,
      1775684927,
      1775684927,
      1775684927,
      1775684987,
      1775684987,
      1775684987,
      1775685047,
      1775685047,
      1775685167,
      1775685167,
      1775685167,
      1775685227,
      1775685227,
      1775685227,
      1775685227,
      1775685467,
      1775698756,
      1775698756,
      1775698756,
      1775698816,
      1775698816,
      1775698934,
      1775698934,
      1775699054,
      1775699054,
      1775699115,
      1775699115,
      1775699115,
      1775699175,
      1775699175,
      1775699175,
      1775699295,
      1775699295,
      1775699295,
      1775699295,
      1775699596,
      1775699596,
      1775699596,
      1775699596,
      1775699777,
      1775699777,
      1775699777,
      1775699777,
      1775699957,
      1775699957,
      1775699957,
      1775700077,
      1775700077,
      1775700138,
      1775700138,
      1775700138,
      1775700138,
      1775700378,
      1775700378,
      1775700378,
      1775700499,
      1775700499,
      1775700619,
      1775700619,
      1775700619,
      1775700619,
      1775700679,
      1775700679,
      1775700679,
      1775700739,
      1775700859,
      1775700859,
      1775700859,
      1775700920,
      1775700920,
      1775701040,
      1775701040,
      1775701160,
      1775701160,
      1775701340,
      1775701340,
      1775701340,
      1775701521,
      1775701521,
      1775701521,
      1775702002,
      1775702002,
      1775702063,
      1775702063,
      1775702063
    ],
    "wof:geomhash": "e9b947afeb05a1c93b49cd8141aa5fe0",
    "wof:id": 2015241125,
    "wof:repo": "sfomuseum-data-flights-2026-04"
  },
  "bbox": [
    -158.3,
    21.316666666666666,
    -122.44833333333334,
    37.83111111111111
  ],
  "geometry": {"coordinates":[[-122.44833333333334,37.650555555555556],[-122.44833333333334,37.650555555555556],[-122.44833333333334,37.650555555555556],[-122.44833333333334,37.650555555555556],[-122.80416666666666,37.69277777777778],[-122.80416666666666,37.69277777777778],[-122.80416666666666,37.69277777777778],[-122.80416666666666,37.69277777777778],[-122.80416666666666,37.69277777777778],[-123.19416666666667,37.71555555555556],[-123.19416666666667,37.71555555555556],[-123.19416666666667,37.71555555555556],[-123.19416666666667,37.71555555555556],[-123.33138888888888,37.723055555555554],[-123.33138888888888,37.723055555555554],[-123.33138888888888,37.723055555555554],[-123.33138888888888,37.723055555555554],[-123.33138888888888,37.723055555555554],[-123.61694444444444,37.73833333333334],[-123.61694444444444,37.73833333333334],[-123.61694444444444,37.73833333333334],[-123.61694444444444,37.73833333333334],[-124.21861111111112,37.768055555555556],[-124.21861111111112,37.768055555555556],[-124.21861111111112,37.768055555555556],[-124.21861111111112,37.768055555555556],[-124.21861111111112,37.768055555555556],[-125.30833333333334,37.81444444444444],[-125.30833333333334,37.81444444444444],[-125.30833333333334,37.81444444444444],[-125.30833333333334,37.81444444444444],[-125.61388888888888,37.82555555555556],[-125.61388888888888,37.82555555555556],[-125.61388888888888,37.82555555555556],[-125.77027777777778,37.83111111111111],[-125.77027777777778,37.83111111111111],[-125.77027777777778,37.83111111111111],[-125.92055555555557,37.819722222222225],[-125.92055555555557,37.819722222222225],[-126.21916666666667,37.78916666666667],[-126.21916666666667,37.78916666666667],[-126.21916666666667,37.78916666666667],[-126.345,37.76888888888889],[-126.345,37.76888888888889],[-126.345,37.76888888888889],[-126.345,37.76888888888889],[-126.95555555555556,37.66833333333333],[-154.65,25.2],[-154.65,25.2],[-154.65,25.2],[-154.75,25.133333333333333],[-154.75,25.133333333333333],[-154.91666666666666,25],[-154.91666666666666,25],[-155.1,24.85],[-155.1,24.85],[-155.2,24.783333333333335],[-155.2,24.783333333333335],[-155.2,24.783333333333335],[-155.28333333333333,24.7],[-155.28333333333333,24.7],[-155.28333333333333,24.7],[-155.43333333333334,24.55],[-155.43333333333334,24.55],[-155.43333333333334,24.55],[-155.43333333333334,24.55],[-155.85,24.15],[-155.85,24.15],[-155.85,24.15],[-155.85,24.15],[-156.08333333333334,23.916666666666668],[-156.08333333333334,23.916666666666668],[-156.08333333333334,23.916666666666668],[-156.08333333333334,23.916666666666668],[-156.33333333333334,23.666666666666668],[-156.33333333333334,23.666666666666668],[-156.33333333333334,23.666666666666668],[-156.5,23.5],[-156.5,23.5],[-156.58333333333334,23.416666666666668],[-156.58333333333334,23.416666666666668],[-156.58333333333334,23.416666666666668],[-156.58333333333334,23.416666666666668],[-156.9,23.1],[-156.9,23.1],[-156.9,23.1],[-157.06666666666666,22.95],[-157.06666666666666,22.95],[-157.21666666666667,22.8],[-157.21666666666667,22.8],[-157.21666666666667,22.8],[-157.21666666666667,22.8],[-157.28333333333333,22.716666666666665],[-157.28333333333333,22.716666666666665],[-157.28333333333333,22.716666666666665],[-157.36666666666667,22.633333333333333],[-157.51666666666668,22.483333333333334],[-157.51666666666668,22.483333333333334],[-157.51666666666668,22.483333333333334],[-157.58333333333334,22.416666666666668],[-157.58333333333334,22.416666666666668],[-157.73333333333332,22.266666666666666],[-157.73333333333332,22.266666666666666],[-157.88333333333333,22.116666666666667],[-157.88333333333333,22.116666666666667],[-158.1,21.883333333333333],[-158.1,21.883333333333333],[-158.1,21.883333333333333],[-158.3,21.683333333333334],[-158.3,21.683333333333334],[-158.3,21.683333333333334],[-158.13333333333333,21.316666666666666],[-158.13333333333333,21.316666666666666],[-158.06666666666666,21.316666666666666],[-158.06666666666666,21.316666666666666],[-158.06666666666666,21.316666666666666]],"type":"LineString"}
}
