{
  "id": 2015299495,
  "type": "Feature",
  "properties": {
    "geom:area": 0,
    "geom:bbox": "-122.398030,37.625420,-121.245840,37.965870",
    "geom:latitude": 37.83283529252169,
    "geom:longitude": -121.84358752439086,
    "src:alt_label": "swim-takeoff",
    "src:geom": "swim",
    "swim:elevations": [
      213,
      575,
      898,
      1230,
      1420,
      2014,
      2520,
      2756,
      2897,
      3247,
      3422,
      3584,
      4111,
      4322,
      4860,
      5179,
      5430,
      5695,
      5997,
      6167,
      6449,
      6581,
      6800,
      7050,
      7243
    ],
    "swim:geom": "takeoff",
    "swim:timestamps": [
      1776258952,
      1776258971,
      1776258998,
      1776259032,
      1776259059,
      1776259101,
      1776259136,
      1776259153,
      1776259164,
      1776259194,
      1776259218,
      1776259238,
      1776259286,
      1776259303,
      1776259347,
      1776259374,
      1776259399,
      1776259423,
      1776259452,
      1776259468,
      1776259494,
      1776259508,
      1776259530,
      1776259560,
      1776259587
    ],
    "wof:geomhash": "1c2802e69bf73a99f4b1bfa16b927fbd",
    "wof:id": 2015299495,
    "wof:repo": "sfomuseum-data-flights-2026-04"
  },
  "bbox": [
    -122.39803,
    37.62542,
    -121.24584,
    37.96587
  ],
  "geometry": {"coordinates":[[-122.38528,37.62542],[-122.39803,37.63667],[-122.38778,37.657],[-122.34979,37.66867],[-122.31446,37.681],[-122.25345,37.70363],[-122.20337,37.72331],[-122.17936,37.73584],[-122.16345,37.74416],[-122.11925,37.76738],[-122.08075,37.7874],[-122.04644,37.80517],[-121.95327,37.836],[-121.91446,37.84305],[-121.81702,37.86089],[-121.75735,37.87231],[-121.69939,37.88343],[-121.64426,37.89373],[-121.57645,37.90596],[-121.53755,37.91297],[-121.47577,37.92396],[-121.44265,37.92998],[-121.38941,37.93985],[-121.31413,37.95363],[-121.24584,37.96587]],"type":"LineString"}
}
