{
  "id": 2015361227,
  "type": "Feature",
  "properties": {
    "geom:area": 0,
    "geom:bbox": "-122.360900,36.772010,-121.902540,37.615220",
    "geom:latitude": 37.256969852898294,
    "geom:longitude": -122.0774669119731,
    "src:alt_label": "swim-approach",
    "src:geom": "swim",
    "swim:elevations": [
      5355,
      5118,
      4988,
      4586,
      4463,
      4239,
      3897,
      3677,
      3464,
      3256,
      3084,
      2902,
      2688,
      2512,
      2306,
      2135,
      2132,
      2134,
      2134,
      2075,
      1888,
      1829,
      1671,
      1524,
      1494,
      1287,
      1129,
      874,
      733,
      701,
      574,
      459,
      322,
      117,
      129
    ],
    "swim:geom": "approach",
    "swim:timestamps": [
      1776947265,
      1776947290,
      1776947310,
      1776947358,
      1776947376,
      1776947405,
      1776947449,
      1776947475,
      1776947506,
      1776947540,
      1776947563,
      1776947589,
      1776947628,
      1776947650,
      1776947688,
      1776947726,
      1776947749,
      1776947785,
      1776947808,
      1776947826,
      1776947859,
      1776947895,
      1776947922,
      1776947965,
      1776947975,
      1776948000,
      1776948035,
      1776948087,
      1776948117,
      1776948122,
      1776948156,
      1776948180,
      1776948218,
      1776948265,
      1776948292
    ],
    "wof:geomhash": "94d8377439ef7f0f72a20d906b3d0083",
    "wof:id": 2015361227,
    "wof:repo": "sfomuseum-data-flights-2026-04"
  },
  "bbox": [
    -122.3609,
    36.77201,
    -121.90254,
    37.61522
  ],
  "geometry": {"coordinates":[[-121.90254,36.77201],[-121.91248,36.80765],[-121.92027,36.83555],[-121.93947,36.90356],[-121.94651,36.9285],[-121.95875,36.96657],[-121.98158,37.02511],[-121.99521,37.0599],[-122.01033,37.09901],[-122.02591,37.1392],[-122.03669,37.16567],[-122.04783,37.19417],[-122.08422,37.22282],[-122.11357,37.23205],[-122.15147,37.2577],[-122.13366,37.29518],[-122.11604,37.31475],[-122.08714,37.34708],[-122.07136,37.36799],[-122.06115,37.38528],[-122.0432,37.41546],[-122.04397,37.44696],[-122.05329,37.4691],[-122.08359,37.49716],[-122.09313,37.50179],[-122.11827,37.51318],[-122.15121,37.52689],[-122.19697,37.54619],[-122.22363,37.55739],[-122.22777,37.55913],[-122.25551,37.5708],[-122.27419,37.57864],[-122.30337,37.59094],[-122.33975,37.60622],[-122.3609,37.61522]],"type":"LineString"}
}
