{
  "id": 2015249881,
  "type": "Feature",
  "properties": {
    "geom:area": 0,
    "geom:bbox": "-123.440610,37.626000,-122.392420,38.240360",
    "geom:latitude": 37.926382231063535,
    "geom:longitude": -122.92011553739421,
    "src:alt_label": "swim-takeoff",
    "src:geom": "swim",
    "swim:elevations": [
      122,
      183,
      591,
      1091,
      1099,
      1343,
      1822,
      2179,
      2307,
      2802,
      3011,
      3164,
      3384,
      3417,
      3778,
      4288,
      4387,
      5002,
      5232,
      5506,
      5731,
      6103,
      6340,
      6431
    ],
    "swim:geom": "takeoff",
    "swim:timestamps": [
      1775741607,
      1775741611,
      1775741647,
      1775741698,
      1775741701,
      1775741734,
      1775741785,
      1775741815,
      1775741825,
      1775741868,
      1775741892,
      1775741918,
      1775741967,
      1775741973,
      1775742008,
      1775742053,
      1775742063,
      1775742118,
      1775742141,
      1775742172,
      1775742194,
      1775742233,
      1775742258,
      1775742270
    ],
    "wof:geomhash": "98affd19161bcc7b96eacc5d077e7526",
    "wof:id": 2015249881,
    "wof:repo": "sfomuseum-data-flights-2026-04"
  },
  "bbox": [
    -123.44061,
    37.626,
    -122.39242,
    38.24036
  ],
  "geometry": {"coordinates":[[-122.39242,37.626],[-122.39633,37.62764],[-122.43162,37.64323],[-122.48625,37.66709],[-122.48977,37.66863],[-122.52893,37.69026],[-122.59496,37.72889],[-122.63536,37.7527],[-122.64944,37.76076],[-122.71008,37.79647],[-122.74344,37.81595],[-122.77968,37.83901],[-122.86019,37.88778],[-122.86908,37.89329],[-122.93263,37.93241],[-123.01602,37.98335],[-123.03373,37.99419],[-123.13852,38.05816],[-123.18297,38.08501],[-123.24263,38.1213],[-123.28644,38.14789],[-123.36584,38.19589],[-123.41581,38.22589],[-123.44061,38.24036]],"type":"LineString"}
}
