{
  "id": 2031128065,
  "type": "Feature",
  "properties": {
    "geom:area": 0,
    "geom:bbox": "-122.535600,36.722590,-121.443420,37.667700",
    "geom:latitude": 37.207530403187015,
    "geom:longitude": -122.06465356869089,
    "src:alt_label": "swim-takeoff",
    "src:geom": "swim",
    "swim:elevations": [
      369,
      480,
      751,
      1235,
      1348,
      1376,
      1986,
      2047,
      2672,
      3184,
      3320,
      3785,
      4031,
      4161,
      4892,
      5456,
      5746,
      6014,
      6392,
      6577,
      6898,
      7411,
      7744,
      7967,
      8087,
      8383,
      8777,
      8872,
      8963,
      9136,
      9381,
      9726,
      9806
    ],
    "swim:geom": "takeoff",
    "swim:timestamps": [
      1777298627,
      1777298640,
      1777298681,
      1777298721,
      1777298732,
      1777298736,
      1777298786,
      1777298791,
      1777298833,
      1777298870,
      1777298887,
      1777298918,
      1777298933,
      1777298942,
      1777298998,
      1777299040,
      1777299065,
      1777299084,
      1777299114,
      1777299129,
      1777299158,
      1777299204,
      1777299233,
      1777299259,
      1777299271,
      1777299304,
      1777299350,
      1777299360,
      1777299374,
      1777299396,
      1777299424,
      1777299473,
      1777299483
    ],
    "wof:geomhash": "44f13a647ae4ac01d9873fb517493a51",
    "wof:id": 2031128065,
    "wof:repo": "sfomuseum-data-flights-2026-04"
  },
  "bbox": [
    -122.5356,
    36.72259,
    -121.44342,
    37.6677
  ],
  "geometry": {"coordinates":[[-122.39669,37.62812],[-122.40696,37.63276],[-122.44954,37.65086],[-122.50058,37.6677],[-122.51637,37.66533],[-122.52174,37.66344],[-122.5356,37.6078],[-122.53262,37.60172],[-122.50608,37.55058],[-122.4813,37.50402],[-122.46352,37.48301],[-122.42071,37.45047],[-122.39965,37.43485],[-122.38686,37.42546],[-122.30383,37.36442],[-122.23841,37.31618],[-122.19991,37.28767],[-122.16777,37.26388],[-122.11933,37.22809],[-122.09283,37.20846],[-122.04517,37.17303],[-121.96432,37.1129],[-121.91327,37.07484],[-121.86715,37.04009],[-121.84559,37.02419],[-121.78422,36.97841],[-121.69805,36.91446],[-121.67996,36.90072],[-121.65289,36.88044],[-121.61132,36.84914],[-121.55746,36.80836],[-121.46223,36.73686],[-121.44342,36.72259]],"type":"LineString"}
}
