{
  "id": 2031136959,
  "type": "Feature",
  "properties": {
    "geom:area": 0,
    "geom:bbox": "-122.546650,36.727220,-121.307360,37.671980",
    "geom:latitude": 37.20829875004442,
    "geom:longitude": -122.0084283927026,
    "src:alt_label": "swim-takeoff",
    "src:geom": "swim",
    "swim:elevations": [
      213,
      549,
      667,
      992,
      1244,
      1551,
      1674,
      1840,
      2276,
      2711,
      2859,
      3262,
      3299,
      3493,
      3631,
      3999,
      4240,
      4458,
      4854,
      5233,
      5269,
      5590,
      5885,
      6160,
      6183,
      6277,
      6798,
      6867,
      7169,
      7312,
      7384,
      7583,
      7730,
      7826,
      7986
    ],
    "swim:geom": "takeoff",
    "swim:timestamps": [
      1777364545,
      1777364570,
      1777364584,
      1777364629,
      1777364658,
      1777364696,
      1777364706,
      1777364720,
      1777364751,
      1777364785,
      1777364797,
      1777364841,
      1777364850,
      1777364881,
      1777364901,
      1777364935,
      1777364955,
      1777364976,
      1777365016,
      1777365057,
      1777365061,
      1777365117,
      1777365145,
      1777365178,
      1777365181,
      1777365194,
      1777365264,
      1777365281,
      1777365326,
      1777365352,
      1777365361,
      1777365393,
      1777365415,
      1777365426,
      1777365461
    ],
    "wof:geomhash": "37f9c6f8d8f8c530f555d911388f6e73",
    "wof:id": 2031136959,
    "wof:repo": "sfomuseum-data-flights-2026-04"
  },
  "bbox": [
    -122.54665,
    36.72722,
    -121.30736,
    37.67198
  ],
  "geometry": {"coordinates":[[-122.393,37.62633],[-122.41417,37.63576],[-122.42561,37.64072],[-122.47032,37.66003],[-122.50356,37.67198],[-122.54552,37.64776],[-122.54665,37.63543],[-122.54034,37.61889],[-122.51813,37.58274],[-122.49815,37.54257],[-122.49149,37.52748],[-122.45619,37.47597],[-122.44301,37.46754],[-122.39589,37.43845],[-122.36268,37.41748],[-122.3071,37.38149],[-122.27375,37.35978],[-122.23933,37.33743],[-122.16964,37.29238],[-122.09969,37.2469],[-122.09103,37.24125],[-121.98961,37.1754],[-121.93656,37.14105],[-121.87252,37.09949],[-121.86687,37.09578],[-121.84216,37.07963],[-121.70698,36.9911],[-121.67388,36.96915],[-121.58322,36.9095],[-121.53236,36.87603],[-121.5125,36.86291],[-121.44651,36.81924],[-121.40252,36.7903],[-121.37873,36.77463],[-121.30736,36.72722]],"type":"LineString"}
}
