{
  "id": 2031122681,
  "type": "Feature",
  "properties": {
    "geom:area": 0,
    "geom:bbox": "-122.990690,37.355020,-122.107490,38.421490",
    "geom:latitude": 37.913338076330554,
    "geom:longitude": -122.56823542696343,
    "src:alt_label": "swim-approach",
    "src:geom": "swim",
    "swim:elevations": [
      7620,
      7437,
      7241,
      6971,
      6950,
      6895,
      6621,
      6448,
      6235,
      6008,
      5791,
      5791,
      5791,
      5791,
      5791,
      5791,
      5791,
      5791,
      5791,
      5790,
      5736,
      5466,
      5224,
      4974,
      4769,
      4436,
      4302,
      4002,
      3771,
      3628,
      3410,
      3353,
      3353,
      3353,
      3353,
      3353,
      3332,
      3195,
      2941,
      2923,
      2744,
      2614,
      2412,
      2184,
      2134,
      2134,
      2010,
      1602,
      1524,
      1405,
      1281,
      1188,
      1097,
      1097,
      962,
      842,
      676,
      543,
      422,
      341,
      182,
      64,
      0
    ],
    "swim:geom": "approach",
    "swim:timestamps": [
      1777281341,
      1777281360,
      1777281388,
      1777281411,
      1777281415,
      1777281420,
      1777281448,
      1777281468,
      1777281493,
      1777281511,
      1777281558,
      1777281579,
      1777281591,
      1777281624,
      1777281659,
      1777281677,
      1777281718,
      1777281732,
      1777281758,
      1777281838,
      1777281847,
      1777281874,
      1777281900,
      1777281924,
      1777281945,
      1777281978,
      1777281992,
      1777282027,
      1777282051,
      1777282066,
      1777282090,
      1777282131,
      1777282162,
      1777282185,
      1777282203,
      1777282246,
      1777282259,
      1777282274,
      1777282314,
      1777282320,
      1777282363,
      1777282393,
      1777282430,
      1777282466,
      1777282496,
      1777282521,
      1777282540,
      1777282580,
      1777282605,
      1777282648,
      1777282667,
      1777282703,
      1777282732,
      1777282756,
      1777282787,
      1777282814,
      1777282848,
      1777282877,
      1777282906,
      1777282927,
      1777282971,
      1777283000,
      1777283012
    ],
    "wof:geomhash": "cc9cb891c62ed104b8bfa93d3b98f659",
    "wof:id": 2031122681,
    "wof:repo": "sfomuseum-data-flights-2026-04"
  },
  "bbox": [
    -122.99069,
    37.35502,
    -122.10749,
    38.42149
  ],
  "geometry": {"coordinates":[[-122.60931,38.3085],[-122.64517,38.28919],[-122.69724,38.26177],[-122.73964,38.2394],[-122.74767,38.23514],[-122.75554,38.23099],[-122.81003,38.20676],[-122.84954,38.206],[-122.88869,38.22546],[-122.90932,38.24393],[-122.96611,38.29574],[-122.98721,38.32049],[-122.99069,38.33643],[-122.97418,38.38371],[-122.92157,38.41685],[-122.88434,38.42149],[-122.80486,38.38891],[-122.78926,38.36487],[-122.77652,38.31733],[-122.73929,38.16906],[-122.73524,38.15236],[-122.72318,38.10239],[-122.71183,38.05627],[-122.70137,38.01382],[-122.69245,37.97756],[-122.67832,37.92066],[-122.66796,37.89967],[-122.62547,37.85465],[-122.59305,37.82415],[-122.57354,37.80562],[-122.54369,37.77713],[-122.4971,37.73254],[-122.46447,37.70267],[-122.44245,37.68235],[-122.42489,37.66599],[-122.38417,37.62706],[-122.37257,37.61602],[-122.35967,37.60061],[-122.33801,37.55699],[-122.33403,37.55081],[-122.30624,37.50656],[-122.28789,37.47604],[-122.26459,37.43727],[-122.24285,37.402],[-122.22276,37.37137],[-122.19657,37.35502],[-122.17183,37.35603],[-122.13957,37.38543],[-122.12641,37.40825],[-122.10749,37.44596],[-122.11181,37.46278],[-122.12171,37.49337],[-122.13551,37.51544],[-122.15477,37.52781],[-122.18272,37.54021],[-122.2065,37.55018],[-122.23658,37.56285],[-122.26133,37.5733],[-122.28179,37.58195],[-122.29689,37.58828],[-122.328,37.6013],[-122.34836,37.60987],[-122.35688,37.61347]],"type":"LineString"}
}
