{
  "id": 2015207457,
  "type": "Feature",
  "properties": {
    "geom:area": 0,
    "geom:bbox": "-122.543820,36.719450,-121.551960,37.667550",
    "geom:latitude": 37.19449388223007,
    "geom:longitude": -122.09994072170416,
    "src:alt_label": "swim-takeoff",
    "src:geom": "swim",
    "swim:elevations": [
      1194,
      1501,
      1975,
      2351,
      2762,
      3461,
      4590,
      5547,
      5913,
      6297,
      6631,
      6704,
      6836,
      7902,
      8183,
      9449,
      9449,
      9449
    ],
    "swim:geom": "takeoff",
    "swim:timestamps": [
      1775322145,
      1775322173,
      1775322205,
      1775322234,
      1775322256,
      1775322308,
      1775322386,
      1775322445,
      1775322473,
      1775322502,
      1775322530,
      1775322537,
      1775322546,
      1775322644,
      1775322669,
      1775322853,
      1775322871,
      1775322926
    ],
    "wof:geomhash": "c12e5607a2e05a5a5d50c500f66436a2",
    "wof:id": 2015207457,
    "wof:repo": "sfomuseum-data-flights-2026-04"
  },
  "bbox": [
    -122.54382,
    36.71945,
    -121.55196,
    37.66755
  ],
  "geometry": {"coordinates":[[-122.45812,37.6547],[-122.49138,37.66755],[-122.53361,37.65632],[-122.54382,37.62317],[-122.52968,37.5976],[-122.48999,37.53523],[-122.40488,37.43385],[-122.31778,37.36168],[-122.27651,37.32743],[-122.23294,37.29105],[-122.19142,37.25622],[-122.18078,37.24733],[-122.16628,37.23523],[-122.0115,37.10519],[-121.96998,37.07045],[-121.67056,36.81964],[-121.64114,36.79527],[-121.55196,36.71945]],"type":"LineString"}
}
