{
  "id": 2031099603,
  "type": "Feature",
  "properties": {
    "geom:area": 0,
    "geom:bbox": "-122.770000,37.620000,11.790000,63.000000",
    "geom:latitude": 57.04316112164373,
    "geom:longitude": -57.41029444791529,
    "src:alt_label": "swim-route",
    "src:geom": "swim",
    "swim:geom": "route",
    "wof:geomhash": "5c5e432fb8302d3743da965d5a3278c6",
    "wof:id": 2031099603,
    "wof:repo": "sfomuseum-data-flights-2026-04"
  },
  "bbox": [
    -122.77,
    37.62,
    11.79,
    63
  ],
  "geometry": {"coordinates":[[11.79,48.35],[8.33,50.67],[3.55,53.38],[3.54,53.38],[1.27,54.5],[1.18,54.54],[-0.07,55.11],[-1.11,55.56],[-6.14,57.5],[-9.45,58.57],[-10,58.73],[-21.5,61.36],[-36.85,62.99],[-50,63],[-54.75,62.74],[-55.78,62.68],[-57.22,62.62],[-58.3,62.55],[-58.65,62.53],[-60.08,62.45],[-60.72,62.4],[-63,62.18],[-67,61.7],[-67.4,61.67],[-67.68,61.6],[-67.95,61.6],[-71.4,61.34],[-80,60.3],[-94.85,56.83],[-100,55],[-103.25,53.59],[-107.66,51.35],[-109,50.59],[-109.3,50.42],[-110,50],[-111.41,49],[-114,47],[-114.79,46.41],[-115,46.25],[-116.16,45.34],[-119.06,42.87],[-120,42],[-120.86,41],[-121.92,39.73],[-121.95,39.68],[-122.06,39.55],[-122.17,39.41],[-122.21,39.36],[-122.25,39.31],[-122.29,39.26],[-122.41,39.11],[-122.45,39.06],[-122.53,38.96],[-122.58,38.9],[-122.6,38.81],[-122.6,38.81],[-122.65,38.65],[-122.66,38.62],[-122.74,38.33],[-122.74,38.32],[-122.77,38.22],[-122.75,38.16],[-122.69,37.97],[-122.69,37.95],[-122.67,37.9],[-122.65,37.87],[-122.64,37.87],[-122.64,37.86],[-122.59,37.82],[-122.58,37.81],[-122.52,37.75],[-122.51,37.75],[-122.51,37.74],[-122.5,37.73],[-122.44,37.68],[-122.37,37.62],[-122.38,37.62]],"type":"LineString"}
}
