{
  "id": 2015229579,
  "type": "Feature",
  "properties": {
    "geom:area": 0,
    "geom:bbox": "-123.127222,37.416667,-122.096389,45.148889",
    "geom:latitude": 40.994411946942144,
    "geom:longitude": -122.92223777138317,
    "src:alt_label": "swim-path",
    "src:geom": "swim",
    "swim:altitudes": [
      "186",
      "208",
      "241",
      "241",
      "270",
      "270",
      "308",
      "318",
      "331",
      "331",
      "350C",
      "350C",
      "350C",
      "350C",
      "350C",
      "350C",
      "350C",
      "350C",
      "350C",
      "350C",
      "350C",
      "350C",
      "350C",
      "350C",
      "350C",
      "350C",
      "350C",
      "350C",
      "350C",
      "350C",
      "350C",
      "350C",
      "350C",
      "350C",
      "350C",
      "350C",
      "350C",
      "350C",
      "350C",
      "350C",
      "350C",
      "350C",
      "350C",
      "350C",
      "350C",
      "350C",
      "350C",
      "350C",
      "350C",
      "350",
      "343",
      "343",
      "321",
      "271",
      "271",
      "233",
      "213",
      "193",
      "155",
      "155",
      "124",
      "124",
      "120",
      "114",
      "107",
      "107",
      "091",
      "091",
      "071",
      "062",
      "050",
      "050",
      "036",
      "021",
      "013",
      "013",
      "110"
    ],
    "swim:geom": "path",
    "swim:speeds": [
      367,
      374,
      391,
      391,
      413,
      413,
      438,
      446,
      451,
      451,
      442,
      442,
      441,
      441,
      441,
      439,
      439,
      438,
      438,
      438,
      437,
      436,
      436,
      436,
      436,
      437,
      437,
      436,
      436,
      436,
      435,
      434,
      434,
      434,
      434,
      434,
      434,
      434,
      434,
      435,
      436,
      436,
      436,
      437,
      437,
      437,
      437,
      437,
      437,
      437,
      436,
      436,
      423,
      404,
      404,
      405,
      392,
      382,
      369,
      369,
      325,
      325,
      278,
      268,
      266,
      266,
      256,
      256,
      218,
      202,
      177,
      177,
      152,
      148,
      148,
      148,
      142
    ],
    "swim:timestamps": [
      1775595355,
      1775595416,
      1775595536,
      1775595536,
      1775595656,
      1775595656,
      1775595836,
      1775595896,
      1775595956,
      1775595956,
      1775596136,
      1775596136,
      1775596196,
      1775596256,
      1775596256,
      1775596376,
      1775596497,
      1775596617,
      1775596617,
      1775596677,
      1775596737,
      1775596797,
      1775596797,
      1775596850,
      1775596850,
      1775597090,
      1775597150,
      1775597157,
      1775597157,
      1775597217,
      1775597330,
      1775597391,
      1775597391,
      1775597457,
      1775597511,
      1775597518,
      1775597571,
      1775597631,
      1775597638,
      1775597698,
      1775597758,
      1775597818,
      1775597878,
      1775597931,
      1775597931,
      1775597938,
      1775597991,
      1775598111,
      1775598118,
      1775598172,
      1775598352,
      1775598352,
      1775598472,
      1775598652,
      1775598652,
      1775598772,
      1775598832,
      1775598892,
      1775599013,
      1775599013,
      1775599133,
      1775599133,
      1775599193,
      1775599253,
      1775599313,
      1775599313,
      1775599433,
      1775599433,
      1775599561,
      1775599613,
      1775599674,
      1775599674,
      1775599734,
      1775599854,
      1775599914,
      1775599914,
      1775600034
    ],
    "wof:geomhash": "f9a8cf389d270a880c85e0b4b8c50348",
    "wof:id": 2015229579,
    "wof:repo": "sfomuseum-data-flights-2026-04"
  },
  "bbox": [
    -123.12722222222222,
    37.416666666666664,
    -122.09638888888888,
    45.14888888888889
  ],
  "geometry": {"coordinates":[[-122.98583333333333,45.14888888888889],[-123.01055555555556,45.04277777777778],[-123.05555555555556,44.84916666666667],[-123.05555555555556,44.84916666666667],[-123.10749999999999,44.623333333333335],[-123.10749999999999,44.623333333333335],[-123.12722222222222,44.263888888888886],[-123.12277777777777,44.13916666666667],[-123.11805555555554,44.01083333333333],[-123.11805555555554,44.01083333333333],[-123.10527777777777,43.63472222222222],[-123.10527777777777,43.63472222222222],[-123.10111111111111,43.51416666666667],[-123.09666666666666,43.390277777777776],[-123.09666666666666,43.390277777777776],[-123.08833333333332,43.14694444444444],[-123.08,42.901111111111106],[-123.07166666666666,42.656666666666666],[-123.07166666666666,42.656666666666666],[-123.06777777777778,42.53527777777778],[-123.06361111111111,42.41555555555556],[-123.05972222222222,42.294444444444444],[-123.05972222222222,42.294444444444444],[-123.05666666666666,42.1975],[-123.05666666666666,42.1975],[-123.04055555555556,41.689166666666665],[-123.03666666666666,41.56944444444445],[-123.03666666666666,41.56944444444445],[-123.03666666666666,41.56944444444445],[-123.03277777777778,41.45],[-123.02555555555556,41.218611111111116],[-123.02194444444444,41.096944444444446],[-123.02194444444444,41.096944444444446],[-123.01805555555555,40.961111111111116],[-123.01472222222222,40.85611111111111],[-123.01416666666667,40.84027777777778],[-123.0111111111111,40.736666666666665],[-123.0075,40.61638888888889],[-123.00666666666666,40.5925],[-123.00305555555556,40.47138888888889],[-122.99972222222222,40.35111111111111],[-122.9961111111111,40.23305555555556],[-122.9925,40.11194444444445],[-122.98972222222223,40.013888888888886],[-122.98972222222223,40.013888888888886],[-122.98916666666666,39.98972222222222],[-122.9863888888889,39.893055555555556],[-122.97944444444444,39.65083333333333],[-122.97833333333334,39.623333333333335],[-122.97583333333334,39.53],[-122.96527777777779,39.156666666666666],[-122.96527777777779,39.156666666666666],[-122.95972222222223,38.91305555555555],[-122.87222222222222,38.58083333333334],[-122.87222222222222,38.58083333333334],[-122.80694444444444,38.36],[-122.7761111111111,38.25416666666667],[-122.7461111111111,38.150555555555556],[-122.6888888888889,37.95333333333333],[-122.6888888888889,37.95333333333333],[-122.54861111111111,37.781666666666666],[-122.54861111111111,37.781666666666666],[-122.4825,37.71944444444445],[-122.42277777777778,37.66305555555555],[-122.36416666666666,37.6075],[-122.36416666666666,37.6075],[-122.28888888888889,37.47805555555556],[-122.28888888888889,37.47805555555556],[-122.13333333333334,37.416666666666664],[-122.09638888888888,37.44277777777778],[-122.10888888888888,37.488055555555555],[-122.10888888888888,37.488055555555555],[-122.14472222222223,37.520833333333336],[-122.23388888888888,37.559444444444445],[-122.27944444444444,37.578611111111115],[-122.27944444444444,37.578611111111115],[-122.36777777777777,37.61555555555556]],"type":"LineString"}
}
