{
  "id": 2015341429,
  "type": "Feature",
  "properties": {
    "geom:area": 0,
    "geom:bbox": "-122.560050,36.721290,-121.298270,37.673260",
    "geom:latitude": 37.208404809239426,
    "geom:longitude": -122.00923261344583,
    "src:alt_label": "swim-takeoff",
    "src:geom": "swim",
    "swim:elevations": [
      274,
      584,
      821,
      1315,
      1642,
      2565,
      3324,
      3435,
      4122,
      4316,
      5034,
      5572,
      5719,
      5944,
      6137,
      6293,
      6649,
      6881,
      7169,
      7586,
      7792,
      8024,
      8446,
      8548,
      8925,
      9233,
      9408,
      9448,
      9493,
      9558,
      9629,
      9742,
      9992,
      10121,
      10189,
      10301
    ],
    "swim:geom": "takeoff",
    "swim:timestamps": [
      1776724587,
      1776724618,
      1776724639,
      1776724675,
      1776724702,
      1776724756,
      1776724800,
      1776724809,
      1776724853,
      1776724867,
      1776724913,
      1776724948,
      1776724957,
      1776724973,
      1776724988,
      1776725003,
      1776725036,
      1776725054,
      1776725087,
      1776725126,
      1776725150,
      1776725175,
      1776725215,
      1776725228,
      1776725278,
      1776725323,
      1776725348,
      1776725363,
      1776725385,
      1776725426,
      1776725445,
      1776725460,
      1776725493,
      1776725523,
      1776725541,
      1776725563
    ],
    "wof:geomhash": "019f97e66bebf96e51d3701a1dbefa36",
    "wof:id": 2015341429,
    "wof:repo": "sfomuseum-data-flights-2026-04"
  },
  "bbox": [
    -122.56005,
    36.72129,
    -121.29827,
    37.67326
  ],
  "geometry": {"coordinates":[[-122.39442,37.62681],[-122.41943,37.63769],[-122.43949,37.64646],[-122.47996,37.66404],[-122.51578,37.67326],[-122.56005,37.63062],[-122.53315,37.58424],[-122.52688,37.57404],[-122.49519,37.5222],[-122.48487,37.50539],[-122.42992,37.45968],[-122.37915,37.42768],[-122.36618,37.41948],[-122.34297,37.40464],[-122.32135,37.39066],[-122.29943,37.37636],[-122.24907,37.34377],[-122.22138,37.32589],[-122.16945,37.29221],[-122.10604,37.25133],[-122.0659,37.22544],[-122.02335,37.19761],[-121.95513,37.15331],[-121.93327,37.13907],[-121.84484,37.08125],[-121.76489,37.02875],[-121.71891,36.9989],[-121.69124,36.98074],[-121.64997,36.9533],[-121.56901,36.9001],[-121.53281,36.87626],[-121.50294,36.85659],[-121.43763,36.81378],[-121.37787,36.77411],[-121.3422,36.75062],[-121.29827,36.72129]],"type":"LineString"}
}
