{
  "id": 2015351283,
  "type": "Feature",
  "properties": {
    "geom:area": 0,
    "geom:bbox": "-122.533333,29.967222,-95.442222,37.665000",
    "geom:latitude": 32.98821583206727,
    "geom:longitude": -109.2361341881181,
    "src:alt_label": "swim-path",
    "src:geom": "swim",
    "swim:altitudes": [
      "016",
      "016",
      "016",
      "016",
      "046",
      "046",
      "053",
      "053",
      "053",
      "106",
      "106",
      "124",
      "124",
      "124",
      "124",
      "154",
      "154",
      "154",
      "174",
      "174",
      "174",
      "198",
      "198",
      "223",
      "223",
      "223",
      "232",
      "232",
      "232",
      "256",
      "256",
      "266",
      "273",
      "286",
      "286",
      "286",
      "304",
      "310C",
      "310C",
      "310C",
      "310C",
      "310C",
      "310C",
      "310C",
      "310C",
      "310C",
      "310C",
      "310C",
      "310C",
      "310C",
      "310C",
      "310C",
      "310C",
      "310C",
      "310C",
      "310C",
      "310C",
      "310C",
      "310C",
      "310C",
      "310C",
      "310C",
      "310C",
      "310C",
      "310C",
      "310C",
      "310C",
      "310C",
      "310C",
      "310C",
      "310C",
      "310C",
      "310C",
      "330C",
      "330C",
      "330C",
      "330C",
      "330C",
      "330C",
      "330C",
      "330C",
      "330C",
      "330C",
      "330C",
      "330C",
      "330C",
      "330C",
      "330C",
      "330C",
      "330C",
      "330C",
      "330C",
      "330C",
      "330C",
      "330C",
      "330C",
      "330C",
      "330C",
      "330C",
      "330C",
      "330C",
      "330C",
      "330C",
      "330C",
      "330C",
      "330C",
      "330C",
      "330C",
      "330C",
      "330C",
      "330C",
      "330C",
      "330C",
      "330C",
      "330C",
      "330C",
      "330C",
      "330C",
      "330C",
      "330C",
      "330C",
      "330C",
      "330C",
      "330C",
      "330C",
      "330C",
      "330C",
      "330C",
      "330C",
      "330C",
      "330C",
      "330C",
      "330C",
      "330C",
      "330C",
      "330C",
      "330C",
      "330C",
      "330C",
      "330C",
      "330C",
      "330C",
      "330C",
      "330C",
      "330C",
      "330C",
      "330C",
      "330C",
      "330C",
      "330C",
      "330C",
      "330C",
      "330C",
      "330C",
      "330C",
      "330C",
      "330C",
      "330C",
      "330C",
      "330C",
      "330C",
      "330C",
      "330C",
      "330C",
      "330C",
      "330C",
      "330C",
      "330C",
      "330C",
      "330C",
      "330C",
      "330C",
      "330C",
      "330C",
      "330C",
      "330C",
      "330C",
      "330C",
      "330C",
      "330C",
      "330C",
      "330C",
      "330C",
      "330C",
      "330C",
      "330C",
      "330C",
      "330C",
      "330C",
      "330C",
      "330C",
      "330C",
      "330C",
      "330C",
      "330C",
      "330C",
      "330C",
      "330C",
      "330C",
      "330C",
      "330C",
      "330C",
      "330C",
      "330C",
      "330C",
      "330C",
      "330C",
      "330C",
      "330C",
      "330C",
      "330C",
      "330C",
      "330C",
      "330C",
      "330C",
      "330C",
      "330C",
      "330C",
      "330C",
      "330C",
      "330C",
      "330C",
      "330C",
      "330C",
      "330C",
      "325",
      "325",
      "325",
      "278",
      "278",
      "278",
      "278",
      "256",
      "256",
      "236",
      "236",
      "216",
      "216",
      "195",
      "195",
      "179",
      "179",
      "161",
      "161",
      "142",
      "142",
      "122",
      "122",
      "122",
      "105",
      "105",
      "105",
      "080",
      "080",
      "080",
      "080",
      "080",
      "080",
      "079",
      "079",
      "079",
      "079",
      "066",
      "056",
      "056",
      "050",
      "050",
      "050",
      "050",
      "050",
      "049",
      "049",
      "016"
    ],
    "swim:geom": "path",
    "swim:speeds": [
      182,
      182,
      182,
      182,
      215,
      215,
      225,
      225,
      225,
      296,
      296,
      330,
      330,
      330,
      330,
      341,
      341,
      341,
      362,
      362,
      362,
      357,
      357,
      354,
      354,
      354,
      370,
      370,
      370,
      394,
      394,
      408,
      424,
      444,
      444,
      444,
      468,
      476,
      476,
      476,
      479,
      479,
      479,
      479,
      492,
      489,
      489,
      489,
      487,
      487,
      487,
      484,
      484,
      484,
      487,
      487,
      487,
      487,
      487,
      488,
      488,
      488,
      488,
      488,
      488,
      488,
      488,
      488,
      487,
      487,
      485,
      485,
      485,
      530,
      530,
      530,
      530,
      530,
      530,
      530,
      526,
      526,
      522,
      522,
      517,
      517,
      517,
      516,
      516,
      516,
      516,
      516,
      517,
      517,
      518,
      518,
      517,
      517,
      514,
      514,
      516,
      516,
      515,
      513,
      513,
      513,
      513,
      513,
      515,
      515,
      515,
      513,
      513,
      513,
      507,
      507,
      507,
      507,
      506,
      506,
      504,
      504,
      504,
      504,
      504,
      503,
      503,
      503,
      503,
      497,
      497,
      494,
      494,
      488,
      488,
      488,
      480,
      480,
      480,
      481,
      481,
      490,
      490,
      490,
      487,
      486,
      486,
      486,
      487,
      487,
      487,
      485,
      485,
      485,
      485,
      483,
      482,
      481,
      481,
      481,
      481,
      481,
      481,
      481,
      482,
      482,
      484,
      484,
      484,
      484,
      489,
      489,
      489,
      495,
      495,
      495,
      495,
      495,
      495,
      495,
      495,
      495,
      495,
      495,
      497,
      497,
      497,
      497,
      497,
      497,
      500,
      503,
      503,
      503,
      507,
      507,
      509,
      509,
      509,
      509,
      512,
      512,
      512,
      512,
      512,
      512,
      496,
      496,
      496,
      495,
      495,
      495,
      494,
      494,
      494,
      494,
      504,
      504,
      504,
      505,
      505,
      505,
      505,
      506,
      506,
      507,
      507,
      507,
      477,
      477,
      477,
      477,
      465,
      465,
      445,
      445,
      424,
      424,
      418,
      418,
      402,
      402,
      397,
      397,
      388,
      388,
      367,
      367,
      367,
      358,
      358,
      358,
      231,
      231,
      232,
      232,
      231,
      231,
      226,
      226,
      226,
      226,
      198,
      201,
      201,
      188,
      193,
      193,
      193,
      193,
      185,
      185,
      141
    ],
    "swim:timestamps": [
      1776802810,
      1776802810,
      1776802810,
      1776802810,
      1776802912,
      1776802912,
      1776802924,
      1776802924,
      1776802924,
      1776803092,
      1776803092,
      1776803152,
      1776803152,
      1776803152,
      1776803152,
      1776803274,
      1776803274,
      1776803274,
      1776803332,
      1776803332,
      1776803332,
      1776803392,
      1776803392,
      1776803454,
      1776803454,
      1776803454,
      1776803512,
      1776803512,
      1776803512,
      1776803634,
      1776803634,
      1776803692,
      1776803753,
      1776803874,
      1776803874,
      1776803874,
      1776803995,
      1776804053,
      1776804053,
      1776804053,
      1776804173,
      1776804173,
      1776804173,
      1776804173,
      1776804293,
      1776804353,
      1776804353,
      1776804353,
      1776804413,
      1776804413,
      1776804413,
      1776804473,
      1776804473,
      1776804473,
      1776804593,
      1776804593,
      1776804593,
      1776804593,
      1776804593,
      1776804894,
      1776804894,
      1776804894,
      1776804894,
      1776804894,
      1776805076,
      1776805076,
      1776805076,
      1776805076,
      1776805136,
      1776805136,
      1776805196,
      1776805196,
      1776805196,
      1776805617,
      1776805617,
      1776805617,
      1776805617,
      1776805737,
      1776805737,
      1776805737,
      1776805797,
      1776805797,
      1776805857,
      1776805857,
      1776805917,
      1776805917,
      1776805917,
      1776806037,
      1776806037,
      1776806037,
      1776806037,
      1776806037,
      1776806158,
      1776806158,
      1776806278,
      1776806278,
      1776806381,
      1776806381,
      1776806398,
      1776806398,
      1776806441,
      1776806441,
      1776806501,
      1776806518,
      1776806578,
      1776806698,
      1776806698,
      1776806741,
      1776806922,
      1776806922,
      1776806982,
      1776807119,
      1776807119,
      1776807119,
      1776807583,
      1776807583,
      1776807583,
      1776807703,
      1776807763,
      1776807763,
      1776807883,
      1776807883,
      1776807943,
      1776807943,
      1776808063,
      1776808183,
      1776808183,
      1776808183,
      1776808183,
      1776808364,
      1776808364,
      1776808424,
      1776808424,
      1776808544,
      1776808544,
      1776808544,
      1776808724,
      1776808724,
      1776808724,
      1776808784,
      1776808784,
      1776809085,
      1776809085,
      1776809085,
      1776809205,
      1776809265,
      1776809265,
      1776809265,
      1776809325,
      1776809325,
      1776809325,
      1776809505,
      1776809566,
      1776809566,
      1776809566,
      1776809686,
      1776809746,
      1776809806,
      1776809806,
      1776809867,
      1776809867,
      1776809987,
      1776809987,
      1776809987,
      1776810107,
      1776810107,
      1776810287,
      1776810287,
      1776810287,
      1776810287,
      1776810528,
      1776810528,
      1776810528,
      1776810588,
      1776810648,
      1776810648,
      1776810648,
      1776810708,
      1776810768,
      1776810768,
      1776810768,
      1776810828,
      1776810828,
      1776810828,
      1776811008,
      1776811008,
      1776811008,
      1776811068,
      1776811068,
      1776811068,
      1776811189,
      1776811369,
      1776811369,
      1776811369,
      1776811489,
      1776811489,
      1776811609,
      1776811609,
      1776811609,
      1776811609,
      1776811789,
      1776811789,
      1776811789,
      1776811850,
      1776811910,
      1776811910,
      1776812030,
      1776812030,
      1776812030,
      1776812150,
      1776812150,
      1776812150,
      1776812270,
      1776812270,
      1776812270,
      1776812270,
      1776812631,
      1776812631,
      1776812631,
      1776812751,
      1776812751,
      1776812751,
      1776812751,
      1776812871,
      1776812871,
      1776812991,
      1776812991,
      1776812991,
      1776813171,
      1776813171,
      1776813171,
      1776813171,
      1776813232,
      1776813232,
      1776813292,
      1776813292,
      1776813352,
      1776813352,
      1776813412,
      1776813412,
      1776813472,
      1776813472,
      1776813532,
      1776813532,
      1776813592,
      1776813592,
      1776813650,
      1776813650,
      1776813650,
      1776813711,
      1776813711,
      1776813711,
      1776813892,
      1776813892,
      1776814013,
      1776814013,
      1776814073,
      1776814073,
      1776814133,
      1776814133,
      1776814133,
      1776814133,
      1776814200,
      1776814313,
      1776814313,
      1776814373,
      1776814382,
      1776814382,
      1776814382,
      1776814382,
      1776814503,
      1776814503,
      1776814734
    ],
    "wof:geomhash": "ba341f5a8a324cda0ebbc38dc9b6f7ee",
    "wof:id": 2015351283,
    "wof:repo": "sfomuseum-data-flights-2026-04"
  },
  "bbox": [
    -122.53333333333333,
    29.96722222222222,
    -95.44222222222223,
    37.665
  ],
  "geometry": {"coordinates":[[-122.41666666666667,37.63333333333333],[-122.41666666666667,37.63333333333333],[-122.41666666666667,37.63333333333333],[-122.41666666666667,37.63333333333333],[-122.51722222222222,37.665],[-122.51722222222222,37.665],[-122.53333333333333,37.65],[-122.53333333333333,37.65],[-122.53333333333333,37.65],[-122.4575,37.478611111111114],[-122.4575,37.478611111111114],[-122.36833333333333,37.42166666666667],[-122.36833333333333,37.42166666666667],[-122.36833333333333,37.42166666666667],[-122.36833333333333,37.42166666666667],[-122.19,37.31055555555555],[-122.19,37.31055555555555],[-122.19,37.31055555555555],[-122.08361111111111,37.237500000000004],[-122.08361111111111,37.237500000000004],[-122.08361111111111,37.237500000000004],[-121.9863888888889,37.17472222222222],[-121.9863888888889,37.17472222222222],[-121.90083333333334,37.12027777777778],[-121.90083333333334,37.12027777777778],[-121.90083333333334,37.12027777777778],[-121.7975,37.050555555555555],[-121.7975,37.050555555555555],[-121.7975,37.050555555555555],[-121.59916666666666,36.91694444444444],[-121.59916666666666,36.91694444444444],[-121.47666666666667,36.83972222222222],[-121.37166666666666,36.77055555555555],[-121.14027777777778,36.61388888888889],[-121.14027777777778,36.61388888888889],[-121.14027777777778,36.61388888888889],[-120.89,36.448611111111106],[-120.76,36.36194444444445],[-120.76,36.36194444444445],[-120.76,36.36194444444445],[-120.50472222222223,36.19083333333333],[-120.50472222222223,36.19083333333333],[-120.50472222222223,36.19083333333333],[-120.50472222222223,36.19083333333333],[-120.24388888888889,36.013333333333335],[-120.11722222222221,35.926944444444445],[-120.11722222222221,35.926944444444445],[-120.11722222222221,35.926944444444445],[-119.98861111111111,35.83888888888889],[-119.98861111111111,35.83888888888889],[-119.98861111111111,35.83888888888889],[-119.86277777777777,35.75055555555556],[-119.86277777777777,35.75055555555556],[-119.86277777777777,35.75055555555556],[-119.60888888888888,35.57138888888889],[-119.60888888888888,35.57138888888889],[-119.60888888888888,35.57138888888889],[-119.60888888888888,35.57138888888889],[-119.60888888888888,35.57138888888889],[-118.98166666666667,35.12277777777778],[-118.98166666666667,35.12277777777778],[-118.98166666666667,35.12277777777778],[-118.98166666666667,35.12277777777778],[-118.98166666666667,35.12277777777778],[-118.61222222222221,34.85416666666667],[-118.61222222222221,34.85416666666667],[-118.61222222222221,34.85416666666667],[-118.61222222222221,34.85416666666667],[-118.48972222222223,34.764722222222225],[-118.48972222222223,34.764722222222225],[-118.37194444444444,34.67777777777778],[-118.37194444444444,34.67777777777778],[-118.37194444444444,34.67777777777778],[-117.28805555555556,34.27305555555555],[-117.28805555555556,34.27305555555555],[-117.28805555555556,34.27305555555555],[-117.28805555555556,34.27305555555555],[-116.96166666666667,34.20527777777778],[-116.96166666666667,34.20527777777778],[-116.96166666666667,34.20527777777778],[-116.79277777777777,34.16972222222222],[-116.79277777777777,34.16972222222222],[-116.58944444444444,34.126666666666665],[-116.58944444444444,34.126666666666665],[-116.4563888888889,34.098333333333336],[-116.4563888888889,34.098333333333336],[-116.4563888888889,34.098333333333336],[-116.11888888888888,34.025555555555556],[-116.11888888888888,34.025555555555556],[-116.11888888888888,34.025555555555556],[-116.11888888888888,34.025555555555556],[-116.11888888888888,34.025555555555556],[-115.78388888888888,33.952222222222225],[-115.78388888888888,33.952222222222225],[-115.44916666666667,33.87777777777778],[-115.44916666666667,33.87777777777778],[-115.16944444444445,33.81444444444444],[-115.16944444444445,33.81444444444444],[-115.11777777777777,33.80277777777778],[-115.11777777777777,33.80277777777778],[-115.00416666666666,33.776944444444446],[-115.00416666666666,33.776944444444446],[-114.83638888888889,33.73833333333334],[-114.78722222222223,33.727222222222224],[-114.62166666666666,33.68861111111111],[-114.29138888888889,33.61194444444445],[-114.29138888888889,33.61194444444445],[-114.18055555555556,33.58555555555556],[-113.67777777777778,33.49138888888889],[-113.67777777777778,33.49138888888889],[-113.50861111111111,33.471111111111114],[-113.10055555555554,33.420833333333334],[-113.10055555555554,33.420833333333334],[-113.10055555555554,33.420833333333334],[-111.82249999999999,33.20527777777778],[-111.82249999999999,33.20527777777778],[-111.82249999999999,33.20527777777778],[-111.49638888888889,33.147777777777776],[-111.33305555555555,33.11888888888889],[-111.33305555555555,33.11888888888889],[-111.00972222222222,33.06111111111111],[-111.00972222222222,33.06111111111111],[-110.84583333333333,33.03111111111111],[-110.84583333333333,33.03111111111111],[-110.51055555555556,32.969166666666666],[-110.18916666666667,32.909444444444446],[-110.18916666666667,32.909444444444446],[-110.18916666666667,32.909444444444446],[-110.18916666666667,32.909444444444446],[-109.71027777777778,32.81805555555556],[-109.71027777777778,32.81805555555556],[-109.55305555555556,32.78777777777778],[-109.55305555555556,32.78777777777778],[-109.24277777777777,32.72694444444445],[-109.24277777777777,32.72694444444445],[-109.24277777777777,32.72694444444445],[-108.78805555555556,32.63666666666666],[-108.78805555555556,32.63666666666666],[-108.78805555555556,32.63666666666666],[-108.6325,32.60527777777778],[-108.6325,32.60527777777778],[-107.85083333333333,32.44444444444444],[-107.85083333333333,32.44444444444444],[-107.85083333333333,32.44444444444444],[-107.53472222222221,32.378055555555555],[-107.37833333333333,32.344722222222224],[-107.37833333333333,32.344722222222224],[-107.37833333333333,32.344722222222224],[-107.21444444444445,32.30972222222222],[-107.21444444444445,32.30972222222222],[-107.21444444444445,32.30972222222222],[-106.77194444444444,32.21388888888889],[-106.61888888888888,32.18],[-106.61888888888888,32.18],[-106.61888888888888,32.18],[-106.30083333333333,32.11],[-106.14805555555556,32.075833333333335],[-105.99194444444444,32.0425],[-105.99194444444444,32.0425],[-105.84083333333332,32.007777777777775],[-105.84083333333332,32.007777777777775],[-105.53805555555556,31.935833333333335],[-105.53805555555556,31.935833333333335],[-105.53805555555556,31.935833333333335],[-105.23361111111112,31.86527777777778],[-105.23361111111112,31.86527777777778],[-104.77194444444444,31.760555555555555],[-104.77194444444444,31.760555555555555],[-104.77194444444444,31.760555555555555],[-104.77194444444444,31.760555555555555],[-104.15694444444445,31.61277777777778],[-104.15694444444445,31.61277777777778],[-104.15694444444445,31.61277777777778],[-104.00083333333333,31.575555555555557],[-103.84694444444445,31.5375],[-103.84694444444445,31.5375],[-103.84694444444445,31.5375],[-103.69194444444445,31.50111111111111],[-103.5363888888889,31.465555555555554],[-103.5363888888889,31.465555555555554],[-103.5363888888889,31.465555555555554],[-103.37527777777777,31.4525],[-103.37527777777777,31.4525],[-103.37527777777777,31.4525],[-102.88666666666667,31.40694444444444],[-102.88666666666667,31.40694444444444],[-102.88666666666667,31.40694444444444],[-102.72611111111111,31.391944444444444],[-102.72611111111111,31.391944444444444],[-102.72611111111111,31.391944444444444],[-102.40416666666667,31.361111111111114],[-101.93527777777778,31.314722222222223],[-101.93527777777778,31.314722222222223],[-101.93527777777778,31.314722222222223],[-101.60694444444444,31.28111111111111],[-101.60694444444444,31.28111111111111],[-101.28,31.246666666666666],[-101.28,31.246666666666666],[-101.28,31.246666666666666],[-101.28,31.246666666666666],[-100.7761111111111,31.1925],[-100.7761111111111,31.1925],[-100.7761111111111,31.1925],[-100.61083333333333,31.174166666666668],[-100.44583333333334,31.155555555555555],[-100.44583333333334,31.155555555555555],[-100.12638888888888,31.119444444444444],[-100.12638888888888,31.119444444444444],[-100.12638888888888,31.119444444444444],[-99.80888888888889,31.08222222222222],[-99.80888888888889,31.08222222222222],[-99.80888888888889,31.08222222222222],[-99.49194444444444,31.044444444444448],[-99.49194444444444,31.044444444444448],[-99.49194444444444,31.044444444444448],[-99.49194444444444,31.044444444444448],[-98.51666666666667,30.933888888888887],[-98.51666666666667,30.933888888888887],[-98.51666666666667,30.933888888888887],[-98.19333333333334,30.901944444444442],[-98.19333333333334,30.901944444444442],[-98.19333333333334,30.901944444444442],[-98.19333333333334,30.901944444444442],[-97.86749999999999,30.86916666666667],[-97.86749999999999,30.86916666666667],[-97.54694444444445,30.836388888888887],[-97.54694444444445,30.836388888888887],[-97.54694444444445,30.836388888888887],[-97.08388888888888,30.78777777777778],[-97.08388888888888,30.78777777777778],[-97.08388888888888,30.78777777777778],[-97.08388888888888,30.78777777777778],[-96.93472222222222,30.771666666666665],[-96.93472222222222,30.771666666666665],[-96.79388888888889,30.75638888888889],[-96.79388888888889,30.75638888888889],[-96.65722222222223,30.740833333333335],[-96.65722222222223,30.740833333333335],[-96.525,30.72611111111111],[-96.525,30.72611111111111],[-96.39611111111111,30.711388888888887],[-96.39611111111111,30.711388888888887],[-96.27555555555556,30.67777777777778],[-96.27555555555556,30.67777777777778],[-96.16416666666667,30.626944444444444],[-96.16416666666667,30.626944444444444],[-96.04333333333334,30.571666666666665],[-96.04333333333334,30.571666666666665],[-96.04333333333334,30.571666666666665],[-95.94222222222223,30.523055555555555],[-95.94222222222223,30.523055555555555],[-95.94222222222223,30.523055555555555],[-95.87277777777777,30.328055555555554],[-95.87277777777777,30.328055555555554],[-95.89361111111111,30.246944444444445],[-95.89361111111111,30.246944444444445],[-95.85722222222222,30.194444444444446],[-95.85722222222222,30.194444444444446],[-95.84194444444444,30.1325],[-95.84194444444444,30.1325],[-95.84194444444444,30.1325],[-95.84194444444444,30.1325],[-95.84055555555555,30.063055555555557],[-95.80638888888889,29.973055555555554],[-95.80638888888889,29.973055555555554],[-95.75972222222222,29.96722222222222],[-95.74694444444445,29.97694444444444],[-95.74694444444445,29.97694444444444],[-95.74694444444445,29.97694444444444],[-95.74694444444445,29.97694444444444],[-95.63416666666667,29.992222222222225],[-95.63416666666667,29.992222222222225],[-95.44222222222223,29.993333333333336]],"type":"LineString"}
}
