{
  "id": 2031107933,
  "type": "Feature",
  "properties": {
    "geom:area": 0,
    "geom:bbox": "-170.000000,23.180000,180.000000,47.000000",
    "geom:latitude": 43.44377715691227,
    "geom:longitude": 10.739078145331518,
    "src:alt_label": "swim-route",
    "src:geom": "swim",
    "swim:geom": "route",
    "wof:geomhash": "240f08baa58f75dc1068dc0680b9a42b",
    "wof:id": 2031107933,
    "wof:repo": "sfomuseum-data-flights-2026-04"
  },
  "bbox": [
    -170,
    23.18,
    180,
    47
  ],
  "geometry": {"coordinates":[[[113.27,23.18],[113.34,23.27],[113.4,23.34],[113.47,23.42],[113.55,23.51],[113.66,23.64],[113.89,23.92],[114.04,24.08],[114.21,24.28],[114.27,24.35],[117.97,28.42],[121.34,31.12],[122.25,31],[122.42,31],[122.65,31],[123,31],[124,31.61],[125,31.83],[126.66,32.21],[128.83,32.67],[129.07,32.71],[129.2,32.74],[131.11,33.09],[133.11,33.42],[133.19,33.43],[134.44,33.62],[134.98,33.69],[136.32,33.87],[137.04,33.96],[138.47,34.13],[141.59,34.43],[143.52,34.58],[144.89,34.43],[146,34.3],[146.98,34.73],[150,36],[153.9,37.3],[156.92,38.19],[160,39],[165,41.17],[170,43],[172.47,43.33],[173.71,43.48],[174.96,43.61],[180,44]],[[-170,46],[-160,47],[-156.17,46.35],[-152.43,45.58],[-150,45],[-140,43],[-137.64,42.62],[-135.31,42.19],[-130.75,41.2],[-129.8,40.95],[-127,40.15],[-126.99,40.15],[-126.5,40],[-124.07,39.12],[-123.75,39],[-123.74,38.99],[-123.68,38.92],[-123.64,38.87],[-123.47,38.67],[-123.43,38.63],[-123.28,38.45],[-123.07,38.2],[-123.06,38.19],[-122.94,38.05],[-122.88,37.97],[-122.79,37.87],[-122.76,37.83],[-122.76,37.82],[-122.74,37.81],[-122.69,37.79],[-122.64,37.76],[-122.55,37.71],[-122.46,37.67],[-122.38,37.62]]],"type":"MultiLineString"}
}
