{
  "id": 2031108807,
  "type": "Feature",
  "properties": {
    "geom:area": 0,
    "geom:bbox": "-122.316667,37.433333,-104.700000,39.997500",
    "geom:latitude": 38.83526303381637,
    "geom:longitude": -113.54017585398019,
    "src:alt_label": "swim-path",
    "src:geom": "swim",
    "swim:altitudes": [
      "065",
      "100",
      "100",
      "100",
      "102",
      "211",
      "211",
      "229",
      "277",
      "292",
      "292",
      "313",
      "329",
      "355",
      "355",
      "355",
      "360C",
      "360C",
      "360C",
      "360C",
      "360C",
      "360C",
      "360C",
      "360C",
      "360C",
      "360C",
      "360C",
      "360C",
      "360C",
      "360C",
      "360C",
      "360C",
      "360C",
      "360C",
      "360C",
      "360C",
      "360C",
      "360C",
      "360C",
      "360C",
      "360C",
      "360C",
      "360C",
      "360C",
      "360C",
      "360C",
      "360C",
      "360C",
      "360C",
      "360C",
      "360C",
      "360C",
      "360C",
      "360C",
      "360C",
      "360C",
      "360C",
      "360C",
      "360C",
      "360C",
      "360C",
      "360C",
      "360C",
      "360C",
      "360C",
      "360C",
      "360C",
      "360C",
      "360C",
      "360C",
      "360C",
      "360C",
      "360C",
      "360C",
      "360C",
      "360C",
      "360C",
      "360C",
      "360C",
      "360C",
      "360C",
      "360C",
      "360C",
      "360C",
      "360C",
      "360C",
      "360C",
      "360C",
      "360C",
      "360C",
      "360C",
      "360C",
      "360C",
      "360C",
      "360C",
      "359",
      "349",
      "340C",
      "338",
      "338",
      "309",
      "309",
      "309",
      "278",
      "278",
      "235",
      "235",
      "210",
      "210",
      "210",
      "139",
      "139",
      "102",
      "102",
      "070",
      "070",
      "070",
      "070",
      "070",
      "042",
      "042",
      "032",
      "032",
      "014",
      "014",
      "007",
      "007",
      "007"
    ],
    "swim:geom": "path",
    "swim:speeds": [
      180,
      278,
      275,
      275,
      280,
      345,
      345,
      356,
      384,
      388,
      388,
      400,
      407,
      392,
      392,
      392,
      388,
      388,
      388,
      385,
      385,
      385,
      385,
      385,
      382,
      378,
      376,
      376,
      376,
      364,
      364,
      361,
      361,
      361,
      355,
      355,
      355,
      355,
      355,
      357,
      357,
      357,
      360,
      365,
      365,
      365,
      365,
      365,
      365,
      365,
      365,
      367,
      367,
      368,
      369,
      369,
      369,
      369,
      370,
      370,
      370,
      374,
      374,
      374,
      374,
      374,
      374,
      373,
      373,
      373,
      373,
      375,
      375,
      375,
      376,
      376,
      376,
      374,
      374,
      374,
      376,
      376,
      378,
      382,
      383,
      375,
      375,
      375,
      374,
      375,
      375,
      375,
      377,
      377,
      377,
      378,
      379,
      387,
      391,
      391,
      412,
      412,
      412,
      395,
      395,
      383,
      383,
      381,
      381,
      381,
      344,
      344,
      240,
      240,
      237,
      237,
      237,
      233,
      233,
      193,
      193,
      185,
      185,
      150,
      150,
      145,
      145,
      145
    ],
    "swim:timestamps": [
      1777129100,
      1777129224,
      1777129263,
      1777129263,
      1777129278,
      1777129564,
      1777129564,
      1777129624,
      1777129804,
      1777129864,
      1777129864,
      1777129986,
      1777130044,
      1777130166,
      1777130166,
      1777130166,
      1777130525,
      1777130525,
      1777130525,
      1777130705,
      1777130705,
      1777130765,
      1777130765,
      1777130886,
      1777131066,
      1777131188,
      1777131246,
      1777131246,
      1777131246,
      1777131668,
      1777131668,
      1777131847,
      1777131847,
      1777131847,
      1777132029,
      1777132029,
      1777132029,
      1777132149,
      1777132149,
      1777132209,
      1777132269,
      1777132269,
      1777132329,
      1777132509,
      1777132509,
      1777132509,
      1777132690,
      1777132690,
      1777132690,
      1777132810,
      1777132810,
      1777132930,
      1777132930,
      1777133050,
      1777133110,
      1777133170,
      1777133170,
      1777133290,
      1777133351,
      1777133351,
      1777133351,
      1777133531,
      1777133531,
      1777133591,
      1777133591,
      1777133651,
      1777133651,
      1777133831,
      1777133831,
      1777133831,
      1777134094,
      1777134132,
      1777134132,
      1777134132,
      1777134334,
      1777134334,
      1777134334,
      1777134515,
      1777134515,
      1777134612,
      1777134695,
      1777134695,
      1777134792,
      1777134935,
      1777135055,
      1777135153,
      1777135153,
      1777135153,
      1777135356,
      1777135453,
      1777135513,
      1777135513,
      1777135776,
      1777135776,
      1777135776,
      1777135836,
      1777135896,
      1777135956,
      1777136076,
      1777136076,
      1777136257,
      1777136257,
      1777136257,
      1777136437,
      1777136437,
      1777136557,
      1777136557,
      1777136617,
      1777136617,
      1777136617,
      1777136850,
      1777136850,
      1777137030,
      1777137030,
      1777137158,
      1777137158,
      1777137158,
      1777137210,
      1777137210,
      1777137397,
      1777137397,
      1777137458,
      1777137458,
      1777137577,
      1777137577,
      1777137631,
      1777137631,
      1777137631
    ],
    "wof:geomhash": "576ebe1d17ef45fa244c3cff7b500723",
    "wof:id": 2031108807,
    "wof:repo": "sfomuseum-data-flights-2026-04"
  },
  "bbox": [
    -122.31666666666666,
    37.43333333333333,
    -104.7,
    39.9975
  ],
  "geometry": {"coordinates":[[-104.7,39.9],[-104.85,39.93333333333333],[-104.91388888888889,39.9325],[-104.91388888888889,39.9325],[-104.95,39.93333333333333],[-105.47500000000001,39.95916666666667],[-105.47500000000001,39.95916666666667],[-105.59944444444444,39.96888888888889],[-106.0075,39.99055555555556],[-106.15027777777779,39.9975],[-106.15027777777779,39.9975],[-106.44888888888889,39.985],[-106.60166666666666,39.96638888888889],[-106.8736111111111,39.931666666666665],[-106.8736111111111,39.931666666666665],[-106.8736111111111,39.931666666666665],[-107.71055555555556,39.82472222222223],[-107.71055555555556,39.82472222222223],[-107.71055555555556,39.82472222222223],[-108.12472222222222,39.76888888888889],[-108.12472222222222,39.76888888888889],[-108.23611111111111,39.75388888888889],[-108.23611111111111,39.75388888888889],[-108.5225,39.71388888888889],[-108.91666666666667,39.658055555555556],[-109.20805555555556,39.61555555555556],[-109.31361111111111,39.60027777777778],[-109.31361111111111,39.60027777777778],[-109.31361111111111,39.60027777777778],[-110.24138888888889,39.45944444444445],[-110.24138888888889,39.45944444444445],[-110.62138888888889,39.39944444444444],[-110.62138888888889,39.39944444444444],[-110.62138888888889,39.39944444444444],[-110.99444444444444,39.33916666666667],[-110.99444444444444,39.33916666666667],[-110.99444444444444,39.33916666666667],[-111.24444444444444,39.29833333333333],[-111.24444444444444,39.29833333333333],[-111.36277777777777,39.27861111111111],[-111.48944444444444,39.257222222222225],[-111.48944444444444,39.257222222222225],[-111.61472222222221,39.23638888888889],[-111.98444444444445,39.17333333333333],[-111.98444444444445,39.17333333333333],[-111.98444444444445,39.17333333333333],[-112.39305555555556,39.10194444444445],[-112.39305555555556,39.10194444444445],[-112.39305555555556,39.10194444444445],[-112.64611111111111,39.05694444444444],[-112.64611111111111,39.05694444444444],[-112.90083333333334,39.01138888888889],[-112.90083333333334,39.01138888888889],[-113.15444444444445,38.965],[-113.28305555555555,38.94138888888889],[-113.41083333333334,38.91777777777777],[-113.41083333333334,38.91777777777777],[-113.66583333333334,38.87],[-113.79333333333334,38.84583333333334],[-113.79333333333334,38.84583333333334],[-113.79333333333334,38.84583333333334],[-114.18138888888889,38.77166666666667],[-114.18138888888889,38.77166666666667],[-114.30888888888889,38.746944444444445],[-114.30888888888889,38.746944444444445],[-114.43777777777778,38.72166666666667],[-114.43777777777778,38.72166666666667],[-114.82166666666666,38.645833333333336],[-114.82166666666666,38.645833333333336],[-114.82166666666666,38.645833333333336],[-115.3775,38.53361111111111],[-115.4538888888889,38.51777777777777],[-115.4538888888889,38.51777777777777],[-115.4538888888889,38.51777777777777],[-115.89166666666668,38.426944444444445],[-115.89166666666668,38.426944444444445],[-115.89166666666668,38.426944444444445],[-116.27555555555556,38.34583333333334],[-116.27555555555556,38.34583333333334],[-116.48166666666667,38.308055555555555],[-116.66527777777779,38.276666666666664],[-116.66527777777779,38.276666666666664],[-116.87222222222222,38.24111111111111],[-117.1913888888889,38.18527777777778],[-117.45555555555556,38.13805555555555],[-117.6713888888889,38.09916666666667],[-117.6713888888889,38.09916666666667],[-117.6713888888889,38.09916666666667],[-118.085,38.02361111111111],[-118.31527777777778,37.98083333333334],[-118.44416666666667,37.95638888888889],[-118.44416666666667,37.95638888888889],[-119.00083333333333,37.86888888888889],[-119.00083333333333,37.86888888888889],[-119.00083333333333,37.86888888888889],[-119.1325,37.853611111111114],[-119.26555555555555,37.838055555555556],[-119.39888888888889,37.822500000000005],[-119.67333333333333,37.78972222222222],[-119.67333333333333,37.78972222222222],[-120.09861111111111,37.73777777777778],[-120.09861111111111,37.73777777777778],[-120.09861111111111,37.73777777777778],[-120.51361111111112,37.68611111111111],[-120.51361111111112,37.68611111111111],[-120.77972222222222,37.655],[-120.77972222222222,37.655],[-120.91055555555556,37.63916666666667],[-120.91055555555556,37.63916666666667],[-120.91055555555556,37.63916666666667],[-121.41666666666667,37.56666666666667],[-121.41666666666667,37.56666666666667],[-121.71666666666667,37.516666666666666],[-121.71666666666667,37.516666666666666],[-121.8386111111111,37.44416666666666],[-121.8386111111111,37.44416666666666],[-121.8386111111111,37.44416666666666],[-121.91666666666667,37.43333333333333],[-121.91666666666667,37.43333333333333],[-122.11666666666666,37.516666666666666],[-122.11666666666666,37.516666666666666],[-122.17472222222223,37.53444444444444],[-122.17472222222223,37.53444444444444],[-122.28333333333333,37.583333333333336],[-122.28333333333333,37.583333333333336],[-122.31666666666666,37.6],[-122.31666666666666,37.6],[-122.31666666666666,37.6]],"type":"LineString"}
}
