{
  "id": 2015233909,
  "type": "Feature",
  "properties": {
    "geom:area": 0,
    "geom:bbox": "-122.332500,37.423611,-87.816667,42.157778",
    "geom:latitude": 39.94717279461617,
    "geom:longitude": -105.0566679833179,
    "src:alt_label": "swim-path",
    "src:geom": "swim",
    "swim:altitudes": [
      "015",
      "015",
      "015",
      "028",
      "028",
      "028",
      "028",
      "049",
      "049",
      "105",
      "105",
      "105",
      "105",
      "124",
      "124",
      "124",
      "124",
      "124",
      "146",
      "146",
      "146",
      "146",
      "146",
      "258",
      "258",
      "258",
      "258",
      "258",
      "258",
      "297",
      "297",
      "297",
      "302",
      "302",
      "316",
      "316",
      "316",
      "340",
      "340",
      "346",
      "346",
      "346",
      "346",
      "349",
      "355",
      "355",
      "355",
      "360C",
      "360C",
      "360C",
      "360C",
      "360C",
      "360C",
      "360C",
      "360C",
      "360C",
      "360C",
      "360C",
      "360C",
      "360C",
      "360C",
      "360C",
      "360C",
      "360C",
      "360C",
      "360C",
      "360C",
      "360C",
      "360C",
      "360C",
      "360C",
      "360C",
      "360C",
      "360C",
      "360C",
      "360C",
      "360C",
      "360C",
      "360C",
      "360C",
      "360C",
      "360C",
      "360C",
      "360C",
      "360C",
      "360C",
      "360C",
      "360C",
      "360C",
      "360C",
      "360C",
      "360C",
      "360C",
      "360C",
      "360C",
      "360C",
      "360C",
      "360C",
      "360C",
      "360C",
      "360C",
      "360C",
      "360C",
      "360C",
      "360C",
      "360C",
      "360C",
      "360C",
      "360C",
      "360C",
      "360C",
      "360C",
      "360C",
      "360C",
      "360C",
      "360C",
      "360C",
      "360C",
      "360C",
      "360C",
      "360C",
      "360C",
      "360C",
      "360C",
      "360C",
      "360C",
      "360C",
      "360C",
      "360C",
      "360C",
      "360C",
      "360C",
      "360C",
      "360C",
      "360C",
      "360C",
      "360C",
      "360C",
      "360C",
      "360C",
      "360C",
      "360C",
      "360C",
      "360C",
      "360C",
      "360C",
      "360C",
      "360C",
      "360C",
      "360C",
      "360C",
      "360C",
      "360C",
      "360C",
      "360C",
      "360C",
      "360C",
      "360C",
      "360C",
      "360C",
      "360C",
      "360C",
      "360C",
      "360C",
      "360C",
      "360C",
      "360C",
      "360C",
      "360C",
      "360C",
      "360C",
      "360C",
      "360C",
      "360C",
      "360C",
      "360C",
      "360C",
      "360C",
      "360C",
      "360C",
      "360C",
      "360C",
      "360C",
      "360C",
      "360C",
      "360C",
      "360C",
      "360C",
      "360C",
      "360C",
      "360C",
      "360C",
      "360C",
      "360C",
      "360C",
      "360C",
      "360C",
      "360C",
      "360C",
      "360C",
      "360C",
      "360C",
      "360C",
      "360C",
      "360C",
      "360C",
      "360C",
      "360C",
      "360C",
      "360C",
      "360C",
      "360C",
      "360C",
      "360C",
      "360C",
      "360C",
      "360C",
      "360C",
      "360C",
      "360C",
      "360C",
      "360C",
      "360C",
      "360C",
      "360C",
      "360C",
      "360C",
      "360C",
      "360C",
      "360C",
      "360C",
      "360C",
      "360C",
      "360C",
      "360C",
      "360C",
      "360C",
      "360C",
      "360C",
      "360C",
      "360C",
      "360C",
      "360C",
      "360C",
      "360C",
      "360C",
      "360C",
      "360C",
      "360C",
      "360C",
      "360C",
      "360C",
      "360C",
      "360C",
      "360C",
      "360C",
      "360C",
      "360C",
      "360C",
      "360C",
      "360C",
      "360C",
      "360C",
      "360C",
      "360C",
      "360C",
      "360C",
      "360C",
      "360C",
      "360C",
      "360C",
      "360C",
      "360C",
      "360C",
      "360C",
      "360C",
      "360C",
      "360C",
      "360C",
      "360C",
      "360C",
      "360C",
      "360C",
      "360C",
      "360C",
      "360C",
      "360C",
      "360C",
      "360C",
      "360C",
      "360C",
      "360C",
      "360C",
      "360C",
      "360C",
      "360C",
      "360C",
      "360C",
      "360C",
      "360C",
      "360C",
      "360C",
      "360C",
      "360C",
      "360C",
      "360C",
      "360C",
      "360C",
      "360C",
      "360C",
      "360C",
      "360C",
      "360C",
      "360C",
      "360C",
      "360C",
      "360C",
      "360C",
      "360C",
      "360C",
      "360C",
      "360C",
      "360C",
      "360C",
      "360C",
      "360C",
      "360C",
      "360C",
      "360C",
      "360C",
      "360C",
      "360C",
      "360C",
      "360C",
      "360C",
      "360C",
      "360C",
      "360C",
      "360C",
      "360C",
      "360C",
      "360C",
      "360C",
      "360C",
      "360C",
      "360C",
      "360C",
      "360C",
      "360C",
      "360C",
      "360C",
      "360C",
      "360C",
      "360C",
      "360C",
      "360C",
      "360C",
      "360C",
      "360C",
      "360C",
      "360C",
      "360C",
      "360C",
      "360C",
      "360C",
      "360C",
      "360C",
      "360C",
      "360C",
      "360C",
      "360C",
      "360C",
      "360C",
      "360C",
      "360C",
      "360C",
      "360C",
      "360C",
      "360C",
      "360C",
      "360C",
      "360C",
      "360C",
      "360C",
      "360C",
      "360C",
      "360C",
      "360C",
      "360C",
      "360C",
      "360C",
      "360C",
      "360C",
      "360C",
      "360C",
      "360C",
      "360C",
      "360C",
      "360C",
      "360C",
      "360C",
      "360C",
      "360C",
      "360C",
      "360C",
      "360C",
      "360C",
      "360C",
      "360C",
      "360C",
      "360C",
      "360C",
      "360C",
      "360C",
      "360C",
      "360C",
      "360C",
      "360C",
      "360C",
      "360C",
      "360C",
      "360C",
      "360C",
      "360C",
      "360C",
      "360C",
      "360C",
      "360C",
      "360C",
      "360C",
      "360C",
      "360C",
      "360C",
      "360C",
      "360C",
      "360C",
      "360C",
      "360C",
      "360C",
      "360C",
      "360C",
      "360C",
      "360C",
      "360C",
      "360C",
      "360C",
      "360C",
      "360C",
      "360C",
      "360C",
      "360C",
      "360C",
      "360C",
      "360C",
      "360C",
      "360C",
      "360C",
      "360C",
      "360C",
      "360C",
      "360C",
      "360C",
      "360C",
      "360C",
      "360C",
      "360C",
      "360C",
      "360C",
      "360C",
      "360C",
      "360C",
      "360C",
      "360C",
      "360C",
      "360C",
      "360C",
      "360C",
      "360C",
      "360C",
      "360C",
      "360C",
      "360C",
      "360C",
      "360C",
      "360C",
      "360C",
      "360C",
      "360C",
      "360C",
      "360C",
      "360C",
      "360C",
      "360C",
      "360C",
      "360C",
      "360C",
      "360C",
      "359C",
      "359C",
      "359C",
      "360C",
      "360C",
      "360C",
      "360C",
      "360C",
      "359C",
      "359C",
      "359C",
      "360C",
      "360C",
      "360C",
      "360C",
      "360C",
      "360C",
      "360C",
      "360C",
      "360C",
      "360C",
      "360C",
      "360C",
      "360C",
      "360C",
      "360C",
      "360C",
      "360C",
      "360C",
      "360C",
      "360C",
      "360C",
      "360C",
      "360C",
      "357",
      "357",
      "357",
      "357",
      "357",
      "340C",
      "340C",
      "340C",
      "340C",
      "340C",
      "340C",
      "340C",
      "340C",
      "340C",
      "340C",
      "340C",
      "340C",
      "340C",
      "340C",
      "340C",
      "340C",
      "340C",
      "340C",
      "340C",
      "340C",
      "340C",
      "340C",
      "340C",
      "340C",
      "340C",
      "333",
      "333",
      "333",
      "333",
      "333",
      "333",
      "324",
      "324",
      "324",
      "324",
      "320C",
      "320C",
      "320C",
      "320C",
      "320C",
      "320C",
      "320C",
      "320C",
      "320C",
      "320C",
      "320C",
      "320C",
      "273",
      "273",
      "273",
      "273",
      "273",
      "244",
      "244",
      "244",
      "236",
      "236",
      "236",
      "223",
      "223",
      "223",
      "223",
      "223",
      "153",
      "153",
      "153",
      "138",
      "138",
      "138",
      "138",
      "138",
      "110",
      "110",
      "110",
      "094",
      "094",
      "094",
      "094",
      "093",
      "093",
      "093",
      "070",
      "070",
      "070",
      "070",
      "070",
      "054",
      "054",
      "054",
      "054",
      "054",
      "035",
      "035",
      "035",
      "035",
      "035",
      "005",
      "005",
      "005",
      "005",
      "005"
    ],
    "swim:geom": "path",
    "swim:speeds": [
      175,
      175,
      175,
      243,
      243,
      243,
      243,
      270,
      270,
      252,
      252,
      252,
      252,
      291,
      291,
      291,
      291,
      291,
      321,
      321,
      321,
      321,
      321,
      403,
      403,
      403,
      403,
      403,
      403,
      425,
      425,
      425,
      414,
      414,
      416,
      416,
      416,
      424,
      424,
      419,
      419,
      419,
      419,
      422,
      420,
      420,
      420,
      420,
      420,
      420,
      421,
      421,
      416,
      416,
      414,
      414,
      413,
      413,
      413,
      412,
      412,
      412,
      412,
      412,
      411,
      411,
      411,
      411,
      411,
      411,
      412,
      412,
      415,
      415,
      415,
      415,
      415,
      417,
      417,
      417,
      417,
      419,
      419,
      420,
      420,
      420,
      420,
      420,
      420,
      417,
      417,
      417,
      417,
      417,
      408,
      408,
      408,
      408,
      408,
      407,
      407,
      407,
      405,
      405,
      405,
      406,
      406,
      407,
      407,
      408,
      408,
      408,
      408,
      408,
      408,
      408,
      408,
      408,
      408,
      408,
      408,
      408,
      408,
      408,
      408,
      408,
      406,
      406,
      406,
      404,
      404,
      404,
      404,
      404,
      404,
      401,
      400,
      400,
      400,
      400,
      399,
      398,
      398,
      398,
      398,
      390,
      390,
      390,
      390,
      390,
      389,
      389,
      389,
      389,
      389,
      389,
      390,
      390,
      390,
      390,
      390,
      392,
      392,
      392,
      392,
      391,
      391,
      391,
      394,
      394,
      394,
      391,
      391,
      391,
      391,
      398,
      398,
      398,
      398,
      398,
      398,
      397,
      397,
      397,
      397,
      395,
      395,
      395,
      392,
      391,
      391,
      391,
      391,
      391,
      391,
      391,
      391,
      391,
      391,
      391,
      391,
      391,
      391,
      391,
      391,
      391,
      391,
      391,
      391,
      391,
      391,
      391,
      391,
      390,
      390,
      390,
      390,
      390,
      390,
      390,
      390,
      389,
      389,
      389,
      389,
      389,
      387,
      387,
      387,
      386,
      386,
      386,
      386,
      386,
      383,
      385,
      385,
      380,
      380,
      380,
      379,
      379,
      379,
      379,
      379,
      383,
      385,
      385,
      385,
      385,
      383,
      386,
      386,
      386,
      385,
      385,
      385,
      392,
      392,
      392,
      392,
      394,
      394,
      394,
      392,
      392,
      392,
      392,
      392,
      392,
      392,
      392,
      393,
      392,
      392,
      392,
      392,
      392,
      392,
      392,
      392,
      392,
      392,
      392,
      392,
      392,
      387,
      387,
      387,
      391,
      391,
      391,
      387,
      387,
      387,
      387,
      386,
      386,
      386,
      383,
      383,
      384,
      384,
      384,
      383,
      383,
      383,
      384,
      384,
      384,
      382,
      382,
      382,
      382,
      382,
      385,
      385,
      385,
      395,
      395,
      395,
      395,
      395,
      393,
      393,
      393,
      387,
      385,
      385,
      387,
      387,
      387,
      387,
      391,
      391,
      391,
      390,
      390,
      390,
      390,
      390,
      390,
      390,
      390,
      390,
      390,
      390,
      390,
      390,
      390,
      391,
      391,
      391,
      390,
      390,
      386,
      386,
      386,
      386,
      386,
      386,
      386,
      386,
      386,
      386,
      386,
      386,
      386,
      386,
      385,
      385,
      385,
      386,
      386,
      386,
      386,
      386,
      391,
      391,
      391,
      392,
      392,
      392,
      392,
      392,
      392,
      392,
      392,
      392,
      391,
      391,
      390,
      390,
      390,
      390,
      390,
      390,
      390,
      389,
      389,
      389,
      387,
      387,
      387,
      387,
      387,
      387,
      387,
      387,
      389,
      389,
      389,
      391,
      391,
      392,
      392,
      392,
      391,
      391,
      391,
      391,
      391,
      391,
      390,
      390,
      390,
      390,
      390,
      390,
      391,
      391,
      391,
      392,
      392,
      392,
      392,
      392,
      392,
      392,
      392,
      392,
      391,
      391,
      389,
      389,
      389,
      389,
      389,
      390,
      390,
      390,
      390,
      390,
      390,
      390,
      390,
      388,
      388,
      388,
      388,
      387,
      387,
      387,
      387,
      387,
      387,
      388,
      388,
      388,
      388,
      388,
      388,
      392,
      392,
      392,
      391,
      391,
      391,
      391,
      392,
      392,
      392,
      392,
      388,
      388,
      388,
      388,
      388,
      388,
      389,
      389,
      389,
      389,
      389,
      389,
      389,
      390,
      390,
      390,
      390,
      391,
      391,
      389,
      389,
      389,
      389,
      389,
      389,
      388,
      387,
      387,
      388,
      386,
      386,
      386,
      386,
      386,
      386,
      385,
      385,
      385,
      388,
      388,
      388,
      388,
      389,
      391,
      391,
      391,
      393,
      393,
      396,
      396,
      396,
      396,
      396,
      398,
      398,
      398,
      398,
      398,
      398,
      398,
      400,
      400,
      400,
      400,
      404,
      404,
      404,
      404,
      404,
      404,
      407,
      407,
      407,
      407,
      408,
      408,
      408,
      408,
      408,
      408,
      408,
      408,
      408,
      408,
      409,
      409,
      409,
      409,
      411,
      411,
      411,
      411,
      411,
      411,
      413,
      413,
      413,
      413,
      413,
      413,
      403,
      403,
      403,
      403,
      403,
      380,
      380,
      380,
      374,
      374,
      374,
      361,
      361,
      361,
      361,
      361,
      336,
      336,
      336,
      322,
      322,
      322,
      322,
      322,
      291,
      291,
      291,
      235,
      235,
      235,
      235,
      239,
      239,
      239,
      235,
      235,
      235,
      235,
      235,
      197,
      197,
      197,
      197,
      197,
      157,
      157,
      157,
      161,
      161,
      145,
      145,
      145,
      145,
      145
    ],
    "swim:timestamps": [
      1775666562,
      1775666562,
      1775666562,
      1775666616,
      1775666616,
      1775666616,
      1775666616,
      1775666676,
      1775666676,
      1775666904,
      1775666904,
      1775666904,
      1775666904,
      1775666964,
      1775666964,
      1775666964,
      1775666964,
      1775666964,
      1775667024,
      1775667024,
      1775667024,
      1775667024,
      1775667024,
      1775667384,
      1775667384,
      1775667384,
      1775667384,
      1775667384,
      1775667384,
      1775667565,
      1775667565,
      1775667565,
      1775667583,
      1775667583,
      1775667643,
      1775667643,
      1775667643,
      1775667763,
      1775667763,
      1775667805,
      1775667805,
      1775667805,
      1775667805,
      1775667823,
      1775667865,
      1775667865,
      1775667865,
      1775667925,
      1775667925,
      1775667925,
      1775667943,
      1775667943,
      1775667985,
      1775667985,
      1775668106,
      1775668106,
      1775668124,
      1775668124,
      1775668124,
      1775668166,
      1775668166,
      1775668166,
      1775668166,
      1775668166,
      1775668286,
      1775668286,
      1775668286,
      1775668286,
      1775668286,
      1775668286,
      1775668424,
      1775668424,
      1775668466,
      1775668466,
      1775668466,
      1775668466,
      1775668466,
      1775668526,
      1775668526,
      1775668526,
      1775668526,
      1775668586,
      1775668586,
      1775668647,
      1775668647,
      1775668647,
      1775668707,
      1775668707,
      1775668707,
      1775668827,
      1775668827,
      1775668827,
      1775668827,
      1775668827,
      1775668965,
      1775668965,
      1775668965,
      1775668965,
      1775668965,
      1775669064,
      1775669064,
      1775669064,
      1775669145,
      1775669145,
      1775669145,
      1775669184,
      1775669184,
      1775669245,
      1775669245,
      1775669265,
      1775669265,
      1775669265,
      1775669265,
      1775669365,
      1775669365,
      1775669385,
      1775669385,
      1775669385,
      1775669385,
      1775669445,
      1775669445,
      1775669445,
      1775669485,
      1775669505,
      1775669505,
      1775669505,
      1775669686,
      1775669686,
      1775669686,
      1775669746,
      1775669746,
      1775669746,
      1775669746,
      1775669746,
      1775669746,
      1775669926,
      1775669986,
      1775669986,
      1775669986,
      1775669986,
      1775670046,
      1775670106,
      1775670106,
      1775670106,
      1775670106,
      1775670226,
      1775670226,
      1775670226,
      1775670226,
      1775670226,
      1775670286,
      1775670286,
      1775670407,
      1775670407,
      1775670407,
      1775670407,
      1775670527,
      1775670527,
      1775670527,
      1775670527,
      1775670527,
      1775670587,
      1775670587,
      1775670587,
      1775670587,
      1775670726,
      1775670726,
      1775670726,
      1775670767,
      1775670767,
      1775670767,
      1775670786,
      1775670786,
      1775670786,
      1775670786,
      1775671007,
      1775671007,
      1775671007,
      1775671007,
      1775671007,
      1775671007,
      1775671207,
      1775671207,
      1775671207,
      1775671207,
      1775671267,
      1775671267,
      1775671267,
      1775671327,
      1775671428,
      1775671428,
      1775671428,
      1775671447,
      1775671447,
      1775671447,
      1775671548,
      1775671548,
      1775671548,
      1775671548,
      1775671608,
      1775671608,
      1775671608,
      1775671668,
      1775671668,
      1775671688,
      1775671688,
      1775671688,
      1775671688,
      1775671748,
      1775671748,
      1775671808,
      1775671808,
      1775671808,
      1775671928,
      1775671928,
      1775671928,
      1775671928,
      1775671928,
      1775671928,
      1775672048,
      1775672048,
      1775672108,
      1775672108,
      1775672108,
      1775672108,
      1775672108,
      1775672228,
      1775672228,
      1775672228,
      1775672288,
      1775672288,
      1775672288,
      1775672288,
      1775672288,
      1775672348,
      1775672401,
      1775672401,
      1775672469,
      1775672469,
      1775672469,
      1775672521,
      1775672521,
      1775672581,
      1775672581,
      1775672581,
      1775672589,
      1775672649,
      1775672649,
      1775672649,
      1775672649,
      1775672701,
      1775672709,
      1775672709,
      1775672709,
      1775672822,
      1775672822,
      1775672822,
      1775672889,
      1775672889,
      1775672889,
      1775672889,
      1775672949,
      1775672949,
      1775672949,
      1775673002,
      1775673062,
      1775673062,
      1775673062,
      1775673062,
      1775673122,
      1775673122,
      1775673122,
      1775673129,
      1775673182,
      1775673182,
      1775673182,
      1775673190,
      1775673242,
      1775673242,
      1775673242,
      1775673242,
      1775673302,
      1775673302,
      1775673302,
      1775673422,
      1775673422,
      1775673430,
      1775673430,
      1775673430,
      1775673483,
      1775673483,
      1775673483,
      1775673603,
      1775673603,
      1775673603,
      1775673603,
      1775673663,
      1775673663,
      1775673663,
      1775673783,
      1775673783,
      1775673790,
      1775673790,
      1775673790,
      1775673903,
      1775673903,
      1775673903,
      1775673963,
      1775673963,
      1775673963,
      1775673971,
      1775673971,
      1775674083,
      1775674083,
      1775674083,
      1775674091,
      1775674091,
      1775674091,
      1775674331,
      1775674331,
      1775674331,
      1775674331,
      1775674331,
      1775674384,
      1775674384,
      1775674384,
      1775674391,
      1775674511,
      1775674511,
      1775674624,
      1775674624,
      1775674624,
      1775674624,
      1775674631,
      1775674631,
      1775674631,
      1775674804,
      1775674804,
      1775674804,
      1775674804,
      1775674804,
      1775674924,
      1775674924,
      1775674984,
      1775674984,
      1775674984,
      1775675045,
      1775675045,
      1775675045,
      1775675045,
      1775675052,
      1775675052,
      1775675052,
      1775675165,
      1775675165,
      1775675232,
      1775675232,
      1775675292,
      1775675292,
      1775675292,
      1775675292,
      1775675292,
      1775675352,
      1775675352,
      1775675352,
      1775675352,
      1775675352,
      1775675405,
      1775675405,
      1775675473,
      1775675473,
      1775675473,
      1775675525,
      1775675533,
      1775675533,
      1775675533,
      1775675533,
      1775675653,
      1775675653,
      1775675653,
      1775675705,
      1775675705,
      1775675713,
      1775675713,
      1775675713,
      1775675766,
      1775675766,
      1775675773,
      1775675773,
      1775675833,
      1775675833,
      1775675886,
      1775675886,
      1775675886,
      1775675886,
      1775675893,
      1775675893,
      1775675893,
      1775675953,
      1775675953,
      1775675953,
      1775676066,
      1775676066,
      1775676066,
      1775676066,
      1775676133,
      1775676133,
      1775676133,
      1775676133,
      1775676194,
      1775676194,
      1775676194,
      1775676246,
      1775676246,
      1775676306,
      1775676306,
      1775676306,
      1775676314,
      1775676314,
      1775676314,
      1775676374,
      1775676374,
      1775676374,
      1775676426,
      1775676426,
      1775676426,
      1775676494,
      1775676494,
      1775676494,
      1775676607,
      1775676607,
      1775676607,
      1775676727,
      1775676727,
      1775676727,
      1775676727,
      1775676787,
      1775676787,
      1775676787,
      1775676787,
      1775676787,
      1775676907,
      1775676907,
      1775677087,
      1775677087,
      1775677087,
      1775677087,
      1775677087,
      1775677207,
      1775677207,
      1775677207,
      1775677207,
      1775677207,
      1775677268,
      1775677268,
      1775677268,
      1775677388,
      1775677388,
      1775677388,
      1775677388,
      1775677448,
      1775677448,
      1775677448,
      1775677448,
      1775677508,
      1775677508,
      1775677688,
      1775677688,
      1775677688,
      1775677688,
      1775677688,
      1775677688,
      1775677808,
      1775677868,
      1775677868,
      1775677928,
      1775677928,
      1775677928,
      1775677928,
      1775677988,
      1775677988,
      1775677988,
      1775677988,
      1775678289,
      1775678289,
      1775678289,
      1775678289,
      1775678289,
      1775678289,
      1775678409,
      1775678409,
      1775678409,
      1775678409,
      1775678469,
      1775678469,
      1775678469,
      1775678529,
      1775678606,
      1775678606,
      1775678606,
      1775678649,
      1775678649,
      1775678709,
      1775678709,
      1775678709,
      1775678726,
      1775678726,
      1775678726,
      1775678770,
      1775678830,
      1775678830,
      1775678846,
      1775678950,
      1775678950,
      1775678950,
      1775678966,
      1775678966,
      1775678966,
      1775679010,
      1775679010,
      1775679010,
      1775679250,
      1775679250,
      1775679250,
      1775679250,
      1775679267,
      1775679327,
      1775679327,
      1775679327,
      1775679387,
      1775679387,
      1775679447,
      1775679447,
      1775679447,
      1775679447,
      1775679447,
      1775679551,
      1775679551,
      1775679551,
      1775679567,
      1775679567,
      1775679567,
      1775679567,
      1775679627,
      1775679627,
      1775679671,
      1775679671,
      1775679808,
      1775679808,
      1775679808,
      1775679808,
      1775679808,
      1775679808,
      1775679928,
      1775679928,
      1775679928,
      1775679928,
      1775679988,
      1775679988,
      1775679988,
      1775679988,
      1775680108,
      1775680108,
      1775680108,
      1775680108,
      1775680108,
      1775680108,
      1775680168,
      1775680168,
      1775680168,
      1775680168,
      1775680288,
      1775680288,
      1775680288,
      1775680288,
      1775680288,
      1775680288,
      1775680529,
      1775680529,
      1775680529,
      1775680529,
      1775680529,
      1775680529,
      1775680709,
      1775680709,
      1775680709,
      1775680709,
      1775680709,
      1775680794,
      1775680794,
      1775680794,
      1775680829,
      1775680829,
      1775680829,
      1775680889,
      1775680889,
      1775680889,
      1775680889,
      1775680889,
      1775681125,
      1775681125,
      1775681125,
      1775681185,
      1775681185,
      1775681185,
      1775681185,
      1775681185,
      1775681310,
      1775681310,
      1775681310,
      1775681420,
      1775681420,
      1775681420,
      1775681420,
      1775681430,
      1775681430,
      1775681430,
      1775681610,
      1775681610,
      1775681610,
      1775681610,
      1775681610,
      1775681730,
      1775681730,
      1775681730,
      1775681730,
      1775681730,
      1775681845,
      1775681845,
      1775681845,
      1775681851,
      1775681851,
      1775682091,
      1775682091,
      1775682091,
      1775682091,
      1775682091
    ],
    "wof:geomhash": "12d724ae145997a1a86ea4de966c48cb",
    "wof:id": 2015233909,
    "wof:repo": "sfomuseum-data-flights-2026-04"
  },
  "bbox": [
    -122.3325,
    37.42361111111111,
    -87.81666666666666,
    42.157777777777774
  ],
  "geometry": {"coordinates":[[-87.88333333333334,41.983333333333334],[-87.88333333333334,41.983333333333334],[-87.88333333333334,41.983333333333334],[-87.81666666666666,42],[-87.81666666666666,42],[-87.81666666666666,42],[-87.81666666666666,42],[-87.85,42.06666666666667],[-87.85,42.06666666666667],[-88.12722222222222,42.157777777777774],[-88.12722222222222,42.157777777777774],[-88.12722222222222,42.157777777777774],[-88.12722222222222,42.157777777777774],[-88.22,42.12888888888889],[-88.22,42.12888888888889],[-88.22,42.12888888888889],[-88.22,42.12888888888889],[-88.22,42.12888888888889],[-88.33694444444444,42.11527777777778],[-88.33694444444444,42.11527777777778],[-88.33694444444444,42.11527777777778],[-88.33694444444444,42.11527777777778],[-88.33694444444444,42.11527777777778],[-89.1675,42.016666666666666],[-89.1675,42.016666666666666],[-89.1675,42.016666666666666],[-89.1675,42.016666666666666],[-89.1675,42.016666666666666],[-89.1675,42.016666666666666],[-89.6236111111111,41.95],[-89.6236111111111,41.95],[-89.6236111111111,41.95],[-89.66694444444445,41.94138888888889],[-89.66694444444445,41.94138888888889],[-89.81611111111111,41.9],[-89.81611111111111,41.9],[-89.81611111111111,41.9],[-90.115,41.81888888888889],[-90.115,41.81888888888889],[-90.20083333333334,41.7975],[-90.20083333333334,41.7975],[-90.20083333333334,41.7975],[-90.20083333333334,41.7975],[-90.26138888888889,41.78],[-90.35638888888889,41.756388888888885],[-90.35638888888889,41.756388888888885],[-90.35638888888889,41.756388888888885],[-90.5038888888889,41.719166666666666],[-90.5038888888889,41.719166666666666],[-90.5038888888889,41.719166666666666],[-90.55972222222222,41.71055555555556],[-90.55972222222222,41.71055555555556],[-90.64861111111112,41.7075],[-90.64861111111112,41.7075],[-90.95527777777778,41.68833333333333],[-90.95527777777778,41.68833333333333],[-91.01611111111112,41.68416666666666],[-91.01611111111112,41.68416666666666],[-91.01611111111112,41.68416666666666],[-91.10722222222222,41.67805555555555],[-91.10722222222222,41.67805555555555],[-91.10722222222222,41.67805555555555],[-91.10722222222222,41.67805555555555],[-91.10722222222222,41.67805555555555],[-91.41027777777778,41.6575],[-91.41027777777778,41.6575],[-91.41027777777778,41.6575],[-91.41027777777778,41.6575],[-91.41027777777778,41.6575],[-91.41027777777778,41.6575],[-91.76305555555555,41.63138888888889],[-91.76305555555555,41.63138888888889],[-91.87055555555555,41.62444444444444],[-91.87055555555555,41.62444444444444],[-91.87055555555555,41.62444444444444],[-91.87055555555555,41.62444444444444],[-91.87055555555555,41.62444444444444],[-92.02722222222222,41.61277777777778],[-92.02722222222222,41.61277777777778],[-92.02722222222222,41.61277777777778],[-92.02722222222222,41.61277777777778],[-92.18055555555556,41.60138888888889],[-92.18055555555556,41.60138888888889],[-92.33666666666666,41.58916666666667],[-92.33666666666666,41.58916666666667],[-92.33666666666666,41.58916666666667],[-92.49277777777777,41.57666666666667],[-92.49277777777777,41.57666666666667],[-92.49277777777777,41.57666666666667],[-92.80972222222222,41.551111111111105],[-92.80972222222222,41.551111111111105],[-92.80972222222222,41.551111111111105],[-92.80972222222222,41.551111111111105],[-92.80972222222222,41.551111111111105],[-93.17,41.52111111111111],[-93.17,41.52111111111111],[-93.17,41.52111111111111],[-93.17,41.52111111111111],[-93.17,41.52111111111111],[-93.40833333333335,41.50055555555556],[-93.40833333333335,41.50055555555556],[-93.40833333333335,41.50055555555556],[-93.61555555555555,41.481944444444444],[-93.61555555555555,41.481944444444444],[-93.61555555555555,41.481944444444444],[-93.70444444444445,41.47416666666667],[-93.70444444444445,41.47416666666667],[-93.85333333333332,41.46055555555556],[-93.85333333333332,41.46055555555556],[-93.91388888888889,41.455000000000005],[-93.91388888888889,41.455000000000005],[-93.91388888888889,41.455000000000005],[-93.91388888888889,41.455000000000005],[-94.15194444444445,41.43277777777777],[-94.15194444444445,41.43277777777777],[-94.2125,41.42722222222222],[-94.2125,41.42722222222222],[-94.2125,41.42722222222222],[-94.2125,41.42722222222222],[-94.35583333333332,41.413333333333334],[-94.35583333333332,41.413333333333334],[-94.35583333333332,41.413333333333334],[-94.45222222222222,41.40416666666667],[-94.50361111111111,41.39888888888889],[-94.50361111111111,41.39888888888889],[-94.50361111111111,41.39888888888889],[-94.95166666666667,41.35472222222222],[-94.95166666666667,41.35472222222222],[-94.95166666666667,41.35472222222222],[-95.09861111111111,41.33972222222222],[-95.09861111111111,41.33972222222222],[-95.09861111111111,41.33972222222222],[-95.09861111111111,41.33972222222222],[-95.09861111111111,41.33972222222222],[-95.09861111111111,41.33972222222222],[-95.53694444444444,41.29361111111111],[-95.6875,41.27777777777778],[-95.6875,41.27777777777778],[-95.6875,41.27777777777778],[-95.6875,41.27777777777778],[-95.83472222222221,41.26166666666666],[-95.97916666666667,41.245555555555555],[-95.97916666666667,41.245555555555555],[-95.97916666666667,41.245555555555555],[-95.97916666666667,41.245555555555555],[-96.26305555555555,41.21388888888889],[-96.26305555555555,41.21388888888889],[-96.26305555555555,41.21388888888889],[-96.26305555555555,41.21388888888889],[-96.26305555555555,41.21388888888889],[-96.41000000000001,41.197222222222216],[-96.41000000000001,41.197222222222216],[-96.69277777777778,41.16444444444444],[-96.69277777777778,41.16444444444444],[-96.69277777777778,41.16444444444444],[-96.69277777777778,41.16444444444444],[-96.97638888888889,41.130833333333335],[-96.97638888888889,41.130833333333335],[-96.97638888888889,41.130833333333335],[-96.97638888888889,41.130833333333335],[-96.97638888888889,41.130833333333335],[-97.11944444444444,41.11361111111111],[-97.11944444444444,41.11361111111111],[-97.11944444444444,41.11361111111111],[-97.11944444444444,41.11361111111111],[-97.45333333333333,41.07555555555556],[-97.45333333333333,41.07555555555556],[-97.45333333333333,41.07555555555556],[-97.5461111111111,41.06111111111111],[-97.5461111111111,41.06111111111111],[-97.5461111111111,41.06111111111111],[-97.59694444444445,41.05722222222222],[-97.59694444444445,41.05722222222222],[-97.59694444444445,41.05722222222222],[-97.59694444444445,41.05722222222222],[-98.12388888888889,40.987500000000004],[-98.12388888888889,40.987500000000004],[-98.12388888888889,40.987500000000004],[-98.12388888888889,40.987500000000004],[-98.12388888888889,40.987500000000004],[-98.12388888888889,40.987500000000004],[-98.58083333333333,40.92666666666666],[-98.58083333333333,40.92666666666666],[-98.58083333333333,40.92666666666666],[-98.58083333333333,40.92666666666666],[-98.72694444444444,40.907222222222224],[-98.72694444444444,40.907222222222224],[-98.72694444444444,40.907222222222224],[-98.88777777777779,40.88527777777778],[-99.11583333333333,40.853611111111114],[-99.11583333333333,40.853611111111114],[-99.11583333333333,40.853611111111114],[-99.15361111111112,40.848333333333336],[-99.15361111111112,40.848333333333336],[-99.15361111111112,40.848333333333336],[-99.38138888888888,40.81638888888889],[-99.38138888888888,40.81638888888889],[-99.38138888888888,40.81638888888889],[-99.38138888888888,40.81638888888889],[-99.52194444444444,40.796388888888885],[-99.52194444444444,40.796388888888885],[-99.52194444444444,40.796388888888885],[-99.66333333333334,40.77583333333333],[-99.66333333333334,40.77583333333333],[-99.72027777777778,40.76777777777777],[-99.72027777777778,40.76777777777777],[-99.72027777777778,40.76777777777777],[-99.72027777777778,40.76777777777777],[-99.87277777777777,40.745555555555555],[-99.87277777777777,40.745555555555555],[-100.01222222222222,40.725],[-100.01222222222222,40.725],[-100.01222222222222,40.725],[-100.2925,40.68333333333333],[-100.2925,40.68333333333333],[-100.2925,40.68333333333333],[-100.2925,40.68333333333333],[-100.2925,40.68333333333333],[-100.2925,40.68333333333333],[-100.575,40.640277777777776],[-100.575,40.640277777777776],[-100.68694444444445,40.623333333333335],[-100.68694444444445,40.623333333333335],[-100.68694444444445,40.623333333333335],[-100.68694444444445,40.623333333333335],[-100.68694444444445,40.623333333333335],[-100.96694444444445,40.57972222222222],[-100.96694444444445,40.57972222222222],[-100.96694444444445,40.57972222222222],[-101.10638888888889,40.55777777777777],[-101.10638888888889,40.55777777777777],[-101.10638888888889,40.55777777777777],[-101.10638888888889,40.55777777777777],[-101.10638888888889,40.55777777777777],[-101.24222222222222,40.53638888888889],[-101.37694444444443,40.51305555555555],[-101.37694444444443,40.51305555555555],[-101.51222222222222,40.49305555555556],[-101.51222222222222,40.49305555555556],[-101.51222222222222,40.49305555555556],[-101.64611111111111,40.470555555555556],[-101.64611111111111,40.470555555555556],[-101.78361111111111,40.44777777777777],[-101.78361111111111,40.44777777777777],[-101.78361111111111,40.44777777777777],[-101.785,40.44833333333333],[-101.92527777777778,40.42527777777777],[-101.92527777777778,40.42527777777777],[-101.92527777777778,40.42527777777777],[-101.92527777777778,40.42527777777777],[-102.0611111111111,40.402499999999996],[-102.0625,40.402499999999996],[-102.0625,40.402499999999996],[-102.0625,40.402499999999996],[-102.33833333333332,40.355000000000004],[-102.33833333333332,40.355000000000004],[-102.33833333333332,40.355000000000004],[-102.48111111111112,40.33166666666667],[-102.48111111111112,40.33166666666667],[-102.48111111111112,40.33166666666667],[-102.48111111111112,40.33166666666667],[-102.61972222222222,40.30777777777777],[-102.61972222222222,40.30777777777777],[-102.61972222222222,40.30777777777777],[-102.76083333333334,40.282777777777774],[-102.90027777777779,40.25833333333333],[-102.90027777777779,40.25833333333333],[-102.90027777777779,40.25833333333333],[-102.90027777777779,40.25833333333333],[-103.03888888888889,40.23388888888889],[-103.03888888888889,40.23388888888889],[-103.03888888888889,40.23388888888889],[-103.0411111111111,40.23444444444444],[-103.17777777777778,40.20916666666667],[-103.17777777777778,40.20916666666667],[-103.17777777777778,40.20916666666667],[-103.17888888888889,40.21027777777778],[-103.31555555555555,40.184999999999995],[-103.31555555555555,40.184999999999995],[-103.31555555555555,40.184999999999995],[-103.31555555555555,40.184999999999995],[-103.45305555555557,40.160555555555554],[-103.45305555555557,40.160555555555554],[-103.45305555555557,40.160555555555554],[-103.72805555555556,40.11055555555556],[-103.72805555555556,40.11055555555556],[-103.72583333333334,40.111666666666665],[-103.72583333333334,40.111666666666665],[-103.72583333333334,40.111666666666665],[-103.86277777777777,40.08555555555556],[-103.86277777777777,40.08555555555556],[-103.86277777777777,40.08555555555556],[-104.13694444444445,40.058611111111105],[-104.13694444444445,40.058611111111105],[-104.13694444444445,40.058611111111105],[-104.13694444444445,40.058611111111105],[-104.27388888888889,40.0475],[-104.27388888888889,40.0475],[-104.27388888888889,40.0475],[-104.55083333333333,40.02472222222222],[-104.55083333333333,40.02472222222222],[-104.54555555555555,40.025],[-104.54555555555555,40.025],[-104.54555555555555,40.025],[-104.8261111111111,40],[-104.8261111111111,40],[-104.8261111111111,40],[-104.96305555555556,39.98777777777778],[-104.96305555555556,39.98777777777778],[-104.96305555555556,39.98777777777778],[-104.98527777777778,39.986666666666665],[-104.98527777777778,39.986666666666665],[-105.24111111111111,39.96361111111111],[-105.24111111111111,39.96361111111111],[-105.24111111111111,39.96361111111111],[-105.25805555555556,39.96222222222222],[-105.25805555555556,39.96222222222222],[-105.25805555555556,39.96222222222222],[-105.81805555555555,39.909444444444446],[-105.81805555555555,39.909444444444446],[-105.81805555555555,39.909444444444446],[-105.81805555555555,39.909444444444446],[-105.81805555555555,39.909444444444446],[-105.9413888888889,39.89611111111111],[-105.9413888888889,39.89611111111111],[-105.9413888888889,39.89611111111111],[-105.95555555555556,39.896388888888886],[-106.23111111111112,39.86888888888889],[-106.23111111111112,39.86888888888889],[-106.49527777777777,39.842222222222226],[-106.49527777777777,39.842222222222226],[-106.49527777777777,39.842222222222226],[-106.49527777777777,39.842222222222226],[-106.51305555555555,39.84055555555556],[-106.51305555555555,39.84055555555556],[-106.51305555555555,39.84055555555556],[-106.91611111111112,39.79722222222222],[-106.91611111111112,39.79722222222222],[-106.91611111111112,39.79722222222222],[-106.91611111111112,39.79722222222222],[-106.91611111111112,39.79722222222222],[-107.19472222222223,39.76722222222222],[-107.19472222222223,39.76722222222222],[-107.33388888888888,39.75194444444445],[-107.33388888888888,39.75194444444445],[-107.33388888888888,39.75194444444445],[-107.47361111111111,39.73722222222222],[-107.47361111111111,39.73722222222222],[-107.47361111111111,39.73722222222222],[-107.47361111111111,39.73722222222222],[-107.47444444444444,39.737500000000004],[-107.47444444444444,39.737500000000004],[-107.47444444444444,39.737500000000004],[-107.75055555555555,39.70611111111111],[-107.75055555555555,39.70611111111111],[-107.89666666666668,39.69],[-107.89666666666668,39.69],[-108.03444444444445,39.67388888888889],[-108.03444444444445,39.67388888888889],[-108.03444444444445,39.67388888888889],[-108.03444444444445,39.67388888888889],[-108.03444444444445,39.67388888888889],[-108.17194444444445,39.658055555555556],[-108.17194444444445,39.658055555555556],[-108.17194444444445,39.658055555555556],[-108.17194444444445,39.658055555555556],[-108.17194444444445,39.658055555555556],[-108.30055555555555,39.64277777777778],[-108.30055555555555,39.64277777777778],[-108.45055555555555,39.625],[-108.45055555555555,39.625],[-108.45055555555555,39.625],[-108.575,39.609722222222224],[-108.58972222222222,39.60805555555556],[-108.58972222222222,39.60805555555556],[-108.58972222222222,39.60805555555556],[-108.58972222222222,39.60805555555556],[-108.86388888888888,39.574444444444445],[-108.86388888888888,39.574444444444445],[-108.86388888888888,39.574444444444445],[-108.97583333333334,39.56055555555555],[-108.97583333333334,39.56055555555555],[-109.00277777777778,39.55722222222222],[-109.00277777777778,39.55722222222222],[-109.00277777777778,39.55722222222222],[-109.11722222222221,39.54277777777778],[-109.11722222222221,39.54277777777778],[-109.14333333333335,39.53972222222222],[-109.14333333333335,39.53972222222222],[-109.28277777777778,39.52194444444444],[-109.28277777777778,39.52194444444444],[-109.39305555555556,39.507777777777775],[-109.39305555555556,39.507777777777775],[-109.39305555555556,39.507777777777775],[-109.39305555555556,39.507777777777775],[-109.41888888888889,39.504444444444445],[-109.41888888888889,39.504444444444445],[-109.41888888888889,39.504444444444445],[-109.55666666666666,39.486666666666665],[-109.55666666666666,39.486666666666665],[-109.55666666666666,39.486666666666665],[-109.80305555555556,39.45416666666667],[-109.80305555555556,39.45416666666667],[-109.80305555555556,39.45416666666667],[-109.80305555555556,39.45416666666667],[-109.96583333333334,39.43277777777777],[-109.96583333333334,39.43277777777777],[-109.96583333333334,39.43277777777777],[-109.96583333333334,39.43277777777777],[-110.10527777777777,39.41166666666666],[-110.10527777777777,39.41166666666666],[-110.10527777777777,39.41166666666666],[-110.21305555555556,39.38916666666667],[-110.21305555555556,39.38916666666667],[-110.34972222222221,39.36055555555556],[-110.34972222222221,39.36055555555556],[-110.34972222222221,39.36055555555556],[-110.37638888888888,39.355000000000004],[-110.37638888888888,39.355000000000004],[-110.37638888888888,39.355000000000004],[-110.51083333333334,39.32805555555556],[-110.51083333333334,39.32805555555556],[-110.51083333333334,39.32805555555556],[-110.61944444444444,39.30611111111111],[-110.61944444444444,39.30611111111111],[-110.61944444444444,39.30611111111111],[-110.78138888888888,39.27444444444444],[-110.78138888888888,39.27444444444444],[-110.78138888888888,39.27444444444444],[-111.02638888888889,39.22666666666667],[-111.02638888888889,39.22666666666667],[-111.02638888888889,39.22666666666667],[-111.33111111111111,39.18555555555555],[-111.33111111111111,39.18555555555555],[-111.33111111111111,39.18555555555555],[-111.33111111111111,39.18555555555555],[-111.46861111111112,39.16638888888889],[-111.46861111111112,39.16638888888889],[-111.46861111111112,39.16638888888889],[-111.46861111111112,39.16638888888889],[-111.46861111111112,39.16638888888889],[-111.73694444444445,39.12833333333333],[-111.73694444444445,39.12833333333333],[-112.14555555555556,39.06916666666667],[-112.14555555555556,39.06916666666667],[-112.14555555555556,39.06916666666667],[-112.14555555555556,39.06916666666667],[-112.14555555555556,39.06916666666667],[-112.41944444444445,39.028888888888886],[-112.41944444444445,39.028888888888886],[-112.41944444444445,39.028888888888886],[-112.41944444444445,39.028888888888886],[-112.41944444444445,39.028888888888886],[-112.55638888888889,39.00833333333333],[-112.55638888888889,39.00833333333333],[-112.55638888888889,39.00833333333333],[-112.82722222222222,38.9675],[-112.82722222222222,38.9675],[-112.82722222222222,38.9675],[-112.82722222222222,38.9675],[-112.96333333333334,38.94638888888888],[-112.96333333333334,38.94638888888888],[-112.96333333333334,38.94638888888888],[-112.96333333333334,38.94638888888888],[-113.09722222222221,38.92583333333333],[-113.09722222222221,38.92583333333333],[-113.50472222222223,38.86194444444445],[-113.50472222222223,38.86194444444445],[-113.50472222222223,38.86194444444445],[-113.50472222222223,38.86194444444445],[-113.50472222222223,38.86194444444445],[-113.50472222222223,38.86194444444445],[-113.77944444444444,38.81777777777778],[-113.91527777777779,38.795833333333334],[-113.91527777777779,38.795833333333334],[-114.05111111111111,38.77361111111111],[-114.05111111111111,38.77361111111111],[-114.05111111111111,38.77361111111111],[-114.05111111111111,38.77361111111111],[-114.18666666666667,38.75111111111111],[-114.18666666666667,38.75111111111111],[-114.18666666666667,38.75111111111111],[-114.18666666666667,38.75111111111111],[-114.86416666666666,38.63722222222222],[-114.86416666666666,38.63722222222222],[-114.86416666666666,38.63722222222222],[-114.86416666666666,38.63722222222222],[-114.86416666666666,38.63722222222222],[-114.86416666666666,38.63722222222222],[-115.13833333333334,38.58972222222222],[-115.13833333333334,38.58972222222222],[-115.13833333333334,38.58972222222222],[-115.13833333333334,38.58972222222222],[-115.27194444444444,38.56638888888889],[-115.27194444444444,38.56638888888889],[-115.27194444444444,38.56638888888889],[-115.38833333333334,38.545833333333334],[-115.57944444444443,38.51166666666666],[-115.57944444444443,38.51166666666666],[-115.57944444444443,38.51166666666666],[-115.65916666666668,38.4975],[-115.65916666666668,38.4975],[-115.79416666666667,38.47361111111111],[-115.79416666666667,38.47361111111111],[-115.79416666666667,38.47361111111111],[-115.84722222222221,38.46388888888889],[-115.84722222222221,38.46388888888889],[-115.84722222222221,38.46388888888889],[-115.92750000000001,38.44944444444444],[-116.06138888888889,38.425],[-116.06138888888889,38.425],[-116.11361111111111,38.41555555555556],[-116.32527777777777,38.37638888888889],[-116.32527777777777,38.37638888888889],[-116.32527777777777,38.37638888888889],[-116.37972222222221,38.36638888888889],[-116.37972222222221,38.36638888888889],[-116.37972222222221,38.36638888888889],[-116.45805555555556,38.35166666666667],[-116.45805555555556,38.35166666666667],[-116.45805555555556,38.35166666666667],[-116.98972222222223,38.25083333333333],[-116.98972222222223,38.25083333333333],[-116.98972222222223,38.25083333333333],[-116.98972222222223,38.25083333333333],[-117.04666666666667,38.24],[-117.16166666666668,38.21805555555556],[-117.16166666666668,38.21805555555556],[-117.16166666666668,38.21805555555556],[-117.29666666666667,38.19166666666666],[-117.29666666666667,38.19166666666666],[-117.44527777777778,38.16277777777778],[-117.44527777777778,38.16277777777778],[-117.44527777777778,38.16277777777778],[-117.44527777777778,38.16277777777778],[-117.44527777777778,38.16277777777778],[-117.68555555555555,38.11527777777778],[-117.68555555555555,38.11527777777778],[-117.68555555555555,38.11527777777778],[-117.71527777777779,38.10944444444445],[-117.71527777777779,38.10944444444445],[-117.71527777777779,38.10944444444445],[-117.71527777777779,38.10944444444445],[-117.85166666666666,38.08222222222223],[-117.85166666666666,38.08222222222223],[-117.96111111111111,38.06027777777778],[-117.96111111111111,38.06027777777778],[-118.26555555555555,37.99861111111111],[-118.26555555555555,37.99861111111111],[-118.26555555555555,37.99861111111111],[-118.26555555555555,37.99861111111111],[-118.26555555555555,37.99861111111111],[-118.26555555555555,37.99861111111111],[-118.545,37.941111111111105],[-118.545,37.941111111111105],[-118.545,37.941111111111105],[-118.545,37.941111111111105],[-118.68416666666667,37.9125],[-118.68416666666667,37.9125],[-118.68416666666667,37.9125],[-118.68416666666667,37.9125],[-118.96583333333334,37.87277777777778],[-118.96583333333334,37.87277777777778],[-118.96583333333334,37.87277777777778],[-118.96583333333334,37.87277777777778],[-118.96583333333334,37.87277777777778],[-118.96583333333334,37.87277777777778],[-119.10111111111111,37.856944444444444],[-119.10111111111111,37.856944444444444],[-119.10111111111111,37.856944444444444],[-119.10111111111111,37.856944444444444],[-119.38527777777779,37.82416666666667],[-119.38527777777779,37.82416666666667],[-119.38527777777779,37.82416666666667],[-119.38527777777779,37.82416666666667],[-119.38527777777779,37.82416666666667],[-119.38527777777779,37.82416666666667],[-119.96055555555556,37.75472222222222],[-119.96055555555556,37.75472222222222],[-119.96055555555556,37.75472222222222],[-119.96055555555556,37.75472222222222],[-119.96055555555556,37.75472222222222],[-119.96055555555556,37.75472222222222],[-120.38805555555557,37.70138888888889],[-120.38805555555557,37.70138888888889],[-120.38805555555557,37.70138888888889],[-120.38805555555557,37.70138888888889],[-120.38805555555557,37.70138888888889],[-120.6,37.68333333333333],[-120.6,37.68333333333333],[-120.6,37.68333333333333],[-120.65416666666667,37.67027777777778],[-120.65416666666667,37.67027777777778],[-120.65416666666667,37.67027777777778],[-120.75472222222223,37.65833333333333],[-120.75472222222223,37.65833333333333],[-120.75472222222223,37.65833333333333],[-120.75472222222223,37.65833333333333],[-120.75472222222223,37.65833333333333],[-121.26666666666667,37.6],[-121.26666666666667,37.6],[-121.26666666666667,37.6],[-121.38333333333334,37.583333333333336],[-121.38333333333334,37.583333333333336],[-121.38333333333334,37.583333333333336],[-121.38333333333334,37.583333333333336],[-121.38333333333334,37.583333333333336],[-121.59194444444444,37.55472222222222],[-121.59194444444444,37.55472222222222],[-121.59194444444444,37.55472222222222],[-121.75,37.516666666666666],[-121.75,37.516666666666666],[-121.75,37.516666666666666],[-121.75,37.516666666666666],[-121.7611111111111,37.50944444444445],[-121.7611111111111,37.50944444444445],[-121.7611111111111,37.50944444444445],[-121.91277777777778,37.42361111111111],[-121.91277777777778,37.42361111111111],[-121.91277777777778,37.42361111111111],[-121.91277777777778,37.42361111111111],[-121.91277777777778,37.42361111111111],[-122.04583333333333,37.47972222222222],[-122.04583333333333,37.47972222222222],[-122.04583333333333,37.47972222222222],[-122.04583333333333,37.47972222222222],[-122.04583333333333,37.47972222222222],[-122.15,37.516666666666666],[-122.15,37.516666666666666],[-122.15,37.516666666666666],[-122.15111111111112,37.52444444444444],[-122.15111111111112,37.52444444444444],[-122.3325,37.600833333333334],[-122.3325,37.600833333333334],[-122.3325,37.600833333333334],[-122.3325,37.600833333333334],[-122.3325,37.600833333333334]],"type":"LineString"}
}
