{
  "id": 2031117447,
  "type": "Feature",
  "properties": {
    "geom:area": 0,
    "geom:bbox": "-122.356790,37.491770,-121.250250,37.613430",
    "geom:latitude": 37.54292219715996,
    "geom:longitude": -121.81051794395052,
    "src:alt_label": "swim-approach",
    "src:geom": "swim",
    "swim:elevations": [
      4622,
      4476,
      4304,
      4099,
      3988,
      3874,
      3749,
      3659,
      3490,
      3206,
      3070,
      3023,
      2944,
      2706,
      2609,
      2316,
      2220,
      2182,
      2097,
      2016,
      1978,
      1825,
      1830,
      1667,
      1495,
      1380,
      1239,
      1192,
      1126,
      1010,
      982,
      835,
      819,
      635,
      406,
      372,
      311,
      180,
      81,
      0
    ],
    "swim:geom": "approach",
    "swim:timestamps": [
      1777191898,
      1777191915,
      1777191951,
      1777191987,
      1777192000,
      1777192016,
      1777192040,
      1777192066,
      1777192093,
      1777192132,
      1777192155,
      1777192167,
      1777192187,
      1777192223,
      1777192238,
      1777192286,
      1777192313,
      1777192323,
      1777192340,
      1777192352,
      1777192366,
      1777192390,
      1777192397,
      1777192433,
      1777192457,
      1777192482,
      1777192515,
      1777192522,
      1777192534,
      1777192557,
      1777192568,
      1777192617,
      1777192620,
      1777192650,
      1777192702,
      1777192711,
      1777192731,
      1777192767,
      1777192794,
      1777192812
    ],
    "wof:geomhash": "71a4494446b34481a330c75015674c47",
    "wof:id": 2031117447,
    "wof:repo": "sfomuseum-data-flights-2026-04"
  },
  "bbox": [
    -122.35679,
    37.49177,
    -121.25025,
    37.61343
  ],
  "geometry": {"coordinates":[[-121.25025,37.59466],[-121.28279,37.59034],[-121.34994,37.5828],[-121.4116,37.5758],[-121.43422,37.57321],[-121.46031,37.57024],[-121.49989,37.56559],[-121.54034,37.56086],[-121.57918,37.55628],[-121.63729,37.5479],[-121.6709,37.53984],[-121.68739,37.53585],[-121.71336,37.52963],[-121.76076,37.51835],[-121.77974,37.5139],[-121.84112,37.49916],[-121.87371,37.49177],[-121.88588,37.49191],[-121.90591,37.49343],[-121.92013,37.49405],[-121.9358,37.4947],[-121.96378,37.49625],[-121.97191,37.49671],[-122.01309,37.49888],[-122.04034,37.50054],[-122.06982,37.5022],[-122.10483,37.50775],[-122.1118,37.51052],[-122.12432,37.51555],[-122.14704,37.525],[-122.15817,37.52976],[-122.2061,37.55001],[-122.20903,37.55126],[-122.23843,37.56359],[-122.28415,37.58289],[-122.29086,37.58569],[-122.30402,37.59125],[-122.32753,37.6011],[-122.34518,37.60856],[-122.35679,37.61343]],"type":"LineString"}
}
