{
  "id": 2015237067,
  "type": "Feature",
  "properties": {
    "geom:area": 0,
    "geom:bbox": "-122.761860,37.368650,-122.081140,38.503680",
    "geom:latitude": 37.78148696488359,
    "geom:longitude": -122.45394919592579,
    "src:alt_label": "swim-approach",
    "src:geom": "swim",
    "swim:elevations": [
      8353,
      8304,
      7986,
      7661,
      7264,
      6854,
      6644,
      6254,
      5921,
      5672,
      5264,
      4900,
      4531,
      4282,
      3987,
      3766,
      3380,
      3353,
      3353,
      3353,
      3353,
      3353,
      3353,
      3279,
      3087,
      2894,
      2821,
      2712,
      2580,
      2368,
      2208,
      2134,
      2134,
      2134,
      2115,
      2075,
      1879,
      1830,
      1704,
      1568,
      1523,
      1413,
      1274,
      1154,
      1005,
      729,
      606,
      526,
      337,
      220,
      108,
      36,
      655
    ],
    "swim:geom": "approach",
    "swim:timestamps": [
      1775658591,
      1775658600,
      1775658648,
      1775658675,
      1775658709,
      1775658743,
      1775658761,
      1775658796,
      1775658826,
      1775658849,
      1775658889,
      1775658922,
      1775658956,
      1775658980,
      1775659009,
      1775659030,
      1775659075,
      1775659100,
      1775659117,
      1775659168,
      1775659187,
      1775659216,
      1775659248,
      1775659279,
      1775659313,
      1775659348,
      1775659359,
      1775659377,
      1775659396,
      1775659430,
      1775659456,
      1775659489,
      1775659500,
      1775659521,
      1775659544,
      1775659560,
      1775659597,
      1775659614,
      1775659637,
      1775659666,
      1775659693,
      1775659725,
      1775659757,
      1775659777,
      1775659805,
      1775659846,
      1775659868,
      1775659891,
      1775659947,
      1775659971,
      1775660005,
      1775660026,
      1775660043
    ],
    "wof:geomhash": "9110fbb5cb6d5ed5d4600e74783d4301",
    "wof:id": 2015237067,
    "wof:repo": "sfomuseum-data-flights-2026-04"
  },
  "bbox": [
    -122.76186,
    37.36865,
    -122.08114,
    38.50368
  ],
  "geometry": {"coordinates":[[-122.68037,38.50368],[-122.68528,38.48837],[-122.71133,38.40573],[-122.72601,38.35888],[-122.74312,38.30257],[-122.76023,38.24606],[-122.76186,38.21427],[-122.74771,38.15718],[-122.73397,38.1085],[-122.72328,38.07188],[-122.70517,38.00967],[-122.69026,37.95779],[-122.67231,37.90619],[-122.64691,37.87503],[-122.61005,37.84005],[-122.58422,37.81542],[-122.52766,37.76174],[-122.49903,37.73488],[-122.48093,37.71794],[-122.43249,37.67239],[-122.41419,37.65509],[-122.38771,37.63014],[-122.35743,37.60166],[-122.32844,37.57403],[-122.29796,37.54441],[-122.28034,37.5099],[-122.27787,37.49797],[-122.27376,37.4789],[-122.27528,37.45888],[-122.28492,37.42311],[-122.28847,37.39518],[-122.25713,37.37253],[-122.24114,37.37147],[-122.21194,37.3706],[-122.17985,37.36947],[-122.15718,37.36865],[-122.10917,37.37666],[-122.09679,37.39224],[-122.08835,37.41634],[-122.08114,37.4477],[-122.09716,37.47247],[-122.11971,37.49731],[-122.14132,37.52025],[-122.15988,37.53015],[-122.1858,37.54164],[-122.22553,37.55823],[-122.24345,37.5657],[-122.26139,37.57326],[-122.30074,37.58991],[-122.31671,37.59659],[-122.34007,37.60637],[-122.35412,37.61222],[-122.36663,37.61889]],"type":"LineString"}
}
