{
  "id": 2031118453,
  "type": "Feature",
  "properties": {
    "geom:area": 0,
    "geom:bbox": "-122.348611,37.768889,-88.016667,42.606944",
    "geom:latitude": 41.06963194616779,
    "geom:longitude": -105.18801197033157,
    "src:alt_label": "swim-path",
    "src:geom": "swim",
    "swim:altitudes": [
      "058",
      "058",
      "058",
      "058",
      "058",
      "058",
      "058",
      "122",
      "122",
      "122",
      "122",
      "122",
      "144",
      "144",
      "144",
      "144",
      "144",
      "144",
      "144",
      "144",
      "193",
      "193",
      "193",
      "193",
      "233",
      "233",
      "233",
      "233",
      "249",
      "249",
      "249",
      "249",
      "249",
      "249",
      "249",
      "278",
      "278",
      "278",
      "278",
      "321",
      "321",
      "321",
      "321",
      "321",
      "321",
      "350",
      "358",
      "358",
      "358",
      "358",
      "364",
      "364",
      "370C",
      "370C",
      "370C",
      "370C",
      "370C",
      "370C",
      "370C",
      "370C",
      "370C",
      "370C",
      "370C",
      "370C",
      "370C",
      "370C",
      "370C",
      "370C",
      "370C",
      "370C",
      "370C",
      "370C",
      "370C",
      "370C",
      "370C",
      "370C",
      "370C",
      "370C",
      "370C",
      "370C",
      "370C",
      "370C",
      "370C",
      "370C",
      "370C",
      "370C",
      "370C",
      "370C",
      "370C",
      "370C",
      "370C",
      "370C",
      "370C",
      "370C",
      "370C",
      "370C",
      "370C",
      "370C",
      "370C",
      "370C",
      "370C",
      "370C",
      "370C",
      "370C",
      "370C",
      "370C",
      "370C",
      "370C",
      "370C",
      "370C",
      "370C",
      "370C",
      "370C",
      "370C",
      "370C",
      "370C",
      "370C",
      "370C",
      "370C",
      "370C",
      "370C",
      "370C",
      "370C",
      "370C",
      "370C",
      "370C",
      "370C",
      "370C",
      "370C",
      "370C",
      "370C",
      "370C",
      "370C",
      "370C",
      "370C",
      "370C",
      "370C",
      "370C",
      "370C",
      "370C",
      "370C",
      "370C",
      "370C",
      "370C",
      "370C",
      "370C",
      "370C",
      "370C",
      "370C",
      "370C",
      "370C",
      "370C",
      "370C",
      "370C",
      "370C",
      "370C",
      "370C",
      "370C",
      "370C",
      "370C",
      "370C",
      "370C",
      "370C",
      "370C",
      "370C",
      "370C",
      "370C",
      "370C",
      "370C",
      "370C",
      "370C",
      "370C",
      "370C",
      "370C",
      "370C",
      "370C",
      "370C",
      "370C",
      "370C",
      "370C",
      "370C",
      "370C",
      "370C",
      "370C",
      "370C",
      "370C",
      "370C",
      "370C",
      "370C",
      "370C",
      "370C",
      "370C",
      "370C",
      "370C",
      "370C",
      "370C",
      "370C",
      "370C",
      "370C",
      "370C",
      "370C",
      "370C",
      "370C",
      "370C",
      "370C",
      "370C",
      "370C",
      "370C",
      "370C",
      "370C",
      "370C",
      "370C",
      "370C",
      "370C",
      "370C",
      "370C",
      "370C",
      "370C",
      "370C",
      "370C",
      "370C",
      "370C",
      "370C",
      "370C",
      "370C",
      "370C",
      "370C",
      "370C",
      "370C",
      "370C",
      "370C",
      "370C",
      "370C",
      "370C",
      "370C",
      "370C",
      "370C",
      "370C",
      "370C",
      "370C",
      "370C",
      "370C",
      "370C",
      "370C",
      "370C",
      "370C",
      "370C",
      "370C",
      "370C",
      "370C",
      "370C",
      "370C",
      "370C",
      "370C",
      "370C",
      "370C",
      "370C",
      "370C",
      "370C",
      "370C",
      "370C",
      "370C",
      "370C",
      "370C",
      "370C",
      "370C",
      "370C",
      "370C",
      "370C",
      "370C",
      "370C",
      "370C",
      "370C",
      "370C",
      "370C",
      "370C",
      "370C",
      "370C",
      "370C",
      "370C",
      "370C",
      "370C",
      "370C",
      "370C",
      "370C",
      "370C",
      "370C",
      "370C",
      "370C",
      "370C",
      "370C",
      "370C",
      "370C",
      "370C",
      "370C",
      "370C",
      "370C",
      "370C",
      "370C",
      "370C",
      "370C",
      "370C",
      "370C",
      "370C",
      "370C",
      "370C",
      "370C",
      "370C",
      "370C",
      "370C",
      "370C",
      "370C",
      "370C",
      "370C",
      "370C",
      "370C",
      "370C",
      "370C",
      "370C",
      "370C",
      "370C",
      "370C",
      "370C",
      "370C",
      "370C",
      "370C",
      "370C",
      "370C",
      "370C",
      "370C",
      "370C",
      "370C",
      "370C",
      "370C",
      "370C",
      "370C",
      "370C",
      "370C",
      "370C",
      "370C",
      "370C",
      "370C",
      "370C",
      "370C",
      "370C",
      "370C",
      "370C",
      "370C",
      "370C",
      "370C",
      "370C",
      "370C",
      "370C",
      "370C",
      "370C",
      "370C",
      "370C",
      "370C",
      "370C",
      "370C",
      "370C",
      "370C",
      "370C",
      "370C",
      "370C",
      "370C",
      "370C",
      "370C",
      "370C",
      "370C",
      "370C",
      "370C",
      "370C",
      "370C",
      "370C",
      "370C",
      "370C",
      "370C",
      "370C",
      "370C",
      "370C",
      "370C",
      "370C",
      "370C",
      "370C",
      "370C",
      "370C",
      "370C",
      "370C",
      "370C",
      "370C",
      "370C",
      "370C",
      "370C",
      "370C",
      "370C",
      "370C",
      "370C",
      "370C",
      "370C",
      "370C",
      "370C",
      "370C",
      "370C",
      "370C",
      "370C",
      "370C",
      "370C",
      "370C",
      "370C",
      "370C",
      "370C",
      "370C",
      "370C",
      "370C",
      "370C",
      "370C",
      "370C",
      "370C",
      "370C",
      "370C",
      "370C",
      "370C",
      "370C",
      "370C",
      "370C",
      "370C",
      "370C",
      "370C",
      "370C",
      "370C",
      "370C",
      "370C",
      "370C",
      "370C",
      "370C",
      "370C",
      "370C",
      "370C",
      "370C",
      "370C",
      "370C",
      "370C",
      "370C",
      "370C",
      "370C",
      "370C",
      "370C",
      "370C",
      "370C",
      "370C",
      "370C",
      "370C",
      "370C",
      "370C",
      "370C",
      "370C",
      "370C",
      "370C",
      "370C",
      "370C",
      "370C",
      "370C",
      "370C",
      "370C",
      "370C",
      "370C",
      "370C",
      "370C",
      "370C",
      "370C",
      "370C",
      "370C",
      "370C",
      "351C",
      "351C",
      "351C",
      "351C",
      "350",
      "350",
      "347",
      "347",
      "347",
      "347",
      "341",
      "341",
      "341",
      "341",
      "341",
      "341",
      "338",
      "338",
      "338",
      "332C",
      "332C",
      "318",
      "318",
      "318",
      "318",
      "318",
      "318",
      "318",
      "318",
      "318",
      "296",
      "296",
      "296",
      "296",
      "296",
      "296",
      "296",
      "285",
      "285",
      "275",
      "275",
      "275",
      "275",
      "275",
      "269",
      "269",
      "269",
      "269",
      "269",
      "269",
      "269",
      "203",
      "203",
      "203",
      "187",
      "187",
      "187",
      "187",
      "187",
      "187",
      "187",
      "187",
      "187",
      "156",
      "156",
      "156",
      "156",
      "156",
      "156",
      "141",
      "141",
      "141",
      "141",
      "141",
      "141",
      "127",
      "127",
      "127",
      "101",
      "101",
      "101",
      "101",
      "101",
      "101",
      "101",
      "101",
      "087",
      "087",
      "087",
      "087",
      "086",
      "086",
      "073",
      "073",
      "073",
      "073",
      "073",
      "073",
      "073",
      "073",
      "073",
      "073",
      "051",
      "051",
      "051",
      "051",
      "051",
      "050",
      "050",
      "050",
      "050",
      "050",
      "040",
      "040",
      "040",
      "040",
      "040",
      "040",
      "041",
      "041",
      "041",
      "041",
      "041",
      "041",
      "041",
      "041",
      "041",
      "041",
      "041",
      "038",
      "038",
      "029",
      "029",
      "029",
      "029",
      "029",
      "021",
      "021",
      "021",
      "021",
      "021",
      "021",
      "021",
      "021"
    ],
    "swim:geom": "path",
    "swim:speeds": [
      265,
      265,
      265,
      265,
      265,
      265,
      265,
      369,
      369,
      369,
      369,
      369,
      390,
      390,
      390,
      390,
      390,
      390,
      390,
      390,
      418,
      418,
      418,
      418,
      445,
      445,
      445,
      445,
      460,
      460,
      460,
      460,
      460,
      460,
      460,
      482,
      482,
      482,
      482,
      485,
      485,
      485,
      485,
      485,
      485,
      479,
      482,
      482,
      482,
      482,
      480,
      480,
      490,
      490,
      490,
      491,
      491,
      491,
      491,
      491,
      491,
      491,
      491,
      491,
      491,
      489,
      489,
      479,
      479,
      479,
      479,
      477,
      477,
      477,
      477,
      477,
      477,
      476,
      476,
      476,
      475,
      475,
      475,
      475,
      475,
      475,
      475,
      475,
      477,
      477,
      477,
      477,
      477,
      477,
      477,
      477,
      478,
      478,
      478,
      478,
      478,
      478,
      478,
      478,
      478,
      478,
      478,
      476,
      476,
      476,
      476,
      476,
      476,
      476,
      476,
      476,
      476,
      474,
      474,
      474,
      474,
      474,
      474,
      474,
      474,
      474,
      478,
      478,
      478,
      478,
      478,
      478,
      478,
      478,
      478,
      478,
      478,
      478,
      478,
      479,
      479,
      479,
      479,
      479,
      479,
      479,
      479,
      479,
      479,
      479,
      479,
      479,
      479,
      479,
      479,
      479,
      479,
      479,
      479,
      479,
      479,
      480,
      480,
      480,
      480,
      480,
      476,
      476,
      476,
      476,
      476,
      476,
      476,
      476,
      476,
      479,
      479,
      479,
      479,
      480,
      480,
      481,
      481,
      481,
      481,
      481,
      481,
      481,
      481,
      481,
      481,
      481,
      481,
      481,
      481,
      482,
      482,
      482,
      481,
      482,
      482,
      483,
      483,
      483,
      483,
      483,
      483,
      483,
      483,
      485,
      485,
      485,
      485,
      485,
      486,
      486,
      486,
      486,
      486,
      486,
      486,
      486,
      486,
      486,
      486,
      486,
      486,
      486,
      486,
      484,
      484,
      484,
      484,
      484,
      484,
      483,
      483,
      483,
      483,
      483,
      483,
      483,
      484,
      484,
      484,
      484,
      484,
      484,
      484,
      484,
      484,
      484,
      485,
      485,
      485,
      485,
      485,
      485,
      485,
      485,
      485,
      485,
      488,
      488,
      488,
      488,
      488,
      488,
      488,
      488,
      488,
      489,
      489,
      490,
      491,
      491,
      491,
      491,
      491,
      491,
      491,
      492,
      492,
      492,
      492,
      492,
      492,
      492,
      492,
      492,
      492,
      491,
      491,
      491,
      491,
      491,
      491,
      491,
      491,
      491,
      491,
      491,
      491,
      491,
      491,
      491,
      491,
      495,
      495,
      495,
      495,
      495,
      495,
      495,
      495,
      495,
      496,
      496,
      496,
      496,
      495,
      495,
      495,
      495,
      495,
      495,
      495,
      496,
      496,
      497,
      497,
      497,
      497,
      497,
      496,
      496,
      495,
      495,
      495,
      495,
      495,
      495,
      495,
      496,
      495,
      495,
      495,
      495,
      495,
      495,
      494,
      494,
      494,
      494,
      494,
      495,
      495,
      495,
      495,
      495,
      495,
      496,
      496,
      496,
      496,
      496,
      496,
      496,
      496,
      496,
      496,
      496,
      496,
      496,
      495,
      495,
      495,
      495,
      495,
      495,
      495,
      495,
      495,
      493,
      493,
      493,
      493,
      493,
      493,
      493,
      494,
      494,
      494,
      494,
      494,
      494,
      494,
      500,
      500,
      500,
      500,
      500,
      500,
      500,
      500,
      501,
      501,
      501,
      501,
      501,
      501,
      501,
      501,
      501,
      501,
      501,
      501,
      501,
      495,
      495,
      495,
      495,
      495,
      495,
      494,
      494,
      494,
      494,
      494,
      487,
      487,
      494,
      494,
      494,
      494,
      494,
      494,
      495,
      495,
      495,
      494,
      494,
      494,
      494,
      494,
      494,
      494,
      492,
      492,
      492,
      492,
      491,
      491,
      491,
      491,
      490,
      490,
      490,
      490,
      489,
      489,
      489,
      489,
      489,
      489,
      489,
      489,
      489,
      489,
      489,
      489,
      489,
      489,
      489,
      492,
      492,
      492,
      492,
      492,
      492,
      491,
      491,
      491,
      491,
      491,
      491,
      491,
      491,
      491,
      491,
      492,
      492,
      492,
      492,
      492,
      493,
      493,
      493,
      493,
      493,
      493,
      493,
      493,
      493,
      496,
      496,
      496,
      496,
      496,
      496,
      496,
      497,
      497,
      488,
      488,
      488,
      488,
      488,
      486,
      486,
      486,
      486,
      486,
      486,
      486,
      392,
      392,
      392,
      382,
      382,
      382,
      382,
      382,
      382,
      382,
      382,
      382,
      351,
      351,
      351,
      351,
      351,
      351,
      338,
      338,
      338,
      338,
      338,
      338,
      324,
      324,
      324,
      287,
      287,
      287,
      287,
      287,
      287,
      287,
      287,
      275,
      275,
      275,
      275,
      280,
      280,
      266,
      266,
      266,
      266,
      266,
      269,
      269,
      269,
      269,
      269,
      262,
      262,
      262,
      262,
      262,
      262,
      262,
      262,
      262,
      262,
      258,
      258,
      258,
      258,
      258,
      258,
      216,
      216,
      216,
      216,
      216,
      208,
      208,
      208,
      208,
      212,
      212,
      194,
      194,
      193,
      193,
      193,
      193,
      193,
      164,
      164,
      164,
      164,
      164,
      164,
      164,
      164
    ],
    "swim:timestamps": [
      1777207112,
      1777207112,
      1777207112,
      1777207112,
      1777207112,
      1777207112,
      1777207112,
      1777207292,
      1777207292,
      1777207292,
      1777207292,
      1777207292,
      1777207352,
      1777207352,
      1777207352,
      1777207352,
      1777207352,
      1777207352,
      1777207352,
      1777207352,
      1777207472,
      1777207472,
      1777207472,
      1777207472,
      1777207592,
      1777207592,
      1777207592,
      1777207592,
      1777207652,
      1777207652,
      1777207652,
      1777207652,
      1777207652,
      1777207652,
      1777207652,
      1777207772,
      1777207772,
      1777207772,
      1777207772,
      1777207951,
      1777207951,
      1777207951,
      1777207951,
      1777207951,
      1777207951,
      1777208073,
      1777208131,
      1777208131,
      1777208131,
      1777208131,
      1777208191,
      1777208191,
      1777208311,
      1777208311,
      1777208311,
      1777208431,
      1777208431,
      1777208431,
      1777208431,
      1777208431,
      1777208491,
      1777208491,
      1777208491,
      1777208491,
      1777208491,
      1777208611,
      1777208611,
      1777208671,
      1777208671,
      1777208671,
      1777208671,
      1777208732,
      1777208732,
      1777208732,
      1777208732,
      1777208732,
      1777208732,
      1777208792,
      1777208792,
      1777208792,
      1777208912,
      1777208912,
      1777208912,
      1777208912,
      1777208912,
      1777208912,
      1777208972,
      1777208972,
      1777209512,
      1777209512,
      1777209512,
      1777209512,
      1777209512,
      1777209512,
      1777209512,
      1777209512,
      1777209632,
      1777209632,
      1777209752,
      1777209752,
      1777209752,
      1777209752,
      1777209752,
      1777209752,
      1777209752,
      1777209752,
      1777209752,
      1777209872,
      1777209872,
      1777209872,
      1777209872,
      1777209872,
      1777209872,
      1777209872,
      1777209872,
      1777209872,
      1777209872,
      1777210113,
      1777210113,
      1777210113,
      1777210113,
      1777210113,
      1777210113,
      1777210113,
      1777210113,
      1777210113,
      1777210353,
      1777210353,
      1777210353,
      1777210353,
      1777210353,
      1777210473,
      1777210473,
      1777210473,
      1777210473,
      1777210473,
      1777210533,
      1777210533,
      1777210533,
      1777210593,
      1777210653,
      1777210653,
      1777210653,
      1777210653,
      1777210713,
      1777210713,
      1777210713,
      1777210713,
      1777210713,
      1777210713,
      1777210773,
      1777210773,
      1777210894,
      1777210894,
      1777210894,
      1777210894,
      1777210894,
      1777210894,
      1777211014,
      1777211014,
      1777211014,
      1777211074,
      1777211074,
      1777211074,
      1777211074,
      1777211074,
      1777211254,
      1777211254,
      1777211254,
      1777211254,
      1777211254,
      1777211254,
      1777211254,
      1777211254,
      1777211254,
      1777211494,
      1777211494,
      1777211494,
      1777211494,
      1777211604,
      1777211604,
      1777211614,
      1777211614,
      1777211614,
      1777211664,
      1777211664,
      1777211674,
      1777211674,
      1777211674,
      1777211674,
      1777211724,
      1777211735,
      1777211735,
      1777211735,
      1777211735,
      1777211784,
      1777211784,
      1777211784,
      1777211844,
      1777211904,
      1777211904,
      1777211965,
      1777211965,
      1777211965,
      1777211965,
      1777212035,
      1777212035,
      1777212035,
      1777212085,
      1777212145,
      1777212145,
      1777212145,
      1777212145,
      1777212145,
      1777212205,
      1777212205,
      1777212205,
      1777212215,
      1777212215,
      1777212215,
      1777212215,
      1777212265,
      1777212265,
      1777212325,
      1777212325,
      1777212325,
      1777212325,
      1777212325,
      1777212325,
      1777212445,
      1777212445,
      1777212445,
      1777212445,
      1777212445,
      1777212445,
      1777212515,
      1777212515,
      1777212515,
      1777212515,
      1777212515,
      1777212515,
      1777212515,
      1777212636,
      1777212636,
      1777212636,
      1777212686,
      1777212686,
      1777212686,
      1777212686,
      1777212696,
      1777212696,
      1777212696,
      1777212806,
      1777212806,
      1777212806,
      1777212806,
      1777212806,
      1777212806,
      1777212806,
      1777212806,
      1777212806,
      1777212806,
      1777213286,
      1777213286,
      1777213286,
      1777213286,
      1777213286,
      1777213286,
      1777213346,
      1777213346,
      1777213346,
      1777213407,
      1777213407,
      1777213467,
      1777213527,
      1777213527,
      1777213527,
      1777213527,
      1777213527,
      1777213527,
      1777213527,
      1777213767,
      1777213767,
      1777213767,
      1777213767,
      1777213827,
      1777213827,
      1777213827,
      1777213827,
      1777213827,
      1777213827,
      1777214007,
      1777214007,
      1777214007,
      1777214007,
      1777214007,
      1777214067,
      1777214067,
      1777214067,
      1777214067,
      1777214128,
      1777214128,
      1777214128,
      1777214128,
      1777214128,
      1777214128,
      1777214128,
      1777214338,
      1777214338,
      1777214338,
      1777214338,
      1777214338,
      1777214338,
      1777214338,
      1777214338,
      1777214368,
      1777214428,
      1777214428,
      1777214428,
      1777214428,
      1777214459,
      1777214459,
      1777214459,
      1777214519,
      1777214519,
      1777214519,
      1777214519,
      1777214579,
      1777214579,
      1777214608,
      1777214608,
      1777214608,
      1777214608,
      1777214608,
      1777214668,
      1777214699,
      1777214759,
      1777214759,
      1777214759,
      1777214788,
      1777214788,
      1777214788,
      1777214788,
      1777214819,
      1777214879,
      1777214879,
      1777214909,
      1777214969,
      1777214969,
      1777214969,
      1777215029,
      1777215029,
      1777215029,
      1777215029,
      1777215029,
      1777215059,
      1777215059,
      1777215059,
      1777215059,
      1777215059,
      1777215059,
      1777215329,
      1777215329,
      1777215329,
      1777215329,
      1777215329,
      1777215389,
      1777215389,
      1777215389,
      1777215389,
      1777215480,
      1777215480,
      1777215480,
      1777215480,
      1777215570,
      1777215570,
      1777215570,
      1777215570,
      1777215600,
      1777215600,
      1777215600,
      1777215600,
      1777215600,
      1777215781,
      1777215781,
      1777215781,
      1777215781,
      1777215781,
      1777215781,
      1777215781,
      1777215841,
      1777215841,
      1777215841,
      1777215841,
      1777215841,
      1777215841,
      1777215841,
      1777216201,
      1777216201,
      1777216201,
      1777216201,
      1777216201,
      1777216201,
      1777216201,
      1777216201,
      1777216321,
      1777216321,
      1777216321,
      1777216321,
      1777216381,
      1777216381,
      1777216381,
      1777216381,
      1777216381,
      1777216381,
      1777216381,
      1777216381,
      1777216381,
      1777216622,
      1777216622,
      1777216622,
      1777216622,
      1777216622,
      1777216622,
      1777216682,
      1777216682,
      1777216682,
      1777216682,
      1777216682,
      1777216835,
      1777216835,
      1777216862,
      1777216862,
      1777216862,
      1777216895,
      1777216895,
      1777216895,
      1777216922,
      1777216922,
      1777216922,
      1777216955,
      1777216955,
      1777216955,
      1777217075,
      1777217075,
      1777217075,
      1777217103,
      1777217135,
      1777217135,
      1777217135,
      1777217135,
      1777217195,
      1777217195,
      1777217195,
      1777217195,
      1777217255,
      1777217255,
      1777217255,
      1777217255,
      1777217315,
      1777217315,
      1777217315,
      1777217315,
      1777217343,
      1777217343,
      1777217343,
      1777217343,
      1777217343,
      1777217343,
      1777217403,
      1777217403,
      1777217403,
      1777217403,
      1777217403,
      1777217583,
      1777217583,
      1777217583,
      1777217583,
      1777217643,
      1777217643,
      1777217676,
      1777217676,
      1777217676,
      1777217676,
      1777217703,
      1777217703,
      1777217703,
      1777217703,
      1777217703,
      1777217703,
      1777217736,
      1777217736,
      1777217736,
      1777217764,
      1777217764,
      1777217916,
      1777217916,
      1777217916,
      1777217916,
      1777217916,
      1777217916,
      1777217916,
      1777217916,
      1777217916,
      1777218184,
      1777218184,
      1777218184,
      1777218184,
      1777218184,
      1777218184,
      1777218184,
      1777218244,
      1777218244,
      1777218304,
      1777218304,
      1777218304,
      1777218304,
      1777218304,
      1777218337,
      1777218337,
      1777218337,
      1777218337,
      1777218337,
      1777218337,
      1777218337,
      1777218638,
      1777218638,
      1777218638,
      1777218698,
      1777218698,
      1777218698,
      1777218698,
      1777218698,
      1777218698,
      1777218698,
      1777218698,
      1777218698,
      1777218818,
      1777218818,
      1777218818,
      1777218818,
      1777218818,
      1777218818,
      1777218878,
      1777218878,
      1777218878,
      1777218878,
      1777218878,
      1777218878,
      1777218922,
      1777218922,
      1777218922,
      1777219042,
      1777219042,
      1777219042,
      1777219042,
      1777219042,
      1777219042,
      1777219042,
      1777219042,
      1777219102,
      1777219102,
      1777219102,
      1777219102,
      1777219119,
      1777219119,
      1777219162,
      1777219162,
      1777219162,
      1777219162,
      1777219162,
      1777219179,
      1777219179,
      1777219179,
      1777219179,
      1777219179,
      1777219282,
      1777219282,
      1777219282,
      1777219282,
      1777219282,
      1777219342,
      1777219342,
      1777219342,
      1777219342,
      1777219342,
      1777219402,
      1777219402,
      1777219402,
      1777219402,
      1777219402,
      1777219402,
      1777219539,
      1777219539,
      1777219539,
      1777219539,
      1777219539,
      1777219582,
      1777219582,
      1777219582,
      1777219582,
      1777219599,
      1777219599,
      1777219660,
      1777219660,
      1777219720,
      1777219720,
      1777219720,
      1777219720,
      1777219720,
      1777219762,
      1777219762,
      1777219762,
      1777219762,
      1777219762,
      1777219762,
      1777219762,
      1777219762
    ],
    "wof:geomhash": "66c973fff3bd9ed4bc9c947ec37d6563",
    "wof:id": 2031118453,
    "wof:repo": "sfomuseum-data-flights-2026-04"
  },
  "bbox": [
    -122.34861111111111,
    37.76888888888889,
    -88.01666666666667,
    42.606944444444444
  ],
  "geometry": {"coordinates":[[-122.34861111111111,37.76888888888889],[-122.34861111111111,37.76888888888889],[-122.34861111111111,37.76888888888889],[-122.34861111111111,37.76888888888889],[-122.34861111111111,37.76888888888889],[-122.34861111111111,37.76888888888889],[-122.34861111111111,37.76888888888889],[-122.27194444444444,37.96416666666667],[-122.27194444444444,37.96416666666667],[-122.27194444444444,37.96416666666667],[-122.27194444444444,37.96416666666667],[-122.27194444444444,37.96416666666667],[-122.13972222222223,37.99],[-122.13972222222223,37.99],[-122.13972222222223,37.99],[-122.13972222222223,37.99],[-122.13972222222223,37.99],[-122.13972222222223,37.99],[-122.13972222222223,37.99],[-122.13972222222223,37.99],[-121.86083333333333,38.04555555555555],[-121.86083333333333,38.04555555555555],[-121.86083333333333,38.04555555555555],[-121.86083333333333,38.04555555555555],[-121.55749999999999,38.10583333333334],[-121.55749999999999,38.10583333333334],[-121.55749999999999,38.10583333333334],[-121.55749999999999,38.10583333333334],[-121.40138888888889,38.138888888888886],[-121.40138888888889,38.138888888888886],[-121.40138888888889,38.138888888888886],[-121.40138888888889,38.138888888888886],[-121.40138888888889,38.138888888888886],[-121.40138888888889,38.138888888888886],[-121.40138888888889,38.138888888888886],[-121.07805555555555,38.20472222222222],[-121.07805555555555,38.20472222222222],[-121.07805555555555,38.20472222222222],[-121.07805555555555,38.20472222222222],[-120.61472222222221,38.29611111111111],[-120.61472222222221,38.29611111111111],[-120.61472222222221,38.29611111111111],[-120.61472222222221,38.29611111111111],[-120.61472222222221,38.29611111111111],[-120.61472222222221,38.29611111111111],[-120.25611111111111,38.36833333333333],[-120.12055555555555,38.393055555555556],[-120.12055555555555,38.393055555555556],[-120.12055555555555,38.393055555555556],[-120.12055555555555,38.393055555555556],[-119.95611111111111,38.42444444444444],[-119.95611111111111,38.42444444444444],[-119.61777777777777,38.48861111111111],[-119.61777777777777,38.48861111111111],[-119.61777777777777,38.48861111111111],[-119.28,38.55444444444444],[-119.28,38.55444444444444],[-119.28,38.55444444444444],[-119.28,38.55444444444444],[-119.28,38.55444444444444],[-119.11777777777777,38.60194444444445],[-119.11777777777777,38.60194444444445],[-119.11777777777777,38.60194444444445],[-119.11777777777777,38.60194444444445],[-119.11777777777777,38.60194444444445],[-118.76305555555555,38.70333333333333],[-118.76305555555555,38.70333333333333],[-118.60499999999999,38.74722222222222],[-118.60499999999999,38.74722222222222],[-118.60499999999999,38.74722222222222],[-118.60499999999999,38.74722222222222],[-118.44944444444445,38.79138888888889],[-118.44944444444445,38.79138888888889],[-118.44944444444445,38.79138888888889],[-118.44944444444445,38.79138888888889],[-118.44944444444445,38.79138888888889],[-118.44944444444445,38.79138888888889],[-118.29305555555555,38.835],[-118.29305555555555,38.835],[-118.29305555555555,38.835],[-117.97166666666666,38.922777777777775],[-117.97166666666666,38.922777777777775],[-117.97166666666666,38.922777777777775],[-117.97166666666666,38.922777777777775],[-117.97166666666666,38.922777777777775],[-117.97166666666666,38.922777777777775],[-117.81055555555555,38.96666666666667],[-117.81055555555555,38.96666666666667],[-116.36583333333333,39.34638888888889],[-116.36583333333333,39.34638888888889],[-116.36583333333333,39.34638888888889],[-116.36583333333333,39.34638888888889],[-116.36583333333333,39.34638888888889],[-116.36583333333333,39.34638888888889],[-116.36583333333333,39.34638888888889],[-116.36583333333333,39.34638888888889],[-116.05611111111111,39.42472222222222],[-116.05611111111111,39.42472222222222],[-115.72833333333334,39.50694444444444],[-115.72833333333334,39.50694444444444],[-115.72833333333334,39.50694444444444],[-115.72833333333334,39.50694444444444],[-115.72833333333334,39.50694444444444],[-115.72833333333334,39.50694444444444],[-115.72833333333334,39.50694444444444],[-115.72833333333334,39.50694444444444],[-115.72833333333334,39.50694444444444],[-115.3761111111111,39.593611111111116],[-115.3761111111111,39.593611111111116],[-115.3761111111111,39.593611111111116],[-115.3761111111111,39.593611111111116],[-115.3761111111111,39.593611111111116],[-115.3761111111111,39.593611111111116],[-115.3761111111111,39.593611111111116],[-115.3761111111111,39.593611111111116],[-115.3761111111111,39.593611111111116],[-115.3761111111111,39.593611111111116],[-114.72666666666667,39.75083333333333],[-114.72666666666667,39.75083333333333],[-114.72666666666667,39.75083333333333],[-114.72666666666667,39.75083333333333],[-114.72666666666667,39.75083333333333],[-114.72666666666667,39.75083333333333],[-114.72666666666667,39.75083333333333],[-114.72666666666667,39.75083333333333],[-114.72666666666667,39.75083333333333],[-114.06722222222221,39.90555555555555],[-114.06722222222221,39.90555555555555],[-114.06722222222221,39.90555555555555],[-114.06722222222221,39.90555555555555],[-114.06722222222221,39.90555555555555],[-113.73611111111111,39.981944444444444],[-113.73611111111111,39.981944444444444],[-113.73611111111111,39.981944444444444],[-113.73611111111111,39.981944444444444],[-113.73611111111111,39.981944444444444],[-113.57194444444444,40.01916666666666],[-113.57194444444444,40.01916666666666],[-113.57194444444444,40.01916666666666],[-113.40361111111112,40.056666666666665],[-113.23777777777778,40.09388888888889],[-113.23777777777778,40.09388888888889],[-113.23777777777778,40.09388888888889],[-113.23777777777778,40.09388888888889],[-113.07277777777777,40.130833333333335],[-113.07277777777777,40.130833333333335],[-113.07277777777777,40.130833333333335],[-113.07277777777777,40.130833333333335],[-113.07277777777777,40.130833333333335],[-113.07277777777777,40.130833333333335],[-112.90555555555557,40.16777777777777],[-112.90555555555557,40.16777777777777],[-112.57249999999999,40.24027777777778],[-112.57249999999999,40.24027777777778],[-112.57249999999999,40.24027777777778],[-112.57249999999999,40.24027777777778],[-112.57249999999999,40.24027777777778],[-112.57249999999999,40.24027777777778],[-112.23916666666666,40.3125],[-112.23916666666666,40.3125],[-112.23916666666666,40.3125],[-112.07222222222222,40.347500000000004],[-112.07222222222222,40.347500000000004],[-112.07222222222222,40.347500000000004],[-112.07222222222222,40.347500000000004],[-112.07222222222222,40.347500000000004],[-111.57444444444444,40.45166666666667],[-111.57444444444444,40.45166666666667],[-111.57444444444444,40.45166666666667],[-111.57444444444444,40.45166666666667],[-111.57444444444444,40.45166666666667],[-111.57444444444444,40.45166666666667],[-111.57444444444444,40.45166666666667],[-111.57444444444444,40.45166666666667],[-111.57444444444444,40.45166666666667],[-110.90472222222223,40.587500000000006],[-110.90472222222223,40.587500000000006],[-110.90472222222223,40.587500000000006],[-110.90472222222223,40.587500000000006],[-110.58027777777778,40.651944444444446],[-110.58027777777778,40.651944444444446],[-110.565,40.65472222222222],[-110.565,40.65472222222222],[-110.565,40.65472222222222],[-110.41694444444445,40.68388888888889],[-110.41694444444445,40.68388888888889],[-110.39166666666668,40.68888888888888],[-110.39166666666668,40.68888888888888],[-110.39166666666668,40.68888888888888],[-110.39166666666668,40.68888888888888],[-110.25527777777778,40.71527777777778],[-110.2038888888889,40.72527777777778],[-110.2038888888889,40.72527777777778],[-110.2038888888889,40.72527777777778],[-110.2038888888889,40.72527777777778],[-110.08444444444444,40.748333333333335],[-110.08444444444444,40.748333333333335],[-110.08444444444444,40.748333333333335],[-109.91555555555556,40.78055555555555],[-109.74416666666667,40.81305555555555],[-109.74416666666667,40.81305555555555],[-109.57555555555555,40.844722222222224],[-109.57555555555555,40.844722222222224],[-109.57555555555555,40.844722222222224],[-109.57555555555555,40.844722222222224],[-109.36888888888888,40.88305555555556],[-109.36888888888888,40.88305555555556],[-109.36888888888888,40.88305555555556],[-109.24111111111111,40.906666666666666],[-109.02361111111111,40.94638888888888],[-109.02361111111111,40.94638888888888],[-109.02361111111111,40.94638888888888],[-109.02361111111111,40.94638888888888],[-109.02361111111111,40.94638888888888],[-108.85833333333333,40.976111111111116],[-108.85833333333333,40.976111111111116],[-108.85833333333333,40.976111111111116],[-108.85166666666666,40.9775],[-108.85166666666666,40.9775],[-108.85166666666666,40.9775],[-108.85166666666666,40.9775],[-108.68027777777779,41.007777777777775],[-108.68027777777779,41.007777777777775],[-108.50694444444444,41.03861111111111],[-108.50694444444444,41.03861111111111],[-108.50694444444444,41.03861111111111],[-108.50694444444444,41.03861111111111],[-108.50694444444444,41.03861111111111],[-108.50694444444444,41.03861111111111],[-108.16277777777778,41.098888888888894],[-108.16277777777778,41.098888888888894],[-108.16277777777778,41.098888888888894],[-108.16277777777778,41.098888888888894],[-108.16277777777778,41.098888888888894],[-108.16277777777778,41.098888888888894],[-107.95833333333334,41.13444444444444],[-107.95833333333334,41.13444444444444],[-107.95833333333334,41.13444444444444],[-107.95833333333334,41.13444444444444],[-107.95833333333334,41.13444444444444],[-107.95833333333334,41.13444444444444],[-107.95833333333334,41.13444444444444],[-107.60722222222222,41.19361111111111],[-107.60722222222222,41.19361111111111],[-107.60722222222222,41.19361111111111],[-107.47,41.21638888888889],[-107.47,41.21638888888889],[-107.47,41.21638888888889],[-107.47,41.21638888888889],[-107.43777777777778,41.221944444444446],[-107.43777777777778,41.221944444444446],[-107.43777777777778,41.221944444444446],[-107.12249999999999,41.274166666666666],[-107.12249999999999,41.274166666666666],[-107.12249999999999,41.274166666666666],[-107.12249999999999,41.274166666666666],[-107.12249999999999,41.274166666666666],[-107.12249999999999,41.274166666666666],[-107.12249999999999,41.274166666666666],[-107.12249999999999,41.274166666666666],[-107.12249999999999,41.274166666666666],[-107.12249999999999,41.274166666666666],[-105.70361111111112,41.49638888888889],[-105.70361111111112,41.49638888888889],[-105.70361111111112,41.49638888888889],[-105.70361111111112,41.49638888888889],[-105.70361111111112,41.49638888888889],[-105.70361111111112,41.49638888888889],[-105.52888888888889,41.52222222222222],[-105.52888888888889,41.52222222222222],[-105.52888888888889,41.52222222222222],[-105.35138888888888,41.54805555555556],[-105.35138888888888,41.54805555555556],[-105.17194444444445,41.574444444444445],[-104.99305555555556,41.6],[-104.99305555555556,41.6],[-104.99305555555556,41.6],[-104.99305555555556,41.6],[-104.99305555555556,41.6],[-104.99305555555556,41.6],[-104.99305555555556,41.6],[-104.27805555555555,41.70027777777778],[-104.27805555555555,41.70027777777778],[-104.27805555555555,41.70027777777778],[-104.27805555555555,41.70027777777778],[-104.09972222222221,41.724722222222226],[-104.09972222222221,41.724722222222226],[-104.09972222222221,41.724722222222226],[-104.09972222222221,41.724722222222226],[-104.09972222222221,41.724722222222226],[-104.09972222222221,41.724722222222226],[-103.56527777777778,41.79527777777778],[-103.56527777777778,41.79527777777778],[-103.56527777777778,41.79527777777778],[-103.56527777777778,41.79527777777778],[-103.56527777777778,41.79527777777778],[-103.38472222222222,41.818333333333335],[-103.38472222222222,41.818333333333335],[-103.38472222222222,41.818333333333335],[-103.38472222222222,41.818333333333335],[-103.20722222222223,41.84111111111111],[-103.20722222222223,41.84111111111111],[-103.20722222222223,41.84111111111111],[-103.20722222222223,41.84111111111111],[-103.20722222222223,41.84111111111111],[-103.20722222222223,41.84111111111111],[-103.20722222222223,41.84111111111111],[-102.56416666666667,41.925],[-102.56416666666667,41.925],[-102.56416666666667,41.925],[-102.56416666666667,41.925],[-102.56416666666667,41.925],[-102.56416666666667,41.925],[-102.56416666666667,41.925],[-102.56416666666667,41.925],[-102.48,41.93111111111111],[-102.29722222222222,41.95277777777778],[-102.29722222222222,41.95277777777778],[-102.29722222222222,41.95277777777778],[-102.29722222222222,41.95277777777778],[-102.1975,41.968333333333334],[-102.1975,41.968333333333334],[-102.1975,41.968333333333334],[-102.01305555555555,41.989444444444445],[-102.01305555555555,41.989444444444445],[-102.01305555555555,41.989444444444445],[-102.01305555555555,41.989444444444445],[-101.83027777777778,42.010555555555555],[-101.83027777777778,42.010555555555555],[-101.73583333333333,42.0175],[-101.73583333333333,42.0175],[-101.73583333333333,42.0175],[-101.73583333333333,42.0175],[-101.73583333333333,42.0175],[-101.5525,42.03805555555555],[-101.465,42.04861111111111],[-101.28333333333333,42.06888888888889],[-101.28333333333333,42.06888888888889],[-101.28333333333333,42.06888888888889],[-101.18777777777778,42.078611111111115],[-101.18777777777778,42.078611111111115],[-101.18777777777778,42.078611111111115],[-101.18777777777778,42.078611111111115],[-101.09916666666666,42.08888888888889],[-100.91611111111112,42.108333333333334],[-100.91611111111112,42.108333333333334],[-100.81861111111111,42.1175],[-100.635,42.13638888888889],[-100.635,42.13638888888889],[-100.635,42.13638888888889],[-100.45277777777778,42.155277777777776],[-100.45277777777778,42.155277777777776],[-100.45277777777778,42.155277777777776],[-100.45277777777778,42.155277777777776],[-100.45277777777778,42.155277777777776],[-100.365,42.16416666666667],[-100.365,42.16416666666667],[-100.365,42.16416666666667],[-100.365,42.16416666666667],[-100.365,42.16416666666667],[-100.365,42.16416666666667],[-99.54833333333333,42.24388888888889],[-99.54833333333333,42.24388888888889],[-99.54833333333333,42.24388888888889],[-99.54833333333333,42.24388888888889],[-99.54833333333333,42.24388888888889],[-99.36388888888888,42.26083333333333],[-99.36388888888888,42.26083333333333],[-99.36388888888888,42.26083333333333],[-99.36388888888888,42.26083333333333],[-99.06694444444445,42.28722222222222],[-99.06694444444445,42.28722222222222],[-99.06694444444445,42.28722222222222],[-99.06694444444445,42.28722222222222],[-98.80777777777777,42.31027777777778],[-98.80777777777777,42.31027777777778],[-98.80777777777777,42.31027777777778],[-98.80777777777777,42.31027777777778],[-98.69694444444445,42.319722222222225],[-98.69694444444445,42.319722222222225],[-98.69694444444445,42.319722222222225],[-98.69694444444445,42.319722222222225],[-98.69694444444445,42.319722222222225],[-98.18138888888889,42.36277777777778],[-98.18138888888889,42.36277777777778],[-98.18138888888889,42.36277777777778],[-98.18138888888889,42.36277777777778],[-98.18138888888889,42.36277777777778],[-98.18138888888889,42.36277777777778],[-98.18138888888889,42.36277777777778],[-97.9961111111111,42.3775],[-97.9961111111111,42.3775],[-97.9961111111111,42.3775],[-97.9961111111111,42.3775],[-97.9961111111111,42.3775],[-97.9961111111111,42.3775],[-97.9961111111111,42.3775],[-96.85027777777778,42.46277777777778],[-96.85027777777778,42.46277777777778],[-96.85027777777778,42.46277777777778],[-96.85027777777778,42.46277777777778],[-96.85027777777778,42.46277777777778],[-96.85027777777778,42.46277777777778],[-96.85027777777778,42.46277777777778],[-96.85027777777778,42.46277777777778],[-96.47472222222223,42.48833333333334],[-96.47472222222223,42.48833333333334],[-96.47472222222223,42.48833333333334],[-96.47472222222223,42.48833333333334],[-96.28583333333333,42.50055555555556],[-96.28583333333333,42.50055555555556],[-96.28583333333333,42.50055555555556],[-96.28583333333333,42.50055555555556],[-96.28583333333333,42.50055555555556],[-96.28583333333333,42.50055555555556],[-96.28583333333333,42.50055555555556],[-96.28583333333333,42.50055555555556],[-96.28583333333333,42.50055555555556],[-95.54055555555556,42.546388888888885],[-95.54055555555556,42.546388888888885],[-95.54055555555556,42.546388888888885],[-95.54055555555556,42.546388888888885],[-95.54055555555556,42.546388888888885],[-95.54055555555556,42.546388888888885],[-95.35472222222222,42.556666666666665],[-95.35472222222222,42.556666666666665],[-95.35472222222222,42.556666666666665],[-95.35472222222222,42.556666666666665],[-95.35472222222222,42.556666666666665],[-94.89916666666667,42.58361111111111],[-94.89916666666667,42.58361111111111],[-94.79833333333333,42.58638888888889],[-94.79833333333333,42.58638888888889],[-94.79833333333333,42.58638888888889],[-94.71277777777777,42.59055555555556],[-94.71277777777777,42.59055555555556],[-94.71277777777777,42.59055555555556],[-94.61055555555555,42.596111111111114],[-94.61055555555555,42.596111111111114],[-94.61055555555555,42.596111111111114],[-94.52722222222222,42.600833333333334],[-94.52722222222222,42.600833333333334],[-94.52722222222222,42.600833333333334],[-94.15611111111112,42.606944444444444],[-94.15611111111112,42.606944444444444],[-94.15611111111112,42.606944444444444],[-94.08277777777778,42.60444444444445],[-93.97055555555556,42.60111111111111],[-93.97055555555556,42.60111111111111],[-93.97055555555556,42.60111111111111],[-93.97055555555556,42.60111111111111],[-93.78722222222223,42.595],[-93.78722222222223,42.595],[-93.78722222222223,42.595],[-93.78722222222223,42.595],[-93.60416666666666,42.58888888888889],[-93.60416666666666,42.58888888888889],[-93.60416666666666,42.58888888888889],[-93.60416666666666,42.58888888888889],[-93.42277777777778,42.58222222222223],[-93.42277777777778,42.58222222222223],[-93.42277777777778,42.58222222222223],[-93.42277777777778,42.58222222222223],[-93.3461111111111,42.57944444444445],[-93.3461111111111,42.57944444444445],[-93.3461111111111,42.57944444444445],[-93.3461111111111,42.57944444444445],[-93.3461111111111,42.57944444444445],[-93.3461111111111,42.57944444444445],[-93.16555555555556,42.572500000000005],[-93.16555555555556,42.572500000000005],[-93.16555555555556,42.572500000000005],[-93.16555555555556,42.572500000000005],[-93.16555555555556,42.572500000000005],[-92.57638888888889,42.547777777777775],[-92.57638888888889,42.547777777777775],[-92.57638888888889,42.547777777777775],[-92.57638888888889,42.547777777777775],[-92.39083333333333,42.53944444444444],[-92.39083333333333,42.53944444444444],[-92.31861111111111,42.53611111111111],[-92.31861111111111,42.53611111111111],[-92.31861111111111,42.53611111111111],[-92.31861111111111,42.53611111111111],[-92.20805555555556,42.53111111111111],[-92.20805555555556,42.53111111111111],[-92.20805555555556,42.53111111111111],[-92.20805555555556,42.53111111111111],[-92.20805555555556,42.53111111111111],[-92.20805555555556,42.53111111111111],[-92.13472222222222,42.527499999999996],[-92.13472222222222,42.527499999999996],[-92.13472222222222,42.527499999999996],[-92.02555555555556,42.52388888888889],[-92.02555555555556,42.52388888888889],[-91.58805555555556,42.526666666666664],[-91.58805555555556,42.526666666666664],[-91.58805555555556,42.526666666666664],[-91.58805555555556,42.526666666666664],[-91.58805555555556,42.526666666666664],[-91.58805555555556,42.526666666666664],[-91.58805555555556,42.526666666666664],[-91.58805555555556,42.526666666666664],[-91.58805555555556,42.526666666666664],[-90.73777777777778,42.52611111111111],[-90.73777777777778,42.52611111111111],[-90.73777777777778,42.52611111111111],[-90.73777777777778,42.52611111111111],[-90.73777777777778,42.52611111111111],[-90.73777777777778,42.52611111111111],[-90.73777777777778,42.52611111111111],[-90.55083333333333,42.52472222222222],[-90.55083333333333,42.52472222222222],[-90.36861111111111,42.52333333333333],[-90.36861111111111,42.52333333333333],[-90.36861111111111,42.52333333333333],[-90.36861111111111,42.52333333333333],[-90.36861111111111,42.52333333333333],[-90.26222222222222,42.5225],[-90.26222222222222,42.5225],[-90.26222222222222,42.5225],[-90.26222222222222,42.5225],[-90.26222222222222,42.5225],[-90.26222222222222,42.5225],[-90.26222222222222,42.5225],[-89.46194444444444,42.480000000000004],[-89.46194444444444,42.480000000000004],[-89.46194444444444,42.480000000000004],[-89.31888888888888,42.462500000000006],[-89.31888888888888,42.462500000000006],[-89.31888888888888,42.462500000000006],[-89.31888888888888,42.462500000000006],[-89.31888888888888,42.462500000000006],[-89.31888888888888,42.462500000000006],[-89.31888888888888,42.462500000000006],[-89.31888888888888,42.462500000000006],[-89.31888888888888,42.462500000000006],[-89.05472222222222,42.42944444444444],[-89.05472222222222,42.42944444444444],[-89.05472222222222,42.42944444444444],[-89.05472222222222,42.42944444444444],[-89.05472222222222,42.42944444444444],[-89.05472222222222,42.42944444444444],[-88.93,42.41361111111111],[-88.93,42.41361111111111],[-88.93,42.41361111111111],[-88.93,42.41361111111111],[-88.93,42.41361111111111],[-88.93,42.41361111111111],[-88.81666666666666,42.4],[-88.81666666666666,42.4],[-88.81666666666666,42.4],[-88.6,42.36666666666667],[-88.6,42.36666666666667],[-88.6,42.36666666666667],[-88.6,42.36666666666667],[-88.6,42.36666666666667],[-88.6,42.36666666666667],[-88.6,42.36666666666667],[-88.6,42.36666666666667],[-88.5,42.35],[-88.5,42.35],[-88.5,42.35],[-88.5,42.35],[-88.49027777777778,42.356944444444444],[-88.49027777777778,42.356944444444444],[-88.4,42.35],[-88.4,42.35],[-88.4,42.35],[-88.4,42.35],[-88.4,42.35],[-88.39166666666668,42.34055555555556],[-88.39166666666668,42.34055555555556],[-88.39166666666668,42.34055555555556],[-88.39166666666668,42.34055555555556],[-88.39166666666668,42.34055555555556],[-88.3,42.233333333333334],[-88.3,42.233333333333334],[-88.3,42.233333333333334],[-88.3,42.233333333333334],[-88.3,42.233333333333334],[-88.35,42.166666666666664],[-88.35,42.166666666666664],[-88.35,42.166666666666664],[-88.35,42.166666666666664],[-88.35,42.166666666666664],[-88.36666666666666,42.1],[-88.36666666666666,42.1],[-88.36666666666666,42.1],[-88.36666666666666,42.1],[-88.36666666666666,42.1],[-88.36666666666666,42.1],[-88.28999999999999,42.00222222222222],[-88.28999999999999,42.00222222222222],[-88.28999999999999,42.00222222222222],[-88.28999999999999,42.00222222222222],[-88.28999999999999,42.00222222222222],[-88.23333333333333,42],[-88.23333333333333,42],[-88.23333333333333,42],[-88.23333333333333,42],[-88.2125,42.0025],[-88.2125,42.0025],[-88.14027777777778,42.00277777777778],[-88.14027777777778,42.00277777777778],[-88.06833333333333,42.00277777777778],[-88.06833333333333,42.00277777777778],[-88.06833333333333,42.00277777777778],[-88.06833333333333,42.00277777777778],[-88.06833333333333,42.00277777777778],[-88.01666666666667,42],[-88.01666666666667,42],[-88.01666666666667,42],[-88.01666666666667,42],[-88.01666666666667,42],[-88.01666666666667,42],[-88.01666666666667,42],[-88.01666666666667,42]],"type":"LineString"}
}
