{
  "id": 2031121157,
  "type": "Feature",
  "properties": {
    "geom:area": 0,
    "geom:bbox": "-123.501250,37.626440,-122.393750,37.732020",
    "geom:latitude": 37.698304032706744,
    "geom:longitude": -122.9431983681437,
    "src:alt_label": "swim-takeoff",
    "src:geom": "swim",
    "swim:elevations": [
      213,
      506,
      612,
      776,
      927,
      1376,
      1788,
      2023,
      2241,
      2700,
      2796,
      3126,
      3363,
      3530,
      3983,
      4255,
      4546,
      4785,
      4819,
      5002,
      5053,
      5203,
      5369,
      5610,
      5765,
      6103
    ],
    "swim:geom": "takeoff",
    "swim:timestamps": [
      1777203956,
      1777203979,
      1777203999,
      1777204040,
      1777204056,
      1777204097,
      1777204130,
      1777204152,
      1777204175,
      1777204217,
      1777204226,
      1777204256,
      1777204277,
      1777204295,
      1777204343,
      1777204368,
      1777204396,
      1777204434,
      1777204444,
      1777204498,
      1777204507,
      1777204526,
      1777204550,
      1777204571,
      1777204592,
      1777204637
    ],
    "wof:geomhash": "9379b97a0159e2ef2fb1c3bc43b0e7c2",
    "wof:id": 2031121157,
    "wof:repo": "sfomuseum-data-flights-2026-04"
  },
  "bbox": [
    -123.50125,
    37.62644,
    -122.39375,
    37.73202
  ],
  "geometry": {"coordinates":[[-122.39375,37.62644],[-122.41325,37.6348],[-122.43115,37.64275],[-122.47592,37.66259],[-122.49541,37.67115],[-122.55496,37.67856],[-122.60391,37.68091],[-122.63622,37.68282],[-122.67049,37.68487],[-122.73572,37.68887],[-122.75063,37.68971],[-122.79784,37.69247],[-122.83108,37.69446],[-122.85943,37.69616],[-122.9379,37.70071],[-122.98038,37.70313],[-123.02617,37.70579],[-123.08995,37.70945],[-123.10726,37.71042],[-123.21109,37.7162],[-123.23004,37.7173],[-123.26801,37.71934],[-123.31943,37.72217],[-123.36119,37.72444],[-123.40482,37.72689],[-123.50125,37.73202]],"type":"LineString"}
}
