{
  "id": 2015281415,
  "type": "Feature",
  "properties": {
    "geom:area": 0,
    "geom:bbox": "-122.387360,37.623330,-122.232330,38.500860",
    "geom:latitude": 38.03496215680062,
    "geom:longitude": -122.26791115072484,
    "src:alt_label": "swim-takeoff",
    "src:geom": "swim",
    "swim:elevations": [
      152,
      550,
      867,
      953,
      1702,
      2170,
      2661,
      2999,
      3048,
      3053,
      3349,
      3540,
      3726,
      4035,
      4460,
      4842,
      5218,
      5600,
      5864,
      6121,
      6280,
      6429,
      6554,
      6884,
      7057
    ],
    "swim:geom": "takeoff",
    "swim:timestamps": [
      1776092467,
      1776092513,
      1776092548,
      1776092554,
      1776092602,
      1776092631,
      1776092667,
      1776092693,
      1776092721,
      1776092734,
      1776092780,
      1776092793,
      1776092848,
      1776092871,
      1776092900,
      1776092931,
      1776092959,
      1776092995,
      1776093017,
      1776093040,
      1776093054,
      1776093066,
      1776093081,
      1776093114,
      1776093132
    ],
    "wof:geomhash": "3f707d3106236f49ca0b9070ff138c0f",
    "wof:id": 2015281415,
    "wof:repo": "sfomuseum-data-flights-2026-04"
  },
  "bbox": [
    -122.38736,
    37.62333,
    -122.23233,
    38.50086
  ],
  "geometry": {"coordinates":[[-122.38556,37.62333],[-122.38736,37.65265],[-122.34379,37.668],[-122.33593,37.67085],[-122.28108,37.70533],[-122.27854,37.74119],[-122.27564,37.78479],[-122.27483,37.81777],[-122.27213,37.85512],[-122.27038,37.87394],[-122.26433,37.93955],[-122.26265,37.95964],[-122.25632,38.04135],[-122.25344,38.07666],[-122.2499,38.12065],[-122.2461,38.16861],[-122.24268,38.2127],[-122.23813,38.2697],[-122.23528,38.30491],[-122.23233,38.34345],[-122.2331,38.36693],[-122.23524,38.38774],[-122.23777,38.41197],[-122.24368,38.46909],[-122.2469,38.50086]],"type":"LineString"}
}
