{
  "id": 2015214593,
  "type": "Feature",
  "properties": {
    "geom:area": 0,
    "geom:bbox": "-123.495150,37.632060,-122.401770,37.731780",
    "geom:latitude": 37.69878770373903,
    "geom:longitude": -122.9449926844587,
    "src:alt_label": "swim-takeoff",
    "src:geom": "swim",
    "swim:elevations": [
      302,
      747,
      813,
      974,
      1230,
      1484,
      1921,
      2108,
      2627,
      2845,
      3205,
      3275,
      3401,
      3702,
      3958,
      4140,
      4298,
      4711,
      5020,
      5479
    ],
    "swim:geom": "takeoff",
    "swim:timestamps": [
      1775394946,
      1775394987,
      1775395001,
      1775395029,
      1775395075,
      1775395096,
      1775395135,
      1775395149,
      1775395198,
      1775395219,
      1775395255,
      1775395276,
      1775395307,
      1775395348,
      1775395373,
      1775395396,
      1775395413,
      1775395455,
      1775395489,
      1775395552
    ],
    "wof:geomhash": "914c635b36ff50f6882b04596f0a0eeb",
    "wof:id": 2015214593,
    "wof:repo": "sfomuseum-data-flights-2026-04"
  },
  "bbox": [
    -123.49515,
    37.63206,
    -122.40177,
    37.73178
  ],
  "geometry": {"coordinates":[[-122.40177,37.63206],[-122.44124,37.64783],[-122.45649,37.65417],[-122.48834,37.66759],[-122.55539,37.67894],[-122.58905,37.68092],[-122.65257,37.68393],[-122.67536,37.68522],[-122.75672,37.69006],[-122.79268,37.69222],[-122.85352,37.69574],[-122.89075,37.69795],[-122.95146,37.70145],[-123.03884,37.70644],[-123.09336,37.70964],[-123.1434,37.71246],[-123.1805,37.71453],[-123.27527,37.71992],[-123.3521,37.7241],[-123.49515,37.73178]],"type":"LineString"}
}
