{
  "id": 2015254319,
  "type": "Feature",
  "properties": {
    "date:inception_lower": "2026-04-10",
    "date:inception_upper": "2026-04-10",
    "edtf:cessation": "",
    "edtf:inception": "2026-04-10",
    "flysfo:actual_timestamp": -1,
    "flysfo:airline": "VA",
    "flysfo:base_airline": "",
    "flysfo:base_flight_number": "8921",
    "flysfo:date": "2026-04-10",
    "flysfo:estimated_timestamp": 1775832960,
    "flysfo:event": "A",
    "flysfo:flight_number": "VA8003",
    "flysfo:gate": "G2",
    "flysfo:journey": "MEL-SFO",
    "flysfo:scheduled_timestamp": 1775833800,
    "flysfo:timestamp": 1775833800,
    "geom:area": 0,
    "geom:bbox": "-122.370943,-37.668253,144.843764,37.617990",
    "geom:latitude": -0.02513150000000053,
    "geom:longitude": 11.236410499999998,
    "iata:airline": "VA",
    "iata:base_airline": "",
    "icao:airline": "VOZ",
    "icao:base_airline": "DLH",
    "lbl:latitude": 37.617615,
    "lbl:longitude": -122.390247,
    "sfomuseum:airline_id": 1159285485,
    "sfomuseum:arrival_id": 102527513,
    "sfomuseum:base_flight_id": "20260410-A-DLH-8921",
    "sfomuseum:departure_id": 102557779,
    "sfomuseum:flight_id": "20260410-A-VOZ-8003",
    "sfomuseum:flight_number": [
      "VOZ8003",
      "VA8003"
    ],
    "sfomuseum:placetype": "flight",
    "src:geom": "flysfo",
    "wof:belongsto": [
      1947304067,
      102527513,
      1947304129,
      102191575,
      85633793,
      102087579,
      85922583,
      554784711,
      85688637,
      1947304141,
      1947304069,
      102085387
    ],
    "wof:country": "US",
    "wof:created": 1775923756,
    "wof:geomhash": "87faaa2af80cb57714136e3a98b5d686",
    "wof:hierarchy": [
      {
        "building_id": 1947304067,
        "campus_id": 102527513,
        "concourse_id": 1947304129,
        "continent_id": 102191575,
        "country_id": 85633793,
        "county_id": 102087579,
        "custom_id": 2015254319,
        "flight_id": 2015254319,
        "locality_id": 85922583,
        "postalcode_id": 554784711,
        "region_id": 85688637,
        "venue_id": 1947304141,
        "wing_id": 1947304069
      },
      {
        "building_id": 1947304067,
        "campus_id": 102527513,
        "concourse_id": 1947304129,
        "continent_id": 102191575,
        "country_id": 85633793,
        "county_id": 102085387,
        "custom_id": 2015254319,
        "flight_id": 2015254319,
        "region_id": 85688637,
        "venue_id": 1947304141,
        "wing_id": 1947304069
      }
    ],
    "wof:id": 2015254319,
    "wof:involves": [
      102527513,
      102557779,
      1159285485,
      1947304141,
      1159286015
    ],
    "wof:lastmodified": 1775923756,
    "wof:name": "VA8003 (MEL-SFO)",
    "wof:parent_id": 1947304141,
    "wof:placetype": "custom",
    "wof:placetype_alt": [
      "flight"
    ],
    "wof:repo": "sfomuseum-data-flights-2026-04",
    "wof:superseded_by": [],
    "wof:supersedes": []
  },
  "bbox": [
    -122.370943,
    -37.668253,
    144.843764,
    37.61799
  ],
  "geometry": {"coordinates":[[144.843764,-37.668253],[-122.370943,37.61799]],"type":"MultiPoint"}
}
