{
  "id": 2015199347,
  "type": "Feature",
  "properties": {
    "geom:area": 0,
    "geom:bbox": "-122.564240,37.295040,-121.265480,37.670100",
    "geom:latitude": 37.411920223208114,
    "geom:longitude": -122.0222315046729,
    "src:alt_label": "swim-takeoff",
    "src:geom": "swim",
    "swim:elevations": [
      183,
      429,
      635,
      1192,
      1316,
      1443,
      1673,
      2235,
      2482,
      3318,
      3578,
      3935,
      3953,
      3962,
      4247,
      4307,
      5126,
      5439,
      5625,
      6180,
      6352,
      6866,
      7258,
      7531,
      7939,
      8170,
      8230,
      8250,
      8316
    ],
    "swim:geom": "takeoff",
    "swim:timestamps": [
      1775228818,
      1775228838,
      1775228860,
      1775228908,
      1775228921,
      1775228934,
      1775228947,
      1775228981,
      1775229000,
      1775229057,
      1775229084,
      1775229115,
      1775229144,
      1775229168,
      1775229208,
      1775229213,
      1775229268,
      1775229291,
      1775229307,
      1775229357,
      1775229370,
      1775229410,
      1775229444,
      1775229469,
      1775229508,
      1775229534,
      1775229566,
      1775229596,
      1775229601
    ],
    "wof:geomhash": "42370afaf493fd2c7b04ebdecfaa5975",
    "wof:id": 2015199347,
    "wof:repo": "sfomuseum-data-flights-2026-04"
  },
  "bbox": [
    -122.56424,
    37.29504,
    -121.26548,
    37.6701
  ],
  "geometry": {"coordinates":[[-122.38903,37.62456],[-122.40615,37.63192],[-122.42708,37.64146],[-122.48121,37.66446],[-122.49916,37.6701],[-122.51937,37.66998],[-122.53874,37.66396],[-122.56424,37.62541],[-122.55687,37.60043],[-122.4993,37.53626],[-122.47487,37.49681],[-122.42754,37.46117],[-122.37674,37.43248],[-122.33227,37.41204],[-122.24882,37.39215],[-122.2393,37.39029],[-122.11936,37.36657],[-122.0659,37.356],[-122.02905,37.34876],[-121.90883,37.33618],[-121.87738,37.33423],[-121.77636,37.32868],[-121.68858,37.32369],[-121.62285,37.32002],[-121.51808,37.31387],[-121.44732,37.30971],[-121.36095,37.3044],[-121.27736,37.29701],[-121.26548,37.29504]],"type":"LineString"}
}
