{
  "id": 2015247417,
  "type": "Feature",
  "properties": {
    "geom:area": 0,
    "geom:bbox": "-122.366667,37.666667,-74.075000,43.114722",
    "geom:latitude": 41.865810103025716,
    "geom:longitude": -98.29758426521735,
    "src:alt_label": "swim-path",
    "src:geom": "swim",
    "swim:altitudes": [
      "021",
      "026",
      "051",
      "051",
      "079",
      "140",
      "140",
      "180",
      "199",
      "199",
      "214",
      "284",
      "284",
      "304",
      "313",
      "319",
      "320",
      "328",
      "337",
      "337",
      "350C",
      "350C",
      "350C",
      "350C",
      "350C",
      "350C",
      "350C",
      "350C",
      "350C",
      "350C",
      "350C",
      "350C",
      "350C",
      "350C",
      "350C",
      "350C",
      "350C",
      "350C",
      "350C",
      "350C",
      "350C",
      "350C",
      "350C",
      "350C",
      "350C",
      "350C",
      "350C",
      "350C",
      "350C",
      "350C",
      "350C",
      "350C",
      "350C",
      "350C",
      "350C",
      "350C",
      "350C",
      "350C",
      "350C",
      "350C",
      "350C",
      "350C",
      "350C",
      "350C",
      "350C",
      "350C",
      "350",
      "350",
      "350C",
      "350C",
      "350C",
      "350C",
      "350C",
      "350C",
      "350C",
      "350C",
      "350C",
      "350C",
      "350C",
      "350C",
      "350C",
      "350C",
      "350C",
      "350C",
      "350C",
      "350C",
      "350C",
      "350C",
      "350C",
      "350C",
      "350C",
      "350C",
      "350C",
      "350C",
      "350C",
      "350C",
      "350C",
      "350C",
      "350C",
      "350C",
      "350C",
      "350C",
      "350C",
      "350C",
      "350C",
      "350C",
      "350C",
      "350C",
      "350C",
      "350C",
      "350C",
      "350C",
      "350C",
      "350C",
      "350C",
      "350C",
      "350C",
      "350C",
      "350C",
      "350C",
      "350C",
      "350C",
      "350C",
      "350C",
      "350C",
      "350C",
      "350C",
      "350C",
      "350C",
      "350C",
      "350C",
      "350C",
      "350C",
      "350C",
      "350C",
      "350C",
      "350C",
      "350C",
      "350C",
      "350C",
      "350C",
      "350C",
      "350C",
      "350C",
      "350C",
      "350C",
      "350C",
      "350C",
      "350C",
      "350C",
      "350C",
      "350C",
      "350C",
      "350C",
      "350C",
      "350C",
      "350C",
      "350C",
      "350C",
      "350C",
      "350C",
      "350C",
      "350C",
      "350C",
      "350C",
      "350C",
      "350C",
      "350C",
      "350C",
      "350C",
      "350C",
      "350C",
      "350C",
      "350C",
      "350C",
      "350C",
      "350C",
      "350C",
      "350C",
      "350C",
      "350C",
      "350C",
      "350C",
      "350C",
      "350C",
      "350C",
      "350C",
      "350C",
      "350C",
      "350C",
      "350C",
      "350C",
      "350C",
      "350C",
      "350C",
      "350C",
      "350C",
      "350C",
      "350C",
      "350C",
      "350C",
      "350C",
      "350C",
      "350C",
      "350C",
      "350C",
      "350C",
      "350C",
      "350C",
      "350C",
      "350C",
      "350C",
      "350C",
      "350C",
      "350C",
      "350C",
      "350C",
      "350C",
      "350C",
      "350C",
      "350C",
      "350C",
      "350C",
      "350C",
      "350C",
      "350C",
      "350C",
      "350C",
      "350C",
      "350C",
      "350C",
      "350C",
      "350C",
      "350C",
      "350C",
      "350C",
      "350C",
      "350C",
      "350C",
      "350C",
      "350C",
      "350C",
      "350C",
      "350C",
      "350C",
      "350C",
      "350C",
      "350C",
      "350C",
      "350C",
      "350C",
      "350C",
      "350C",
      "350C",
      "350C",
      "350C",
      "350C",
      "350C",
      "350C",
      "350C",
      "341",
      "332C",
      "332C",
      "330C",
      "330C",
      "330C",
      "330C",
      "330C",
      "330",
      "330",
      "330",
      "330",
      "330",
      "328",
      "328",
      "281",
      "228",
      "228",
      "210",
      "175",
      "152",
      "152",
      "128",
      "122",
      "097",
      "089",
      "077",
      "077",
      "070",
      "071C",
      "068",
      "066",
      "066",
      "061",
      "060",
      "060",
      "050",
      "050",
      "050",
      "050",
      "050",
      "050",
      "050",
      "051",
      "046",
      "046",
      "040",
      "040",
      "038",
      "038",
      "025",
      "025",
      "025",
      "025",
      "012",
      "004",
      "004"
    ],
    "swim:geom": "path",
    "swim:speeds": [
      235,
      249,
      276,
      276,
      292,
      364,
      364,
      390,
      402,
      402,
      418,
      466,
      466,
      477,
      481,
      488,
      487,
      491,
      491,
      491,
      489,
      490,
      490,
      490,
      488,
      488,
      489,
      484,
      484,
      484,
      484,
      482,
      483,
      481,
      481,
      481,
      480,
      480,
      480,
      481,
      483,
      483,
      490,
      489,
      489,
      487,
      487,
      483,
      483,
      481,
      481,
      483,
      481,
      481,
      480,
      479,
      483,
      489,
      492,
      492,
      492,
      493,
      493,
      493,
      493,
      499,
      502,
      502,
      500,
      501,
      501,
      501,
      501,
      495,
      495,
      502,
      500,
      503,
      504,
      505,
      505,
      504,
      504,
      505,
      505,
      506,
      507,
      507,
      507,
      507,
      511,
      512,
      512,
      512,
      512,
      511,
      511,
      511,
      511,
      511,
      512,
      514,
      514,
      514,
      512,
      512,
      510,
      510,
      508,
      508,
      508,
      508,
      508,
      508,
      515,
      510,
      510,
      512,
      512,
      511,
      512,
      511,
      511,
      511,
      511,
      512,
      512,
      517,
      517,
      518,
      518,
      519,
      519,
      519,
      519,
      519,
      520,
      520,
      520,
      520,
      520,
      520,
      519,
      518,
      518,
      519,
      519,
      519,
      519,
      519,
      519,
      519,
      519,
      519,
      520,
      521,
      521,
      521,
      527,
      521,
      521,
      523,
      523,
      523,
      525,
      525,
      525,
      526,
      526,
      528,
      529,
      529,
      529,
      529,
      528,
      528,
      527,
      527,
      526,
      526,
      526,
      524,
      524,
      524,
      523,
      522,
      522,
      522,
      521,
      520,
      520,
      519,
      519,
      519,
      517,
      517,
      516,
      513,
      513,
      513,
      513,
      511,
      511,
      504,
      499,
      499,
      500,
      498,
      496,
      496,
      461,
      487,
      487,
      489,
      491,
      491,
      491,
      491,
      492,
      492,
      493,
      493,
      493,
      494,
      494,
      494,
      495,
      495,
      494,
      492,
      488,
      488,
      488,
      483,
      483,
      477,
      477,
      469,
      469,
      472,
      475,
      477,
      477,
      477,
      469,
      467,
      464,
      468,
      467,
      467,
      440,
      440,
      439,
      439,
      437,
      437,
      450,
      450,
      483,
      483,
      485,
      489,
      489,
      490,
      491,
      491,
      491,
      491,
      491,
      491,
      489,
      488,
      488,
      487,
      487,
      457,
      413,
      413,
      401,
      385,
      385,
      385,
      322,
      305,
      292,
      291,
      291,
      291,
      278,
      275,
      268,
      272,
      272,
      284,
      281,
      282,
      284,
      285,
      285,
      284,
      253,
      247,
      229,
      229,
      220,
      220,
      225,
      215,
      196,
      196,
      186,
      186,
      157,
      156,
      147,
      148,
      148
    ],
    "swim:timestamps": [
      1775745601,
      1775745621,
      1775745681,
      1775745681,
      1775745741,
      1775745921,
      1775745921,
      1775746041,
      1775746101,
      1775746101,
      1775746162,
      1775746522,
      1775746522,
      1775746642,
      1775746702,
      1775746753,
      1775746762,
      1775746822,
      1775746873,
      1775746873,
      1775747063,
      1775747113,
      1775747113,
      1775747173,
      1775747303,
      1775747303,
      1775747354,
      1775747483,
      1775747483,
      1775747534,
      1775747534,
      1775747543,
      1775747594,
      1775747603,
      1775747603,
      1775747714,
      1775747774,
      1775747774,
      1775747784,
      1775747894,
      1775747954,
      1775747954,
      1775748255,
      1775748264,
      1775748315,
      1775748435,
      1775748435,
      1775748555,
      1775748555,
      1775748675,
      1775748675,
      1775748795,
      1775749096,
      1775749096,
      1775749156,
      1775749216,
      1775749336,
      1775749516,
      1775749637,
      1775749637,
      1775749697,
      1775749817,
      1775749817,
      1775749937,
      1775749937,
      1775750237,
      1775750270,
      1775750270,
      1775750297,
      1775750358,
      1775750418,
      1775750418,
      1775750538,
      1775750571,
      1775750571,
      1775750658,
      1775750691,
      1775750718,
      1775750838,
      1775750871,
      1775750871,
      1775750898,
      1775750991,
      1775751018,
      1775751018,
      1775751051,
      1775751111,
      1775751111,
      1775751171,
      1775751199,
      1775751319,
      1775751439,
      1775751472,
      1775751472,
      1775751532,
      1775751559,
      1775751679,
      1775751712,
      1775751739,
      1775751739,
      1775751772,
      1775751832,
      1775751832,
      1775751892,
      1775752073,
      1775752073,
      1775752133,
      1775752133,
      1775752373,
      1775752373,
      1775752493,
      1775752553,
      1775752553,
      1775752613,
      1775752716,
      1775752734,
      1775752734,
      1775752836,
      1775752836,
      1775752854,
      1775752896,
      1775752914,
      1775752957,
      1775752957,
      1775753137,
      1775753197,
      1775753197,
      1775753334,
      1775753334,
      1775753394,
      1775753497,
      1775753557,
      1775753557,
      1775753575,
      1775753617,
      1775753635,
      1775753738,
      1775753755,
      1775753755,
      1775753875,
      1775753978,
      1775753978,
      1775754098,
      1775754158,
      1775754158,
      1775754399,
      1775754459,
      1775754459,
      1775754519,
      1775754639,
      1775754639,
      1775754699,
      1775754759,
      1775754759,
      1775754819,
      1775754939,
      1775754939,
      1775754999,
      1775755104,
      1775755120,
      1775755120,
      1775755300,
      1775755300,
      1775755360,
      1775755480,
      1775755480,
      1775755525,
      1775755660,
      1775755660,
      1775755780,
      1775755826,
      1775755826,
      1775755886,
      1775755946,
      1775755961,
      1775755961,
      1775756081,
      1775756081,
      1775756141,
      1775756186,
      1775756186,
      1775756261,
      1775756261,
      1775756321,
      1775756381,
      1775756427,
      1775756487,
      1775756487,
      1775756501,
      1775756562,
      1775756622,
      1775756682,
      1775756727,
      1775756727,
      1775756847,
      1775756847,
      1775756907,
      1775757027,
      1775757027,
      1775757088,
      1775757088,
      1775757448,
      1775757448,
      1775757568,
      1775757749,
      1775757749,
      1775757780,
      1775757809,
      1775757900,
      1775757900,
      1775758020,
      1775758080,
      1775758080,
      1775758140,
      1775758229,
      1775758260,
      1775758260,
      1775758320,
      1775758350,
      1775758381,
      1775758441,
      1775758441,
      1775758470,
      1775758530,
      1775758587,
      1775758587,
      1775758621,
      1775758647,
      1775758707,
      1775758767,
      1775758801,
      1775758827,
      1775758827,
      1775758921,
      1775758921,
      1775759042,
      1775759042,
      1775759510,
      1775759510,
      1775759522,
      1775759582,
      1775759642,
      1775759690,
      1775759690,
      1775759702,
      1775759763,
      1775759810,
      1775759883,
      1775760000,
      1775760000,
      1775760171,
      1775760180,
      1775760240,
      1775760240,
      1775760300,
      1775760300,
      1775760421,
      1775760421,
      1775760531,
      1775760601,
      1775760712,
      1775760772,
      1775760772,
      1775760832,
      1775760892,
      1775760901,
      1775760952,
      1775760961,
      1775761022,
      1775761022,
      1775761072,
      1775761132,
      1775761142,
      1775761192,
      1775761192,
      1775761322,
      1775761493,
      1775761493,
      1775761553,
      1775761733,
      1775761793,
      1775761793,
      1775761914,
      1775761974,
      1775762123,
      1775762154,
      1775762214,
      1775762214,
      1775762309,
      1775762334,
      1775762364,
      1775762394,
      1775762394,
      1775762424,
      1775762454,
      1775762544,
      1775762635,
      1775762669,
      1775762669,
      1775762695,
      1775762729,
      1775762815,
      1775762844,
      1775762875,
      1775762904,
      1775762904,
      1775762935,
      1775762964,
      1775763024,
      1775763024,
      1775763115,
      1775763115,
      1775763144,
      1775763175,
      1775763270,
      1775763356,
      1775763356
    ],
    "wof:geomhash": "af764a76fa39483195cee23335456cee",
    "wof:id": 2015247417,
    "wof:repo": "sfomuseum-data-flights-2026-04"
  },
  "bbox": [
    -122.36666666666666,
    37.666666666666664,
    -74.075,
    43.11472222222223
  ],
  "geometry": {"coordinates":[[-122.36666666666666,37.666666666666664],[-122.34333333333333,37.674166666666665],[-122.25527777777778,37.70333333333333],[-122.25527777777778,37.70333333333333],[-122.18,37.75666666666667],[-121.97361111111111,37.983333333333334],[-121.97361111111111,37.983333333333334],[-121.81527777777778,38.157222222222224],[-121.72833333333334,38.25222222222222],[-121.72833333333334,38.25222222222222],[-121.64222222222223,38.34527777777778],[-120.93611111111112,38.8175],[-120.93611111111112,38.8175],[-120.665,38.98027777777778],[-120.52666666666667,39.06222222222222],[-120.40027777777779,39.135555555555555],[-120.3875,39.14472222222222],[-120.24666666666667,39.22777777777778],[-120.11777777777777,39.30083333333333],[-120.11777777777777,39.30083333333333],[-119.66861111111112,39.56444444444444],[-119.55777777777777,39.62722222222222],[-119.55777777777777,39.62722222222222],[-119.41722222222222,39.70888888888889],[-119.10499999999999,39.88805555555555],[-119.10499999999999,39.88805555555555],[-118.98972222222223,39.946666666666665],[-118.65472222222223,40.095],[-118.65472222222223,40.095],[-118.53361111111111,40.146388888888886],[-118.53361111111111,40.146388888888886],[-118.5,40.160555555555554],[-118.38222222222221,40.21055555555556],[-118.34833333333333,40.224722222222226],[-118.34833333333333,40.224722222222226],[-118.06888888888888,40.33083333333334],[-117.9025,40.36611111111111],[-117.9025,40.36611111111111],[-117.86638888888888,40.37388888888889],[-117.56444444444445,40.43722222222222],[-117.39166666666668,40.47277777777778],[-117.39166666666668,40.47277777777778],[-116.56222222222222,40.66722222222222],[-116.52638888888889,40.67666666666666],[-116.39416666666668,40.71222222222222],[-116.0586111111111,40.801944444444445],[-116.0586111111111,40.801944444444445],[-115.72416666666666,40.88972222222222],[-115.72416666666666,40.88972222222222],[-115.39,40.97666666666667],[-115.39,40.97666666666667],[-115.05527777777777,41.06194444444444],[-114.20361111111112,41.27472222222222],[-114.20361111111112,41.27472222222222],[-114.03444444444445,41.316111111111105],[-113.86722222222221,41.35666666666667],[-113.52055555555556,41.42166666666667],[-112.98833333333333,41.51638888888889],[-112.63305555555554,41.578611111111115],[-112.63305555555554,41.578611111111115],[-112.45333333333333,41.60944444444445],[-112.09555555555555,41.66972222222222],[-112.09555555555555,41.66972222222222],[-111.73444444444445,41.72972222222222],[-111.73444444444445,41.72972222222222],[-110.81388888888888,41.876666666666665],[-110.71444444444445,41.893055555555556],[-110.71444444444445,41.893055555555556],[-110.62833333333333,41.905277777777776],[-110.44527777777778,41.93333333333333],[-110.26166666666667,41.96083333333333],[-110.26166666666667,41.96083333333333],[-109.89611111111111,42.015],[-109.82222222222222,42.025],[-109.82222222222222,42.025],[-109.52444444444444,42.066944444444445],[-109.45138888888889,42.07694444444445],[-109.37722222222222,42.087500000000006],[-109.00305555555556,42.138333333333335],[-108.8913888888889,42.153055555555554],[-108.8913888888889,42.153055555555554],[-108.815,42.163333333333334],[-108.51888888888888,42.202222222222225],[-108.44250000000001,42.21222222222222],[-108.44250000000001,42.21222222222222],[-108.33027777777778,42.22638888888889],[-108.14416666666668,42.250277777777775],[-108.14416666666668,42.250277777777775],[-107.95805555555556,42.27388888888889],[-107.88055555555555,42.28333333333333],[-107.50166666666667,42.32944444444445],[-107.12249999999999,42.37444444444444],[-107.00638888888889,42.38805555555555],[-107.00638888888889,42.38805555555555],[-106.80194444444444,42.41166666666666],[-106.72694444444444,42.419999999999995],[-106.34666666666666,42.462500000000006],[-106.23277777777778,42.474722222222226],[-106.15694444444445,42.48305555555556],[-106.15694444444445,42.48305555555556],[-106.04222222222222,42.495555555555555],[-105.85249999999999,42.51638888888889],[-105.85249999999999,42.51638888888889],[-105.66166666666668,42.5375],[-105.08666666666666,42.59916666666667],[-105.08666666666666,42.59916666666667],[-104.89777777777779,42.61805555555556],[-104.89777777777779,42.61805555555556],[-104.15916666666668,42.69138888888889],[-104.15916666666668,42.69138888888889],[-103.77888888888889,42.7275],[-103.59027777777777,42.74472222222222],[-103.59027777777777,42.74472222222222],[-103.39944444444446,42.76166666666666],[-103.06638888888888,42.78972222222222],[-103.01722222222222,42.794999999999995],[-103.01722222222222,42.794999999999995],[-102.68583333333333,42.824444444444445],[-102.68583333333333,42.824444444444445],[-102.63361111111112,42.827222222222225],[-102.49472222222222,42.84],[-102.44027777777778,42.84277777777778],[-102.30388888888889,42.855000000000004],[-102.30388888888889,42.855000000000004],[-101.72277777777778,42.89833333333333],[-101.53333333333333,42.911944444444444],[-101.53333333333333,42.911944444444444],[-101.06277777777777,42.945277777777775],[-101.06277777777777,42.945277777777775],[-100.86777777777777,42.95805555555556],[-100.55611111111111,42.97805555555556],[-100.36083333333333,42.99027777777778],[-100.36083333333333,42.99027777777778],[-100.28055555555555,42.99527777777778],[-100.1675,43.00222222222222],[-100.08611111111111,43.007222222222225],[-99.77361111111111,43.025555555555556],[-99.69305555555556,43.03],[-99.69305555555556,43.03],[-99.30138888888888,43.051111111111105],[-98.97777777777777,43.06111111111111],[-98.97777777777777,43.06111111111111],[-98.57055555555556,43.073055555555555],[-98.3761111111111,43.07833333333333],[-98.3761111111111,43.07833333333333],[-97.59055555555555,43.095555555555556],[-97.39277777777778,43.098888888888894],[-97.39277777777778,43.098888888888894],[-97.19694444444445,43.102222222222224],[-96.80638888888889,43.10722222222223],[-96.80638888888889,43.10722222222223],[-96.6111111111111,43.10944444444445],[-96.41388888888889,43.111111111111114],[-96.41388888888889,43.111111111111114],[-96.21861111111112,43.112500000000004],[-95.82138888888889,43.114444444444445],[-95.82138888888889,43.114444444444445],[-95.625,43.11472222222223],[-95.28,43.1075],[-95.22972222222222,43.11472222222223],[-95.22972222222222,43.11472222222223],[-94.63388888888889,43.11194444444445],[-94.63388888888889,43.11194444444445],[-94.44111111111111,43.11],[-94.00833333333334,43.105555555555554],[-94.00833333333334,43.105555555555554],[-93.89,43.10416666666667],[-93.40972222222223,43.096111111111114],[-93.40972222222223,43.096111111111114],[-93.00777777777778,43.09],[-92.8875,43.08777777777778],[-92.8875,43.08777777777778],[-92.68694444444445,43.08388888888889],[-92.4863888888889,43.080000000000005],[-92.40333333333334,43.07833333333333],[-92.40333333333334,43.07833333333333],[-92.00361111111111,43.06861111111112],[-92.00361111111111,43.06861111111112],[-91.84388888888888,43.06444444444444],[-91.68305555555555,43.059999999999995],[-91.68305555555555,43.059999999999995],[-91.43972222222223,43.05305555555555],[-91.43972222222223,43.05305555555555],[-91.24138888888889,43.04666666666667],[-91.04222222222222,43.04],[-90.88555555555556,43.03472222222222],[-90.68694444444445,43.027499999999996],[-90.68694444444445,43.027499999999996],[-90.64777777777779,43.02611111111111],[-90.44888888888889,43.01861111111111],[-90.25416666666666,43.010555555555555],[-90.03305555555555,43.00111111111111],[-89.90416666666667,42.98277777777778],[-89.90416666666667,42.98277777777778],[-89.55111111111111,42.89833333333333],[-89.55111111111111,42.89833333333333],[-89.38083333333333,42.83583333333333],[-89.03583333333333,42.709722222222226],[-89.03583333333333,42.709722222222226],[-88.86333333333333,42.649166666666666],[-88.86333333333333,42.649166666666666],[-87.7,42.55222222222222],[-87.7,42.55222222222222],[-87.39805555555556,42.39694444444444],[-86.98416666666667,42.14833333333333],[-86.98416666666667,42.14833333333333],[-86.87527777777777,42.144999999999996],[-86.79944444444445,42.14388888888889],[-86.53111111111112,42.13666666666666],[-86.53111111111112,42.13666666666666],[-86.22555555555556,42.24666666666667],[-86.02388888888889,42.26611111111111],[-86.02388888888889,42.26611111111111],[-85.83611111111111,42.25416666666667],[-85.57444444444444,42.23722222222222],[-85.4675,42.22972222222222],[-85.4675,42.22972222222222],[-85.28388888888888,42.21666666666667],[-85.20972222222223,42.21138888888889],[-85.09861111111111,42.203611111111115],[-84.91527777777779,42.19],[-84.91527777777779,42.19],[-84.84694444444445,42.18472222222222],[-84.6613888888889,42.17055555555555],[-84.47777777777777,42.156666666666666],[-84.47777777777777,42.156666666666666],[-84.36277777777777,42.14722222222222],[-84.29083333333332,42.141666666666666],[-84.10916666666667,42.126666666666665],[-83.93138888888889,42.11222222222222],[-83.81916666666666,42.10277777777778],[-83.75055555555555,42.096944444444446],[-83.75055555555555,42.096944444444446],[-83.46472222222222,42.07222222222222],[-83.46472222222222,42.07222222222222],[-83.12027777777777,42.041666666666664],[-83.12027777777777,42.041666666666664],[-81.77666666666667,41.91027777777778],[-81.77666666666667,41.91027777777778],[-81.71805555555555,41.907222222222224],[-81.53972222222222,41.89194444444444],[-81.36055555555555,41.87583333333333],[-81.24666666666667,41.86416666666667],[-81.24666666666667,41.86416666666667],[-81.1888888888889,41.859722222222224],[-81.015,41.84305555555556],[-80.905,41.84777777777778],[-80.6913888888889,41.92833333333333],[-80.38138888888888,42.04194444444444],[-80.38138888888888,42.04194444444444],[-80.00972222222222,41.895833333333336],[-79.96666666666667,41.86555555555556],[-79.85138888888888,41.78055555555555],[-79.85138888888888,41.78055555555555],[-79.73611111111111,41.69499999999999],[-79.73611111111111,41.69499999999999],[-79.45444444444445,41.62583333333333],[-79.45444444444445,41.62583333333333],[-79.10194444444444,41.60138888888889],[-78.92583333333334,41.58833333333334],[-78.59527777777777,41.54833333333333],[-78.41388888888889,41.5225],[-78.41388888888889,41.5225],[-78.23972222222223,41.49777777777778],[-78.06166666666667,41.471944444444446],[-78.02833333333334,41.467222222222226],[-77.88111111111111,41.44555555555555],[-77.84833333333333,41.44083333333333],[-77.66972222222223,41.41444444444444],[-77.66972222222223,41.41444444444444],[-77.53055555555555,41.39361111111111],[-77.35305555555556,41.36694444444444],[-77.31972222222223,41.361666666666665],[-77.17611111111111,41.33972222222222],[-77.17611111111111,41.33972222222222],[-76.79916666666666,41.280833333333334],[-76.35472222222222,41.29055555555556],[-76.35472222222222,41.29055555555556],[-76.24166666666667,41.23583333333333],[-75.85555555555555,41.089444444444446],[-75.71916666666667,41.05166666666666],[-75.71916666666667,41.05166666666666],[-75.48,40.985],[-75.39361111111111,40.9375],[-75.15,40.9],[-75.0925,40.88027777777778],[-74.99694444444445,40.850833333333334],[-74.99694444444445,40.850833333333334],[-74.83333333333333,40.8],[-74.81444444444445,40.78472222222222],[-74.78333333333333,40.75],[-74.75111111111111,40.72833333333333],[-74.75111111111111,40.72833333333333],[-74.7,40.71666666666667],[-74.64722222222223,40.718333333333334],[-74.56666666666666,40.8],[-74.4875,40.905277777777776],[-74.45,40.95],[-74.45,40.95],[-74.43472222222222,40.973888888888894],[-74.4,41.016666666666666],[-74.31555555555555,41.064166666666665],[-74.26666666666667,41.05],[-74.24222222222222,41.03194444444444],[-74.21666666666667,41.016666666666666],[-74.21666666666667,41.016666666666666],[-74.18166666666667,40.989444444444445],[-74.16666666666667,40.96666666666667],[-74.11666666666666,40.916666666666664],[-74.11666666666666,40.916666666666664],[-74.075,40.85666666666667],[-74.075,40.85666666666667],[-74.08333333333333,40.833333333333336],[-74.08777777777777,40.81305555555555],[-74.13333333333334,40.75],[-74.15805555555556,40.70305555555556],[-74.15805555555556,40.70305555555556]],"type":"LineString"}
}
