{
  "id": 2015199735,
  "type": "Feature",
  "properties": {
    "geom:area": 0,
    "geom:bbox": "-123.467190,37.623940,-122.387530,37.699770",
    "geom:latitude": 37.68575635802797,
    "geom:longitude": -122.92288466422151,
    "src:alt_label": "swim-takeoff",
    "src:geom": "swim",
    "swim:elevations": [
      122,
      244,
      1208,
      1907,
      2331,
      2768,
      3204,
      3360,
      3585,
      3836,
      4253,
      4793,
      4833,
      5266,
      5410,
      5909,
      6115,
      6317
    ],
    "swim:geom": "takeoff",
    "swim:timestamps": [
      1775236947,
      1775236955,
      1775237057,
      1775237112,
      1775237139,
      1775237174,
      1775237216,
      1775237248,
      1775237265,
      1775237288,
      1775237322,
      1775237368,
      1775237372,
      1775237417,
      1775237431,
      1775237475,
      1775237500,
      1775237534
    ],
    "wof:geomhash": "99a2cb6e22517eb001bd3b34ca8497fa",
    "wof:id": 2015199735,
    "wof:repo": "sfomuseum-data-flights-2026-04"
  },
  "bbox": [
    -123.46719,
    37.62394,
    -122.38753,
    37.69977
  ],
  "geometry": {"coordinates":[[-122.38753,37.62394],[-122.3945,37.62681],[-122.50135,37.67209],[-122.58761,37.68029],[-122.631,37.68294],[-122.68995,37.68635],[-122.76483,37.6911],[-122.82721,37.69488],[-122.86359,37.69687],[-122.9109,37.69928],[-122.98645,37.69977],[-123.08745,37.69646],[-123.0965,37.69627],[-123.19638,37.69367],[-123.22962,37.69254],[-123.33003,37.68882],[-123.38749,37.68664],[-123.46719,37.68381]],"type":"LineString"}
}
