{
  "id": 2015355739,
  "type": "Feature",
  "properties": {
    "geom:area": 0,
    "geom:bbox": "-122.227222,28.333333,-81.316667,38.158056",
    "geom:latitude": 35.1638837318836,
    "geom:longitude": -101.14709553574703,
    "src:alt_label": "swim-path",
    "src:geom": "swim",
    "swim:altitudes": [
      "007",
      "007",
      "007",
      "057",
      "057",
      "057",
      "057",
      "057",
      "107",
      "107",
      "120",
      "120",
      "120",
      "120",
      "151",
      "151",
      "180",
      "180",
      "180",
      "180",
      "196",
      "196",
      "209",
      "209",
      "222",
      "222",
      "233",
      "233",
      "271",
      "271",
      "271",
      "271",
      "304",
      "304",
      "304",
      "304",
      "304",
      "320C",
      "320C",
      "320C",
      "320C",
      "320C",
      "320C",
      "320C",
      "320C",
      "320C",
      "320C",
      "320C",
      "320C",
      "320C",
      "320C",
      "320C",
      "320C",
      "320C",
      "320C",
      "320C",
      "320C",
      "320",
      "320",
      "320",
      "320",
      "332",
      "332",
      "332",
      "340C",
      "340C",
      "340C",
      "340C",
      "340C",
      "340C",
      "340C",
      "340C",
      "340C",
      "340C",
      "340C",
      "340C",
      "340C",
      "340C",
      "340C",
      "340C",
      "340C",
      "340C",
      "340C",
      "340C",
      "340C",
      "340C",
      "340C",
      "340C",
      "340C",
      "340C",
      "340C",
      "340C",
      "340C",
      "340C",
      "340C",
      "340C",
      "340C",
      "340C",
      "340C",
      "340C",
      "340C",
      "340C",
      "340C",
      "340C",
      "340C",
      "340C",
      "340C",
      "340C",
      "340C",
      "340C",
      "340C",
      "340C",
      "340C",
      "340C",
      "340C",
      "340C",
      "340C",
      "340C",
      "340C",
      "340C",
      "340C",
      "340C",
      "340C",
      "340C",
      "340C",
      "340C",
      "340C",
      "340C",
      "340C",
      "340C",
      "340C",
      "340C",
      "340C",
      "340C",
      "340C",
      "340C",
      "340C",
      "340C",
      "340C",
      "340C",
      "340C",
      "340C",
      "340C",
      "340C",
      "340C",
      "340C",
      "340C",
      "340C",
      "340C",
      "340C",
      "340C",
      "340C",
      "340C",
      "340C",
      "340C",
      "340C",
      "340C",
      "340C",
      "340C",
      "340C",
      "340C",
      "340C",
      "340C",
      "340C",
      "340C",
      "340C",
      "340C",
      "340C",
      "340C",
      "340C",
      "340C",
      "340C",
      "340C",
      "340C",
      "340C",
      "340C",
      "340C",
      "340C",
      "340C",
      "340C",
      "340C",
      "340C",
      "340C",
      "340C",
      "340C",
      "340C",
      "340C",
      "340C",
      "340C",
      "340C",
      "340C",
      "340C",
      "340C",
      "340C",
      "340C",
      "340C",
      "340C",
      "340C",
      "340C",
      "340C",
      "340C",
      "340C",
      "340C",
      "340C",
      "340C",
      "340C",
      "340C",
      "340C",
      "340C",
      "340C",
      "340C",
      "340C",
      "340C",
      "340C",
      "340C",
      "340C",
      "340C",
      "340C",
      "340C",
      "340C",
      "340C",
      "340C",
      "340C",
      "340C",
      "340C",
      "340C",
      "340C",
      "340C",
      "340",
      "340",
      "300C",
      "300C",
      "300C",
      "300C",
      "300C",
      "300C",
      "300C",
      "300C",
      "300C",
      "300C",
      "300C",
      "300C",
      "300C",
      "300C",
      "300C",
      "300C",
      "300C",
      "300C",
      "300C",
      "300C",
      "300C",
      "300C",
      "300C",
      "300C",
      "300C",
      "300C",
      "300C",
      "300C",
      "300C",
      "300C",
      "300C",
      "300C",
      "300C",
      "300C",
      "300C",
      "300C",
      "300C",
      "300C",
      "300C",
      "300C",
      "300C",
      "300C",
      "300C",
      "300C",
      "300C",
      "300C",
      "300C",
      "300C",
      "300C",
      "300C",
      "300C",
      "300C",
      "300C",
      "300C",
      "300C",
      "300C",
      "300C",
      "300C",
      "300C",
      "300C",
      "300C",
      "300C",
      "300C",
      "300C",
      "296",
      "296",
      "296",
      "296",
      "280C",
      "280C",
      "280C",
      "280C",
      "280C",
      "280C",
      "280C",
      "280C",
      "280C",
      "280C",
      "280C",
      "280",
      "280",
      "280",
      "295",
      "295",
      "295",
      "300C",
      "301",
      "301",
      "301",
      "301",
      "316",
      "316",
      "325",
      "325",
      "325",
      "340",
      "340",
      "340",
      "340",
      "340",
      "340",
      "340",
      "340",
      "340",
      "340",
      "340",
      "340",
      "340",
      "340",
      "360C",
      "360C",
      "360C",
      "360C",
      "360C",
      "360C",
      "360C",
      "360C",
      "360C",
      "360C",
      "360C",
      "360C",
      "360C",
      "360C",
      "360C",
      "360C",
      "360C",
      "360C",
      "360C",
      "360C",
      "360C",
      "360C",
      "360C",
      "360C",
      "360C",
      "360C",
      "360C",
      "360C",
      "360C",
      "360C",
      "360C",
      "360",
      "355",
      "355",
      "355",
      "340C",
      "340C",
      "340C",
      "340C",
      "340C",
      "340C",
      "340C",
      "340C",
      "340C",
      "340C",
      "340C",
      "340C",
      "340C",
      "340C",
      "340C",
      "340C",
      "340C",
      "340C",
      "340C",
      "340C",
      "340C",
      "340C",
      "340C",
      "340C",
      "340C",
      "340C",
      "340C",
      "340C",
      "340C",
      "340C",
      "340C",
      "340C",
      "345",
      "345",
      "345",
      "359C",
      "359C",
      "360C",
      "360C",
      "360C",
      "360C",
      "360C",
      "360C",
      "360C",
      "360C",
      "360C",
      "360C",
      "360C",
      "360C",
      "360C",
      "360C",
      "360C",
      "360C",
      "360C",
      "360C",
      "360C",
      "360C",
      "360C",
      "360C",
      "360C",
      "360C",
      "360C",
      "360C",
      "360C",
      "360C",
      "360C",
      "360C",
      "360C",
      "360C",
      "360C",
      "360C",
      "360C",
      "360C",
      "360C",
      "360C",
      "360C",
      "360C",
      "360",
      "360",
      "360",
      "346",
      "346",
      "346",
      "336",
      "336",
      "336",
      "317",
      "317",
      "261",
      "243",
      "181",
      "181",
      "181",
      "137",
      "137",
      "137",
      "074",
      "074",
      "070",
      "034",
      "024",
      "024",
      "024"
    ],
    "swim:geom": "path",
    "swim:speeds": [
      190,
      190,
      190,
      273,
      273,
      273,
      273,
      273,
      284,
      284,
      322,
      322,
      322,
      322,
      374,
      374,
      390,
      390,
      390,
      390,
      394,
      394,
      398,
      398,
      413,
      413,
      420,
      420,
      442,
      442,
      442,
      442,
      433,
      433,
      433,
      433,
      433,
      417,
      417,
      417,
      413,
      413,
      413,
      413,
      413,
      413,
      408,
      408,
      406,
      406,
      407,
      407,
      408,
      408,
      408,
      408,
      412,
      417,
      417,
      417,
      417,
      426,
      426,
      427,
      429,
      429,
      429,
      429,
      432,
      432,
      432,
      432,
      434,
      434,
      436,
      436,
      436,
      440,
      440,
      440,
      440,
      440,
      440,
      440,
      440,
      441,
      441,
      441,
      443,
      443,
      443,
      443,
      445,
      445,
      445,
      446,
      446,
      448,
      447,
      447,
      450,
      450,
      450,
      451,
      451,
      451,
      452,
      452,
      452,
      453,
      453,
      453,
      453,
      453,
      454,
      454,
      454,
      454,
      454,
      454,
      454,
      454,
      454,
      454,
      454,
      454,
      454,
      454,
      458,
      458,
      458,
      458,
      458,
      458,
      458,
      458,
      456,
      456,
      456,
      456,
      457,
      457,
      456,
      456,
      456,
      456,
      456,
      456,
      456,
      456,
      456,
      455,
      455,
      455,
      456,
      456,
      456,
      456,
      457,
      458,
      458,
      458,
      462,
      466,
      466,
      467,
      467,
      466,
      466,
      466,
      465,
      465,
      465,
      465,
      465,
      465,
      465,
      465,
      465,
      465,
      465,
      464,
      464,
      464,
      463,
      463,
      463,
      463,
      462,
      462,
      461,
      461,
      460,
      460,
      460,
      460,
      459,
      457,
      457,
      453,
      451,
      451,
      449,
      449,
      448,
      446,
      446,
      445,
      444,
      444,
      444,
      443,
      438,
      437,
      435,
      434,
      434,
      435,
      429,
      429,
      429,
      428,
      428,
      431,
      431,
      432,
      432,
      432,
      432,
      432,
      419,
      419,
      419,
      420,
      420,
      421,
      421,
      424,
      424,
      424,
      424,
      428,
      428,
      428,
      430,
      422,
      422,
      422,
      422,
      422,
      424,
      424,
      427,
      427,
      427,
      427,
      429,
      429,
      429,
      430,
      430,
      428,
      428,
      425,
      425,
      425,
      424,
      423,
      423,
      423,
      423,
      423,
      423,
      423,
      423,
      423,
      423,
      423,
      423,
      423,
      423,
      422,
      420,
      421,
      421,
      421,
      420,
      421,
      421,
      423,
      423,
      423,
      418,
      418,
      411,
      410,
      410,
      410,
      410,
      412,
      411,
      415,
      415,
      415,
      415,
      415,
      415,
      419,
      419,
      400,
      400,
      400,
      400,
      400,
      400,
      399,
      399,
      399,
      399,
      399,
      396,
      396,
      396,
      392,
      392,
      389,
      389,
      389,
      384,
      384,
      388,
      383,
      373,
      373,
      375,
      374,
      375,
      375,
      375,
      367,
      367,
      361,
      361,
      360,
      356,
      356,
      356,
      354,
      354,
      354,
      354,
      350,
      350,
      355,
      354,
      354,
      354,
      355,
      355,
      364,
      367,
      375,
      375,
      375,
      375,
      375,
      371,
      365,
      365,
      365,
      347,
      357,
      357,
      357,
      367,
      367,
      370,
      370,
      370,
      369,
      369,
      369,
      368,
      368,
      368,
      368,
      368,
      368,
      368,
      368,
      370,
      370,
      372,
      372,
      372,
      371,
      371,
      367,
      367,
      369,
      369,
      369,
      372,
      372,
      369,
      369,
      369,
      369,
      369,
      369,
      369,
      373,
      373,
      377,
      377,
      368,
      368,
      368,
      357,
      356,
      355,
      355,
      355,
      354,
      354,
      354,
      354,
      353,
      353,
      353,
      355,
      355,
      356,
      356,
      356,
      356,
      350,
      350,
      351,
      351,
      351,
      351,
      352,
      352,
      353,
      349,
      347,
      347,
      347,
      343,
      343,
      342,
      342,
      342,
      337,
      337,
      337,
      338,
      338,
      338,
      339,
      339,
      352,
      348,
      329,
      329,
      329,
      330,
      330,
      330,
      239,
      239,
      226,
      204,
      199,
      199,
      199
    ],
    "swim:timestamps": [
      1776897173,
      1776897173,
      1776897173,
      1776897312,
      1776897312,
      1776897312,
      1776897312,
      1776897312,
      1776897438,
      1776897438,
      1776897498,
      1776897498,
      1776897498,
      1776897498,
      1776897618,
      1776897618,
      1776897739,
      1776897739,
      1776897739,
      1776897739,
      1776897799,
      1776897799,
      1776897859,
      1776897859,
      1776897919,
      1776897919,
      1776897979,
      1776897979,
      1776898219,
      1776898219,
      1776898219,
      1776898219,
      1776898399,
      1776898399,
      1776898399,
      1776898399,
      1776898399,
      1776898760,
      1776898760,
      1776898760,
      1776898841,
      1776898841,
      1776898841,
      1776898880,
      1776898880,
      1776898880,
      1776898962,
      1776898962,
      1776899000,
      1776899000,
      1776899072,
      1776899072,
      1776899142,
      1776899142,
      1776899142,
      1776899142,
      1776899193,
      1776899322,
      1776899322,
      1776899322,
      1776899322,
      1776899433,
      1776899433,
      1776899442,
      1776899563,
      1776899563,
      1776899563,
      1776899563,
      1776899743,
      1776899743,
      1776899743,
      1776899743,
      1776899863,
      1776899863,
      1776899923,
      1776899923,
      1776899923,
      1776900038,
      1776900038,
      1776900038,
      1776900038,
      1776900038,
      1776900164,
      1776900164,
      1776900164,
      1776900224,
      1776900224,
      1776900224,
      1776900398,
      1776900398,
      1776900398,
      1776900398,
      1776900518,
      1776900518,
      1776900518,
      1776900524,
      1776900578,
      1776900638,
      1776900644,
      1776900644,
      1776900765,
      1776900779,
      1776900779,
      1776900819,
      1776900839,
      1776900839,
      1776900885,
      1776900885,
      1776900885,
      1776900945,
      1776900945,
      1776900999,
      1776900999,
      1776901005,
      1776901059,
      1776901059,
      1776901179,
      1776901179,
      1776901179,
      1776901179,
      1776901185,
      1776901239,
      1776901239,
      1776901245,
      1776901245,
      1776901360,
      1776901360,
      1776901360,
      1776901780,
      1776901780,
      1776901840,
      1776901840,
      1776901840,
      1776901900,
      1776901900,
      1776901960,
      1776901975,
      1776901975,
      1776901975,
      1776901975,
      1776902020,
      1776902020,
      1776902141,
      1776902141,
      1776902141,
      1776902156,
      1776902156,
      1776902216,
      1776902216,
      1776902216,
      1776902216,
      1776902261,
      1776902261,
      1776902381,
      1776902441,
      1776902456,
      1776902501,
      1776902501,
      1776902516,
      1776902561,
      1776902576,
      1776902576,
      1776902681,
      1776902814,
      1776902814,
      1776902934,
      1776902934,
      1776902994,
      1776902994,
      1776902994,
      1776903114,
      1776903114,
      1776903114,
      1776903294,
      1776903354,
      1776903354,
      1776903354,
      1776903354,
      1776903535,
      1776903535,
      1776903535,
      1776903595,
      1776903715,
      1776903715,
      1776903895,
      1776903895,
      1776903895,
      1776903895,
      1776904015,
      1776904015,
      1776904139,
      1776904139,
      1776904199,
      1776904199,
      1776904276,
      1776904276,
      1776904336,
      1776904397,
      1776904397,
      1776904517,
      1776904559,
      1776904559,
      1776904619,
      1776904619,
      1776904697,
      1776904800,
      1776904800,
      1776904860,
      1776904920,
      1776904980,
      1776904980,
      1776905040,
      1776905100,
      1776905118,
      1776905160,
      1776905220,
      1776905220,
      1776905238,
      1776905521,
      1776905521,
      1776905521,
      1776905598,
      1776905598,
      1776905761,
      1776905761,
      1776905821,
      1776905959,
      1776905959,
      1776906001,
      1776906001,
      1776906193,
      1776906193,
      1776906193,
      1776906254,
      1776906254,
      1776906320,
      1776906320,
      1776906434,
      1776906434,
      1776906440,
      1776906440,
      1776906500,
      1776906500,
      1776906500,
      1776906560,
      1776906860,
      1776906860,
      1776906981,
      1776906981,
      1776906981,
      1776907098,
      1776907098,
      1776907104,
      1776907104,
      1776907224,
      1776907224,
      1776907284,
      1776907284,
      1776907284,
      1776907339,
      1776907339,
      1776907399,
      1776907399,
      1776907459,
      1776907459,
      1776907459,
      1776907519,
      1776907585,
      1776907585,
      1776907585,
      1776907639,
      1776907639,
      1776907645,
      1776907645,
      1776907765,
      1776907765,
      1776907765,
      1776907879,
      1776907879,
      1776907879,
      1776907879,
      1776907945,
      1776908005,
      1776908060,
      1776908060,
      1776908060,
      1776908125,
      1776908185,
      1776908185,
      1776908306,
      1776908306,
      1776908306,
      1776908366,
      1776908366,
      1776908420,
      1776908426,
      1776908426,
      1776908426,
      1776908486,
      1776908546,
      1776908606,
      1776908666,
      1776908666,
      1776908666,
      1776908666,
      1776908726,
      1776908726,
      1776908846,
      1776908846,
      1776908966,
      1776908966,
      1776908966,
      1776909087,
      1776909087,
      1776909087,
      1776909147,
      1776909207,
      1776909207,
      1776909207,
      1776909207,
      1776909260,
      1776909260,
      1776909320,
      1776909327,
      1776909327,
      1776909500,
      1776909500,
      1776909500,
      1776909627,
      1776909627,
      1776909680,
      1776909687,
      1776909861,
      1776909861,
      1776909868,
      1776909921,
      1776909928,
      1776909928,
      1776909928,
      1776910228,
      1776910228,
      1776910281,
      1776910281,
      1776910341,
      1776910468,
      1776910468,
      1776910468,
      1776910522,
      1776910529,
      1776910529,
      1776910529,
      1776910709,
      1776910709,
      1776910829,
      1776910882,
      1776910882,
      1776910882,
      1776910942,
      1776910942,
      1776911002,
      1776911009,
      1776911122,
      1776911129,
      1776911129,
      1776911129,
      1776911129,
      1776911189,
      1776911303,
      1776911303,
      1776911303,
      1776911423,
      1776911483,
      1776911483,
      1776911483,
      1776911603,
      1776911603,
      1776911723,
      1776911723,
      1776911723,
      1776911903,
      1776911903,
      1776911903,
      1776911964,
      1776912084,
      1776912084,
      1776912084,
      1776912084,
      1776912264,
      1776912264,
      1776912264,
      1776912324,
      1776912324,
      1776912444,
      1776912444,
      1776912444,
      1776912504,
      1776912504,
      1776912745,
      1776912745,
      1776912865,
      1776912865,
      1776912865,
      1776913067,
      1776913067,
      1776913105,
      1776913105,
      1776913165,
      1776913165,
      1776913165,
      1776913285,
      1776913285,
      1776913345,
      1776913345,
      1776913487,
      1776913487,
      1776913586,
      1776913586,
      1776913586,
      1776913706,
      1776913766,
      1776913788,
      1776913788,
      1776913788,
      1776913848,
      1776913848,
      1776913886,
      1776913886,
      1776913946,
      1776913946,
      1776913968,
      1776914126,
      1776914126,
      1776914186,
      1776914208,
      1776914208,
      1776914247,
      1776914307,
      1776914307,
      1776914388,
      1776914388,
      1776914388,
      1776914427,
      1776914448,
      1776914448,
      1776914508,
      1776914629,
      1776914689,
      1776914689,
      1776914689,
      1776914869,
      1776914869,
      1776914929,
      1776914929,
      1776914929,
      1776915109,
      1776915109,
      1776915109,
      1776915169,
      1776915169,
      1776915169,
      1776915289,
      1776915289,
      1776915530,
      1776915590,
      1776915764,
      1776915764,
      1776915764,
      1776915890,
      1776915890,
      1776915890,
      1776916190,
      1776916190,
      1776916250,
      1776916490,
      1776916551,
      1776916551,
      1776916551
    ],
    "wof:geomhash": "b56aa7a63dc82027d6dd57c21f006f9d",
    "wof:id": 2015355739,
    "wof:repo": "sfomuseum-data-flights-2026-04"
  },
  "bbox": [
    -122.22722222222222,
    28.333333333333332,
    -81.31666666666666,
    38.158055555555556
  ],
  "geometry": {"coordinates":[[-81.31666666666666,28.416666666666668],[-81.31666666666666,28.416666666666668],[-81.31666666666666,28.416666666666668],[-81.45,28.333333333333332],[-81.45,28.333333333333332],[-81.45,28.333333333333332],[-81.45,28.333333333333332],[-81.45,28.333333333333332],[-81.6211111111111,28.370833333333334],[-81.6211111111111,28.370833333333334],[-81.715,28.388055555555557],[-81.715,28.388055555555557],[-81.715,28.388055555555557],[-81.715,28.388055555555557],[-81.94361111111111,28.426111111111112],[-81.94361111111111,28.426111111111112],[-82.18805555555556,28.43027777777778],[-82.18805555555556,28.43027777777778],[-82.18805555555556,28.43027777777778],[-82.18805555555556,28.43027777777778],[-82.31194444444444,28.431944444444447],[-82.31194444444444,28.431944444444447],[-82.43833333333333,28.43611111111111],[-82.43833333333333,28.43611111111111],[-82.52916666666667,28.51361111111111],[-82.52916666666667,28.51361111111111],[-82.5975,28.614722222222223],[-82.5975,28.614722222222223],[-82.87166666666666,29.022777777777776],[-82.87166666666666,29.022777777777776],[-82.87166666666666,29.022777777777776],[-82.87166666666666,29.022777777777776],[-83.11083333333333,29.321944444444444],[-83.11083333333333,29.321944444444444],[-83.11083333333333,29.321944444444444],[-83.11083333333333,29.321944444444444],[-83.11083333333333,29.321944444444444],[-83.58361111111111,29.894444444444446],[-83.58361111111111,29.894444444444446],[-83.58361111111111,29.894444444444446],[-83.67666666666668,30.009722222222223],[-83.67666666666668,30.009722222222223],[-83.67666666666668,30.009722222222223],[-83.73833333333333,30.080555555555556],[-83.73833333333333,30.080555555555556],[-83.73833333333333,30.080555555555556],[-83.83777777777777,30.18861111111111],[-83.83777777777777,30.18861111111111],[-83.92333333333333,30.237222222222222],[-83.92333333333333,30.237222222222222],[-84.03194444444445,30.301666666666666],[-84.03194444444445,30.301666666666666],[-84.16472222222222,30.380277777777778],[-84.16472222222222,30.380277777777778],[-84.16472222222222,30.380277777777778],[-84.16472222222222,30.380277777777778],[-84.27416666666666,30.444444444444446],[-84.49861111111112,30.577222222222222],[-84.49861111111112,30.577222222222222],[-84.49861111111112,30.577222222222222],[-84.49861111111112,30.577222222222222],[-84.72472222222223,30.70777777777778],[-84.72472222222223,30.70777777777778],[-84.72916666666667,30.710555555555555],[-84.96861111111112,30.829444444444444],[-84.96861111111112,30.829444444444444],[-84.96861111111112,30.829444444444444],[-84.96861111111112,30.829444444444444],[-85.34944444444444,30.990833333333335],[-85.34944444444444,30.990833333333335],[-85.34944444444444,30.990833333333335],[-85.34944444444444,30.990833333333335],[-85.6211111111111,31.105],[-85.6211111111111,31.105],[-85.72472222222223,31.148055555555555],[-85.72472222222223,31.148055555555555],[-85.72472222222223,31.148055555555555],[-85.97111111111111,31.25027777777778],[-85.97111111111111,31.25027777777778],[-85.97111111111111,31.25027777777778],[-85.97111111111111,31.25027777777778],[-85.97111111111111,31.25027777777778],[-86.24,31.361666666666668],[-86.24,31.361666666666668],[-86.24,31.361666666666668],[-86.37055555555555,31.415],[-86.37055555555555,31.415],[-86.37055555555555,31.415],[-86.77777777777777,31.580277777777777],[-86.77777777777777,31.580277777777777],[-86.77777777777777,31.580277777777777],[-86.77777777777777,31.580277777777777],[-87.03888888888889,31.68611111111111],[-87.03888888888889,31.68611111111111],[-87.03888888888889,31.68611111111111],[-87.02833333333334,31.681944444444447],[-87.17194444444445,31.739722222222223],[-87.30361111111111,31.792222222222225],[-87.29472222222222,31.788611111111113],[-87.29472222222222,31.788611111111113],[-87.5625,31.89527777777778],[-87.5936111111111,31.9075],[-87.5936111111111,31.9075],[-87.70222222222222,31.950555555555553],[-87.75555555555556,31.97138888888889],[-87.75555555555556,31.97138888888889],[-87.83027777777778,32.00083333333333],[-87.83027777777778,32.00083333333333],[-87.83027777777778,32.00083333333333],[-87.96555555555555,32.05416666666667],[-87.96555555555555,32.05416666666667],[-88.10388888888889,32.10805555555556],[-88.10388888888889,32.10805555555556],[-88.09888888888888,32.10611111111111],[-88.23833333333333,32.160555555555554],[-88.23833333333333,32.160555555555554],[-88.50888888888889,32.265],[-88.50888888888889,32.265],[-88.50888888888889,32.265],[-88.50888888888889,32.265],[-88.50666666666666,32.26416666666667],[-88.63611111111112,32.314166666666665],[-88.63611111111112,32.314166666666665],[-88.64305555555556,32.31666666666667],[-88.64305555555556,32.31666666666667],[-88.91833333333334,32.391666666666666],[-88.91833333333334,32.391666666666666],[-88.91833333333334,32.391666666666666],[-89.88583333333334,32.743611111111115],[-89.88583333333334,32.743611111111115],[-90.02833333333334,32.79555555555555],[-90.02833333333334,32.79555555555555],[-90.02833333333334,32.79555555555555],[-90.16833333333334,32.846111111111114],[-90.16833333333334,32.846111111111114],[-90.30722222222222,32.89611111111111],[-90.33027777777778,32.904444444444444],[-90.33027777777778,32.904444444444444],[-90.33027777777778,32.904444444444444],[-90.33027777777778,32.904444444444444],[-90.44694444444445,32.94638888888888],[-90.44694444444445,32.94638888888888],[-90.72333333333333,33.04527777777778],[-90.72333333333333,33.04527777777778],[-90.72333333333333,33.04527777777778],[-90.7475,33.053888888888885],[-90.7475,33.053888888888885],[-90.88472222222222,33.102222222222224],[-90.88472222222222,33.102222222222224],[-90.88472222222222,33.102222222222224],[-90.88472222222222,33.102222222222224],[-91.00277777777778,33.14416666666666],[-91.00277777777778,33.14416666666666],[-91.28138888888888,33.24194444444444],[-91.42055555555557,33.29055555555556],[-91.4413888888889,33.297777777777775],[-91.56027777777777,33.33888888888889],[-91.56027777777777,33.33888888888889],[-91.60722222222222,33.35527777777778],[-91.70166666666667,33.38777777777778],[-91.74833333333333,33.403888888888886],[-91.74833333333333,33.403888888888886],[-91.97472222222223,33.481944444444444],[-92.28944444444444,33.58888888888889],[-92.28944444444444,33.58888888888889],[-92.5775,33.68583333333333],[-92.5775,33.68583333333333],[-92.72305555555556,33.734722222222224],[-92.72305555555556,33.734722222222224],[-92.72305555555556,33.734722222222224],[-93.03777777777778,33.83916666666667],[-93.03777777777778,33.83916666666667],[-93.03777777777778,33.83916666666667],[-93.46722222222222,33.98027777777778],[-93.6125,34.027499999999996],[-93.6125,34.027499999999996],[-93.6125,34.027499999999996],[-93.6125,34.027499999999996],[-94.04333333333334,34.16638888888889],[-94.04333333333334,34.16638888888889],[-94.04333333333334,34.16638888888889],[-94.18972222222223,34.213055555555556],[-94.47833333333334,34.30472222222222],[-94.47833333333334,34.30472222222222],[-94.91222222222223,34.440555555555555],[-94.91222222222223,34.440555555555555],[-94.91222222222223,34.440555555555555],[-94.91222222222223,34.440555555555555],[-95.20555555555556,34.53111111111111],[-95.20555555555556,34.53111111111111],[-95.4975,34.620555555555555],[-95.4975,34.620555555555555],[-95.63694444444445,34.66277777777778],[-95.63694444444445,34.66277777777778],[-95.81222222222222,34.715],[-95.81222222222222,34.715],[-95.98472222222222,34.76777777777777],[-96.12916666666666,34.81083333333333],[-96.12916666666666,34.81083333333333],[-96.41222222222223,34.894999999999996],[-96.49972222222222,34.92055555555555],[-96.49972222222222,34.92055555555555],[-96.64305555555556,34.96277777777778],[-96.64305555555556,34.96277777777778],[-96.84194444444444,35.02055555555555],[-97.06972222222223,35.086666666666666],[-97.06972222222223,35.086666666666666],[-97.21388888888889,35.12833333333333],[-97.35638888888889,35.16888888888889],[-97.50222222222222,35.21055555555556],[-97.50222222222222,35.21055555555556],[-97.64611111111111,35.25138888888889],[-97.78472222222221,35.290277777777774],[-97.8125,35.29805555555556],[-97.92555555555556,35.32972222222222],[-98.06388888888888,35.36833333333333],[-98.06388888888888,35.36833333333333],[-98.0911111111111,35.376111111111115],[-98.75916666666667,35.559444444444445],[-98.75916666666667,35.559444444444445],[-98.75916666666667,35.559444444444445],[-98.92305555555556,35.60333333333333],[-98.92305555555556,35.60333333333333],[-99.31555555555555,35.70861111111111],[-99.31555555555555,35.70861111111111],[-99.45694444444445,35.74611111111111],[-99.78305555555555,35.83166666666667],[-99.78305555555555,35.83166666666667],[-99.86861111111111,35.85388888888889],[-99.86861111111111,35.85388888888889],[-100.30555555555556,35.966944444444444],[-100.30555555555556,35.966944444444444],[-100.30555555555556,35.966944444444444],[-100.44500000000001,36.00222222222222],[-100.44500000000001,36.00222222222222],[-100.60833333333333,36.04361111111111],[-100.60833333333333,36.04361111111111],[-100.8875,36.11361111111111],[-100.8875,36.11361111111111],[-100.88833333333334,36.11388888888889],[-100.88833333333334,36.11388888888889],[-101.02722222222222,36.14833333333333],[-101.02722222222222,36.14833333333333],[-101.02722222222222,36.14833333333333],[-101.17027777777778,36.18388888888889],[-101.86305555555555,36.3525],[-101.86305555555555,36.3525],[-102.1413888888889,36.41888888888889],[-102.1413888888889,36.41888888888889],[-102.1413888888889,36.41888888888889],[-102.42361111111111,36.48555555555556],[-102.42361111111111,36.48555555555556],[-102.45138888888889,36.492222222222225],[-102.45138888888889,36.492222222222225],[-102.71861111111112,36.55444444444444],[-102.71861111111112,36.55444444444444],[-102.86027777777777,36.58722222222222],[-102.86027777777777,36.58722222222222],[-102.86027777777777,36.58722222222222],[-103.00472222222223,36.62027777777778],[-103.00472222222223,36.62027777777778],[-103.14694444444446,36.65277777777778],[-103.14694444444446,36.65277777777778],[-103.2863888888889,36.68444444444444],[-103.2863888888889,36.68444444444444],[-103.2863888888889,36.68444444444444],[-103.42861111111111,36.71666666666667],[-103.5675,36.7475],[-103.5675,36.7475],[-103.5675,36.7475],[-103.70861111111111,36.77916666666667],[-103.70861111111111,36.77916666666667],[-103.70861111111111,36.77916666666667],[-103.70861111111111,36.77916666666667],[-103.99361111111111,36.841944444444444],[-103.99361111111111,36.841944444444444],[-103.99361111111111,36.841944444444444],[-104.27666666666667,36.90361111111111],[-104.27666666666667,36.90361111111111],[-104.27666666666667,36.90361111111111],[-104.27666666666667,36.90361111111111],[-104.41833333333334,36.93444444444444],[-104.55916666666667,36.964444444444446],[-104.6713888888889,36.98833333333334],[-104.6713888888889,36.98833333333334],[-104.6713888888889,36.98833333333334],[-104.84166666666667,37.02444444444444],[-104.98555555555555,37.05472222222222],[-104.98555555555555,37.05472222222222],[-105.27027777777778,37.11416666666667],[-105.27027777777778,37.11416666666667],[-105.27027777777778,37.11416666666667],[-105.41166666666668,37.14361111111111],[-105.41166666666668,37.14361111111111],[-105.54222222222222,37.169999999999995],[-105.55499999999999,37.172777777777775],[-105.55499999999999,37.172777777777775],[-105.55499999999999,37.172777777777775],[-105.69583333333334,37.20138888888889],[-105.8286111111111,37.22833333333333],[-105.96972222222223,37.25666666666667],[-106.10111111111111,37.282777777777774],[-106.10111111111111,37.282777777777774],[-106.10111111111111,37.282777777777774],[-106.10111111111111,37.282777777777774],[-106.24222222222222,37.31083333333333],[-106.24222222222222,37.31083333333333],[-106.52777777777777,37.367222222222225],[-106.52777777777777,37.367222222222225],[-106.79916666666666,37.41972222222222],[-106.79916666666666,37.41972222222222],[-106.79916666666666,37.41972222222222],[-107.06916666666666,37.471111111111114],[-107.06916666666666,37.471111111111114],[-107.06916666666666,37.471111111111114],[-107.205,37.49666666666667],[-107.33972222222222,37.52222222222222],[-107.33972222222222,37.52222222222222],[-107.33972222222222,37.52222222222222],[-107.33972222222222,37.52222222222222],[-107.47527777777778,37.54527777777778],[-107.47527777777778,37.54527777777778],[-107.60805555555555,37.57055555555556],[-107.60638888888889,37.57194444444445],[-107.60638888888889,37.57194444444445],[-108.00694444444444,37.632222222222225],[-108.00694444444444,37.632222222222225],[-108.00694444444444,37.632222222222225],[-108.26916666666666,37.6675],[-108.26916666666666,37.6675],[-108.40416666666667,37.68444444444444],[-108.39972222222222,37.68416666666666],[-108.79027777777777,37.73305555555556],[-108.79027777777777,37.73305555555556],[-108.78805555555556,37.73277777777778],[-108.92083333333333,37.74916666666667],[-108.91888888888889,37.74888888888889],[-108.91888888888889,37.74888888888889],[-108.91888888888889,37.74888888888889],[-109.56861111111111,37.82666666666667],[-109.56861111111111,37.82666666666667],[-109.69861111111112,37.84166666666667],[-109.69861111111112,37.84166666666667],[-109.82305555555556,37.85611111111111],[-110.0886111111111,37.88611111111111],[-110.0886111111111,37.88611111111111],[-110.0886111111111,37.88611111111111],[-110.19166666666668,37.897777777777776],[-110.21027777777778,37.89972222222222],[-110.21027777777778,37.89972222222222],[-110.21027777777778,37.89972222222222],[-110.5761111111111,37.93944444444444],[-110.5761111111111,37.93944444444444],[-110.82388888888889,37.96222222222222],[-110.93111111111112,37.97166666666667],[-110.93111111111112,37.97166666666667],[-110.93111111111112,37.97166666666667],[-111.04222222222222,37.981944444444444],[-111.04222222222222,37.981944444444444],[-111.1675,37.99277777777778],[-111.20138888888889,37.99583333333334],[-111.43083333333334,38.01583333333333],[-111.46277777777777,38.01861111111111],[-111.46277777777777,38.01861111111111],[-111.46277777777777,38.01861111111111],[-111.46277777777777,38.01861111111111],[-111.59194444444444,38.02972222222222],[-111.81361111111111,38.04833333333333],[-111.81361111111111,38.04833333333333],[-111.81361111111111,38.04833333333333],[-112.05833333333334,38.06805555555556],[-112.18277777777779,38.07805555555556],[-112.18277777777779,38.07805555555556],[-112.18277777777779,38.07805555555556],[-112.43611111111112,38.09777777777778],[-112.43611111111112,38.09777777777778],[-112.72166666666666,38.11944444444445],[-112.72166666666666,38.11944444444445],[-112.72166666666666,38.11944444444445],[-113.10833333333333,38.14805555555556],[-113.10833333333333,38.14805555555556],[-113.10833333333333,38.14805555555556],[-113.2363888888889,38.15694444444444],[-113.4925,38.158055555555556],[-113.4925,38.158055555555556],[-113.4925,38.158055555555556],[-113.4925,38.158055555555556],[-113.88138888888888,38.14666666666667],[-113.88138888888888,38.14666666666667],[-113.88138888888888,38.14666666666667],[-114.01305555555555,38.1425],[-114.01305555555555,38.1425],[-114.27416666666666,38.134166666666665],[-114.27416666666666,38.134166666666665],[-114.27416666666666,38.134166666666665],[-114.40333333333334,38.129444444444445],[-114.40333333333334,38.129444444444445],[-114.91972222222223,38.11027777777778],[-114.91972222222223,38.11027777777778],[-115.17916666666667,38.099722222222226],[-115.17916666666667,38.099722222222226],[-115.17916666666667,38.099722222222226],[-115.60777777777777,38.08111111111111],[-115.60777777777777,38.08111111111111],[-115.71000000000001,38.07638888888889],[-115.71000000000001,38.07638888888889],[-115.8386111111111,38.07055555555556],[-115.8386111111111,38.07055555555556],[-115.8386111111111,38.07055555555556],[-116.07277777777777,38.059444444444445],[-116.07277777777777,38.059444444444445],[-116.20722222222223,38.05277777777778],[-116.20722222222223,38.05277777777778],[-116.52583333333334,38.03611111111111],[-116.52583333333334,38.03611111111111],[-116.735,38.02472222222222],[-116.735,38.02472222222222],[-116.735,38.02472222222222],[-116.9863888888889,38.01083333333333],[-117.1125,38.00333333333333],[-117.16527777777779,38.000277777777775],[-117.16527777777779,38.000277777777775],[-117.16527777777779,38.000277777777775],[-117.28972222222222,37.99305555555556],[-117.28972222222222,37.99305555555556],[-117.36611111111111,37.98833333333334],[-117.36611111111111,37.98833333333334],[-117.48916666666666,37.98083333333334],[-117.48916666666666,37.98083333333334],[-117.54166666666667,37.97777777777778],[-117.86444444444444,37.95722222222223],[-117.86444444444444,37.95722222222223],[-117.99055555555556,37.94916666666666],[-118.0411111111111,37.94583333333333],[-118.0411111111111,37.94583333333333],[-118.11388888888888,37.94083333333333],[-118.23722222222223,37.9325],[-118.23722222222223,37.9325],[-118.41083333333334,37.92055555555555],[-118.41083333333334,37.92055555555555],[-118.41083333333334,37.92055555555555],[-118.4825,37.91555555555556],[-118.53388888888888,37.911944444444444],[-118.53388888888888,37.911944444444444],[-118.65916666666668,37.903055555555554],[-118.90666666666667,37.879444444444445],[-119.02388888888889,37.86611111111111],[-119.02388888888889,37.86611111111111],[-119.02388888888889,37.86611111111111],[-119.38305555555554,37.824444444444445],[-119.38305555555554,37.824444444444445],[-119.50027777777778,37.81027777777778],[-119.50027777777778,37.81027777777778],[-119.50027777777778,37.81027777777778],[-119.85555555555555,37.7675],[-119.85555555555555,37.7675],[-119.85555555555555,37.7675],[-119.97305555555556,37.753055555555555],[-119.97305555555556,37.753055555555555],[-119.97305555555556,37.753055555555555],[-120.2088888888889,37.723888888888894],[-120.2088888888889,37.723888888888894],[-120.7,37.666666666666664],[-120.79694444444445,37.653055555555554],[-121.15,37.6],[-121.15,37.6],[-121.15,37.6],[-121.39194444444445,37.57777777777778],[-121.39194444444445,37.57777777777778],[-121.39194444444445,37.57777777777778],[-121.85,37.46666666666667],[-121.85,37.46666666666667],[-121.9,37.43333333333333],[-122.16555555555556,37.532777777777774],[-122.22722222222222,37.55916666666666],[-122.22722222222222,37.55916666666666],[-122.22722222222222,37.55916666666666]],"type":"LineString"}
}
