{
  "id": 2015221201,
  "type": "Feature",
  "properties": {
    "geom:area": 0,
    "geom:bbox": "-122.762730,37.404260,-122.100930,38.506390",
    "geom:latitude": 37.90808604866942,
    "geom:longitude": -122.49241967707476,
    "src:alt_label": "swim-approach",
    "src:geom": "swim",
    "swim:elevations": [
      5852,
      5635,
      5364,
      5029,
      4758,
      4736,
      4548,
      4383,
      3980,
      3937,
      3766,
      3562,
      3378,
      3351,
      3353,
      3353,
      3353,
      3243,
      3075,
      2844,
      2759,
      2668,
      2513,
      2342,
      2198,
      2132,
      2075,
      2002,
      1866,
      1743,
      1609,
      1492,
      1344,
      1238,
      1134,
      966,
      880,
      726,
      609,
      488,
      374,
      268,
      212,
      183,
      66,
      42,
      7856,
      7761,
      7447,
      7201,
      6777,
      6580,
      6292,
      6113,
      5880,
      5634,
      5361
    ],
    "swim:geom": "approach",
    "swim:timestamps": [
      1775458823,
      1775458846,
      1775458882,
      1775458918,
      1775458947,
      1775458950,
      1775458973,
      1775458991,
      1775459036,
      1775459047,
      1775459082,
      1775459124,
      1775459156,
      1775459162,
      1775459180,
      1775459204,
      1775459230,
      1775459263,
      1775459292,
      1775459327,
      1775459340,
      1775459360,
      1775459386,
      1775459411,
      1775459434,
      1775459468,
      1775459487,
      1775459501,
      1775459521,
      1775459542,
      1775459573,
      1775459606,
      1775459632,
      1775459655,
      1775459674,
      1775459707,
      1775459725,
      1775459758,
      1775459784,
      1775459818,
      1775459846,
      1775459877,
      1775459893,
      1775459901,
      1775459932,
      1775459942,
      1775544928,
      1775544940,
      1775544973,
      1775544997,
      1775545045,
      1775545066,
      1775545096,
      1775545114,
      1775545134,
      1775545157,
      1775545188
    ],
    "wof:geomhash": "7912d83afd8f681486b3a7dba6f41a71",
    "wof:id": 2015221201,
    "wof:repo": "sfomuseum-data-flights-2026-04"
  },
  "bbox": [
    -122.76273,
    37.40426,
    -122.10093,
    38.50639
  ],
  "geometry": {"coordinates":[[-122.74382,38.14369],[-122.73244,38.10459],[-122.71581,38.04723],[-122.69893,37.98881],[-122.68528,37.94156],[-122.6839,37.93683],[-122.67086,37.90089],[-122.64983,37.87682],[-122.59015,37.82139],[-122.57665,37.80866],[-122.53589,37.77007],[-122.49333,37.72975],[-122.46311,37.70158],[-122.45737,37.69615],[-122.4406,37.68032],[-122.41725,37.65819],[-122.3924,37.6349],[-122.36591,37.60451],[-122.34907,37.57467],[-122.32524,37.53793],[-122.31717,37.52484],[-122.3053,37.50543],[-122.28921,37.47894],[-122.27421,37.4547],[-122.25684,37.43279],[-122.21482,37.41712],[-122.18977,37.40904],[-122.1722,37.40426],[-122.14484,37.40848],[-122.12581,37.42567],[-122.10426,37.45248],[-122.10093,37.48183],[-122.11017,37.50422],[-122.1298,37.51724],[-122.14859,37.52555],[-122.18129,37.53955],[-122.19746,37.54626],[-122.22526,37.55813],[-122.24647,37.567],[-122.27305,37.57823],[-122.29226,37.5863],[-122.31307,37.59511],[-122.32298,37.59922],[-122.32803,37.60128],[-122.34805,37.60974],[-122.35411,37.61232],[-122.65558,38.50639],[-122.6641,38.48548],[-122.68619,38.42892],[-122.70237,38.38835],[-122.73384,38.309],[-122.74747,38.27452],[-122.76273,38.22512],[-122.75815,38.19479],[-122.74882,38.16166],[-122.73777,38.12362],[-122.72228,38.0702]],"type":"LineString"}
}
