{
  "id": 2015295619,
  "type": "Feature",
  "properties": {
    "geom:area": 0,
    "geom:bbox": "-122.360400,37.466920,-121.262310,37.643580",
    "geom:latitude": 37.55614075059269,
    "geom:longitude": -121.82585536999906,
    "src:alt_label": "swim-approach",
    "src:geom": "swim",
    "swim:elevations": [
      4714,
      4507,
      4380,
      4086,
      3851,
      3692,
      3534,
      3353,
      3353,
      3353,
      3353,
      3353,
      3353,
      3210,
      3048,
      3048,
      3005,
      2743,
      2743,
      2559,
      2438,
      2364,
      2206,
      1941,
      1851,
      1726,
      1533,
      1463,
      1325,
      1181,
      1115,
      837,
      736,
      488,
      384,
      327,
      149,
      20,
      0
    ],
    "swim:geom": "approach",
    "swim:timestamps": [
      1776247311,
      1776247344,
      1776247361,
      1776247403,
      1776247436,
      1776247458,
      1776247482,
      1776247518,
      1776247530,
      1776247578,
      1776247591,
      1776247602,
      1776247620,
      1776247650,
      1776247702,
      1776247711,
      1776247752,
      1776247790,
      1776247802,
      1776247842,
      1776247884,
      1776247914,
      1776247934,
      1776247978,
      1776247999,
      1776248022,
      1776248058,
      1776248070,
      1776248094,
      1776248122,
      1776248132,
      1776248177,
      1776248197,
      1776248246,
      1776248276,
      1776248288,
      1776248328,
      1776248363,
      1776248370
    ],
    "wof:geomhash": "6c0a8e476b3c495edf67a07fe3a38818",
    "wof:id": 2015295619,
    "wof:repo": "sfomuseum-data-flights-2026-04"
  },
  "bbox": [
    -122.3604,
    37.46692,
    -121.26231,
    37.64358
  ],
  "geometry": {"coordinates":[[-121.26231,37.59268],[-121.31922,37.58582],[-121.34895,37.58262],[-121.41731,37.57505],[-121.47275,37.56855],[-121.50917,37.56426],[-121.54732,37.55983],[-121.60606,37.55305],[-121.62391,37.55068],[-121.68809,37.55661],[-121.70093,37.56644],[-121.71286,37.57571],[-121.73086,37.58975],[-121.76088,37.6133],[-121.81915,37.64358],[-121.83108,37.64271],[-121.88465,37.63074],[-121.89029,37.59039],[-121.8848,37.57771],[-121.85492,37.53816],[-121.86012,37.49304],[-121.88541,37.46907],[-121.9129,37.46692],[-121.97271,37.46789],[-122.00058,37.46854],[-122.02944,37.47487],[-122.07062,37.49253],[-122.08455,37.49849],[-122.11166,37.50993],[-122.14433,37.52389],[-122.15522,37.52851],[-122.20553,37.54986],[-122.22468,37.55784],[-122.26809,37.57613],[-122.29095,37.58583],[-122.29957,37.58941],[-122.33003,37.60215],[-122.35532,37.61272],[-122.3604,37.61453]],"type":"LineString"}
}
