{
  "id": 2015221991,
  "type": "Feature",
  "properties": {
    "geom:area": 0,
    "geom:bbox": "-117.324722,25.149167,-80.313056,38.518056",
    "geom:latitude": 32.91758616120618,
    "geom:longitude": -98.20555073585456,
    "src:alt_label": "swim-path",
    "src:geom": "swim",
    "swim:altitudes": [
      "330C",
      "330C",
      "330C",
      "330C",
      "330C",
      "330C",
      "330C",
      "330C",
      "330C",
      "330C",
      "330C",
      "330C",
      "331C",
      "330C",
      "330C",
      "330C",
      "330C",
      "330C",
      "331C",
      "330C",
      "330C",
      "330C",
      "330C",
      "330C",
      "330C",
      "330C",
      "330C",
      "330C",
      "330C",
      "330C",
      "330C",
      "330C",
      "330C",
      "330C",
      "330C",
      "330C",
      "330C",
      "330C",
      "330C",
      "330C",
      "330C",
      "330C",
      "330C",
      "330C",
      "330C",
      "330C",
      "330C",
      "330C",
      "330C",
      "330C",
      "330C",
      "330C",
      "330C",
      "330C",
      "330C",
      "330C",
      "330C",
      "330C",
      "330C",
      "330C",
      "330C",
      "330C",
      "347",
      "350C",
      "350C",
      "350C",
      "350C",
      "350C",
      "350C",
      "350C",
      "350C",
      "350C",
      "350C",
      "350C",
      "350C",
      "350C",
      "350C",
      "350C",
      "350C",
      "350C",
      "350C",
      "350C",
      "350C",
      "350C",
      "350C",
      "350C",
      "350C",
      "350C",
      "350C",
      "350C",
      "350C",
      "350C",
      "350C",
      "350C",
      "350C",
      "350C",
      "350C",
      "350C",
      "350C",
      "350C",
      "350C",
      "350C",
      "350C",
      "350C",
      "350C",
      "350C",
      "350C",
      "350C",
      "350C",
      "350C",
      "350C",
      "350C",
      "350C",
      "350C",
      "350C",
      "350C",
      "350C",
      "350C",
      "350C",
      "350C",
      "350C",
      "350C",
      "350C",
      "350C",
      "350C",
      "350C",
      "350C",
      "350C",
      "350C",
      "350C",
      "350C",
      "350C",
      "350C",
      "350C",
      "350C",
      "350C",
      "350C",
      "350C",
      "350C",
      "350C",
      "350C",
      "350C",
      "350C",
      "350C",
      "350C",
      "350C",
      "350C",
      "350C",
      "350C",
      "350C",
      "350C",
      "350C",
      "350C",
      "350C",
      "350C",
      "350C",
      "350C",
      "350C",
      "351C",
      "350C",
      "350C",
      "350C",
      "349C",
      "350C",
      "350C",
      "350C",
      "350C",
      "350C",
      "350C",
      "350C",
      "350C",
      "350C",
      "350C",
      "350C",
      "350C",
      "350C",
      "350",
      "342",
      "332",
      "283",
      "265",
      "245",
      "219",
      "175",
      "156",
      "127",
      "099C",
      "083",
      "068",
      "063",
      "060",
      "057",
      "054",
      "047",
      "043",
      "033",
      "013",
      "009",
      "001"
    ],
    "swim:geom": "path",
    "swim:speeds": [
      480,
      481,
      483,
      477,
      476,
      477,
      479,
      480,
      474,
      471,
      469,
      469,
      472,
      471,
      470,
      470,
      472,
      474,
      476,
      477,
      480,
      480,
      479,
      478,
      477,
      476,
      474,
      473,
      473,
      472,
      473,
      473,
      473,
      473,
      473,
      473,
      473,
      475,
      477,
      484,
      484,
      483,
      483,
      483,
      483,
      482,
      481,
      481,
      481,
      482,
      482,
      482,
      481,
      481,
      480,
      479,
      478,
      475,
      476,
      478,
      478,
      468,
      479,
      480,
      478,
      483,
      483,
      483,
      483,
      483,
      483,
      482,
      482,
      482,
      483,
      483,
      483,
      482,
      482,
      482,
      482,
      483,
      484,
      485,
      485,
      486,
      486,
      487,
      487,
      487,
      487,
      487,
      487,
      487,
      488,
      489,
      489,
      490,
      491,
      490,
      490,
      490,
      490,
      491,
      493,
      492,
      494,
      495,
      495,
      493,
      495,
      495,
      495,
      496,
      496,
      497,
      497,
      497,
      499,
      501,
      502,
      502,
      502,
      505,
      504,
      503,
      503,
      504,
      505,
      506,
      508,
      509,
      510,
      511,
      512,
      503,
      506,
      507,
      514,
      510,
      517,
      517,
      517,
      517,
      516,
      516,
      516,
      522,
      517,
      519,
      521,
      519,
      519,
      519,
      519,
      520,
      523,
      524,
      520,
      517,
      512,
      509,
      522,
      507,
      508,
      510,
      510,
      509,
      507,
      496,
      479,
      471,
      464,
      441,
      450,
      454,
      460,
      489,
      494,
      504,
      489,
      479,
      463,
      430,
      418,
      395,
      300,
      295,
      289,
      283,
      239,
      239,
      239,
      227,
      226,
      211,
      163,
      152,
      150
    ],
    "swim:timestamps": [
      1775544878,
      1775544938,
      1775545118,
      1775545358,
      1775545418,
      1775545478,
      1775545598,
      1775545718,
      1775545838,
      1775545898,
      1775545958,
      1775546018,
      1775546199,
      1775546319,
      1775546379,
      1775546499,
      1775546559,
      1775546619,
      1775546679,
      1775546739,
      1775546979,
      1775547039,
      1775547186,
      1775547219,
      1775547306,
      1775547366,
      1775547459,
      1775547546,
      1775547579,
      1775547639,
      1775547699,
      1775547726,
      1775547760,
      1775547787,
      1775547820,
      1775547880,
      1775547940,
      1775548087,
      1775548147,
      1775548507,
      1775548634,
      1775548697,
      1775548747,
      1775548814,
      1775548867,
      1775548935,
      1775548987,
      1775549047,
      1775549056,
      1775549107,
      1775549116,
      1775549177,
      1775549227,
      1775549287,
      1775549356,
      1775549416,
      1775549468,
      1775549597,
      1775549715,
      1775549955,
      1775550015,
      1775550103,
      1775550316,
      1775550343,
      1775550375,
      1775550495,
      1775550523,
      1775550555,
      1775550583,
      1775550616,
      1775550676,
      1775550737,
      1775550796,
      1775550916,
      1775550944,
      1775551004,
      1775551038,
      1775551096,
      1775551124,
      1775551184,
      1775551277,
      1775551304,
      1775551364,
      1775551424,
      1775551456,
      1775551544,
      1775551579,
      1775551604,
      1775551636,
      1775551664,
      1775551784,
      1775551844,
      1775551904,
      1775551964,
      1775552084,
      1775552144,
      1775552204,
      1775552264,
      1775552444,
      1775552504,
      1775552625,
      1775552685,
      1775552745,
      1775552805,
      1775552814,
      1775552865,
      1775552985,
      1775553045,
      1775553105,
      1775553174,
      1775553225,
      1775553295,
      1775553353,
      1775553465,
      1775553473,
      1775553533,
      1775553585,
      1775553593,
      1775553713,
      1775553825,
      1775553885,
      1775553895,
      1775553955,
      1775554253,
      1775554365,
      1775554425,
      1775554496,
      1775554553,
      1775554613,
      1775554666,
      1775554733,
      1775554793,
      1775554914,
      1775554974,
      1775555034,
      1775555047,
      1775555107,
      1775555167,
      1775555214,
      1775555287,
      1775555337,
      1775555397,
      1775555514,
      1775555574,
      1775555588,
      1775555708,
      1775555768,
      1775555814,
      1775555828,
      1775555888,
      1775555948,
      1775556296,
      1775556368,
      1775556428,
      1775556477,
      1775556537,
      1775556656,
      1775556715,
      1775556849,
      1775556895,
      1775556969,
      1775557029,
      1775557085,
      1775557196,
      1775557205,
      1775557316,
      1775557326,
      1775557446,
      1775557506,
      1775557746,
      1775558347,
      1775558407,
      1775558467,
      1775558587,
      1775558767,
      1775558888,
      1775558948,
      1775559008,
      1775559068,
      1775559368,
      1775559488,
      1775559548,
      1775559609,
      1775559729,
      1775559789,
      1775559867,
      1775560089,
      1775560149,
      1775560209,
      1775560216,
      1775560276,
      1775560330,
      1775560336,
      1775560402,
      1775560450,
      1775560528,
      1775560649,
      1775560690,
      1775560750
    ],
    "wof:geomhash": "f6fac826bd9861bca76833c675b18801",
    "wof:id": 2015221991,
    "wof:repo": "sfomuseum-data-flights-2026-04"
  },
  "bbox": [
    -117.32472222222222,
    25.149166666666666,
    -80.31305555555555,
    38.518055555555556
  ],
  "geometry": {"coordinates":[[-117.32472222222222,38.518055555555556],[-117.15361111111112,38.51777777777777],[-116.6363888888889,38.50611111111111],[-115.95611111111111,38.487500000000004],[-115.78888888888889,38.48222222222223],[-115.61861111111111,38.47666666666667],[-115.29138888888889,38.46527777777778],[-114.95305555555557,38.452222222222225],[-114.61833333333333,38.43861111111111],[-114.45222222222222,38.431666666666665],[-114.28694444444444,38.424166666666665],[-114.12166666666666,38.416666666666664],[-113.61999999999999,38.3925],[-113.28861111111111,38.375277777777775],[-113.11972222222222,38.36611111111111],[-112.79083333333332,38.33388888888889],[-112.6236111111111,38.31388888888888],[-112.45722222222223,38.29388888888889],[-112.28861111111111,38.27333333333333],[-112.12138888888889,38.2525],[-111.45,38.166666666666664],[-111.28444444444445,38.14472222222222],[-110.88472222222222,38.09111111111111],[-110.80138888888888,38.07972222222222],[-110.57083333333333,38.04805555555556],[-110.37249999999999,38.02055555555555],[-110.14444444444445,37.988055555555555],[-109.89250000000001,37.95194444444445],[-109.81888888888888,37.94138888888889],[-109.65555555555557,37.9175],[-109.49388888888889,37.89361111111111],[-109.40055555555556,37.87972222222222],[-109.32916666666667,37.86888888888889],[-109.2375,37.85527777777778],[-109.16777777777779,37.844722222222224],[-109.00416666666666,37.819722222222225],[-108.84638888888888,37.781666666666666],[-108.44861111111112,37.65555555555555],[-108.2925,37.60527777777778],[-107.35,37.297777777777775],[-107.03861111111111,37.19361111111111],[-106.88666666666667,37.14222222222222],[-106.72944444444444,37.08916666666667],[-106.57472222222222,37.03666666666666],[-106.42166666666667,36.98416666666667],[-106.26722222222222,36.93111111111111],[-106.11777777777777,36.879444444444445],[-105.96277777777777,36.82555555555556],[-105.94972222222222,36.82083333333334],[-105.81833333333333,36.775],[-105.79472222222222,36.76694444444444],[-105.63944444444445,36.71222222222222],[-105.5038888888889,36.66444444444444],[-105.35138888888888,36.61027777777778],[-105.18388888888889,36.55083333333333],[-105.0325,36.49666666666667],[-104.92333333333333,36.4575],[-104.58555555555554,36.33527777777778],[-104.28527777777778,36.22527777777778],[-103.685,36.0025],[-103.56527777777778,35.9575],[-103.34583333333333,35.87444444444444],[-102.80944444444444,35.66972222222222],[-102.75277777777778,35.64833333333333],[-102.66305555555556,35.61333333333334],[-102.36555555555555,35.49777777777778],[-102.30666666666666,35.474722222222226],[-102.21722222222222,35.439722222222215],[-102.15833333333335,35.41638888888889],[-102.07055555555556,35.38194444444444],[-101.93055555555556,35.32666666666667],[-101.78527777777778,35.26916666666666],[-101.63916666666667,35.205555555555556],[-101.35777777777777,35.06805555555556],[-101.28083333333333,35.03],[-101.1388888888889,34.96],[-101.05527777777777,34.91888888888889],[-100.91555555555556,34.84916666666667],[-100.86055555555555,34.82194444444445],[-100.72194444444445,34.75277777777778],[-100.49777777777778,34.64],[-100.44416666666667,34.613055555555555],[-100.30416666666666,34.54222222222222],[-100.16416666666667,34.47138888888889],[-100.08194444444445,34.42944444444444],[-99.88555555555556,34.32916666666667],[-99.80194444444444,34.28638888888889],[-99.74638888888889,34.2575],[-99.66361111111112,34.215],[-99.6061111111111,34.18527777777778],[-99.32777777777777,34.04111111111111],[-99.1888888888889,33.968611111111116],[-99.0475,33.894444444444446],[-98.93277777777779,33.83416666666667],[-98.6588888888889,33.689722222222215],[-98.52083333333333,33.61638888888889],[-98.38416666666667,33.54333333333333],[-98.24555555555555,33.46944444444445],[-97.83333333333333,33.246944444444445],[-97.69694444444445,33.172777777777775],[-97.42777777777778,33.02583333333333],[-97.26583333333333,32.93694444444444],[-97.13805555555557,32.86833333333333],[-96.99944444444445,32.79833333333333],[-96.97583333333334,32.7875],[-96.85916666666667,32.727222222222224],[-96.58083333333333,32.585],[-96.43944444444445,32.5125],[-96.30111111111111,32.441111111111105],[-96.1438888888889,32.36],[-96.02388888888889,32.297777777777775],[-95.86527777777778,32.21472222222223],[-95.7275,32.14277777777778],[-95.47416666666666,32.00972222222222],[-95.45194444444445,31.998055555555556],[-95.31277777777777,31.924166666666668],[-95.19666666666667,31.86277777777778],[-95.17305555555556,31.85027777777778],[-94.89527777777778,31.702222222222222],[-94.63944444444445,31.564444444444444],[-94.50055555555555,31.489444444444445],[-94.47583333333334,31.47611111111111],[-94.36388888888888,31.415555555555553],[-93.6438888888889,31.046666666666667],[-93.38333333333334,30.922777777777778],[-93.24361111111111,30.85611111111111],[-93.07166666666666,30.773333333333333],[-92.92833333333334,30.704444444444444],[-92.78472222222221,30.634999999999998],[-92.6738888888889,30.589166666666664],[-92.49666666666667,30.51722222222222],[-92.34277777777777,30.454722222222223],[-92.05111111111111,30.335555555555555],[-91.90361111111112,30.275],[-91.755,30.21361111111111],[-91.71055555555556,30.18722222222222],[-91.56222222222222,30.125555555555557],[-91.41416666666667,30.06722222222222],[-91.29805555555555,30.023333333333333],[-91.11666666666666,29.9425],[-90.99777777777778,29.897222222222222],[-90.85083333333333,29.834999999999997],[-90.55472222222222,29.709166666666665],[-90.40805555555556,29.64638888888889],[-90.3736111111111,29.628888888888888],[-90.07833333333333,29.503055555555555],[-89.93,29.439722222222223],[-89.81388888888888,29.389722222222222],[-89.78027777777778,29.374444444444446],[-89.63055555555555,29.309166666666666],[-89.48166666666667,29.243055555555557],[-88.63444444444445,28.86861111111111],[-88.45805555555556,28.789444444444445],[-88.31222222222222,28.723611111111108],[-88.19805555555556,28.671944444444446],[-88.06805555555555,28.613055555555558],[-87.73444444444445,28.484444444444446],[-87.58305555555555,28.43111111111111],[-87.24666666666667,28.313055555555557],[-87.12638888888888,28.270555555555553],[-86.95083333333334,28.208055555555553],[-86.80194444444444,28.154999999999998],[-86.68083333333334,28.11388888888889],[-86.39055555555557,28.006944444444443],[-86.3888888888889,28.006666666666668],[-86.09472222222222,27.899722222222223],[-86.09083333333332,27.898333333333333],[-85.79416666666667,27.789722222222224],[-85.65,27.736666666666668],[-85.06666666666666,27.52],[-83.70166666666667,26.92361111111111],[-83.58611111111111,26.843888888888888],[-83.47888888888889,26.75888888888889],[-83.33777777777777,26.549166666666668],[-83.21333333333334,26.194444444444446],[-83.12972222222221,25.9525],[-83.0786111111111,25.81388888888889],[-82.97805555555556,25.72138888888889],[-82.84694444444445,25.6475],[-82.18305555555555,25.283611111111114],[-81.9413888888889,25.155555555555555],[-81.79555555555555,25.149166666666666],[-81.65944444444445,25.184166666666666],[-81.39555555555556,25.251666666666665],[-81.27166666666666,25.282777777777778],[-81.09583333333333,25.32777777777778],[-80.82888888888888,25.485277777777778],[-80.83888888888889,25.567777777777778],[-80.8275,25.645555555555553],[-80.82138888888889,25.666944444444447],[-80.77722222222222,25.72222222222222],[-80.73166666666667,25.752222222222223],[-80.71583333333334,25.761944444444445],[-80.63777777777779,25.77138888888889],[-80.59333333333333,25.773888888888887],[-80.49944444444445,25.778333333333332],[-80.38416666666667,25.783611111111114],[-80.35888888888888,25.784166666666668],[-80.31305555555555,25.78611111111111]],"type":"LineString"}
}
