{
  "id": 2015355439,
  "type": "Feature",
  "properties": {
    "geom:area": 0,
    "geom:bbox": "-157.866667,21.200000,-122.166389,37.615556",
    "geom:latitude": 29.613512535539847,
    "geom:longitude": -140.02495958662038,
    "src:alt_label": "swim-path",
    "src:geom": "swim",
    "swim:altitudes": [
      "021C",
      "086C",
      "086C",
      "116C",
      "133C",
      "133C",
      "133C",
      "133C",
      "177C",
      "177C",
      "177C",
      "177C",
      "206C",
      "206C",
      "239C",
      "239C",
      "239C",
      "252C",
      "265C",
      "265C",
      "265C",
      "276C",
      "276C",
      "276C",
      "276C",
      "299C",
      "299C",
      "325C",
      "325C",
      "350",
      "350",
      "350",
      "350",
      "350",
      "350",
      "350",
      "350",
      "350",
      "350",
      "350",
      "350",
      "350",
      "350",
      "350",
      "350",
      "350",
      "350",
      "350",
      "350",
      "350",
      "350",
      "350",
      "350",
      "350",
      "350",
      "350",
      "350",
      "350",
      "350",
      "350",
      "350",
      "350",
      "350",
      "350",
      "370C",
      "370C",
      "370C",
      "370C",
      "370C",
      "370C",
      "370",
      "370",
      "370",
      "370",
      "334",
      "334",
      "304",
      "278C",
      "278C",
      "233",
      "212",
      "212",
      "212",
      "117",
      "117",
      "100C",
      "100",
      "100C",
      "100",
      "100",
      "097",
      "097",
      "085",
      "069",
      "060",
      "060",
      "026",
      "026",
      "014",
      "008",
      "100",
      "100"
    ],
    "swim:geom": "path",
    "swim:speeds": [
      210,
      280,
      280,
      350,
      380,
      380,
      380,
      380,
      410,
      410,
      410,
      410,
      440,
      440,
      460,
      460,
      460,
      470,
      480,
      480,
      480,
      500,
      500,
      500,
      500,
      520,
      520,
      520,
      520,
      510,
      510,
      510,
      510,
      510,
      510,
      510,
      510,
      510,
      510,
      510,
      510,
      510,
      510,
      510,
      510,
      510,
      510,
      510,
      510,
      510,
      510,
      510,
      510,
      510,
      510,
      510,
      510,
      510,
      510,
      510,
      510,
      510,
      510,
      510,
      548,
      549,
      549,
      547,
      544,
      544,
      543,
      543,
      543,
      545,
      531,
      531,
      531,
      530,
      530,
      491,
      470,
      470,
      470,
      375,
      375,
      361,
      359,
      359,
      359,
      359,
      292,
      292,
      283,
      282,
      271,
      271,
      214,
      214,
      167,
      132,
      133,
      133
    ],
    "swim:timestamps": [
      1776905872,
      1776906052,
      1776906052,
      1776906172,
      1776906232,
      1776906232,
      1776906232,
      1776906232,
      1776906352,
      1776906352,
      1776906352,
      1776906352,
      1776906472,
      1776906472,
      1776906593,
      1776906593,
      1776906593,
      1776906653,
      1776906713,
      1776906713,
      1776906713,
      1776906773,
      1776906773,
      1776906773,
      1776906773,
      1776906893,
      1776906893,
      1776907013,
      1776907013,
      1776907133,
      1776907133,
      1776907133,
      1776907253,
      1776907253,
      1776907313,
      1776907313,
      1776907313,
      1776907373,
      1776907373,
      1776907493,
      1776907493,
      1776907553,
      1776907553,
      1776907553,
      1776907613,
      1776907613,
      1776907613,
      1776907673,
      1776907673,
      1776907733,
      1776907733,
      1776907733,
      1776907793,
      1776907793,
      1776907854,
      1776907854,
      1776907854,
      1776907854,
      1776908151,
      1776908151,
      1776908253,
      1776908253,
      1776908253,
      1776908253,
      1776918881,
      1776919061,
      1776919061,
      1776919121,
      1776919301,
      1776919301,
      1776919421,
      1776919421,
      1776919421,
      1776919541,
      1776919661,
      1776919661,
      1776919722,
      1776919783,
      1776919783,
      1776919902,
      1776919962,
      1776919962,
      1776919962,
      1776920243,
      1776920243,
      1776920322,
      1776920363,
      1776920382,
      1776920423,
      1776920423,
      1776920502,
      1776920502,
      1776920549,
      1776920622,
      1776920669,
      1776920669,
      1776920863,
      1776920863,
      1776920983,
      1776921029,
      1776921103,
      1776921103
    ],
    "wof:geomhash": "b7bb5beeb839e818a3792fe3f359a9c2",
    "wof:id": 2015355439,
    "wof:repo": "sfomuseum-data-flights-2026-04"
  },
  "bbox": [
    -157.86666666666667,
    21.2,
    -122.16638888888889,
    37.61555555555556
  ],
  "geometry": {"coordinates":[[-157.86666666666667,21.25],[-157.65,21.2],[-157.65,21.2],[-157.48333333333332,21.283333333333335],[-157.38333333333333,21.35],[-157.38333333333333,21.35],[-157.38333333333333,21.35],[-157.38333333333333,21.35],[-157.18333333333334,21.466666666666665],[-157.18333333333334,21.466666666666665],[-157.18333333333334,21.466666666666665],[-157.18333333333334,21.466666666666665],[-156.98333333333332,21.6],[-156.98333333333332,21.6],[-156.75,21.733333333333334],[-156.75,21.733333333333334],[-156.75,21.733333333333334],[-156.63333333333333,21.816666666666666],[-156.51666666666668,21.883333333333333],[-156.51666666666668,21.883333333333333],[-156.51666666666668,21.883333333333333],[-156.38333333333333,21.95],[-156.38333333333333,21.95],[-156.38333333333333,21.95],[-156.38333333333333,21.95],[-156.13333333333333,22.116666666666667],[-156.13333333333333,22.116666666666667],[-155.86666666666667,22.266666666666666],[-155.86666666666667,22.266666666666666],[-155.61666666666667,22.416666666666668],[-155.61666666666667,22.416666666666668],[-155.61666666666667,22.416666666666668],[-155.35,22.583333333333332],[-155.35,22.583333333333332],[-155.23333333333332,22.65],[-155.23333333333332,22.65],[-155.23333333333332,22.65],[-155.1,22.733333333333334],[-155.1,22.733333333333334],[-154.83333333333334,22.883333333333333],[-154.83333333333334,22.883333333333333],[-154.71666666666667,22.95],[-154.71666666666667,22.95],[-154.71666666666667,22.95],[-154.58333333333334,23.033333333333335],[-154.58333333333334,23.033333333333335],[-154.58333333333334,23.033333333333335],[-154.45,23.116666666666667],[-154.45,23.116666666666667],[-154.33333333333334,23.183333333333334],[-154.33333333333334,23.183333333333334],[-154.33333333333334,23.183333333333334],[-154.2,23.266666666666666],[-154.2,23.266666666666666],[-154.06666666666666,23.35],[-154.06666666666666,23.35],[-154.06666666666666,23.35],[-154.06666666666666,23.35],[-153.43333333333334,23.716666666666665],[-153.43333333333334,23.716666666666665],[-153.2,23.866666666666667],[-153.2,23.866666666666667],[-153.2,23.866666666666667],[-153.2,23.866666666666667],[-126.51861111111111,35.609722222222224],[-125.99027777777778,35.769444444444446],[-125.99027777777778,35.769444444444446],[-125.82833333333333,35.841944444444444],[-125.35166666666666,36.07611111111112],[-125.35166666666666,36.07611111111112],[-125.03222222222222,36.23277777777778],[-125.03222222222222,36.23277777777778],[-125.03222222222222,36.23277777777778],[-124.71000000000001,36.38916666666667],[-124.39416666666668,36.54138888888889],[-124.39416666666668,36.54138888888889],[-124.23777777777778,36.61611111111111],[-124.08333333333333,36.68333333333333],[-124.08333333333333,36.68333333333333],[-123.77972222222222,36.83277777777778],[-123.63666666666667,36.9],[-123.63666666666667,36.9],[-123.63666666666667,36.9],[-123.05,37.166666666666664],[-123.05,37.166666666666664],[-122.90666666666667,37.23777777777778],[-122.83333333333333,37.266666666666666],[-122.79222222222222,37.274166666666666],[-122.7,37.3],[-122.7,37.3],[-122.57194444444444,37.32555555555556],[-122.57194444444444,37.32555555555556],[-122.5,37.35],[-122.38416666666667,37.36888888888889],[-122.3,37.38333333333333],[-122.3,37.38333333333333],[-122.16638888888889,37.53361111111111],[-122.16638888888889,37.53361111111111],[-122.28,37.58083333333334],[-122.31666666666666,37.6],[-122.36222222222221,37.61555555555556],[-122.36222222222221,37.61555555555556]],"type":"LineString"}
}
