{
  "id": 2031093427,
  "type": "Feature",
  "properties": {
    "geom:area": 0,
    "geom:bbox": "-122.401870,37.623440,-121.246320,37.965120",
    "geom:latitude": 37.83608061087945,
    "geom:longitude": -121.85278415976123,
    "src:alt_label": "swim-takeoff",
    "src:geom": "swim",
    "swim:elevations": [
      122,
      454,
      703,
      823,
      976,
      1252,
      1481,
      2654,
      2852,
      3240,
      3330,
      3756,
      4049,
      4398,
      4921,
      5146,
      5403,
      5531,
      5817,
      5964,
      6250,
      6601,
      6677
    ],
    "swim:geom": "takeoff",
    "swim:timestamps": [
      1776940766,
      1776940787,
      1776940822,
      1776940844,
      1776940870,
      1776940891,
      1776940911,
      1776941005,
      1776941022,
      1776941066,
      1776941083,
      1776941126,
      1776941156,
      1776941186,
      1776941243,
      1776941269,
      1776941294,
      1776941315,
      1776941351,
      1776941371,
      1776941404,
      1776941452,
      1776941464
    ],
    "wof:geomhash": "abeb1da410f94ec2fa36bcaec62cf45b",
    "wof:id": 2031093427,
    "wof:repo": "sfomuseum-data-flights-2026-04"
  },
  "bbox": [
    -122.40187,
    37.62344,
    -121.24632,
    37.96512
  ],
  "geometry": {"coordinates":[[-122.38614,37.62344],[-122.40187,37.63442],[-122.38865,37.65823],[-122.36401,37.66611],[-122.32979,37.67634],[-122.30112,37.6867],[-122.27319,37.69676],[-122.18775,37.78277],[-122.16479,37.794],[-122.09053,37.80851],[-122.06021,37.81428],[-121.97629,37.83014],[-121.9173,37.84123],[-121.8562,37.85274],[-121.73786,37.87482],[-121.68255,37.88512],[-121.63021,37.89478],[-121.58301,37.90351],[-121.50298,37.91826],[-121.45874,37.92638],[-121.384,37.94005],[-121.27328,37.96021],[-121.24632,37.96512]],"type":"LineString"}
}
