{
  "id": 2015237161,
  "type": "Feature",
  "properties": {
    "geom:area": 0,
    "geom:bbox": "-122.359540,37.429320,-121.249180,37.614700",
    "geom:latitude": 37.537472447967644,
    "geom:longitude": -121.81830254166806,
    "src:alt_label": "swim-approach",
    "src:geom": "swim",
    "swim:elevations": [
      4963,
      4867,
      4563,
      4443,
      4165,
      3963,
      3543,
      3291,
      3038,
      2886,
      2762,
      2743,
      2743,
      2743,
      2743,
      2743,
      2743,
      2743,
      2591,
      2473,
      2439,
      2332,
      2174,
      2134,
      2070,
      1952,
      1870,
      1801,
      1398,
      1289,
      1185,
      1046,
      817,
      708,
      681,
      463,
      385,
      188,
      155,
      0
    ],
    "swim:geom": "approach",
    "swim:timestamps": [
      1775642212,
      1775642221,
      1775642252,
      1775642296,
      1775642337,
      1775642356,
      1775642392,
      1775642413,
      1775642446,
      1775642482,
      1775642504,
      1775642535,
      1775642558,
      1775642606,
      1775642610,
      1775642667,
      1775642671,
      1775642693,
      1775642728,
      1775642756,
      1775642773,
      1775642807,
      1775642848,
      1775642868,
      1775642899,
      1775642931,
      1775642959,
      1775642973,
      1775643028,
      1775643044,
      1775643060,
      1775643090,
      1775643126,
      1775643147,
      1775643151,
      1775643197,
      1775643216,
      1775643269,
      1775643281,
      1775643315
    ],
    "wof:geomhash": "d54bb01dab64c436f2531fe7fdd5429f",
    "wof:id": 2015237161,
    "wof:repo": "sfomuseum-data-flights-2026-04"
  },
  "bbox": [
    -122.35954,
    37.42932,
    -121.24918,
    37.6147
  ],
  "geometry": {"coordinates":[[-121.24918,37.59457],[-121.26656,37.59226],[-121.32837,37.58505],[-121.40874,37.57615],[-121.47492,37.56814],[-121.50413,37.56461],[-121.55932,37.55833],[-121.59028,37.55483],[-121.64037,37.55498],[-121.6885,37.56484],[-121.71873,37.57111],[-121.75972,37.57952],[-121.78916,37.58569],[-121.85388,37.59691],[-121.85926,37.59624],[-121.88013,37.54692],[-121.87641,37.5436],[-121.84762,37.53322],[-121.81027,37.50996],[-121.80343,37.47933],[-121.79995,37.461],[-121.82287,37.43154],[-121.8753,37.42932],[-121.90279,37.43069],[-121.94323,37.43987],[-121.98197,37.45315],[-122.01477,37.46824],[-122.03002,37.47579],[-122.09493,37.50384],[-122.1134,37.511],[-122.13149,37.51816],[-122.16498,37.53207],[-122.20541,37.54968],[-122.22694,37.55892],[-122.23094,37.56059],[-122.27194,37.57787],[-122.28642,37.58387],[-122.32481,37.59997],[-122.3344,37.60389],[-122.35954,37.6147]],"type":"LineString"}
}
