{
  "id": 2015359647,
  "type": "Feature",
  "properties": {
    "geom:area": 0,
    "geom:bbox": "-122.529110,37.629670,-121.251220,37.973310",
    "geom:latitude": 37.86253761671695,
    "geom:longitude": -121.9841014933893,
    "src:alt_label": "swim-takeoff",
    "src:geom": "swim",
    "swim:elevations": [
      152,
      566,
      935,
      1128,
      1235,
      1698,
      1838,
      2207,
      2246,
      3003,
      3213,
      3550,
      3770,
      3999,
      4182,
      4903,
      5369,
      5494,
      5708,
      6076,
      6338,
      6367,
      6769,
      6848,
      7156,
      7241
    ],
    "swim:geom": "takeoff",
    "swim:timestamps": [
      1776849295,
      1776849325,
      1776849353,
      1776849381,
      1776849397,
      1776849441,
      1776849453,
      1776849477,
      1776849480,
      1776849538,
      1776849560,
      1776849602,
      1776849623,
      1776849646,
      1776849668,
      1776849747,
      1776849805,
      1776849827,
      1776849853,
      1776849896,
      1776849928,
      1776849931,
      1776849987,
      1776849998,
      1776850047,
      1776850063
    ],
    "wof:geomhash": "28916033b789e720dac86e32855e1777",
    "wof:id": 2015359647,
    "wof:repo": "sfomuseum-data-flights-2026-04"
  },
  "bbox": [
    -122.52911,
    37.62967,
    -121.25122,
    37.97331
  ],
  "geometry": {"coordinates":[[-122.39522,37.62967],[-122.42407,37.64191],[-122.4501,37.65477],[-122.47865,37.66526],[-122.49763,37.6723],[-122.52911,37.71481],[-122.52847,37.72938],[-122.52636,37.76076],[-122.52629,37.76458],[-122.48227,37.82601],[-122.44453,37.82957],[-122.36232,37.83393],[-122.31964,37.83921],[-122.27319,37.84574],[-122.22748,37.85202],[-122.05338,37.87449],[-121.9157,37.89182],[-121.86196,37.89858],[-121.79813,37.90661],[-121.69124,37.91975],[-121.61029,37.92976],[-121.60263,37.93072],[-121.45701,37.94852],[-121.427,37.95221],[-121.29511,37.96804],[-121.25122,37.97331]],"type":"LineString"}
}
