{
  "id": 2015229385,
  "type": "Feature",
  "properties": {
    "geom:area": 0,
    "geom:bbox": "-123.030500,37.411340,-122.105580,38.434390",
    "geom:latitude": 37.83111814074513,
    "geom:longitude": -122.52171503268245,
    "src:alt_label": "swim-approach",
    "src:geom": "swim",
    "swim:elevations": [
      7559,
      7468,
      7248,
      7093,
      6756,
      6572,
      6394,
      6145,
      5894,
      5634,
      5388,
      5124,
      5012,
      4819,
      4611,
      4535,
      4173,
      3906,
      3852,
      3462,
      3351,
      3353,
      3353,
      3353,
      3348,
      2962,
      2659,
      2307,
      1874,
      1827,
      1829,
      1829,
      1829,
      1829,
      1777,
      1646,
      1575,
      1177,
      1042,
      929,
      795,
      669,
      560,
      410,
      305,
      241,
      121,
      103
    ],
    "swim:geom": "approach",
    "swim:timestamps": [
      1775557065,
      1775557075,
      1775557104,
      1775557116,
      1775557151,
      1775557177,
      1775557202,
      1775557235,
      1775557266,
      1775557301,
      1775557340,
      1775557371,
      1775557380,
      1775557408,
      1775557432,
      1775557444,
      1775557492,
      1775557525,
      1775557533,
      1775557587,
      1775557608,
      1775557620,
      1775557674,
      1775557708,
      1775557715,
      1775557753,
      1775557778,
      1775557812,
      1775557858,
      1775557876,
      1775557910,
      1775557944,
      1775557954,
      1775557983,
      1775558026,
      1775558060,
      1775558079,
      1775558127,
      1775558148,
      1775558177,
      1775558205,
      1775558235,
      1775558259,
      1775558295,
      1775558319,
      1775558334,
      1775558366,
      1775558370
    ],
    "wof:geomhash": "94842a596cf95a5d83547fdd079157aa",
    "wof:id": 2015229385,
    "wof:repo": "sfomuseum-data-flights-2026-04"
  },
  "bbox": [
    -123.0305,
    37.41134,
    -122.10558,
    38.43439
  ],
  "geometry": {"coordinates":[[-123.0305,38.43439],[-123.01625,38.423],[-122.97021,38.38632],[-122.9528,38.3725],[-122.89817,38.32895],[-122.85932,38.29796],[-122.82266,38.26872],[-122.7765,38.22776],[-122.75563,38.1826],[-122.73953,38.12889],[-122.72255,38.07012],[-122.70928,38.02418],[-122.70577,38.01194],[-122.69383,37.97063],[-122.68337,37.93461],[-122.6781,37.91712],[-122.62975,37.85834],[-122.58922,37.82021],[-122.5797,37.81131],[-122.51468,37.74995],[-122.48955,37.72626],[-122.47596,37.71329],[-122.41371,37.65478],[-122.37902,37.62212],[-122.37149,37.61499],[-122.34699,37.575],[-122.33232,37.54714],[-122.31097,37.51145],[-122.26738,37.47238],[-122.24904,37.45849],[-122.21436,37.43206],[-122.17511,37.41134],[-122.16073,37.41223],[-122.13153,37.42916],[-122.10558,37.45999],[-122.11413,37.48884],[-122.11954,37.50293],[-122.15061,37.527],[-122.16829,37.53364],[-122.19043,37.54355],[-122.21292,37.55286],[-122.23602,37.56263],[-122.25573,37.57092],[-122.285,37.58322],[-122.3041,37.59124],[-122.31554,37.59608],[-122.33946,37.6061],[-122.3423,37.60732]],"type":"LineString"}
}
