{
  "id": 2015337331,
  "type": "Feature",
  "properties": {
    "geom:area": 0,
    "geom:bbox": "-123.556667,38.156944,-122.748056,49.088333",
    "geom:latitude": 43.75905380985686,
    "geom:longitude": -123.10922170944573,
    "src:alt_label": "swim-path",
    "src:geom": "swim",
    "swim:altitudes": [
      "049",
      "064",
      "188",
      "271",
      "348",
      "370C",
      "370C",
      "370C",
      "370C",
      "370C",
      "370C",
      "370C",
      "370C",
      "370C",
      "370C",
      "350C",
      "350C",
      "350C",
      "350C",
      "350C",
      "350C",
      "350C",
      "350",
      "321",
      "290",
      "209"
    ],
    "swim:geom": "path",
    "swim:speeds": [
      258,
      276,
      332,
      373,
      393,
      389,
      388,
      385,
      387,
      388,
      389,
      381,
      369,
      365,
      375,
      365,
      369,
      363,
      309,
      305,
      328,
      323,
      316,
      317,
      332,
      311
    ],
    "swim:timestamps": [
      1776743669,
      1776743790,
      1776744090,
      1776744330,
      1776744630,
      1776744750,
      1776745171,
      1776745591,
      1776745771,
      1776745891,
      1776746072,
      1776746372,
      1776746552,
      1776746972,
      1776747213,
      1776747573,
      1776747753,
      1776748054,
      1776748293,
      1776748774,
      1776749134,
      1776749255,
      1776749555,
      1776749735,
      1776750035,
      1776750576
    ],
    "wof:geomhash": "6f7dc15a6469e8023cc6b87dce75430d",
    "wof:id": 2015337331,
    "wof:repo": "sfomuseum-data-flights-2026-04"
  },
  "bbox": [
    -123.55666666666666,
    38.15694444444444,
    -122.74805555555555,
    49.08833333333334
  ],
  "geometry": {"coordinates":[[-123.03361111111111,49.08833333333334],[-123.24083333333333,49.025],[-123.55666666666666,48.73277777777778],[-123.51944444444445,48.346111111111114],[-123.44,47.81083333333333],[-123.40694444444445,47.59916666666667],[-123.28944444444444,46.845555555555556],[-123.17861111111111,46.11333333333334],[-123.13111111111111,45.793055555555554],[-123.09916666666666,45.57777777777778],[-123.05194444444444,45.25416666666667],[-122.97500000000001,44.717222222222226],[-122.95,44.40888888888889],[-122.99277777777777,43.705555555555556],[-123.01694444444445,43.30083333333333],[-123.05499999999999,42.66916666666666],[-123.06194444444444,42.36361111111111],[-123.0461111111111,41.86027777777778],[-123.035,41.498333333333335],[-123.015,40.82555555555556],[-122.99916666666667,40.29555555555555],[-122.99416666666667,40.108333333333334],[-122.98166666666667,39.669444444444444],[-122.97416666666666,39.4075],[-122.96138888888889,38.95166666666667],[-122.74805555555555,38.15694444444444]],"type":"LineString"}
}
