{
  "id": 2015353779,
  "type": "Feature",
  "properties": {
    "geom:area": 0,
    "geom:bbox": "-122.981020,37.421130,-122.120340,38.484300",
    "geom:latitude": 37.968471539078024,
    "geom:longitude": -122.61968076356948,
    "src:alt_label": "swim-approach",
    "src:geom": "swim",
    "swim:elevations": [
      7315,
      7315,
      7167,
      7123,
      7014,
      6953,
      6856,
      6763,
      6734,
      6651,
      6582,
      6557,
      6547,
      6432,
      6398,
      6228,
      5975,
      5911,
      5796,
      5791,
      5791,
      5791,
      5791,
      5791,
      5791,
      5791,
      5791,
      5791,
      5791,
      5791,
      5791,
      5791,
      5729,
      5633,
      5502,
      5392,
      5022,
      4823,
      4603,
      4517,
      4351,
      4328,
      3932,
      3871,
      3862,
      3679,
      3532,
      3418,
      3354,
      3328,
      3161,
      2989,
      2684,
      2590,
      2442,
      2438,
      2248,
      2023,
      1817,
      1644,
      1565,
      1437,
      1295,
      1125,
      1066,
      1068,
      834,
      757,
      615,
      436,
      310,
      250,
      175,
      145,
      243
    ],
    "swim:geom": "approach",
    "swim:timestamps": [
      1776893240,
      1776893254,
      1776893295,
      1776893308,
      1776893337,
      1776893352,
      1776893382,
      1776893423,
      1776893435,
      1776893464,
      1776893488,
      1776893494,
      1776893503,
      1776893536,
      1776893550,
      1776893580,
      1776893632,
      1776893644,
      1776893667,
      1776893697,
      1776893704,
      1776893756,
      1776893785,
      1776893804,
      1776893816,
      1776893834,
      1776893849,
      1776893873,
      1776893887,
      1776893934,
      1776893945,
      1776893986,
      1776893996,
      1776894003,
      1776894013,
      1776894036,
      1776894087,
      1776894115,
      1776894143,
      1776894155,
      1776894178,
      1776894182,
      1776894235,
      1776894268,
      1776894275,
      1776894322,
      1776894348,
      1776894364,
      1776894388,
      1776894412,
      1776894436,
      1776894461,
      1776894502,
      1776894517,
      1776894539,
      1776894562,
      1776894596,
      1776894624,
      1776894657,
      1776894681,
      1776894712,
      1776894728,
      1776894748,
      1776894774,
      1776894807,
      1776894811,
      1776894864,
      1776894883,
      1776894911,
      1776894951,
      1776894982,
      1776895000,
      1776895021,
      1776895068,
      1776895071
    ],
    "wof:geomhash": "dea4371f97e7709761371098f22b3423",
    "wof:id": 2015353779,
    "wof:repo": "sfomuseum-data-flights-2026-04"
  },
  "bbox": [
    -122.98102,
    37.42113,
    -122.12034,
    38.4843
  ],
  "geometry": {"coordinates":[[-122.75284,38.4843],[-122.75415,38.46104],[-122.75781,38.39267],[-122.75895,38.37262],[-122.76155,38.32852],[-122.76291,38.30634],[-122.76542,38.26261],[-122.77126,38.20062],[-122.7795,38.18517],[-122.81591,38.15827],[-122.85503,38.15135],[-122.86503,38.15193],[-122.88101,38.15493],[-122.92337,38.18023],[-122.93458,38.1986],[-122.94725,38.23962],[-122.96764,38.30943],[-122.97237,38.32551],[-122.98102,38.35583],[-122.97716,38.39707],[-122.97146,38.40622],[-122.88502,38.43817],[-122.83367,38.41545],[-122.81651,38.39009],[-122.8109,38.37187],[-122.80238,38.34359],[-122.7958,38.32161],[-122.78498,38.28514],[-122.77838,38.26247],[-122.77026,38.19298],[-122.78082,38.1785],[-122.8104,38.12621],[-122.80837,38.1103],[-122.80408,38.09964],[-122.79555,38.08586],[-122.77255,38.05196],[-122.72506,37.97938],[-122.69994,37.94076],[-122.67419,37.90311],[-122.66069,37.88805],[-122.63238,37.86124],[-122.62815,37.85719],[-122.56426,37.79637],[-122.52658,37.76123],[-122.51949,37.75459],[-122.47132,37.70888],[-122.44586,37.68492],[-122.42988,37.66992],[-122.40702,37.64848],[-122.38431,37.62691],[-122.36238,37.60467],[-122.3463,37.57861],[-122.32407,37.53557],[-122.31458,37.5201],[-122.30126,37.49801],[-122.28699,37.47478],[-122.26583,37.43995],[-122.23496,37.4221],[-122.19183,37.42113],[-122.16325,37.42728],[-122.13451,37.44306],[-122.12519,37.45399],[-122.12034,37.46994],[-122.12265,37.49052],[-122.14495,37.51258],[-122.14718,37.51485],[-122.19295,37.54212],[-122.21147,37.55002],[-122.2387,37.5614],[-122.27436,37.57642],[-122.29833,37.58632],[-122.31136,37.59184],[-122.32672,37.59845],[-122.36062,37.61259],[-122.36281,37.6134]],"type":"LineString"}
}
