{
  "id": 2015223717,
  "type": "Feature",
  "properties": {
    "geom:area": 0,
    "geom:bbox": "-120.611944,38.679722,-93.078611,44.855556",
    "geom:latitude": 42.72412001294843,
    "geom:longitude": -107.03337471829079,
    "src:alt_label": "swim-path",
    "src:geom": "swim",
    "swim:altitudes": [
      "305",
      "350C",
      "350C",
      "350C",
      "350C",
      "350C",
      "350C",
      "350C",
      "350C",
      "350C",
      "350C",
      "350C",
      "350C",
      "350C",
      "350C",
      "350C",
      "350C",
      "350C",
      "350C",
      "350C",
      "350C",
      "350C",
      "350C",
      "350C",
      "350C",
      "350C",
      "350C",
      "350C",
      "350C",
      "350C",
      "350C",
      "350C",
      "350C",
      "350C",
      "350C",
      "350C",
      "350C",
      "350C",
      "350C",
      "350C",
      "350C",
      "350C",
      "350C",
      "350C",
      "350C",
      "350C",
      "350C",
      "350C",
      "350C",
      "350C",
      "350C",
      "350C",
      "350C",
      "350C",
      "350C",
      "350C",
      "350C",
      "350C",
      "350C",
      "350C",
      "350C",
      "350C",
      "350C",
      "350C",
      "350C",
      "350C",
      "350C",
      "350C",
      "350C",
      "350C",
      "350C",
      "350C",
      "350C",
      "350C",
      "350C",
      "350C",
      "350C",
      "350C",
      "350C",
      "350C",
      "350C",
      "350C",
      "350C",
      "350C",
      "350C",
      "350C",
      "350C",
      "350C",
      "350C",
      "350C",
      "350C",
      "350C",
      "350C",
      "350C",
      "350C",
      "350C",
      "350C",
      "350C",
      "350C",
      "350C",
      "350C",
      "350C",
      "350C",
      "350C",
      "330",
      "330",
      "330",
      "330",
      "186",
      "174",
      "174",
      "154",
      "137",
      "128",
      "128",
      "115",
      "116",
      "093",
      "093",
      "075",
      "047",
      "016",
      "016"
    ],
    "swim:geom": "path",
    "swim:speeds": [
      484,
      463,
      463,
      462,
      462,
      467,
      470,
      472,
      471,
      471,
      472,
      472,
      469,
      469,
      476,
      476,
      479,
      479,
      481,
      478,
      478,
      479,
      480,
      480,
      480,
      482,
      482,
      485,
      485,
      485,
      485,
      485,
      485,
      486,
      486,
      486,
      487,
      487,
      486,
      486,
      487,
      487,
      489,
      489,
      509,
      509,
      509,
      491,
      491,
      491,
      491,
      491,
      491,
      493,
      493,
      494,
      494,
      495,
      495,
      495,
      495,
      494,
      492,
      492,
      492,
      495,
      496,
      496,
      496,
      497,
      497,
      497,
      497,
      499,
      499,
      500,
      500,
      501,
      501,
      501,
      501,
      501,
      504,
      504,
      504,
      504,
      504,
      502,
      500,
      500,
      501,
      503,
      503,
      504,
      506,
      507,
      507,
      509,
      510,
      510,
      511,
      512,
      516,
      516,
      519,
      519,
      519,
      519,
      405,
      382,
      382,
      381,
      365,
      330,
      330,
      302,
      307,
      281,
      281,
      245,
      211,
      143,
      143
    ],
    "swim:timestamps": [
      1775518493,
      1775519266,
      1775519266,
      1775519506,
      1775519506,
      1775519694,
      1775519754,
      1775519874,
      1775520047,
      1775520107,
      1775520287,
      1775520347,
      1775520539,
      1775520539,
      1775520840,
      1775520840,
      1775520960,
      1775520960,
      1775521080,
      1775521260,
      1775521260,
      1775521381,
      1775521441,
      1775521501,
      1775521501,
      1775521741,
      1775521741,
      1775521981,
      1775521981,
      1775521981,
      1775522041,
      1775522041,
      1775522102,
      1775522162,
      1775522222,
      1775522222,
      1775522342,
      1775522342,
      1775522402,
      1775522402,
      1775522522,
      1775522522,
      1775522702,
      1775522702,
      1775522946,
      1775522946,
      1775522946,
      1775523063,
      1775523063,
      1775523063,
      1775523303,
      1775523303,
      1775523303,
      1775523423,
      1775523423,
      1775523483,
      1775523483,
      1775523664,
      1775523664,
      1775523724,
      1775523724,
      1775523844,
      1775523904,
      1775523904,
      1775523904,
      1775524207,
      1775524268,
      1775524268,
      1775524268,
      1775524568,
      1775524568,
      1775524628,
      1775524628,
      1775524868,
      1775524868,
      1775524928,
      1775524968,
      1775524988,
      1775524988,
      1775524988,
      1775525109,
      1775525109,
      1775525328,
      1775525349,
      1775525469,
      1775525469,
      1775525509,
      1775525629,
      1775525749,
      1775525749,
      1775525929,
      1775525989,
      1775525989,
      1775526049,
      1775526109,
      1775526170,
      1775526170,
      1775526290,
      1775526350,
      1775526350,
      1775526410,
      1775526470,
      1775526710,
      1775526710,
      1775526891,
      1775526891,
      1775526951,
      1775526951,
      1775527611,
      1775527672,
      1775527672,
      1775527732,
      1775527792,
      1775527852,
      1775527852,
      1775527906,
      1775527912,
      1775528032,
      1775528032,
      1775528146,
      1775528272,
      1775528452,
      1775528452
    ],
    "wof:geomhash": "bbdec81d8db2e49843221f7046bf2667",
    "wof:id": 2015223717,
    "wof:repo": "sfomuseum-data-flights-2026-04"
  },
  "bbox": [
    -120.61194444444443,
    38.67972222222222,
    -93.0786111111111,
    44.855555555555554
  ],
  "geometry": {"coordinates":[[-120.61194444444443,38.67972222222222],[-118.85972222222222,39.654444444444444],[-118.85972222222222,39.654444444444444],[-118.30972222222222,39.9525],[-118.30972222222222,39.9525],[-117.865,40.191111111111105],[-117.72694444444444,40.26444444444444],[-117.44305555555556,40.413888888888884],[-117.04527777777777,40.62083333333334],[-116.90055555555556,40.69583333333333],[-116.42555555555556,40.85805555555556],[-116.26444444444445,40.907777777777774],[-115.75333333333333,41.0625],[-115.75333333333333,41.0625],[-114.94388888888889,41.30166666666666],[-114.94388888888889,41.30166666666666],[-114.60249999999999,41.4],[-114.60249999999999,41.4],[-114.26944444444445,41.495],[-113.77,41.63527777777778],[-113.77,41.63527777777778],[-113.43611111111112,41.7275],[-113.26777777777778,41.77333333333333],[-113.10194444444444,41.81861111111112],[-113.10194444444444,41.81861111111112],[-112.42500000000001,41.99916666666667],[-112.42500000000001,41.99916666666667],[-111.73722222222223,42.17722222222222],[-111.73722222222223,42.17722222222222],[-111.73722222222223,42.17722222222222],[-111.5675,42.220555555555556],[-111.5675,42.220555555555556],[-111.39472222222223,42.26444444444444],[-111.2213888888889,42.308055555555555],[-111.04638888888888,42.35138888888889],[-111.04638888888888,42.35138888888889],[-110.7175,42.4325],[-110.7175,42.4325],[-110.54416666666667,42.474722222222226],[-110.54416666666667,42.474722222222226],[-110.19277777777778,42.559444444444445],[-110.19277777777778,42.559444444444445],[-109.66055555555556,42.67027777777778],[-109.66055555555556,42.67027777777778],[-108.94333333333334,42.811388888888885],[-108.94333333333334,42.811388888888885],[-108.94333333333334,42.811388888888885],[-108.58472222222221,42.87972222222222],[-108.58472222222221,42.87972222222222],[-108.58472222222221,42.87972222222222],[-107.84944444444444,43.019999999999996],[-107.84944444444444,43.019999999999996],[-107.84944444444444,43.019999999999996],[-107.4888888888889,43.08916666666667],[-107.4888888888889,43.08916666666667],[-107.30694444444444,43.123333333333335],[-107.30694444444444,43.123333333333335],[-106.78888888888889,43.21944444444445],[-106.78888888888889,43.21944444444445],[-106.60444444444444,43.25138888888889],[-106.60444444444444,43.25138888888889],[-106.24027777777778,43.314166666666665],[-106.05888888888889,43.345],[-106.05888888888889,43.345],[-106.05888888888889,43.345],[-105.09972222222221,43.5025],[-104.91527777777779,43.531666666666666],[-104.91527777777779,43.531666666666666],[-104.91527777777779,43.531666666666666],[-103.98138888888889,43.67527777777777],[-103.98138888888889,43.67527777777777],[-103.79194444444444,43.70333333333333],[-103.79194444444444,43.70333333333333],[-103.04083333333332,43.81111111111111],[-103.04083333333332,43.81111111111111],[-102.85305555555556,43.83722222222222],[-102.73472222222222,43.853611111111114],[-102.66277777777778,43.86361111111111],[-102.66277777777778,43.86361111111111],[-102.66277777777778,43.86361111111111],[-102.28833333333333,43.913888888888884],[-102.28833333333333,43.913888888888884],[-101.60555555555555,44.0025],[-101.52583333333334,44.01277777777778],[-101.14361111111111,44.05611111111111],[-101.14361111111111,44.05611111111111],[-101.0275,44.06888888888889],[-100.64805555555556,44.109722222222224],[-100.26861111111111,44.14888888888889],[-100.26861111111111,44.14888888888889],[-99.69611111111111,44.20583333333334],[-99.50694444444444,44.223888888888894],[-99.50694444444444,44.223888888888894],[-99.31305555555555,44.242222222222225],[-99.11916666666666,44.26],[-98.9225,44.27777777777778],[-98.9225,44.27777777777778],[-98.5325,44.312777777777775],[-98.30777777777777,44.33166666666667],[-98.30777777777777,44.33166666666667],[-98.11055555555555,44.34805555555556],[-97.9113888888889,44.36416666666667],[-97.11583333333333,44.42527777777777],[-97.11583333333333,44.42527777777777],[-96.51305555555555,44.46805555555556],[-96.51305555555555,44.46805555555556],[-96.30888888888889,44.48166666666667],[-96.30888888888889,44.48166666666667],[-94.2936111111111,44.661944444444444],[-94.14833333333334,44.69472222222222],[-94.14833333333334,44.69472222222222],[-94.00638888888889,44.72666666666667],[-93.87138888888889,44.75666666666667],[-93.74388888888889,44.785],[-93.74388888888889,44.785],[-93.63333333333334,44.81666666666667],[-93.62972222222221,44.81027777777778],[-93.41305555555556,44.84583333333334],[-93.41305555555556,44.84583333333334],[-93.23333333333333,44.766666666666666],[-93.0786111111111,44.76083333333333],[-93.15972222222223,44.855555555555554],[-93.15972222222223,44.855555555555554]],"type":"LineString"}
}
