{
  "id": 2015178185,
  "type": "Feature",
  "properties": {
    "geom:area": 0,
    "geom:bbox": "-122.861890,37.392680,-122.061890,38.501470",
    "geom:latitude": 37.85227009932684,
    "geom:longitude": -122.56286899356387,
    "src:alt_label": "swim-approach",
    "src:geom": "swim",
    "swim:elevations": [
      6839,
      6704,
      6605,
      6368,
      6254,
      6065,
      6005,
      5744,
      5507,
      5399,
      5192,
      4904,
      4877,
      4877,
      4877,
      4877,
      4877,
      4877,
      4877,
      4877,
      4877,
      4877,
      4877,
      4877,
      4877,
      4877,
      4877,
      4877,
      4877,
      4877,
      4877,
      4877,
      4877,
      4877,
      4877,
      4877,
      4903,
      4888,
      4877,
      4877,
      4877,
      4878,
      4877,
      4879,
      4894,
      4904,
      4901,
      4901,
      4846,
      4519,
      4082,
      3754,
      3545,
      3379,
      3351,
      3352,
      3353,
      3353,
      3354,
      3285,
      3206,
      3004,
      2941,
      2843,
      2736,
      2510,
      2351,
      2168,
      1974,
      1954,
      1835,
      1694,
      1552,
      1423,
      1309,
      1219,
      1219,
      1228,
      1166,
      1037,
      949,
      813,
      771,
      706,
      632,
      551,
      414,
      339,
      195,
      149,
      94
    ],
    "swim:geom": "approach",
    "swim:timestamps": [
      1775078985,
      1775079011,
      1775079031,
      1775079077,
      1775079099,
      1775079136,
      1775079146,
      1775079177,
      1775079208,
      1775079220,
      1775079248,
      1775079284,
      1775079321,
      1775079351,
      1775079368,
      1775079402,
      1775079427,
      1775079457,
      1775079472,
      1775079506,
      1775079533,
      1775079540,
      1775079584,
      1775079607,
      1775079644,
      1775079687,
      1775079701,
      1775079746,
      1775079763,
      1775079789,
      1775079832,
      1775079851,
      1775079878,
      1775079891,
      1775079926,
      1775079954,
      1775079988,
      1775080006,
      1775080029,
      1775080047,
      1775080060,
      1775080092,
      1775080127,
      1775080160,
      1775080194,
      1775080217,
      1775080227,
      1775080233,
      1775080254,
      1775080287,
      1775080315,
      1775080345,
      1775080375,
      1775080407,
      1775080416,
      1775080424,
      1775080445,
      1775080484,
      1775080525,
      1775080544,
      1775080556,
      1775080584,
      1775080593,
      1775080606,
      1775080621,
      1775080660,
      1775080682,
      1775080718,
      1775080766,
      1775080770,
      1775080790,
      1775080826,
      1775080851,
      1775080874,
      1775080892,
      1775080943,
      1775080946,
      1775080974,
      1775080996,
      1775081034,
      1775081053,
      1775081089,
      1775081100,
      1775081113,
      1775081133,
      1775081156,
      1775081188,
      1775081211,
      1775081246,
      1775081261,
      1775081295
    ],
    "wof:geomhash": "ca939fcc2d74fdb5a469a2310c919e29",
    "wof:id": 2015178185,
    "wof:repo": "sfomuseum-data-flights-2026-04"
  },
  "bbox": [
    -122.86189,
    37.39268,
    -122.06189,
    38.50147
  ],
  "geometry": {"coordinates":[[-122.61179,38.50147],[-122.61644,38.4577],[-122.61988,38.42487],[-122.62753,38.34739],[-122.63103,38.31109],[-122.63705,38.25059],[-122.63886,38.23355],[-122.64415,38.18458],[-122.64908,38.1365],[-122.65099,38.11783],[-122.65542,38.07403],[-122.661,38.01961],[-122.66614,37.96685],[-122.67031,37.92663],[-122.67275,37.90372],[-122.68683,37.86209],[-122.71364,37.8434],[-122.75234,37.83679],[-122.77177,37.83993],[-122.8076,37.86129],[-122.82174,37.89043],[-122.82391,37.89826],[-122.83891,37.94863],[-122.84667,37.97493],[-122.85886,38.0169],[-122.86189,38.06846],[-122.85026,38.08489],[-122.77432,38.10487],[-122.74475,38.09266],[-122.7207,38.0602],[-122.70295,38.00068],[-122.69513,37.97497],[-122.6843,37.93821],[-122.67902,37.92005],[-122.673,37.87317],[-122.69414,37.84384],[-122.73608,37.82767],[-122.75981,37.8282],[-122.78666,37.83686],[-122.80485,37.8504],[-122.81431,37.86345],[-122.82551,37.89903],[-122.82835,37.94074],[-122.79232,37.97591],[-122.72791,37.97817],[-122.69426,37.95536],[-122.68685,37.9432],[-122.68393,37.93479],[-122.67318,37.90545],[-122.63751,37.86577],[-122.60108,37.8313],[-122.56148,37.79354],[-122.52193,37.75678],[-122.48205,37.71951],[-122.47179,37.70972],[-122.46218,37.70045],[-122.43921,37.67883],[-122.39841,37.64048],[-122.35801,37.60017],[-122.34398,37.58091],[-122.33668,37.56775],[-122.32246,37.53609],[-122.31814,37.52678],[-122.31024,37.51275],[-122.30046,37.49722],[-122.27614,37.45717],[-122.26265,37.43472],[-122.23945,37.39916],[-122.17925,37.39268],[-122.17492,37.39364],[-122.15008,37.39966],[-122.10452,37.41035],[-122.08047,37.4237],[-122.06772,37.44262],[-122.06189,37.45887],[-122.08831,37.49535],[-122.09051,37.49673],[-122.11202,37.50823],[-122.12968,37.51581],[-122.15968,37.52815],[-122.17397,37.53413],[-122.20185,37.54595],[-122.21038,37.54959],[-122.22059,37.55383],[-122.2364,37.56043],[-122.25452,37.56811],[-122.27971,37.57867],[-122.29665,37.58578],[-122.32226,37.59654],[-122.33365,37.60119],[-122.35993,37.61251]],"type":"LineString"}
}
