{
  "id": 2015299317,
  "type": "Feature",
  "properties": {
    "geom:area": 0,
    "geom:bbox": "-122.544050,36.731100,-121.292020,37.668030",
    "geom:latitude": 37.22452199134791,
    "geom:longitude": -121.98508577991569,
    "src:alt_label": "swim-takeoff",
    "src:geom": "swim",
    "swim:elevations": [
      152,
      547,
      901,
      1075,
      1284,
      1452,
      1659,
      1760,
      2066,
      2641,
      2793,
      3207,
      3482,
      3644,
      3928,
      4482,
      4847,
      5396,
      5588,
      6026,
      6312,
      6536,
      6834,
      6959,
      7387,
      7589,
      7619,
      7878,
      8001,
      8445,
      8668,
      9075
    ],
    "swim:geom": "takeoff",
    "swim:timestamps": [
      1776256638,
      1776256670,
      1776256702,
      1776256721,
      1776256764,
      1776256782,
      1776256801,
      1776256814,
      1776256842,
      1776256884,
      1776256897,
      1776256925,
      1776256973,
      1776256999,
      1776257025,
      1776257068,
      1776257095,
      1776257142,
      1776257165,
      1776257208,
      1776257241,
      1776257270,
      1776257304,
      1776257317,
      1776257364,
      1776257387,
      1776257401,
      1776257433,
      1776257448,
      1776257487,
      1776257502,
      1776257531
    ],
    "wof:geomhash": "b626eea4ba54ebbc4b6b6424786ad7d8",
    "wof:id": 2015299317,
    "wof:repo": "sfomuseum-data-flights-2026-04"
  },
  "bbox": [
    -122.54405,
    36.7311,
    -121.29202,
    37.66803
  ],
  "geometry": {"coordinates":[[-122.38714,37.62408],[-122.41398,37.63522],[-122.44181,37.64657],[-122.45913,37.65428],[-122.50677,37.66803],[-122.53006,37.65916],[-122.54405,37.63866],[-122.54217,37.62262],[-122.52353,37.58884],[-122.47254,37.54905],[-122.45535,37.53786],[-122.41794,37.51305],[-122.3482,37.46405],[-122.30567,37.43453],[-122.2619,37.40477],[-122.18709,37.35338],[-122.13986,37.32099],[-122.05745,37.26421],[-122.01642,37.23597],[-121.93666,37.18093],[-121.87286,37.13692],[-121.81701,37.09815],[-121.75079,37.05229],[-121.72418,37.03382],[-121.63209,36.9697],[-121.58443,36.93649],[-121.55543,36.91623],[-121.49056,36.87107],[-121.46099,36.85033],[-121.3794,36.79311],[-121.34859,36.77118],[-121.29202,36.7311]],"type":"LineString"}
}
