{
  "id": 2031124043,
  "type": "Feature",
  "properties": {
    "geom:area": 0,
    "geom:bbox": "-122.849480,37.541550,-122.121220,38.503540",
    "geom:latitude": 37.89218699183162,
    "geom:longitude": -122.51905797096772,
    "src:alt_label": "swim-approach",
    "src:geom": "swim",
    "swim:elevations": [
      7159,
      6869,
      6681,
      6408,
      6215,
      6144,
      5747,
      5640,
      5592,
      5520,
      5157,
      4929,
      4849,
      4514,
      4346,
      4169,
      4061,
      3809,
      3659,
      3609,
      3477,
      3353,
      3353,
      3304,
      3050,
      2864,
      2624,
      2378,
      2078,
      1947,
      1592,
      1446,
      1279,
      1220,
      1123,
      948,
      854,
      733,
      515,
      499,
      375,
      275,
      154,
      63
    ],
    "swim:geom": "approach",
    "swim:timestamps": [
      1777331600,
      1777331637,
      1777331660,
      1777331696,
      1777331723,
      1777331732,
      1777331785,
      1777331806,
      1777331816,
      1777331825,
      1777331872,
      1777331901,
      1777331913,
      1777331964,
      1777331994,
      1777332023,
      1777332039,
      1777332085,
      1777332108,
      1777332120,
      1777332143,
      1777332176,
      1777332203,
      1777332222,
      1777332260,
      1777332292,
      1777332329,
      1777332357,
      1777332388,
      1777332403,
      1777332444,
      1777332472,
      1777332507,
      1777332516,
      1777332535,
      1777332567,
      1777332584,
      1777332609,
      1777332655,
      1777332658,
      1777332684,
      1777332712,
      1777332742,
      1777332763
    ],
    "wof:geomhash": "071c14f0ced0fc5b1e8d7c12d59f6605",
    "wof:id": 2031124043,
    "wof:repo": "sfomuseum-data-flights-2026-04"
  },
  "bbox": [
    -122.84948,
    37.54155,
    -122.12122,
    38.50354
  ],
  "geometry": {"coordinates":[[-122.84948,38.50354],[-122.83161,38.44364],[-122.82089,38.40735],[-122.80453,38.35106],[-122.79241,38.30959],[-122.78827,38.29589],[-122.76547,38.21751],[-122.75629,38.18559],[-122.75238,38.17195],[-122.74842,38.15826],[-122.72758,38.08714],[-122.71508,38.04431],[-122.71003,38.02683],[-122.68914,37.95415],[-122.6766,37.91288],[-122.65106,37.87825],[-122.63217,37.86064],[-122.57925,37.81087],[-122.55354,37.78671],[-122.54081,37.77458],[-122.51417,37.74892],[-122.46902,37.724],[-122.42982,37.71276],[-122.40467,37.70549],[-122.35533,37.69133],[-122.31453,37.67988],[-122.2697,37.66734],[-122.23473,37.65782],[-122.19787,37.64709],[-122.1823,37.6387],[-122.14185,37.61471],[-122.12122,37.59349],[-122.13119,37.56182],[-122.13526,37.55433],[-122.1501,37.54243],[-122.18384,37.54155],[-122.20051,37.54759],[-122.22458,37.55784],[-122.26663,37.57557],[-122.26921,37.57664],[-122.29005,37.58529],[-122.31088,37.59412],[-122.33285,37.60334],[-122.34858,37.60993]],"type":"LineString"}
}
