{
  "id": 2015295445,
  "type": "Feature",
  "properties": {
    "geom:area": 0,
    "geom:bbox": "-122.359050,37.412320,-121.256230,37.614160",
    "geom:latitude": 37.5261233135623,
    "geom:longitude": -121.81780798081327,
    "src:alt_label": "swim-approach",
    "src:geom": "swim",
    "swim:elevations": [
      4704,
      4615,
      4385,
      4209,
      3963,
      3824,
      3693,
      3507,
      3320,
      3043,
      2864,
      2785,
      2618,
      2445,
      2343,
      2311,
      2256,
      2164,
      2134,
      2101,
      2041,
      1825,
      1829,
      1726,
      1611,
      1344,
      1223,
      1172,
      1097,
      1097,
      973,
      787,
      586,
      486,
      336,
      250,
      155,
      0
    ],
    "swim:geom": "approach",
    "swim:timestamps": [
      1776246203,
      1776246215,
      1776246245,
      1776246270,
      1776246312,
      1776246343,
      1776246361,
      1776246394,
      1776246426,
      1776246475,
      1776246504,
      1776246516,
      1776246547,
      1776246581,
      1776246610,
      1776246621,
      1776246637,
      1776246663,
      1776246695,
      1776246739,
      1776246751,
      1776246799,
      1776246810,
      1776246862,
      1776246882,
      1776246918,
      1776246930,
      1776246937,
      1776246979,
      1776247004,
      1776247032,
      1776247061,
      1776247105,
      1776247128,
      1776247166,
      1776247187,
      1776247209,
      1776247248
    ],
    "wof:geomhash": "6b80dfbfbdfde18dd92db8aa918b16cf",
    "wof:id": 2015295445,
    "wof:repo": "sfomuseum-data-flights-2026-04"
  },
  "bbox": [
    -122.35905,
    37.41232,
    -121.25623,
    37.61416
  ],
  "geometry": {"coordinates":[[-121.25623,37.59357],[-121.27652,37.59088],[-121.32729,37.58519],[-121.36984,37.58055],[-121.44036,37.57245],[-121.48657,37.56699],[-121.51307,37.56382],[-121.56003,37.55833],[-121.60465,37.55314],[-121.67132,37.53968],[-121.7098,37.53055],[-121.72573,37.52676],[-121.76562,37.51699],[-121.79557,37.48921],[-121.80939,37.46046],[-121.81505,37.44862],[-121.82306,37.43234],[-121.8464,37.41232],[-121.88763,37.41426],[-121.93862,37.43654],[-121.95163,37.44215],[-121.99914,37.46248],[-122.00924,37.46673],[-122.05629,37.48664],[-122.07435,37.49431],[-122.10359,37.50818],[-122.11018,37.51607],[-122.1135,37.52124],[-122.14655,37.53465],[-122.17077,37.53611],[-122.1952,37.54562],[-122.21871,37.55696],[-122.25288,37.56992],[-122.26986,37.57696],[-122.29896,37.58907],[-122.31426,37.59555],[-122.33019,37.6022],[-122.35905,37.61416]],"type":"LineString"}
}
