{
  "id": 2031130461,
  "type": "Feature",
  "properties": {
    "geom:area": 0,
    "geom:bbox": "-175.720000,22.300000,180.000000,57.100000",
    "geom:latitude": 53.71290912921252,
    "geom:longitude": 6.5269844271541615,
    "src:alt_label": "swim-route",
    "src:geom": "swim",
    "swim:geom": "route",
    "wof:geomhash": "106ca63ef99007950b85ebb9601410ce",
    "wof:id": 2031130461,
    "wof:repo": "sfomuseum-data-flights-2026-04"
  },
  "bbox": [
    -175.72,
    22.3,
    180,
    57.1
  ],
  "geometry": {"coordinates":[[[-122.38,37.62],[-122.5,37.67],[-122.5,37.67],[-122.5,37.68],[-122.59,37.73],[-122.59,37.73],[-122.63,37.75],[-122.69,37.79],[-122.7,37.79],[-122.74,37.81],[-122.76,37.82],[-122.79,37.87],[-122.91,38.01],[-123.15,38.3],[-123.16,38.3],[-123.3,38.48],[-123.42,38.61],[-123.48,38.68],[-123.59,38.82],[-123.64,38.87],[-123.69,38.92],[-123.75,39],[-124.3,39.56],[-124.47,39.72],[-124.93,40.17],[-124.97,40.22],[-125.03,40.3],[-125.7,40.92],[-126.32,41.49],[-126.5,41.66],[-126.8,41.78],[-126.8,41.78],[-126.82,41.79],[-126.83,41.79],[-130,43],[-130.94,43.44],[-133.57,44.6],[-140,47],[-150,52],[-154.27,53.91],[-156.56,54.8],[-156.58,54.81],[-158.27,55.42],[-160,56],[-164.32,56.53],[-165.28,56.63],[-165.35,56.64],[-166.5,56.75],[-170,57],[-171.07,57.04],[-174.28,57.1],[-175.72,57.1]],[[180,57],[175.91,55.7],[169.69,53.26],[168.68,52.93],[167.45,52.56],[161.61,50.54],[159.42,49.65],[159.41,49.65],[158.31,49.17],[157.23,48.69],[156.18,48.19],[155.14,47.69],[151.18,45.59],[145.79,42.2],[144,40.93],[142.99,40.17],[142.01,39.42],[141.49,39],[139.8,37.62],[138.74,36.71],[137.52,35.63],[137.26,35.39],[136.58,34.89],[136.34,34.7],[136.18,34.59],[134.95,33.95],[134.95,33.95],[134.38,33.65],[133.23,33.03],[131.38,31.97],[129.41,30.8],[128.14,30.02],[128.13,30.01],[127.46,29.59],[126.77,29.1],[126.08,28.61],[124.72,27.62],[124,27.1],[122.33,25.93],[121.5,25.34],[120.69,24.75],[119.88,24.15],[117.5,22.33],[116.45,22.31],[116.39,22.31],[116.3,22.31],[116.25,22.31],[116.01,22.3],[115.83,22.3],[115.69,22.3],[115.41,22.3],[115.06,22.31],[114.88,22.31],[114.65,22.31],[114.6,22.31],[114.47,22.31],[114.38,22.32],[114.29,22.32],[114.2,22.32]]],"type":"MultiLineString"}
}
