{
  "id": 2015237379,
  "type": "Feature",
  "properties": {
    "geom:area": 0,
    "geom:bbox": "-127.417222,37.263889,-122.176944,37.722500",
    "geom:latitude": 37.40722907348534,
    "geom:longitude": -124.69612783442962,
    "src:alt_label": "swim-path",
    "src:geom": "swim",
    "swim:altitudes": [
      "350C",
      "350C",
      "350C",
      "350C",
      "350C",
      "350C",
      "350C",
      "350C",
      "350C",
      "350C",
      "350",
      "350",
      "350C",
      "350C",
      "350",
      "350C",
      "350C",
      "350",
      "350",
      "350",
      "350C",
      "350",
      "350",
      "350",
      "350",
      "350",
      "350",
      "350",
      "347",
      "338C",
      "338C",
      "338C",
      "298",
      "298",
      "298",
      "264",
      "264",
      "248",
      "248",
      "233",
      "233",
      "233",
      "204",
      "204",
      "204",
      "162",
      "162",
      "162",
      "150",
      "140",
      "140",
      "140",
      "125",
      "125",
      "106",
      "106",
      "106",
      "101",
      "089",
      "089",
      "081",
      "081",
      "081",
      "060",
      "055",
      "055",
      "047",
      "047",
      "047",
      "037",
      "014",
      "014",
      "014",
      "006",
      "006"
    ],
    "swim:geom": "path",
    "swim:speeds": [
      501,
      501,
      500,
      500,
      500,
      500,
      505,
      519,
      519,
      519,
      520,
      520,
      521,
      521,
      520,
      521,
      521,
      520,
      520,
      520,
      522,
      530,
      530,
      522,
      522,
      520,
      518,
      520,
      519,
      520,
      520,
      520,
      467,
      467,
      467,
      443,
      443,
      427,
      427,
      414,
      414,
      414,
      385,
      385,
      385,
      358,
      358,
      358,
      344,
      337,
      337,
      337,
      332,
      332,
      323,
      323,
      323,
      313,
      308,
      308,
      302,
      302,
      302,
      276,
      247,
      247,
      238,
      238,
      238,
      210,
      149,
      149,
      149,
      149,
      149
    ],
    "swim:timestamps": [
      1775698996,
      1775698996,
      1775699056,
      1775699056,
      1775699056,
      1775699056,
      1775699176,
      1775699236,
      1775699236,
      1775699236,
      1775699316,
      1775699316,
      1775699356,
      1775699356,
      1775699436,
      1775699476,
      1775699476,
      1775699556,
      1775699556,
      1775699556,
      1775699597,
      1775699616,
      1775699616,
      1775699657,
      1775699657,
      1775699676,
      1775699717,
      1775699736,
      1775699777,
      1775699796,
      1775699796,
      1775699796,
      1775699957,
      1775699957,
      1775699957,
      1775700077,
      1775700077,
      1775700137,
      1775700137,
      1775700197,
      1775700197,
      1775700197,
      1775700317,
      1775700317,
      1775700317,
      1775700498,
      1775700498,
      1775700498,
      1775700543,
      1775700579,
      1775700579,
      1775700579,
      1775700639,
      1775700639,
      1775700738,
      1775700738,
      1775700738,
      1775700753,
      1775700858,
      1775700858,
      1775700918,
      1775700918,
      1775700918,
      1775701113,
      1775701174,
      1775701174,
      1775701218,
      1775701218,
      1775701218,
      1775701278,
      1775701414,
      1775701414,
      1775701414,
      1775701473,
      1775701473
    ],
    "wof:geomhash": "c4892022d8148277991fa8106c661a21",
    "wof:id": 2015237379,
    "wof:repo": "sfomuseum-data-flights-2026-04"
  },
  "bbox": [
    -127.41722222222222,
    37.263888888888886,
    -122.17694444444444,
    37.722500000000004
  ],
  "geometry": {"coordinates":[[-127.41722222222222,37.722500000000004],[-127.41722222222222,37.722500000000004],[-127.28194444444445,37.65277777777778],[-127.28194444444445,37.65277777777778],[-127.28194444444445,37.65277777777778],[-127.28194444444445,37.65277777777778],[-126.98444444444445,37.509166666666665],[-126.80583333333333,37.487500000000004],[-126.80583333333333,37.487500000000004],[-126.80583333333333,37.487500000000004],[-126.55,37.46666666666667],[-126.55,37.46666666666667],[-126.44222222222223,37.471944444444446],[-126.44222222222223,37.471944444444446],[-126.18333333333334,37.45],[-126.07972222222222,37.455000000000005],[-126.07972222222222,37.455000000000005],[-125.83333333333333,37.43333333333333],[-125.83333333333333,37.43333333333333],[-125.83333333333333,37.43333333333333],[-125.71666666666667,37.43722222222222],[-125.65,37.43333333333333],[-125.65,37.43333333333333],[-125.53333333333333,37.42777777777778],[-125.53333333333333,37.42777777777778],[-125.46666666666667,37.416666666666664],[-125.35555555555555,37.41833333333333],[-125.28333333333333,37.4],[-125.17361111111111,37.40833333333333],[-125.1,37.4],[-125.1,37.4],[-125.1,37.4],[-124.66444444444446,37.37916666666667],[-124.66444444444446,37.37916666666667],[-124.66444444444446,37.37916666666667],[-124.35472222222222,37.36027777777778],[-124.35472222222222,37.36027777777778],[-124.20583333333333,37.350833333333334],[-124.20583333333333,37.350833333333334],[-124.06222222222222,37.34166666666667],[-124.06222222222222,37.34166666666667],[-124.06222222222222,37.34166666666667],[-123.78916666666666,37.32361111111111],[-123.78916666666666,37.32361111111111],[-123.78916666666666,37.32361111111111],[-123.40944444444445,37.2975],[-123.40944444444445,37.2975],[-123.40944444444445,37.2975],[-123.3,37.28333333333333],[-123.23333333333333,37.28333333333333],[-123.23333333333333,37.28333333333333],[-123.23333333333333,37.28333333333333],[-123.11666666666666,37.28333333333333],[-123.11666666666666,37.28333333333333],[-122.94777777777779,37.263888888888886],[-122.94777777777779,37.263888888888886],[-122.94777777777779,37.263888888888886],[-122.9,37.266666666666666],[-122.73944444444444,37.28638888888889],[-122.73944444444444,37.28638888888889],[-122.63944444444445,37.309999999999995],[-122.63944444444445,37.309999999999995],[-122.63944444444445,37.309999999999995],[-122.3,37.38333333333333],[-122.21666666666667,37.416666666666664],[-122.21666666666667,37.416666666666664],[-122.18027777777779,37.45611111111111],[-122.18027777777779,37.45611111111111],[-122.18027777777779,37.45611111111111],[-122.17694444444444,37.51305555555555],[-122.28333333333333,37.583333333333336],[-122.28333333333333,37.583333333333336],[-122.28333333333333,37.583333333333336],[-122.33333333333333,37.6],[-122.33333333333333,37.6]],"type":"LineString"}
}
