{
  "id": 2031145603,
  "type": "Feature",
  "properties": {
    "geom:area": 0,
    "geom:bbox": "-122.383333,37.616667,-104.683333,39.886389",
    "geom:latitude": 38.425347397866375,
    "geom:longitude": -113.25597850327735,
    "src:alt_label": "swim-path",
    "src:geom": "swim",
    "swim:altitudes": [
      "005",
      "005",
      "005",
      "030",
      "030",
      "030",
      "030",
      "050",
      "050",
      "050",
      "050",
      "061",
      "061",
      "061",
      "061",
      "061",
      "087",
      "087",
      "087",
      "087",
      "087",
      "087",
      "153",
      "153",
      "153",
      "153",
      "153",
      "170",
      "170",
      "170",
      "170",
      "170",
      "170",
      "170",
      "276",
      "276",
      "276",
      "276",
      "276",
      "276",
      "276",
      "291",
      "291",
      "291",
      "291",
      "291",
      "291",
      "291",
      "302",
      "302",
      "302",
      "302",
      "322",
      "322",
      "322",
      "322",
      "323",
      "323",
      "323",
      "323",
      "331",
      "331",
      "331",
      "331",
      "331",
      "331",
      "338",
      "338",
      "338",
      "350C",
      "350C",
      "350C",
      "350C",
      "350C",
      "350C",
      "350C",
      "350C",
      "350C",
      "350C",
      "350C",
      "350C",
      "350C",
      "350C",
      "350C",
      "350C",
      "350C",
      "350C",
      "350C",
      "350C",
      "350C",
      "350C",
      "350C",
      "350C",
      "350C",
      "350C",
      "350C",
      "350C",
      "350C",
      "350C",
      "350C",
      "350C",
      "350C",
      "350C",
      "350C",
      "350C",
      "350C",
      "350C",
      "350C",
      "350C",
      "350C",
      "350C",
      "350C",
      "350C",
      "350C",
      "350C",
      "350C",
      "350C",
      "350C",
      "350C",
      "350C",
      "350C",
      "350C",
      "350C",
      "350C",
      "350C",
      "350C",
      "350C",
      "350C",
      "350C",
      "350C",
      "350C",
      "350C",
      "350C",
      "350C",
      "350C",
      "350C",
      "350C",
      "350C",
      "350C",
      "350C",
      "350C",
      "350C",
      "350C",
      "350C",
      "350C",
      "350C",
      "350C",
      "350C",
      "350C",
      "350C",
      "350C",
      "350C",
      "350C",
      "350C",
      "350C",
      "350C",
      "350C",
      "350C",
      "350C",
      "350C",
      "350C",
      "350C",
      "350C",
      "350C",
      "350C",
      "350C",
      "350C",
      "350C",
      "350C",
      "350C",
      "350C",
      "350C",
      "350C",
      "350C",
      "350C",
      "350C",
      "350C",
      "350C",
      "350C",
      "350C",
      "350C",
      "350C",
      "350C",
      "350C",
      "350C",
      "350C",
      "350C",
      "350C",
      "350C",
      "350C",
      "350C",
      "350C",
      "350C",
      "350C",
      "350C",
      "350C",
      "350C",
      "350C",
      "350C",
      "351C",
      "351C",
      "350C",
      "350C",
      "350C",
      "350C",
      "350C",
      "350C",
      "350C",
      "350C",
      "350C",
      "350C",
      "350C",
      "350C",
      "350C",
      "350C",
      "350C",
      "350C",
      "350C",
      "350C",
      "350C",
      "350C",
      "350C",
      "350C",
      "350C",
      "350C",
      "350C",
      "350C",
      "350C",
      "350C",
      "350C",
      "350C",
      "350C",
      "350C",
      "350C",
      "350C",
      "350C",
      "350C",
      "350C",
      "350C",
      "350C",
      "350C",
      "350C",
      "350C",
      "350C",
      "350C",
      "350C",
      "350C",
      "350C",
      "350C",
      "350C",
      "350C",
      "350C",
      "321",
      "321",
      "321",
      "321",
      "321",
      "299",
      "299",
      "299",
      "299",
      "299",
      "299",
      "287",
      "287",
      "287",
      "287",
      "270C",
      "270C",
      "270C",
      "270C",
      "270",
      "270",
      "270",
      "270",
      "245",
      "245",
      "245",
      "187",
      "187",
      "187",
      "187",
      "169",
      "169",
      "169",
      "169",
      "169",
      "147",
      "147",
      "147",
      "138",
      "135",
      "135",
      "135",
      "108",
      "108",
      "108",
      "108",
      "100",
      "100",
      "100",
      "100",
      "100",
      "100",
      "100",
      "100",
      "094",
      "094",
      "094",
      "094",
      "094",
      "094",
      "089",
      "066",
      "066",
      "066",
      "066",
      "062",
      "062",
      "062",
      "053",
      "053",
      "053",
      "053",
      "053",
      "054",
      "054",
      "054",
      "054"
    ],
    "swim:geom": "path",
    "swim:speeds": [
      165,
      165,
      165,
      163,
      163,
      163,
      163,
      240,
      240,
      240,
      240,
      264,
      264,
      264,
      264,
      264,
      273,
      273,
      273,
      273,
      273,
      273,
      343,
      343,
      343,
      343,
      343,
      364,
      364,
      364,
      364,
      364,
      364,
      364,
      441,
      441,
      441,
      441,
      441,
      441,
      441,
      466,
      466,
      466,
      466,
      466,
      466,
      466,
      465,
      465,
      465,
      465,
      466,
      466,
      466,
      466,
      466,
      466,
      466,
      466,
      466,
      466,
      466,
      466,
      466,
      466,
      461,
      461,
      461,
      457,
      457,
      457,
      457,
      458,
      458,
      458,
      458,
      458,
      458,
      458,
      457,
      457,
      455,
      455,
      455,
      455,
      456,
      456,
      460,
      460,
      460,
      460,
      462,
      462,
      462,
      476,
      476,
      476,
      476,
      476,
      476,
      476,
      476,
      485,
      485,
      485,
      485,
      485,
      497,
      497,
      497,
      497,
      498,
      498,
      500,
      500,
      501,
      501,
      501,
      501,
      501,
      501,
      504,
      504,
      504,
      504,
      505,
      505,
      505,
      506,
      506,
      506,
      506,
      506,
      506,
      508,
      508,
      508,
      508,
      508,
      511,
      511,
      511,
      511,
      511,
      511,
      511,
      511,
      516,
      516,
      516,
      516,
      516,
      516,
      516,
      519,
      519,
      519,
      519,
      521,
      521,
      521,
      521,
      521,
      521,
      523,
      523,
      523,
      523,
      530,
      530,
      530,
      530,
      537,
      537,
      537,
      537,
      537,
      539,
      539,
      539,
      539,
      539,
      539,
      539,
      540,
      540,
      540,
      554,
      554,
      554,
      542,
      542,
      542,
      542,
      542,
      545,
      544,
      544,
      544,
      544,
      544,
      544,
      544,
      544,
      545,
      545,
      545,
      545,
      545,
      546,
      546,
      546,
      546,
      546,
      546,
      548,
      548,
      548,
      548,
      550,
      550,
      549,
      549,
      549,
      549,
      549,
      551,
      551,
      552,
      552,
      552,
      552,
      552,
      552,
      553,
      553,
      554,
      554,
      554,
      550,
      550,
      547,
      547,
      547,
      546,
      546,
      546,
      546,
      546,
      546,
      546,
      514,
      514,
      514,
      514,
      514,
      427,
      427,
      427,
      427,
      427,
      427,
      418,
      418,
      418,
      418,
      400,
      400,
      400,
      400,
      417,
      417,
      417,
      417,
      405,
      405,
      405,
      369,
      369,
      369,
      369,
      356,
      356,
      356,
      356,
      356,
      328,
      328,
      328,
      285,
      279,
      279,
      279,
      247,
      247,
      247,
      247,
      220,
      220,
      225,
      225,
      196,
      196,
      196,
      190,
      193,
      193,
      193,
      193,
      193,
      193,
      179,
      165,
      165,
      165,
      165,
      143,
      143,
      143,
      133,
      133,
      133,
      133,
      133,
      68,
      68,
      68,
      68
    ],
    "swim:timestamps": [
      1777487222,
      1777487222,
      1777487222,
      1777487280,
      1777487280,
      1777487280,
      1777487280,
      1777487368,
      1777487368,
      1777487368,
      1777487368,
      1777487401,
      1777487401,
      1777487401,
      1777487401,
      1777487401,
      1777487461,
      1777487461,
      1777487461,
      1777487461,
      1777487461,
      1777487461,
      1777487641,
      1777487641,
      1777487641,
      1777487641,
      1777487641,
      1777487701,
      1777487701,
      1777487701,
      1777487701,
      1777487701,
      1777487701,
      1777487701,
      1777488194,
      1777488194,
      1777488194,
      1777488194,
      1777488194,
      1777488194,
      1777488194,
      1777488314,
      1777488314,
      1777488314,
      1777488314,
      1777488314,
      1777488314,
      1777488314,
      1777488385,
      1777488385,
      1777488385,
      1777488385,
      1777488494,
      1777488494,
      1777488494,
      1777488494,
      1777488505,
      1777488505,
      1777488505,
      1777488505,
      1777488565,
      1777488565,
      1777488565,
      1777488565,
      1777488565,
      1777488565,
      1777488614,
      1777488614,
      1777488614,
      1777488735,
      1777488735,
      1777488735,
      1777488735,
      1777488926,
      1777488926,
      1777488926,
      1777488926,
      1777488926,
      1777488926,
      1777488926,
      1777489046,
      1777489046,
      1777489095,
      1777489095,
      1777489095,
      1777489095,
      1777489106,
      1777489106,
      1777489155,
      1777489155,
      1777489155,
      1777489155,
      1777489166,
      1777489166,
      1777489166,
      1777489275,
      1777489275,
      1777489275,
      1777489275,
      1777489286,
      1777489286,
      1777489286,
      1777489286,
      1777489395,
      1777489395,
      1777489395,
      1777489395,
      1777489395,
      1777489516,
      1777489516,
      1777489516,
      1777489516,
      1777489527,
      1777489527,
      1777489587,
      1777489587,
      1777489636,
      1777489636,
      1777489636,
      1777489636,
      1777489636,
      1777489636,
      1777489756,
      1777489756,
      1777489756,
      1777489756,
      1777489767,
      1777489767,
      1777489767,
      1777489876,
      1777489876,
      1777489876,
      1777489876,
      1777489876,
      1777489876,
      1777490067,
      1777490067,
      1777490067,
      1777490067,
      1777490067,
      1777490187,
      1777490187,
      1777490187,
      1777490187,
      1777490187,
      1777490187,
      1777490187,
      1777490187,
      1777490428,
      1777490428,
      1777490428,
      1777490428,
      1777490428,
      1777490428,
      1777490428,
      1777490548,
      1777490548,
      1777490548,
      1777490548,
      1777490608,
      1777490608,
      1777490608,
      1777490608,
      1777490608,
      1777490608,
      1777490668,
      1777490668,
      1777490668,
      1777490668,
      1777490788,
      1777490788,
      1777490788,
      1777490788,
      1777490908,
      1777490908,
      1777490908,
      1777490908,
      1777490908,
      1777490969,
      1777490969,
      1777490969,
      1777490969,
      1777490969,
      1777490969,
      1777490969,
      1777491209,
      1777491209,
      1777491209,
      1777491247,
      1777491247,
      1777491247,
      1777491329,
      1777491329,
      1777491329,
      1777491329,
      1777491329,
      1777491367,
      1777491427,
      1777491427,
      1777491449,
      1777491449,
      1777491509,
      1777491509,
      1777491509,
      1777491509,
      1777491547,
      1777491547,
      1777491547,
      1777491547,
      1777491547,
      1777491689,
      1777491689,
      1777491689,
      1777491689,
      1777491689,
      1777491689,
      1777491810,
      1777491810,
      1777491810,
      1777491810,
      1777491908,
      1777491908,
      1777491930,
      1777491930,
      1777491930,
      1777491930,
      1777491930,
      1777491968,
      1777491968,
      1777492050,
      1777492050,
      1777492050,
      1777492050,
      1777492050,
      1777492050,
      1777492110,
      1777492110,
      1777492148,
      1777492148,
      1777492148,
      1777492170,
      1777492170,
      1777492208,
      1777492208,
      1777492230,
      1777492269,
      1777492269,
      1777492269,
      1777492269,
      1777492269,
      1777492269,
      1777492269,
      1777492689,
      1777492689,
      1777492689,
      1777492689,
      1777492689,
      1777492809,
      1777492809,
      1777492809,
      1777492809,
      1777492809,
      1777492809,
      1777492869,
      1777492869,
      1777492869,
      1777492869,
      1777492990,
      1777492990,
      1777492990,
      1777492990,
      1777493290,
      1777493290,
      1777493290,
      1777493290,
      1777493530,
      1777493530,
      1777493530,
      1777493742,
      1777493742,
      1777493742,
      1777493742,
      1777493831,
      1777493831,
      1777493831,
      1777493831,
      1777493831,
      1777493928,
      1777493928,
      1777493928,
      1777493988,
      1777494011,
      1777494011,
      1777494011,
      1777494168,
      1777494168,
      1777494168,
      1777494168,
      1777494228,
      1777494228,
      1777494251,
      1777494251,
      1777494311,
      1777494311,
      1777494311,
      1777494372,
      1777494432,
      1777494432,
      1777494432,
      1777494432,
      1777494432,
      1777494432,
      1777494468,
      1777494612,
      1777494612,
      1777494612,
      1777494612,
      1777494643,
      1777494643,
      1777494643,
      1777494732,
      1777494732,
      1777494732,
      1777494732,
      1777494732,
      1777494792,
      1777494792,
      1777494792,
      1777494792
    ],
    "wof:geomhash": "78a85ccf6042435b6e53d4ee1e339201",
    "wof:id": 2031145603,
    "wof:repo": "sfomuseum-data-flights-2026-04"
  },
  "bbox": [
    -122.38333333333334,
    37.61666666666667,
    -104.68333333333334,
    39.88638888888889
  ],
  "geometry": {"coordinates":[[-122.38333333333334,37.61666666666667],[-122.38333333333334,37.61666666666667],[-122.38333333333334,37.61666666666667],[-122.38194444444444,37.655],[-122.38194444444444,37.655],[-122.38194444444444,37.655],[-122.38194444444444,37.655],[-122.3,37.68333333333333],[-122.3,37.68333333333333],[-122.3,37.68333333333333],[-122.3,37.68333333333333],[-122.25,37.70666666666667],[-122.25,37.70666666666667],[-122.25,37.70666666666667],[-122.25,37.70666666666667],[-122.25,37.70666666666667],[-122.24111111111111,37.78],[-122.24111111111111,37.78],[-122.24111111111111,37.78],[-122.24111111111111,37.78],[-122.24111111111111,37.78],[-122.24111111111111,37.78],[-122.06,37.96333333333334],[-122.06,37.96333333333334],[-122.06,37.96333333333334],[-122.06,37.96333333333334],[-122.06,37.96333333333334],[-121.93194444444445,37.97],[-121.93194444444445,37.97],[-121.93194444444445,37.97],[-121.93194444444445,37.97],[-121.93194444444445,37.97],[-121.93194444444445,37.97],[-121.93194444444445,37.97],[-120.80222222222221,38.144444444444446],[-120.80222222222221,38.144444444444446],[-120.80222222222221,38.144444444444446],[-120.80222222222221,38.144444444444446],[-120.80222222222221,38.144444444444446],[-120.80222222222221,38.144444444444446],[-120.80222222222221,38.144444444444446],[-120.47805555555556,38.183611111111105],[-120.47805555555556,38.183611111111105],[-120.47805555555556,38.183611111111105],[-120.47805555555556,38.183611111111105],[-120.47805555555556,38.183611111111105],[-120.47805555555556,38.183611111111105],[-120.47805555555556,38.183611111111105],[-120.30027777777778,38.202222222222225],[-120.30027777777778,38.202222222222225],[-120.30027777777778,38.202222222222225],[-120.30027777777778,38.202222222222225],[-119.99194444444444,38.240833333333335],[-119.99194444444444,38.240833333333335],[-119.99194444444444,38.240833333333335],[-119.99194444444444,38.240833333333335],[-119.97555555555556,38.24166666666667],[-119.97555555555556,38.24166666666667],[-119.97555555555556,38.24166666666667],[-119.97555555555556,38.24166666666667],[-119.81361111111111,38.25944444444445],[-119.81361111111111,38.25944444444445],[-119.81361111111111,38.25944444444445],[-119.81361111111111,38.25944444444445],[-119.81361111111111,38.25944444444445],[-119.81361111111111,38.25944444444445],[-119.66916666666667,38.277499999999996],[-119.66916666666667,38.277499999999996],[-119.66916666666667,38.277499999999996],[-119.36722222222221,38.31083333333333],[-119.36722222222221,38.31083333333333],[-119.36722222222221,38.31083333333333],[-119.36722222222221,38.31083333333333],[-118.85833333333333,38.36555555555556],[-118.85833333333333,38.36555555555556],[-118.85833333333333,38.36555555555556],[-118.85833333333333,38.36555555555556],[-118.85833333333333,38.36555555555556],[-118.85833333333333,38.36555555555556],[-118.85833333333333,38.36555555555556],[-118.54472222222222,38.39833333333333],[-118.54472222222222,38.39833333333333],[-118.38305555555554,38.415],[-118.38305555555554,38.415],[-118.38305555555554,38.415],[-118.38305555555554,38.415],[-118.36972222222222,38.41638888888889],[-118.36972222222222,38.41638888888889],[-118.22333333333333,38.43138888888889],[-118.22333333333333,38.43138888888889],[-118.22333333333333,38.43138888888889],[-118.22333333333333,38.43138888888889],[-118.20805555555556,38.433055555555555],[-118.20805555555556,38.433055555555555],[-118.20805555555556,38.433055555555555],[-117.90166666666667,38.46277777777778],[-117.90166666666667,38.46277777777778],[-117.90166666666667,38.46277777777778],[-117.90166666666667,38.46277777777778],[-117.87083333333332,38.465833333333336],[-117.87083333333332,38.465833333333336],[-117.87083333333332,38.465833333333336],[-117.87083333333332,38.465833333333336],[-117.5586111111111,38.495555555555555],[-117.5586111111111,38.495555555555555],[-117.5586111111111,38.495555555555555],[-117.5586111111111,38.495555555555555],[-117.5586111111111,38.495555555555555],[-117.20472222222223,38.51861111111111],[-117.20472222222223,38.51861111111111],[-117.20472222222223,38.51861111111111],[-117.20472222222223,38.51861111111111],[-117.17,38.51777777777777],[-117.17,38.51777777777777],[-116.99,38.513333333333335],[-116.99,38.513333333333335],[-116.84333333333333,38.50972222222222],[-116.84333333333333,38.50972222222222],[-116.84333333333333,38.50972222222222],[-116.84333333333333,38.50972222222222],[-116.84333333333333,38.50972222222222],[-116.84333333333333,38.50972222222222],[-116.48527777777778,38.49944444444444],[-116.48527777777778,38.49944444444444],[-116.48527777777778,38.49944444444444],[-116.48527777777778,38.49944444444444],[-116.45083333333334,38.49861111111111],[-116.45083333333334,38.49861111111111],[-116.45083333333334,38.49861111111111],[-116.12222222222222,38.488055555555555],[-116.12222222222222,38.488055555555555],[-116.12222222222222,38.488055555555555],[-116.12222222222222,38.488055555555555],[-116.12222222222222,38.488055555555555],[-116.12222222222222,38.488055555555555],[-115.54861111111111,38.467777777777776],[-115.54861111111111,38.467777777777776],[-115.54861111111111,38.467777777777776],[-115.54861111111111,38.467777777777776],[-115.54861111111111,38.467777777777776],[-115.21944444444445,38.45472222222222],[-115.21944444444445,38.45472222222222],[-115.21944444444445,38.45472222222222],[-115.21944444444445,38.45472222222222],[-115.21944444444445,38.45472222222222],[-115.21944444444445,38.45472222222222],[-115.21944444444445,38.45472222222222],[-115.21944444444445,38.45472222222222],[-114.49,38.422777777777775],[-114.49,38.422777777777775],[-114.49,38.422777777777775],[-114.49,38.422777777777775],[-114.49,38.422777777777775],[-114.49,38.422777777777775],[-114.49,38.422777777777775],[-114.12249999999999,38.40472222222222],[-114.12249999999999,38.40472222222222],[-114.12249999999999,38.40472222222222],[-114.12249999999999,38.40472222222222],[-113.93861111111111,38.39555555555555],[-113.93861111111111,38.39555555555555],[-113.93861111111111,38.39555555555555],[-113.93861111111111,38.39555555555555],[-113.93861111111111,38.39555555555555],[-113.93861111111111,38.39555555555555],[-113.75333333333333,38.385555555555555],[-113.75333333333333,38.385555555555555],[-113.75333333333333,38.385555555555555],[-113.75333333333333,38.385555555555555],[-113.37722222222222,38.36527777777778],[-113.37722222222222,38.36527777777778],[-113.37722222222222,38.36527777777778],[-113.37722222222222,38.36527777777778],[-112.99305555555556,38.34277777777778],[-112.99305555555556,38.34277777777778],[-112.99305555555556,38.34277777777778],[-112.99305555555556,38.34277777777778],[-112.99305555555556,38.34277777777778],[-112.80444444444444,38.33111111111111],[-112.80444444444444,38.33111111111111],[-112.80444444444444,38.33111111111111],[-112.80444444444444,38.33111111111111],[-112.80444444444444,38.33111111111111],[-112.80444444444444,38.33111111111111],[-112.80444444444444,38.33111111111111],[-112.03944444444444,38.281666666666666],[-112.03944444444444,38.281666666666666],[-112.03944444444444,38.281666666666666],[-111.91916666666667,38.27333333333333],[-111.91916666666667,38.27333333333333],[-111.91916666666667,38.27333333333333],[-111.65666666666667,38.255],[-111.65666666666667,38.255],[-111.65666666666667,38.255],[-111.65666666666667,38.255],[-111.65666666666667,38.255],[-111.53833333333333,38.24666666666667],[-111.34555555555555,38.2325],[-111.34555555555555,38.2325],[-111.2725,38.227222222222224],[-111.2725,38.227222222222224],[-111.08138888888888,38.212500000000006],[-111.08138888888888,38.212500000000006],[-111.08138888888888,38.212500000000006],[-111.08138888888888,38.212500000000006],[-110.965,38.203611111111115],[-110.965,38.203611111111115],[-110.965,38.203611111111115],[-110.965,38.203611111111115],[-110.965,38.203611111111115],[-110.48611111111111,38.16555555555556],[-110.48611111111111,38.16555555555556],[-110.48611111111111,38.16555555555556],[-110.48611111111111,38.16555555555556],[-110.48611111111111,38.16555555555556],[-110.48611111111111,38.16555555555556],[-110.09833333333333,38.135555555555555],[-110.09833333333333,38.135555555555555],[-110.09833333333333,38.135555555555555],[-110.09833333333333,38.135555555555555],[-109.79055555555556,38.1275],[-109.79055555555556,38.1275],[-109.71333333333334,38.125277777777775],[-109.71333333333334,38.125277777777775],[-109.71333333333334,38.125277777777775],[-109.71333333333334,38.125277777777775],[-109.71333333333334,38.125277777777775],[-109.59777777777778,38.121944444444445],[-109.59777777777778,38.121944444444445],[-109.3261111111111,38.11333333333334],[-109.3261111111111,38.11333333333334],[-109.3261111111111,38.11333333333334],[-109.3261111111111,38.11333333333334],[-109.3261111111111,38.11333333333334],[-109.3261111111111,38.11333333333334],[-109.12944444444443,38.106944444444444],[-109.12944444444443,38.106944444444444],[-109.015,38.10944444444445],[-109.015,38.10944444444445],[-109.015,38.10944444444445],[-108.93611111111112,38.111111111111114],[-108.93611111111112,38.111111111111114],[-108.82277777777777,38.11361111111111],[-108.82277777777777,38.11361111111111],[-108.74555555555555,38.11527777777778],[-108.63333333333334,38.117777777777775],[-108.63333333333334,38.117777777777775],[-108.63333333333334,38.117777777777775],[-108.63333333333334,38.117777777777775],[-108.63333333333334,38.117777777777775],[-108.63333333333334,38.117777777777775],[-108.63333333333334,38.117777777777775],[-107.29583333333333,38.145833333333336],[-107.29583333333333,38.145833333333336],[-107.29583333333333,38.145833333333336],[-107.29583333333333,38.145833333333336],[-107.29583333333333,38.145833333333336],[-107.08333333333333,38.336111111111116],[-107.08333333333333,38.336111111111116],[-107.08333333333333,38.336111111111116],[-107.08333333333333,38.336111111111116],[-107.08333333333333,38.336111111111116],[-107.08333333333333,38.336111111111116],[-107.02805555555555,38.44361111111111],[-107.02805555555555,38.44361111111111],[-107.02805555555555,38.44361111111111],[-107.02805555555555,38.44361111111111],[-106.92055555555557,38.65083333333333],[-106.92055555555557,38.65083333333333],[-106.92055555555557,38.65083333333333],[-106.92055555555557,38.65083333333333],[-106.54305555555555,39.06527777777777],[-106.54305555555555,39.06527777777777],[-106.54305555555555,39.06527777777777],[-106.54305555555555,39.06527777777777],[-105.97500000000001,39.23638888888889],[-105.97500000000001,39.23638888888889],[-105.97500000000001,39.23638888888889],[-105.51666666666667,39.38333333333333],[-105.51666666666667,39.38333333333333],[-105.51666666666667,39.38333333333333],[-105.51666666666667,39.38333333333333],[-105.33694444444444,39.36527777777778],[-105.33694444444444,39.36527777777778],[-105.33694444444444,39.36527777777778],[-105.33694444444444,39.36527777777778],[-105.33694444444444,39.36527777777778],[-105.13333333333334,39.35],[-105.13333333333334,39.35],[-105.13333333333334,39.35],[-105.03333333333333,39.35],[-104.9961111111111,39.35472222222222],[-104.9961111111111,39.35472222222222],[-104.9961111111111,39.35472222222222],[-104.76666666666667,39.416666666666664],[-104.76666666666667,39.416666666666664],[-104.76666666666667,39.416666666666664],[-104.76666666666667,39.416666666666664],[-104.71666666666667,39.46666666666667],[-104.71666666666667,39.46666666666667],[-104.70222222222222,39.48555555555556],[-104.70222222222222,39.48555555555556],[-104.69111111111111,39.54111111111111],[-104.69111111111111,39.54111111111111],[-104.69111111111111,39.54111111111111],[-104.69055555555556,39.59388888888889],[-104.68972222222223,39.65222222222222],[-104.68972222222223,39.65222222222222],[-104.68972222222223,39.65222222222222],[-104.68972222222223,39.65222222222222],[-104.68972222222223,39.65222222222222],[-104.68972222222223,39.65222222222222],[-104.68333333333334,39.68333333333333],[-104.68805555555556,39.79972222222222],[-104.68805555555556,39.79972222222222],[-104.68805555555556,39.79972222222222],[-104.68805555555556,39.79972222222222],[-104.68333333333334,39.81666666666667],[-104.68333333333334,39.81666666666667],[-104.68333333333334,39.81666666666667],[-104.68694444444445,39.87638888888889],[-104.68694444444445,39.87638888888889],[-104.68694444444445,39.87638888888889],[-104.68694444444445,39.87638888888889],[-104.68694444444445,39.87638888888889],[-104.68472222222222,39.88638888888889],[-104.68472222222222,39.88638888888889],[-104.68472222222222,39.88638888888889],[-104.68472222222222,39.88638888888889]],"type":"LineString"}
}
