{
  "id": 2031101039,
  "type": "Feature",
  "properties": {
    "geom:area": 0,
    "geom:bbox": "-122.293611,35.884444,-115.178611,37.683056",
    "geom:latitude": 37.16673937427742,
    "geom:longitude": -118.56337603746078,
    "src:alt_label": "swim-path",
    "src:geom": "swim",
    "swim:altitudes": [
      "030",
      "040",
      "040",
      "094",
      "094",
      "098",
      "123",
      "123",
      "135",
      "135",
      "158",
      "239",
      "239",
      "239",
      "292",
      "292",
      "292",
      "292",
      "318C",
      "318C",
      "318C",
      "318C",
      "320C",
      "320C",
      "320C",
      "320C",
      "320C",
      "320C",
      "320C",
      "320C",
      "320C",
      "320C",
      "320C",
      "320C",
      "320C",
      "320C",
      "320C",
      "320C",
      "320C",
      "320C",
      "320C",
      "320C",
      "320C",
      "320C",
      "320C",
      "320C",
      "320C",
      "320C",
      "320C",
      "320C",
      "320C",
      "320C",
      "320C",
      "320C",
      "320C",
      "320C",
      "261",
      "261",
      "244",
      "244",
      "237",
      "226",
      "226",
      "219",
      "205",
      "182",
      "182",
      "166",
      "148",
      "148",
      "148",
      "148",
      "107",
      "103",
      "098",
      "098",
      "090",
      "080",
      "072",
      "072",
      "067",
      "067",
      "051",
      "051",
      "051",
      "041",
      "025",
      "025",
      "021",
      "011",
      "011"
    ],
    "swim:geom": "path",
    "swim:speeds": [
      192,
      245,
      245,
      283,
      283,
      281,
      283,
      283,
      337,
      337,
      354,
      383,
      383,
      383,
      402,
      402,
      402,
      402,
      408,
      408,
      408,
      408,
      422,
      424,
      424,
      424,
      424,
      423,
      423,
      423,
      423,
      408,
      408,
      408,
      408,
      409,
      409,
      409,
      415,
      415,
      415,
      416,
      416,
      416,
      416,
      416,
      416,
      416,
      416,
      418,
      418,
      418,
      419,
      420,
      420,
      420,
      416,
      416,
      403,
      403,
      405,
      382,
      382,
      383,
      373,
      371,
      371,
      360,
      348,
      348,
      348,
      348,
      325,
      288,
      288,
      288,
      282,
      279,
      282,
      282,
      270,
      270,
      258,
      258,
      258,
      240,
      195,
      195,
      196,
      157,
      157
    ],
    "swim:timestamps": [
      1777039749,
      1777039791,
      1777039791,
      1777039912,
      1777039912,
      1777039925,
      1777039985,
      1777039985,
      1777040045,
      1777040045,
      1777040105,
      1777040345,
      1777040345,
      1777040345,
      1777040584,
      1777040584,
      1777040584,
      1777040584,
      1777040704,
      1777040704,
      1777040704,
      1777040704,
      1777041004,
      1777041064,
      1777041064,
      1777041064,
      1777041064,
      1777041304,
      1777041304,
      1777041304,
      1777041304,
      1777041485,
      1777041485,
      1777041545,
      1777041545,
      1777041607,
      1777041607,
      1777041607,
      1777041845,
      1777041845,
      1777041845,
      1777041905,
      1777041905,
      1777041905,
      1777041965,
      1777042025,
      1777042025,
      1777042085,
      1777042085,
      1777042266,
      1777042266,
      1777042266,
      1777042326,
      1777042386,
      1777042386,
      1777042386,
      1777042566,
      1777042566,
      1777042598,
      1777042598,
      1777042626,
      1777042658,
      1777042658,
      1777042686,
      1777042718,
      1777042784,
      1777042784,
      1777042838,
      1777042898,
      1777042898,
      1777042898,
      1777042898,
      1777043047,
      1777043084,
      1777043107,
      1777043107,
      1777043138,
      1777043198,
      1777043227,
      1777043227,
      1777043259,
      1777043259,
      1777043347,
      1777043347,
      1777043347,
      1777043407,
      1777043504,
      1777043504,
      1777043527,
      1777043587,
      1777043587
    ],
    "wof:geomhash": "ce0c90ddf6a052cda974d1295290adea",
    "wof:id": 2031101039,
    "wof:repo": "sfomuseum-data-flights-2026-04"
  },
  "bbox": [
    -122.2936111111111,
    35.88444444444444,
    -115.17861111111111,
    37.683055555555555
  ],
  "geometry": {"coordinates":[[-115.17861111111111,36.07555555555556],[-115.23194444444445,36.07138888888889],[-115.23194444444445,36.07138888888889],[-115.32166666666666,35.947222222222216],[-115.32166666666666,35.947222222222216],[-115.32972222222222,35.93694444444444],[-115.39611111111111,35.88444444444444],[-115.39611111111111,35.88444444444444],[-115.50666666666666,35.886944444444445],[-115.50666666666666,35.886944444444445],[-115.6275,35.89],[-116.04666666666667,36.11472222222223],[-116.04666666666667,36.11472222222223],[-116.04666666666667,36.11472222222223],[-116.45916666666668,36.379444444444445],[-116.45916666666668,36.379444444444445],[-116.45916666666668,36.379444444444445],[-116.45916666666668,36.379444444444445],[-116.68027777777779,36.52222222222222],[-116.68027777777779,36.52222222222222],[-116.68027777777779,36.52222222222222],[-116.68027777777779,36.52222222222222],[-117.10527777777777,36.98444444444444],[-117.17333333333333,37.08861111111111],[-117.17333333333333,37.08861111111111],[-117.17333333333333,37.08861111111111],[-117.17333333333333,37.08861111111111],[-117.50888888888889,37.47888888888889],[-117.50888888888889,37.47888888888889],[-117.50888888888889,37.47888888888889],[-117.50888888888889,37.47888888888889],[-117.93305555555555,37.528055555555554],[-117.93305555555555,37.528055555555554],[-118.07472222222222,37.53916666666667],[-118.07472222222222,37.53916666666667],[-118.21666666666667,37.55],[-118.21666666666667,37.55],[-118.21666666666667,37.55],[-118.7975,37.593611111111116],[-118.7975,37.593611111111116],[-118.7975,37.593611111111116],[-118.95333333333333,37.605000000000004],[-118.95333333333333,37.605000000000004],[-118.95333333333333,37.605000000000004],[-119.07583333333334,37.61361111111111],[-119.21944444444445,37.62361111111111],[-119.21944444444445,37.62361111111111],[-119.36444444444444,37.63333333333333],[-119.36444444444444,37.63333333333333],[-119.80444444444444,37.6625],[-119.80444444444444,37.6625],[-119.80444444444444,37.6625],[-119.95083333333334,37.67166666666667],[-120.09777777777778,37.68083333333333],[-120.09777777777778,37.68083333333333],[-120.09777777777778,37.68083333333333],[-120.54333333333334,37.683055555555555],[-120.54333333333334,37.683055555555555],[-120.63333333333334,37.666666666666664],[-120.63333333333334,37.666666666666664],[-120.68277777777779,37.666666666666664],[-120.76666666666667,37.65],[-120.76666666666667,37.65],[-120.81805555555555,37.650555555555556],[-120.9,37.63333333333333],[-121.05,37.61666666666667],[-121.05,37.61666666666667],[-121.16666666666667,37.6],[-121.28333333333333,37.583333333333336],[-121.28333333333333,37.583333333333336],[-121.28333333333333,37.583333333333336],[-121.28333333333333,37.583333333333336],[-121.55777777777777,37.558611111111105],[-121.63333333333334,37.55],[-121.65944444444445,37.54277777777778],[-121.65944444444445,37.54277777777778],[-121.71666666666667,37.53333333333333],[-121.8,37.5],[-121.8475,37.4975],[-121.8475,37.4975],[-121.9,37.5],[-121.9,37.5],[-122.03055555555555,37.499722222222225],[-122.03055555555555,37.499722222222225],[-122.03055555555555,37.499722222222225],[-122.11361111111111,37.51027777777778],[-122.21666666666667,37.55],[-122.21666666666667,37.55],[-122.24222222222222,37.56527777777777],[-122.2936111111111,37.58694444444445],[-122.2936111111111,37.58694444444445]],"type":"LineString"}
}
