{
  "id": 2015226221,
  "type": "Feature",
  "properties": {
    "geom:area": 0,
    "geom:bbox": "-122.613360,36.728030,-121.883220,37.612660",
    "geom:latitude": 37.22059018138618,
    "geom:longitude": -122.25897937434418,
    "src:alt_label": "swim-approach",
    "src:geom": "swim",
    "swim:elevations": [
      4793,
      4589,
      4512,
      4301,
      4267,
      4267,
      4238,
      4046,
      3901,
      3747,
      3490,
      3415,
      3308,
      3101,
      3050,
      3048,
      3048,
      3048,
      3048,
      3048,
      3048,
      2797,
      2773,
      2743,
      2743,
      2743,
      2743,
      2743,
      2627,
      2435,
      2256,
      2065,
      1875,
      1831,
      1829,
      1829,
      1829,
      1689,
      1614,
      1373,
      1231,
      1218,
      1032,
      922,
      914,
      914,
      808,
      612,
      494,
      397,
      276,
      149,
      202
    ],
    "swim:geom": "approach",
    "swim:timestamps": [
      1775564003,
      1775564030,
      1775564040,
      1775564077,
      1775564104,
      1775564137,
      1775564214,
      1775564244,
      1775564265,
      1775564295,
      1775564336,
      1775564346,
      1775564360,
      1775564394,
      1775564411,
      1775564453,
      1775564477,
      1775564514,
      1775564545,
      1775564572,
      1775564590,
      1775564637,
      1775564643,
      1775564690,
      1775564719,
      1775564750,
      1775564811,
      1775564841,
      1775564873,
      1775564903,
      1775564930,
      1775564965,
      1775564993,
      1775565015,
      1775565055,
      1775565086,
      1775565116,
      1775565146,
      1775565167,
      1775565198,
      1775565223,
      1775565246,
      1775565291,
      1775565318,
      1775565345,
      1775565372,
      1775565413,
      1775565446,
      1775565471,
      1775565504,
      1775565529,
      1775565572,
      1775565612
    ],
    "wof:geomhash": "d4193071ed955ea0ba3848eacfc8e828",
    "wof:id": 2015226221,
    "wof:repo": "sfomuseum-data-flights-2026-04"
  },
  "bbox": [
    -122.61336,
    36.72803,
    -121.88322,
    37.61266
  ],
  "geometry": {"coordinates":[[-121.88322,36.72803],[-121.90022,36.76486],[-121.9037,36.77774],[-121.91862,36.83019],[-121.9291,36.86712],[-121.94168,36.91245],[-122.00797,36.98178],[-122.05265,36.97764],[-122.08313,36.97457],[-122.125,36.97001],[-122.181,36.97595],[-122.19441,36.97873],[-122.21262,36.98267],[-122.24882,37.00672],[-122.26372,37.01935],[-122.30428,37.05325],[-122.32602,37.07144],[-122.36102,37.10056],[-122.38987,37.12459],[-122.41501,37.14545],[-122.43235,37.15985],[-122.47508,37.19539],[-122.48102,37.2002],[-122.52532,37.23551],[-122.5532,37.2577],[-122.58213,37.28077],[-122.61336,37.33532],[-122.57911,37.3544],[-122.53357,37.36258],[-122.49229,37.36991],[-122.45335,37.37704],[-122.4054,37.38549],[-122.36683,37.39244],[-122.3373,37.39061],[-122.28191,37.37752],[-122.23999,37.37678],[-122.20318,37.38932],[-122.16552,37.40219],[-122.14029,37.41053],[-122.10997,37.4245],[-122.10944,37.44519],[-122.11548,37.46397],[-122.12768,37.50082],[-122.14089,37.51787],[-122.1614,37.52864],[-122.18457,37.53865],[-122.21786,37.552],[-122.24257,37.56253],[-122.26117,37.57103],[-122.28633,37.58134],[-122.3044,37.58902],[-122.33379,37.60124],[-122.36041,37.61266]],"type":"LineString"}
}
