{
  "id": 2031117267,
  "type": "Feature",
  "properties": {
    "geom:area": 0,
    "geom:bbox": "-122.751140,37.275150,-122.181400,38.454360",
    "geom:latitude": 37.76701352917834,
    "geom:longitude": -122.46831384552077,
    "src:alt_label": "swim-approach",
    "src:geom": "swim",
    "swim:elevations": [
      7418,
      7209,
      6816,
      6431,
      6188,
      5885,
      5559,
      5248,
      5064,
      4779,
      4667,
      4563,
      4387,
      4250,
      3785,
      3681,
      3443,
      3372,
      3353,
      3353,
      3353,
      3353,
      3350,
      3175,
      3131,
      3109,
      2908,
      2745,
      2743,
      2594,
      2326,
      2031,
      1829,
      1829,
      1829,
      1765,
      1537,
      1264,
      1218,
      878,
      792,
      792,
      756,
      639,
      455,
      347,
      314,
      301,
      87,
      0
    ],
    "swim:geom": "approach",
    "swim:timestamps": [
      1777229244,
      1777229267,
      1777229294,
      1777229334,
      1777229363,
      1777229396,
      1777229438,
      1777229477,
      1777229500,
      1777229540,
      1777229556,
      1777229571,
      1777229596,
      1777229618,
      1777229663,
      1777229672,
      1777229712,
      1777229757,
      1777229812,
      1777229826,
      1777229844,
      1777229895,
      1777229927,
      1777229957,
      1777229967,
      1777229970,
      1777229995,
      1777230024,
      1777230061,
      1777230103,
      1777230147,
      1777230177,
      1777230236,
      1777230265,
      1777230289,
      1777230323,
      1777230356,
      1777230382,
      1777230397,
      1777230475,
      1777230502,
      1777230517,
      1777230560,
      1777230581,
      1777230618,
      1777230646,
      1777230656,
      1777230660,
      1777230713,
      1777230734
    ],
    "wof:geomhash": "cbd3db47d247a99f8452b5e9b139d5d5",
    "wof:id": 2031117267,
    "wof:repo": "sfomuseum-data-flights-2026-04"
  },
  "bbox": [
    -122.75114,
    37.27515,
    -122.1814,
    38.45436
  ],
  "geometry": {"coordinates":[[-122.5491,38.45436],[-122.58156,38.42048],[-122.61771,38.38241],[-122.67226,38.32515],[-122.70968,38.28569],[-122.74883,38.23991],[-122.75114,38.16827],[-122.73177,38.10107],[-122.72101,38.06437],[-122.70228,38.00052],[-122.69533,37.9763],[-122.68894,37.95393],[-122.67737,37.91656],[-122.65927,37.88767],[-122.60415,37.83392],[-122.59219,37.82287],[-122.54619,37.77974],[-122.4995,37.73566],[-122.44459,37.68385],[-122.43109,37.6711],[-122.41308,37.6542],[-122.36388,37.60694],[-122.3414,37.57238],[-122.32246,37.53994],[-122.31627,37.52938],[-122.31446,37.52618],[-122.30444,37.49816],[-122.3095,37.4655],[-122.31711,37.42543],[-122.32607,37.37921],[-122.33592,37.33242],[-122.34222,37.29932],[-122.28664,37.27515],[-122.26508,37.30131],[-122.25224,37.32462],[-122.23595,37.35775],[-122.22509,37.39055],[-122.21626,37.41682],[-122.21106,37.43184],[-122.18647,37.50081],[-122.1814,37.5237],[-122.18843,37.535],[-122.22243,37.55704],[-122.24167,37.56499],[-122.2739,37.57856],[-122.29448,37.58722],[-122.30188,37.59032],[-122.30482,37.59158],[-122.34479,37.60838],[-122.35938,37.61503]],"type":"LineString"}
}
