{
  "id": 2031136439,
  "type": "Feature",
  "properties": {
    "geom:area": 0,
    "geom:bbox": "-122.540510,36.735220,-121.479800,37.667500",
    "geom:latitude": 37.20785597425282,
    "geom:longitude": -122.09508272022599,
    "src:alt_label": "swim-takeoff",
    "src:geom": "swim",
    "swim:elevations": [
      152,
      321,
      948,
      1090,
      1539,
      2114,
      2181,
      2980,
      3248,
      3525,
      3997,
      4040,
      4343,
      5005,
      5276,
      5559,
      6050,
      6802,
      7301,
      7586,
      7930,
      8088,
      8551,
      8675,
      8928,
      9112,
      9423,
      9568,
      9709
    ],
    "swim:geom": "takeoff",
    "swim:timestamps": [
      1777382968,
      1777382982,
      1777383054,
      1777383063,
      1777383104,
      1777383147,
      1777383152,
      1777383207,
      1777383229,
      1777383254,
      1777383293,
      1777383301,
      1777383332,
      1777383381,
      1777383404,
      1777383430,
      1777383466,
      1777383501,
      1777383536,
      1777383565,
      1777383596,
      1777383610,
      1777383656,
      1777383670,
      1777383700,
      1777383722,
      1777383770,
      1777383792,
      1777383814
    ],
    "wof:geomhash": "74b224471a436d314f8a17f97a409a10",
    "wof:id": 2031136439,
    "wof:repo": "sfomuseum-data-flights-2026-04"
  },
  "bbox": [
    -122.54051,
    36.73522,
    -121.4798,
    37.6675
  ],
  "geometry": {"coordinates":[[-122.39003,37.62494],[-122.4019,37.62974],[-122.47722,37.66324],[-122.48902,37.6675],[-122.54051,37.64852],[-122.52818,37.5985],[-122.52505,37.59205],[-122.49144,37.52492],[-122.47681,37.49673],[-122.4595,37.46266],[-122.427,37.40886],[-122.41569,37.39897],[-122.36435,37.36393],[-122.28002,37.30502],[-122.2408,37.27739],[-122.19166,37.24286],[-122.12601,37.19644],[-122.06327,37.15197],[-122.0006,37.10744],[-121.94974,37.07141],[-121.89312,37.03101],[-121.86829,37.01353],[-121.78291,36.95273],[-121.75644,36.93418],[-121.70068,36.8942],[-121.6587,36.86462],[-121.56532,36.79738],[-121.52219,36.76618],[-121.4798,36.73522]],"type":"LineString"}
}
