{
  "id": 2015342999,
  "type": "Feature",
  "properties": {
    "geom:area": 0,
    "geom:bbox": "-122.366667,34.197500,-118.345278,37.616667",
    "geom:latitude": 35.776248912761154,
    "geom:longitude": -120.4359234180008,
    "src:alt_label": "swim-path",
    "src:geom": "swim",
    "swim:altitudes": [
      "008",
      "040",
      "040",
      "064",
      "064",
      "078",
      "078",
      "078",
      "078",
      "197",
      "197",
      "197",
      "198",
      "221",
      "221",
      "221",
      "241",
      "241",
      "241",
      "277",
      "310C",
      "310C",
      "310C",
      "310C",
      "310C",
      "310C",
      "310C",
      "310C",
      "310C",
      "310C",
      "310C",
      "310C",
      "310C",
      "310C",
      "310C",
      "310C",
      "310C",
      "310C",
      "310C",
      "310C",
      "310C",
      "310C",
      "310C",
      "310C",
      "310C",
      "310C",
      "310C",
      "310C",
      "310",
      "307",
      "307",
      "307",
      "307",
      "285",
      "285",
      "263",
      "263",
      "239",
      "239",
      "240",
      "240",
      "218",
      "218",
      "195",
      "195",
      "196",
      "196",
      "171",
      "171",
      "171",
      "132",
      "132",
      "134",
      "124",
      "110",
      "110",
      "110",
      "110",
      "110",
      "110",
      "096",
      "070",
      "070",
      "060",
      "060",
      "060",
      "060",
      "060",
      "060",
      "060",
      "060",
      "038",
      "038",
      "038",
      "039",
      "039",
      "039",
      "028",
      "028",
      "019",
      "019",
      "012",
      "012",
      "012",
      "012",
      "007",
      "007"
    ],
    "swim:geom": "path",
    "swim:speeds": [
      149,
      162,
      162,
      217,
      217,
      247,
      247,
      247,
      247,
      356,
      356,
      356,
      352,
      374,
      374,
      374,
      380,
      380,
      380,
      412,
      414,
      414,
      414,
      414,
      438,
      438,
      438,
      452,
      452,
      456,
      456,
      457,
      457,
      457,
      457,
      457,
      457,
      457,
      457,
      457,
      457,
      458,
      458,
      458,
      458,
      459,
      459,
      459,
      460,
      457,
      457,
      457,
      457,
      435,
      435,
      428,
      428,
      421,
      421,
      422,
      422,
      407,
      407,
      393,
      393,
      395,
      395,
      383,
      383,
      383,
      346,
      346,
      344,
      336,
      330,
      330,
      295,
      295,
      295,
      295,
      289,
      284,
      284,
      274,
      274,
      274,
      277,
      277,
      277,
      277,
      277,
      215,
      215,
      215,
      223,
      223,
      223,
      193,
      193,
      154,
      154,
      138,
      138,
      138,
      138,
      135,
      135
    ],
    "swim:timestamps": [
      1776702164,
      1776702212,
      1776702212,
      1776702272,
      1776702272,
      1776702316,
      1776702316,
      1776702316,
      1776702316,
      1776702556,
      1776702556,
      1776702556,
      1776702562,
      1776702616,
      1776702616,
      1776702616,
      1776702682,
      1776702682,
      1776702682,
      1776702802,
      1776702917,
      1776702917,
      1776702917,
      1776702917,
      1776702977,
      1776702977,
      1776702977,
      1776703097,
      1776703097,
      1776703217,
      1776703217,
      1776703277,
      1776703277,
      1776703277,
      1776703277,
      1776703343,
      1776703343,
      1776703343,
      1776703397,
      1776703397,
      1776703397,
      1776703517,
      1776703523,
      1776703523,
      1776703523,
      1776703583,
      1776703583,
      1776703583,
      1776703637,
      1776703758,
      1776703758,
      1776703758,
      1776703758,
      1776703878,
      1776703878,
      1776703944,
      1776703944,
      1776703998,
      1776703998,
      1776704004,
      1776704004,
      1776704064,
      1776704064,
      1776704118,
      1776704118,
      1776704124,
      1776704124,
      1776704178,
      1776704178,
      1776704178,
      1776704298,
      1776704298,
      1776704304,
      1776704320,
      1776704362,
      1776704362,
      1776704424,
      1776704424,
      1776704424,
      1776704424,
      1776704484,
      1776704602,
      1776704602,
      1776704662,
      1776704662,
      1776704662,
      1776704722,
      1776704722,
      1776704722,
      1776704722,
      1776704722,
      1776704837,
      1776704837,
      1776704837,
      1776704845,
      1776704845,
      1776704845,
      1776704897,
      1776704897,
      1776704957,
      1776704957,
      1776705025,
      1776705025,
      1776705025,
      1776705025,
      1776705085,
      1776705085
    ],
    "wof:geomhash": "a54de2945d4515e9bcb3e37dd7157eff",
    "wof:id": 2015342999,
    "wof:repo": "sfomuseum-data-flights-2026-04"
  },
  "bbox": [
    -122.36666666666666,
    34.1975,
    -118.34527777777777,
    37.61666666666667
  ],
  "geometry": {"coordinates":[[-122.36666666666666,37.61666666666667],[-122.33333333333333,37.6],[-122.33333333333333,37.6],[-122.26666666666667,37.583333333333336],[-122.26666666666667,37.583333333333336],[-122.23388888888888,37.54527777777778],[-122.23388888888888,37.54527777777778],[-122.23388888888888,37.54527777777778],[-122.23388888888888,37.54527777777778],[-121.97305555555556,37.264722222222225],[-121.97305555555556,37.264722222222225],[-121.97305555555556,37.264722222222225],[-121.97027777777778,37.255833333333335],[-121.89527777777778,37.18111111111111],[-121.89527777777778,37.18111111111111],[-121.89527777777778,37.18111111111111],[-121.8125,37.08583333333333],[-121.8125,37.08583333333333],[-121.8125,37.08583333333333],[-121.64222222222223,36.903055555555554],[-121.4825,36.73444444444444],[-121.4825,36.73444444444444],[-121.4825,36.73444444444444],[-121.4825,36.73444444444444],[-121.39555555555556,36.63916666666667],[-121.39555555555556,36.63916666666667],[-121.39555555555556,36.63916666666667],[-121.21000000000001,36.43555555555555],[-121.21000000000001,36.43555555555555],[-121.0125,36.23722222222222],[-121.0125,36.23722222222222],[-120.91277777777778,36.13972222222222],[-120.91277777777778,36.13972222222222],[-120.91277777777778,36.13972222222222],[-120.91277777777778,36.13972222222222],[-120.79583333333333,36.02472222222222],[-120.79583333333333,36.02472222222222],[-120.79583333333333,36.02472222222222],[-120.7125,35.942499999999995],[-120.7125,35.942499999999995],[-120.7125,35.942499999999995],[-120.51361111111112,35.74583333333334],[-120.49555555555555,35.72777777777778],[-120.49555555555555,35.72777777777778],[-120.49555555555555,35.72777777777778],[-120.39666666666668,35.62916666666667],[-120.39666666666668,35.62916666666667],[-120.39666666666668,35.62916666666667],[-120.31222222222222,35.546388888888885],[-120.07944444444443,35.36222222222222],[-120.07944444444443,35.36222222222222],[-120.07944444444443,35.36222222222222],[-120.07944444444443,35.36222222222222],[-119.86583333333333,35.19555555555555],[-119.86583333333333,35.19555555555555],[-119.7625,35.114444444444445],[-119.7625,35.114444444444445],[-119.65722222222223,35.031666666666666],[-119.65722222222223,35.031666666666666],[-119.66027777777778,35.034166666666664],[-119.66027777777778,35.034166666666664],[-119.5611111111111,34.95611111111111],[-119.5611111111111,34.95611111111111],[-119.46222222222222,34.87777777777778],[-119.46222222222222,34.87777777777778],[-119.465,34.88],[-119.465,34.88],[-119.36888888888888,34.803888888888885],[-119.36888888888888,34.803888888888885],[-119.36888888888888,34.803888888888885],[-119.19722222222222,34.66722222222222],[-119.19722222222222,34.66722222222222],[-119.19888888888889,34.66861111111111],[-119.15,34.63333333333333],[-119.1,34.583333333333336],[-119.1,34.583333333333336],[-119.0425,34.540277777777774],[-119.0425,34.540277777777774],[-119.0425,34.540277777777774],[-119.0425,34.540277777777774],[-118.98833333333333,34.474444444444444],[-118.83333333333333,34.36666666666667],[-118.83333333333333,34.36666666666667],[-118.76666666666667,34.31666666666667],[-118.76666666666667,34.31666666666667],[-118.76666666666667,34.31666666666667],[-118.7,34.266666666666666],[-118.7,34.266666666666666],[-118.7,34.266666666666666],[-118.7,34.266666666666666],[-118.7,34.266666666666666],[-118.56666666666666,34.2],[-118.56666666666666,34.2],[-118.56666666666666,34.2],[-118.56555555555555,34.20055555555556],[-118.56555555555555,34.20055555555556],[-118.56555555555555,34.20055555555556],[-118.5,34.2],[-118.5,34.2],[-118.43333333333334,34.2],[-118.43333333333334,34.2],[-118.39277777777778,34.19833333333333],[-118.39277777777778,34.19833333333333],[-118.39277777777778,34.19833333333333],[-118.39277777777778,34.19833333333333],[-118.34527777777777,34.1975],[-118.34527777777777,34.1975]],"type":"LineString"}
}
