{
  "id": 2031116029,
  "type": "Feature",
  "properties": {
    "geom:area": 0,
    "geom:bbox": "-123.215278,37.400000,-122.082778,47.439167",
    "geom:latitude": 42.42479601105934,
    "geom:longitude": -122.95373086882438,
    "src:alt_label": "swim-path",
    "src:geom": "swim",
    "swim:altitudes": [
      "010",
      "010",
      "010",
      "019",
      "019",
      "019",
      "019",
      "019",
      "019",
      "023",
      "023",
      "036",
      "036",
      "087",
      "087",
      "087",
      "087",
      "087",
      "087",
      "087",
      "087",
      "148",
      "148",
      "148",
      "148",
      "169",
      "169",
      "169",
      "169",
      "169",
      "169",
      "217",
      "217",
      "217",
      "217",
      "217",
      "217",
      "217",
      "251",
      "251",
      "251",
      "251",
      "251",
      "251",
      "278",
      "278",
      "278",
      "278",
      "278",
      "289",
      "289",
      "289",
      "301",
      "301",
      "301",
      "301",
      "327",
      "327",
      "336",
      "336",
      "336",
      "336",
      "336",
      "336",
      "336",
      "356",
      "356",
      "356",
      "356",
      "356",
      "356",
      "356",
      "370C",
      "370C",
      "370C",
      "370C",
      "370C",
      "370C",
      "370C",
      "370C",
      "370C",
      "370C",
      "370C",
      "370C",
      "370C",
      "370C",
      "370C",
      "370C",
      "370C",
      "370C",
      "370C",
      "370C",
      "370C",
      "370C",
      "370C",
      "370C",
      "370C",
      "370C",
      "370C",
      "370C",
      "370C",
      "370C",
      "370C",
      "370C",
      "370C",
      "370C",
      "370C",
      "370C",
      "370C",
      "370C",
      "370C",
      "370C",
      "370C",
      "370C",
      "370C",
      "370C",
      "370C",
      "370C",
      "370C",
      "370C",
      "370C",
      "370C",
      "370C",
      "370C",
      "370C",
      "370C",
      "370C",
      "370C",
      "370C",
      "370C",
      "370C",
      "370C",
      "370C",
      "370C",
      "370C",
      "370C",
      "370C",
      "370C",
      "370C",
      "370C",
      "370C",
      "370C",
      "370C",
      "370C",
      "370C",
      "370C",
      "370C",
      "370C",
      "370C",
      "370C",
      "370C",
      "370C",
      "370C",
      "370C",
      "370C",
      "370C",
      "370C",
      "370C",
      "370C",
      "370C",
      "370C",
      "370C",
      "370C",
      "370C",
      "370C",
      "370C",
      "370C",
      "370C",
      "370",
      "370",
      "370",
      "370",
      "367",
      "367",
      "367",
      "367",
      "367",
      "367",
      "367",
      "294",
      "294",
      "294",
      "294",
      "294",
      "294",
      "294",
      "294",
      "294",
      "294",
      "201",
      "201",
      "201",
      "201",
      "201",
      "201",
      "184",
      "184",
      "184",
      "184",
      "158",
      "158",
      "158",
      "158",
      "152",
      "152",
      "137",
      "137",
      "137",
      "137",
      "137",
      "126",
      "126",
      "126",
      "126",
      "126",
      "126",
      "110C",
      "110C",
      "110C",
      "110C",
      "110C",
      "110",
      "110C",
      "110C",
      "110C",
      "110C",
      "110C",
      "110C",
      "088",
      "088",
      "088",
      "088",
      "088",
      "088",
      "074",
      "074",
      "074",
      "074",
      "074",
      "074",
      "074",
      "074",
      "051",
      "051",
      "051",
      "051",
      "051",
      "040",
      "040",
      "040",
      "040",
      "040",
      "040",
      "040",
      "040",
      "036",
      "036",
      "036",
      "036",
      "036",
      "036",
      "027",
      "027",
      "027",
      "027",
      "027",
      "027",
      "027",
      "005",
      "005",
      "005",
      "005",
      "005"
    ],
    "swim:geom": "path",
    "swim:speeds": [
      148,
      148,
      148,
      154,
      154,
      154,
      154,
      154,
      154,
      179,
      179,
      229,
      229,
      275,
      275,
      275,
      275,
      275,
      275,
      275,
      275,
      365,
      365,
      365,
      365,
      371,
      371,
      371,
      371,
      371,
      371,
      419,
      419,
      419,
      419,
      419,
      419,
      419,
      445,
      445,
      445,
      445,
      445,
      445,
      472,
      472,
      472,
      472,
      472,
      483,
      483,
      483,
      488,
      488,
      488,
      488,
      487,
      487,
      483,
      483,
      483,
      483,
      483,
      483,
      483,
      476,
      476,
      476,
      476,
      476,
      476,
      476,
      460,
      460,
      460,
      460,
      460,
      459,
      459,
      459,
      459,
      459,
      460,
      460,
      460,
      460,
      460,
      459,
      459,
      459,
      459,
      459,
      459,
      462,
      462,
      462,
      462,
      462,
      462,
      462,
      461,
      461,
      464,
      464,
      464,
      464,
      460,
      460,
      460,
      460,
      460,
      460,
      459,
      459,
      459,
      459,
      459,
      459,
      459,
      459,
      459,
      459,
      457,
      457,
      457,
      457,
      457,
      457,
      453,
      453,
      453,
      453,
      452,
      452,
      452,
      452,
      452,
      452,
      452,
      452,
      452,
      452,
      452,
      452,
      450,
      450,
      450,
      450,
      448,
      448,
      448,
      448,
      448,
      447,
      447,
      447,
      447,
      447,
      447,
      447,
      445,
      445,
      445,
      445,
      445,
      445,
      445,
      445,
      448,
      448,
      448,
      448,
      447,
      447,
      447,
      447,
      447,
      447,
      447,
      456,
      456,
      456,
      456,
      456,
      456,
      456,
      456,
      456,
      456,
      394,
      394,
      394,
      394,
      394,
      394,
      382,
      382,
      382,
      382,
      364,
      364,
      364,
      364,
      365,
      365,
      362,
      362,
      362,
      362,
      362,
      340,
      340,
      340,
      340,
      340,
      340,
      291,
      291,
      291,
      291,
      291,
      259,
      263,
      263,
      263,
      263,
      263,
      263,
      249,
      249,
      249,
      249,
      249,
      249,
      239,
      239,
      239,
      239,
      239,
      239,
      239,
      239,
      206,
      206,
      206,
      206,
      206,
      199,
      199,
      199,
      199,
      199,
      199,
      199,
      199,
      169,
      169,
      169,
      169,
      169,
      169,
      154,
      154,
      154,
      154,
      154,
      154,
      154,
      121,
      121,
      121,
      121,
      121
    ],
    "swim:timestamps": [
      1777212454,
      1777212454,
      1777212454,
      1777212482,
      1777212482,
      1777212482,
      1777212482,
      1777212482,
      1777212482,
      1777212496,
      1777212496,
      1777212542,
      1777212542,
      1777212662,
      1777212662,
      1777212662,
      1777212662,
      1777212662,
      1777212662,
      1777212662,
      1777212662,
      1777212842,
      1777212842,
      1777212842,
      1777212842,
      1777212902,
      1777212902,
      1777212902,
      1777212902,
      1777212902,
      1777212902,
      1777213082,
      1777213082,
      1777213082,
      1777213082,
      1777213082,
      1777213082,
      1777213082,
      1777213262,
      1777213262,
      1777213262,
      1777213262,
      1777213262,
      1777213262,
      1777213442,
      1777213442,
      1777213442,
      1777213442,
      1777213442,
      1777213502,
      1777213502,
      1777213502,
      1777213563,
      1777213563,
      1777213563,
      1777213563,
      1777213683,
      1777213683,
      1777213743,
      1777213743,
      1777213743,
      1777213743,
      1777213743,
      1777213743,
      1777213743,
      1777213863,
      1777213863,
      1777213863,
      1777213863,
      1777213863,
      1777213863,
      1777213863,
      1777214223,
      1777214223,
      1777214223,
      1777214223,
      1777214223,
      1777214343,
      1777214343,
      1777214343,
      1777214343,
      1777214343,
      1777214463,
      1777214463,
      1777214463,
      1777214463,
      1777214463,
      1777214643,
      1777214643,
      1777214643,
      1777214643,
      1777214643,
      1777214643,
      1777214763,
      1777214763,
      1777214763,
      1777214763,
      1777214763,
      1777214823,
      1777214823,
      1777214884,
      1777214884,
      1777214941,
      1777214941,
      1777214941,
      1777214941,
      1777215004,
      1777215004,
      1777215004,
      1777215004,
      1777215004,
      1777215004,
      1777215302,
      1777215302,
      1777215302,
      1777215302,
      1777215302,
      1777215302,
      1777215302,
      1777215302,
      1777215302,
      1777215302,
      1777215602,
      1777215602,
      1777215602,
      1777215602,
      1777215602,
      1777215602,
      1777215722,
      1777215722,
      1777215722,
      1777215722,
      1777215784,
      1777215784,
      1777215784,
      1777215784,
      1777215784,
      1777215784,
      1777215903,
      1777215903,
      1777215903,
      1777215903,
      1777215903,
      1777215903,
      1777216023,
      1777216023,
      1777216023,
      1777216023,
      1777216083,
      1777216083,
      1777216083,
      1777216083,
      1777216083,
      1777216145,
      1777216145,
      1777216145,
      1777216145,
      1777216145,
      1777216145,
      1777216145,
      1777216505,
      1777216505,
      1777216505,
      1777216505,
      1777216505,
      1777216505,
      1777216505,
      1777216505,
      1777216623,
      1777216623,
      1777216623,
      1777216623,
      1777216683,
      1777216683,
      1777216683,
      1777216683,
      1777216683,
      1777216683,
      1777216683,
      1777216924,
      1777216924,
      1777216924,
      1777216924,
      1777216924,
      1777216924,
      1777216924,
      1777216924,
      1777216924,
      1777216924,
      1777217224,
      1777217224,
      1777217224,
      1777217224,
      1777217224,
      1777217224,
      1777217284,
      1777217284,
      1777217284,
      1777217284,
      1777217378,
      1777217378,
      1777217378,
      1777217378,
      1777217404,
      1777217404,
      1777217464,
      1777217464,
      1777217464,
      1777217464,
      1777217464,
      1777217498,
      1777217498,
      1777217498,
      1777217498,
      1777217498,
      1777217498,
      1777217584,
      1777217584,
      1777217584,
      1777217584,
      1777217584,
      1777217678,
      1777217704,
      1777217704,
      1777217704,
      1777217704,
      1777217704,
      1777217704,
      1777217810,
      1777217810,
      1777217810,
      1777217810,
      1777217810,
      1777217810,
      1777217885,
      1777217885,
      1777217885,
      1777217885,
      1777217885,
      1777217885,
      1777217885,
      1777217885,
      1777217984,
      1777217984,
      1777217984,
      1777217984,
      1777217984,
      1777218065,
      1777218065,
      1777218065,
      1777218065,
      1777218065,
      1777218065,
      1777218065,
      1777218065,
      1777218164,
      1777218164,
      1777218164,
      1777218164,
      1777218164,
      1777218164,
      1777218230,
      1777218230,
      1777218230,
      1777218230,
      1777218230,
      1777218230,
      1777218230,
      1777218425,
      1777218425,
      1777218425,
      1777218425,
      1777218425
    ],
    "wof:geomhash": "9b813921e2619e69db08b754927bde18",
    "wof:id": 2031116029,
    "wof:repo": "sfomuseum-data-flights-2026-04"
  },
  "bbox": [
    -123.21527777777779,
    37.4,
    -122.08277777777778,
    47.439166666666665
  ],
  "geometry": {"coordinates":[[-122.30833333333334,47.439166666666665],[-122.30833333333334,47.439166666666665],[-122.30833333333334,47.439166666666665],[-122.30833333333334,47.420833333333334],[-122.30833333333334,47.420833333333334],[-122.30833333333334,47.420833333333334],[-122.30833333333334,47.420833333333334],[-122.30833333333334,47.420833333333334],[-122.30833333333334,47.420833333333334],[-122.30888888888889,47.408055555555556],[-122.30888888888889,47.408055555555556],[-122.30916666666667,47.363055555555555],[-122.30916666666667,47.363055555555555],[-122.4825,47.3075],[-122.4825,47.3075],[-122.4825,47.3075],[-122.4825,47.3075],[-122.4825,47.3075],[-122.4825,47.3075],[-122.4825,47.3075],[-122.4825,47.3075],[-122.8775,47.28611111111111],[-122.8775,47.28611111111111],[-122.8775,47.28611111111111],[-122.8775,47.28611111111111],[-123.01861111111111,47.24722222222222],[-123.01861111111111,47.24722222222222],[-123.01861111111111,47.24722222222222],[-123.01861111111111,47.24722222222222],[-123.01861111111111,47.24722222222222],[-123.01861111111111,47.24722222222222],[-123.21527777777779,46.96],[-123.21527777777779,46.96],[-123.21527777777779,46.96],[-123.21527777777779,46.96],[-123.21527777777779,46.96],[-123.21527777777779,46.96],[-123.21527777777779,46.96],[-123.2025,46.59166666666667],[-123.2025,46.59166666666667],[-123.2025,46.59166666666667],[-123.2025,46.59166666666667],[-123.2025,46.59166666666667],[-123.2025,46.59166666666667],[-123.19027777777778,46.21805555555556],[-123.19027777777778,46.21805555555556],[-123.19027777777778,46.21805555555556],[-123.19027777777778,46.21805555555556],[-123.19027777777778,46.21805555555556],[-123.18583333333333,46.081944444444446],[-123.18583333333333,46.081944444444446],[-123.18583333333333,46.081944444444446],[-123.18138888888889,45.94694444444444],[-123.18138888888889,45.94694444444444],[-123.18138888888889,45.94694444444444],[-123.18138888888889,45.94694444444444],[-123.17277777777778,45.675],[-123.17277777777778,45.675],[-123.16833333333334,45.54083333333333],[-123.16833333333334,45.54083333333333],[-123.16833333333334,45.54083333333333],[-123.16833333333334,45.54083333333333],[-123.16833333333334,45.54083333333333],[-123.16833333333334,45.54083333333333],[-123.16833333333334,45.54083333333333],[-123.16000000000001,45.274166666666666],[-123.16000000000001,45.274166666666666],[-123.16000000000001,45.274166666666666],[-123.16000000000001,45.274166666666666],[-123.16000000000001,45.274166666666666],[-123.16000000000001,45.274166666666666],[-123.16000000000001,45.274166666666666],[-123.13583333333334,44.50194444444445],[-123.13583333333334,44.50194444444445],[-123.13583333333334,44.50194444444445],[-123.13583333333334,44.50194444444445],[-123.13583333333334,44.50194444444445],[-123.12694444444443,44.24722222222222],[-123.12694444444443,44.24722222222222],[-123.12694444444443,44.24722222222222],[-123.12694444444443,44.24722222222222],[-123.12694444444443,44.24722222222222],[-123.11861111111111,44.01305555555555],[-123.11861111111111,44.01305555555555],[-123.11861111111111,44.01305555555555],[-123.11861111111111,44.01305555555555],[-123.11861111111111,44.01305555555555],[-123.10499999999999,43.626111111111115],[-123.10499999999999,43.626111111111115],[-123.10499999999999,43.626111111111115],[-123.10499999999999,43.626111111111115],[-123.10499999999999,43.626111111111115],[-123.10499999999999,43.626111111111115],[-123.09583333333333,43.36666666666667],[-123.09583333333333,43.36666666666667],[-123.09583333333333,43.36666666666667],[-123.09583333333333,43.36666666666667],[-123.09583333333333,43.36666666666667],[-123.09138888888889,43.23861111111111],[-123.09138888888889,43.23861111111111],[-123.08722222222222,43.11],[-123.08722222222222,43.11],[-123.08333333333333,42.98388888888889],[-123.08333333333333,42.98388888888889],[-123.08333333333333,42.98388888888889],[-123.08333333333333,42.98388888888889],[-123.07833333333333,42.85444444444445],[-123.07833333333333,42.85444444444445],[-123.07833333333333,42.85444444444445],[-123.07833333333333,42.85444444444445],[-123.07833333333333,42.85444444444445],[-123.07833333333333,42.85444444444445],[-123.05722222222222,42.22138888888889],[-123.05722222222222,42.22138888888889],[-123.05722222222222,42.22138888888889],[-123.05722222222222,42.22138888888889],[-123.05722222222222,42.22138888888889],[-123.05722222222222,42.22138888888889],[-123.05722222222222,42.22138888888889],[-123.05722222222222,42.22138888888889],[-123.05722222222222,42.22138888888889],[-123.05722222222222,42.22138888888889],[-123.03611111111111,41.558055555555555],[-123.03611111111111,41.558055555555555],[-123.03611111111111,41.558055555555555],[-123.03611111111111,41.558055555555555],[-123.03611111111111,41.558055555555555],[-123.03611111111111,41.558055555555555],[-123.02888888888889,41.321111111111115],[-123.02888888888889,41.321111111111115],[-123.02888888888889,41.321111111111115],[-123.02888888888889,41.321111111111115],[-123.02472222222222,41.191111111111105],[-123.02472222222222,41.191111111111105],[-123.02472222222222,41.191111111111105],[-123.02472222222222,41.191111111111105],[-123.02472222222222,41.191111111111105],[-123.02472222222222,41.191111111111105],[-123.01722222222222,40.93583333333333],[-123.01722222222222,40.93583333333333],[-123.01722222222222,40.93583333333333],[-123.01722222222222,40.93583333333333],[-123.01722222222222,40.93583333333333],[-123.01722222222222,40.93583333333333],[-123.01,40.69555555555555],[-123.01,40.69555555555555],[-123.01,40.69555555555555],[-123.01,40.69555555555555],[-123.00638888888889,40.57166666666667],[-123.00638888888889,40.57166666666667],[-123.00638888888889,40.57166666666667],[-123.00638888888889,40.57166666666667],[-123.00638888888889,40.57166666666667],[-123.0025,40.44944444444444],[-123.0025,40.44944444444444],[-123.0025,40.44944444444444],[-123.0025,40.44944444444444],[-123.0025,40.44944444444444],[-123.0025,40.44944444444444],[-123.0025,40.44944444444444],[-122.98055555555555,39.69305555555555],[-122.98055555555555,39.69305555555555],[-122.98055555555555,39.69305555555555],[-122.98055555555555,39.69305555555555],[-122.98055555555555,39.69305555555555],[-122.98055555555555,39.69305555555555],[-122.98055555555555,39.69305555555555],[-122.98055555555555,39.69305555555555],[-122.97333333333333,39.440555555555555],[-122.97333333333333,39.440555555555555],[-122.97333333333333,39.440555555555555],[-122.97333333333333,39.440555555555555],[-122.96972222222223,39.31666666666667],[-122.96972222222223,39.31666666666667],[-122.96972222222223,39.31666666666667],[-122.96972222222223,39.31666666666667],[-122.96972222222223,39.31666666666667],[-122.96972222222223,39.31666666666667],[-122.96972222222223,39.31666666666667],[-122.94222222222223,38.81805555555556],[-122.94222222222223,38.81805555555556],[-122.94222222222223,38.81805555555556],[-122.94222222222223,38.81805555555556],[-122.94222222222223,38.81805555555556],[-122.94222222222223,38.81805555555556],[-122.94222222222223,38.81805555555556],[-122.94222222222223,38.81805555555556],[-122.94222222222223,38.81805555555556],[-122.94222222222223,38.81805555555556],[-122.77416666666666,38.24722222222222],[-122.77416666666666,38.24722222222222],[-122.77416666666666,38.24722222222222],[-122.77416666666666,38.24722222222222],[-122.77416666666666,38.24722222222222],[-122.77416666666666,38.24722222222222],[-122.74444444444444,38.14416666666666],[-122.74444444444444,38.14416666666666],[-122.74444444444444,38.14416666666666],[-122.74444444444444,38.14416666666666],[-122.7,37.983333333333334],[-122.7,37.983333333333334],[-122.7,37.983333333333334],[-122.7,37.983333333333334],[-122.68694444444445,37.946666666666665],[-122.68694444444445,37.946666666666665],[-122.63444444444445,37.862500000000004],[-122.63444444444445,37.862500000000004],[-122.63444444444445,37.862500000000004],[-122.63444444444445,37.862500000000004],[-122.63444444444445,37.862500000000004],[-122.58333333333333,37.81666666666667],[-122.58333333333333,37.81666666666667],[-122.58333333333333,37.81666666666667],[-122.58333333333333,37.81666666666667],[-122.58333333333333,37.81666666666667],[-122.58333333333333,37.81666666666667],[-122.49111111111111,37.727222222222224],[-122.49111111111111,37.727222222222224],[-122.49111111111111,37.727222222222224],[-122.49111111111111,37.727222222222224],[-122.49111111111111,37.727222222222224],[-122.38333333333334,37.63333333333333],[-122.37305555555555,37.61611111111111],[-122.37305555555555,37.61611111111111],[-122.37305555555555,37.61611111111111],[-122.37305555555555,37.61611111111111],[-122.37305555555555,37.61611111111111],[-122.37305555555555,37.61611111111111],[-122.3,37.5],[-122.3,37.5],[-122.3,37.5],[-122.3,37.5],[-122.3,37.5],[-122.3,37.5],[-122.2575,37.43083333333333],[-122.2575,37.43083333333333],[-122.2575,37.43083333333333],[-122.2575,37.43083333333333],[-122.2575,37.43083333333333],[-122.2575,37.43083333333333],[-122.2575,37.43083333333333],[-122.2575,37.43083333333333],[-122.13333333333334,37.4],[-122.13333333333334,37.4],[-122.13333333333334,37.4],[-122.13333333333334,37.4],[-122.13333333333334,37.4],[-122.08277777777778,37.45666666666667],[-122.08277777777778,37.45666666666667],[-122.08277777777778,37.45666666666667],[-122.08277777777778,37.45666666666667],[-122.08277777777778,37.45666666666667],[-122.08277777777778,37.45666666666667],[-122.08277777777778,37.45666666666667],[-122.08277777777778,37.45666666666667],[-122.15,37.516666666666666],[-122.15,37.516666666666666],[-122.15,37.516666666666666],[-122.15,37.516666666666666],[-122.15,37.516666666666666],[-122.15,37.516666666666666],[-122.2,37.55],[-122.2,37.55],[-122.2,37.55],[-122.2,37.55],[-122.2,37.55],[-122.2,37.55],[-122.2,37.55],[-122.33138888888888,37.60027777777778],[-122.33138888888888,37.60027777777778],[-122.33138888888888,37.60027777777778],[-122.33138888888888,37.60027777777778],[-122.33138888888888,37.60027777777778]],"type":"LineString"}
}
