{
  "id": 2015346855,
  "type": "Feature",
  "properties": {
    "geom:area": 0,
    "geom:bbox": "-122.380000,37.490000,-73.610000,42.690000",
    "geom:latitude": 40.55722816717859,
    "geom:longitude": -97.79904066342156,
    "src:alt_label": "swim-route",
    "src:geom": "swim",
    "swim:geom": "route",
    "wof:geomhash": "95fd16d226f484c8ba5b563fe60930fa",
    "wof:id": 2015346855,
    "wof:repo": "sfomuseum-data-flights-2026-04"
  },
  "bbox": [
    -122.38,
    37.49,
    -73.61,
    42.69
  ],
  "geometry": {"coordinates":[[-73.78,40.64],[-73.73,40.72],[-73.72,40.73],[-73.69,40.78],[-73.69,40.79],[-73.68,40.8],[-73.67,40.81],[-73.67,40.82],[-73.66,40.84],[-73.65,40.85],[-73.65,40.85],[-73.64,40.86],[-73.61,40.91],[-73.65,40.92],[-73.68,40.93],[-73.69,40.93],[-73.76,40.95],[-73.88,40.99],[-73.97,41.02],[-74.01,41.03],[-74.1,41.06],[-74.13,41.07],[-74.17,41.08],[-74.23,41.1],[-74.29,41.12],[-74.3,41.12],[-74.38,41.14],[-74.45,41.16],[-74.52,41.19],[-74.53,41.19],[-74.62,41.22],[-74.81,41.27],[-74.93,41.31],[-75.15,41.38],[-75.16,41.38],[-75.43,41.46],[-75.48,41.48],[-75.57,41.5],[-75.73,41.55],[-75.86,41.58],[-76.04,41.63],[-76.22,41.69],[-76.52,41.77],[-76.54,41.77],[-76.93,41.88],[-77.35,41.99],[-77.41,42.01],[-77.5,42.04],[-78.27,42.24],[-78.91,42.4],[-79.62,42.57],[-79.79,42.61],[-80.5,42.64],[-80.6,42.65],[-81.27,42.67],[-81.42,42.68],[-81.46,42.69],[-83.4,42.59],[-83.81,42.56],[-84.09,42.55],[-84.48,42.53],[-85,42.48],[-85.89,42.42],[-86.17,42.39],[-87,42.31],[-87.48,42.27],[-87.95,42.22],[-88.55,42.15],[-89.04,42.09],[-90.28,41.93],[-90.85,41.85],[-91.37,41.78],[-92.17,41.65],[-92.57,41.59],[-93.04,41.52],[-93.51,41.44],[-93.75,41.4],[-95.88,41.07],[-96.74,40.92],[-97.32,40.84],[-99.05,40.55],[-99.63,40.45],[-101.37,40.13],[-101.63,40.12],[-103.19,40.01],[-104.62,39.89],[-105.11,39.86],[-107.22,39.67],[-107.91,39.6],[-108.83,39.5],[-109.73,39.49],[-109.96,39.5],[-110.17,39.43],[-110.66,39.39],[-111.71,39.21],[-113.39,38.94],[-114.23,38.79],[-115.9,38.49],[-117.27,38.21],[-118.02,38.06],[-118.76,37.9],[-119.1,37.86],[-119.12,37.85],[-119.38,37.82],[-119.72,37.78],[-119.82,37.77],[-119.92,37.76],[-120.02,37.75],[-120.31,37.71],[-120.4,37.7],[-120.4,37.7],[-120.57,37.68],[-120.69,37.67],[-120.75,37.66],[-120.79,37.65],[-120.8,37.65],[-120.96,37.63],[-121,37.63],[-121.01,37.63],[-121.07,37.62],[-121.17,37.61],[-121.26,37.59],[-121.39,37.58],[-121.41,37.58],[-121.6,37.55],[-121.61,37.55],[-121.62,37.55],[-121.72,37.53],[-121.8,37.51],[-121.88,37.49],[-121.89,37.49],[-122.01,37.53],[-122.08,37.54],[-122.18,37.57],[-122.18,37.57],[-122.28,37.59],[-122.33,37.61],[-122.36,37.61],[-122.38,37.62]],"type":"LineString"}
}
