{
  "id": 2015248623,
  "type": "Feature",
  "properties": {
    "geom:area": 0,
    "geom:bbox": "-122.405020,37.626140,-121.258630,38.260280",
    "geom:latitude": 38.08203380125018,
    "geom:longitude": -121.95870377794249,
    "src:alt_label": "swim-takeoff",
    "src:geom": "swim",
    "swim:elevations": [
      183,
      490,
      522,
      695,
      864,
      1256,
      1562,
      1927,
      2302,
      2666,
      3269,
      3807,
      4507,
      5112,
      5214,
      6317,
      6680,
      6915,
      7022,
      7218,
      7530,
      7602
    ],
    "swim:geom": "takeoff",
    "swim:timestamps": [
      1775780513,
      1775780547,
      1775780556,
      1775780595,
      1775780608,
      1775780637,
      1775780667,
      1775780695,
      1775780725,
      1775780753,
      1775780821,
      1775780893,
      1775780964,
      1775781024,
      1775781033,
      1775781158,
      1775781203,
      1775781233,
      1775781253,
      1775781280,
      1775781328,
      1775781343
    ],
    "wof:geomhash": "983c42eae8045c11039abe25e8b4a6c6",
    "wof:id": 2015248623,
    "wof:repo": "sfomuseum-data-flights-2026-04"
  },
  "bbox": [
    -122.40502,
    37.62614,
    -121.25863,
    38.26028
  ],
  "geometry": {"coordinates":[[-122.39253,37.62614],[-122.40502,37.6497],[-122.39923,37.65783],[-122.36753,37.69193],[-122.35519,37.7048],[-122.33578,37.73761],[-122.35121,37.7736],[-122.36867,37.80831],[-122.38587,37.84665],[-122.3857,37.88527],[-122.33867,37.96922],[-122.21886,38.04111],[-122.09316,38.11794],[-121.98161,38.18551],[-121.96499,38.19563],[-121.69701,38.24763],[-121.59256,38.251],[-121.52233,38.25305],[-121.47618,38.25437],[-121.41202,38.25612],[-121.29679,38.25924],[-121.25863,38.26028]],"type":"LineString"}
}
