{
  "id": 2015265227,
  "type": "Feature",
  "properties": {
    "geom:area": 0,
    "geom:bbox": "-122.526340,37.628560,-121.284570,38.142220",
    "geom:latitude": 37.93205483274905,
    "geom:longitude": -122.001359404414,
    "src:alt_label": "swim-takeoff",
    "src:geom": "swim",
    "swim:elevations": [
      213,
      383,
      626,
      788,
      1058,
      1121,
      1268,
      1561,
      1792,
      2222,
      2511,
      2799,
      3119,
      3252,
      3316,
      3419,
      3925,
      4237,
      4344,
      4788,
      4906,
      5080,
      5173,
      5596,
      5688,
      5890,
      6132,
      6331,
      6436,
      6709,
      6951,
      7012
    ],
    "swim:geom": "takeoff",
    "swim:timestamps": [
      1775896585,
      1775896595,
      1775896635,
      1775896667,
      1775896697,
      1775896703,
      1775896712,
      1775896730,
      1775896749,
      1775896786,
      1775896811,
      1775896835,
      1775896867,
      1775896891,
      1775896904,
      1775896922,
      1775896972,
      1775897006,
      1775897014,
      1775897059,
      1775897071,
      1775897091,
      1775897104,
      1775897154,
      1775897165,
      1775897193,
      1775897223,
      1775897247,
      1775897259,
      1775897301,
      1775897336,
      1775897348
    ],
    "wof:geomhash": "b48780a6e62be4ded33d3b53e3c819bd",
    "wof:id": 2015265227,
    "wof:repo": "sfomuseum-data-flights-2026-04"
  },
  "bbox": [
    -122.52634,
    37.62856,
    -121.28457,
    38.14222
  ],
  "geometry": {"coordinates":[[-122.39183,37.62856],[-122.40072,37.63286],[-122.43989,37.64859],[-122.47785,37.66347],[-122.51595,37.68368],[-122.52113,37.69043],[-122.52548,37.70192],[-122.52625,37.72586],[-122.52634,37.75122],[-122.51676,37.80113],[-122.48459,37.82394],[-122.44493,37.83571],[-122.39086,37.85035],[-122.34862,37.86154],[-122.32411,37.86809],[-122.28806,37.87783],[-122.18177,37.90652],[-122.10975,37.92587],[-122.09096,37.93088],[-121.99095,37.95743],[-121.96387,37.96464],[-121.91812,37.97671],[-121.88944,37.98423],[-121.77007,38.01576],[-121.74384,38.02268],[-121.67554,38.04064],[-121.60092,38.06013],[-121.54071,38.07572],[-121.51082,38.08355],[-121.40479,38.11111],[-121.31529,38.1343],[-121.28457,38.14222]],"type":"LineString"}
}
