{
  "id": 2031108479,
  "type": "Feature",
  "properties": {
    "geom:area": 0,
    "geom:bbox": "-122.350000,33.916667,-118.542222,37.616667",
    "geom:latitude": 35.53458567622738,
    "geom:longitude": -120.64575142406999,
    "src:alt_label": "swim-path",
    "src:geom": "swim",
    "swim:altitudes": [
      "044",
      "044",
      "048",
      "048",
      "048",
      "138",
      "138",
      "191",
      "191",
      "191",
      "217",
      "217",
      "241",
      "241",
      "263",
      "263",
      "283",
      "283",
      "320C",
      "320C",
      "320C",
      "320C",
      "320C",
      "320C",
      "320C",
      "320C",
      "320C",
      "320C",
      "320C",
      "320C",
      "320C",
      "320C",
      "320C",
      "320C",
      "320C",
      "320C",
      "320C",
      "320C",
      "320C",
      "313",
      "289",
      "276",
      "276",
      "270",
      "270",
      "270",
      "270",
      "264",
      "264",
      "258",
      "250",
      "242",
      "233",
      "233",
      "233",
      "215",
      "198",
      "190",
      "148",
      "148",
      "141",
      "141",
      "141",
      "125",
      "125",
      "116",
      "116",
      "105",
      "105",
      "105",
      "105",
      "099",
      "094",
      "087",
      "073",
      "066",
      "066",
      "059",
      "053",
      "046",
      "046",
      "046",
      "042",
      "042",
      "033",
      "027",
      "027",
      "018",
      "018",
      "010",
      "010",
      "002",
      "002",
      "002"
    ],
    "swim:geom": "path",
    "swim:speeds": [
      216,
      216,
      249,
      249,
      249,
      335,
      335,
      379,
      379,
      379,
      406,
      406,
      420,
      420,
      427,
      427,
      443,
      443,
      451,
      451,
      449,
      449,
      450,
      450,
      450,
      450,
      450,
      451,
      453,
      453,
      453,
      453,
      453,
      453,
      453,
      453,
      453,
      451,
      451,
      435,
      421,
      413,
      413,
      415,
      415,
      415,
      415,
      413,
      413,
      411,
      402,
      403,
      400,
      400,
      400,
      396,
      385,
      381,
      354,
      354,
      354,
      354,
      354,
      341,
      341,
      334,
      334,
      315,
      315,
      315,
      315,
      283,
      286,
      284,
      285,
      285,
      285,
      273,
      276,
      250,
      250,
      250,
      230,
      230,
      202,
      186,
      186,
      151,
      151,
      148,
      148,
      153,
      153,
      153
    ],
    "swim:timestamps": [
      1777111383,
      1777111383,
      1777111396,
      1777111396,
      1777111396,
      1777111623,
      1777111623,
      1777111744,
      1777111744,
      1777111744,
      1777111804,
      1777111804,
      1777111864,
      1777111864,
      1777111916,
      1777111916,
      1777111984,
      1777111984,
      1777112104,
      1777112104,
      1777112157,
      1777112157,
      1777112164,
      1777112164,
      1777112164,
      1777112224,
      1777112224,
      1777112284,
      1777112344,
      1777112404,
      1777112464,
      1777112464,
      1777112517,
      1777112584,
      1777112697,
      1777112757,
      1777112757,
      1777112824,
      1777112824,
      1777112937,
      1777113030,
      1777113090,
      1777113090,
      1777113117,
      1777113117,
      1777113117,
      1777113117,
      1777113144,
      1777113144,
      1777113177,
      1777113204,
      1777113237,
      1777113264,
      1777113264,
      1777113264,
      1777113324,
      1777113384,
      1777113417,
      1777113564,
      1777113564,
      1777113597,
      1777113597,
      1777113597,
      1777113657,
      1777113657,
      1777113684,
      1777113684,
      1777113744,
      1777113744,
      1777113744,
      1777113744,
      1777113804,
      1777113837,
      1777113864,
      1777113924,
      1777113957,
      1777113957,
      1777113984,
      1777114017,
      1777114044,
      1777114044,
      1777114044,
      1777114077,
      1777114077,
      1777114137,
      1777114164,
      1777114164,
      1777114224,
      1777114224,
      1777114284,
      1777114284,
      1777114344,
      1777114344,
      1777114344
    ],
    "wof:geomhash": "408e331a1870d129c2465a47093ae99f",
    "wof:id": 2031108479,
    "wof:repo": "sfomuseum-data-flights-2026-04"
  },
  "bbox": [
    -122.35,
    33.916666666666664,
    -118.54222222222222,
    37.61666666666667
  ],
  "geometry": {"coordinates":[[-118.54222222222222,33.925],[-118.54222222222222,33.925],[-118.56666666666666,33.916666666666664],[-118.56666666666666,33.916666666666664],[-118.56666666666666,33.916666666666664],[-118.92722222222223,33.91972222222222],[-118.92722222222223,33.91972222222222],[-119.14861111111112,33.99055555555556],[-119.14861111111112,33.99055555555556],[-119.14861111111112,33.99055555555556],[-119.23972222222223,34.07222222222222],[-119.23972222222223,34.07222222222222],[-119.32305555555556,34.16722222222222],[-119.32305555555556,34.16722222222222],[-119.41333333333334,34.25527777777778],[-119.41333333333334,34.25527777777778],[-119.51333333333334,34.35027777777778],[-119.51333333333334,34.35027777777778],[-119.71416666666667,34.54138888888889],[-119.71416666666667,34.54138888888889],[-119.79388888888889,34.617222222222225],[-119.79388888888889,34.617222222222225],[-119.81166666666667,34.63388888888889],[-119.81166666666667,34.63388888888889],[-119.81166666666667,34.63388888888889],[-119.91083333333334,34.72777777777778],[-119.91083333333334,34.72777777777778],[-120.01138888888889,34.822500000000005],[-120.11333333333333,34.918055555555554],[-120.215,35.013333333333335],[-120.31611111111111,35.1075],[-120.31611111111111,35.1075],[-120.40166666666667,35.18722222222222],[-120.52,35.29722222222222],[-120.71361111111112,35.47555555555556],[-120.81666666666666,35.57027777777778],[-120.81666666666666,35.57027777777778],[-120.93777777777778,35.68111111111111],[-120.93777777777778,35.68111111111111],[-121.12194444444444,35.848888888888894],[-121.28333333333333,36],[-121.36666666666666,36.083333333333336],[-121.36666666666666,36.083333333333336],[-121.40055555555556,36.11416666666667],[-121.40055555555556,36.11416666666667],[-121.40055555555556,36.11416666666667],[-121.40055555555556,36.11416666666667],[-121.43333333333334,36.166666666666664],[-121.43333333333334,36.166666666666664],[-121.47611111111111,36.211111111111116],[-121.51666666666667,36.266666666666666],[-121.55,36.30555555555555],[-121.58333333333333,36.35],[-121.58333333333333,36.35],[-121.58333333333333,36.35],[-121.66666666666667,36.45],[-121.73333333333333,36.55],[-121.76944444444445,36.58416666666667],[-121.91666666666667,36.81666666666667],[-121.91666666666667,36.81666666666667],[-121.92611111111111,36.85583333333334],[-121.92611111111111,36.85583333333334],[-121.92611111111111,36.85583333333334],[-121.95277777777778,36.94944444444444],[-121.95277777777778,36.94944444444444],[-121.96666666666667,37],[-121.96666666666667,37],[-122,37.083333333333336],[-122,37.083333333333336],[-122,37.083333333333336],[-122,37.083333333333336],[-122.03333333333333,37.166666666666664],[-122.04833333333333,37.19611111111111],[-122.06666666666666,37.233333333333334],[-122.1,37.31666666666667],[-122.10777777777777,37.34722222222222],[-122.10777777777777,37.34722222222222],[-122.11666666666666,37.38333333333333],[-122.13416666666667,37.41888888888889],[-122.15,37.45],[-122.15,37.45],[-122.15,37.45],[-122.1563888888889,37.48638888888889],[-122.1563888888889,37.48638888888889],[-122.18,37.538333333333334],[-122.21666666666667,37.55],[-122.21666666666667,37.55],[-122.26666666666667,37.56666666666667],[-122.26666666666667,37.56666666666667],[-122.3,37.6],[-122.3,37.6],[-122.35,37.61666666666667],[-122.35,37.61666666666667],[-122.35,37.61666666666667]],"type":"LineString"}
}
