{
  "id": 2031137759,
  "type": "Feature",
  "properties": {
    "geom:area": 0,
    "geom:bbox": "-122.403056,37.637778,-121.259167,44.209722",
    "geom:latitude": 40.91791498992968,
    "geom:longitude": -121.90044945059678,
    "src:alt_label": "swim-path",
    "src:geom": "swim",
    "swim:altitudes": [
      "019",
      "019",
      "036",
      "036",
      "059",
      "059",
      "105",
      "105",
      "105",
      "105",
      "268",
      "268",
      "268",
      "268",
      "286",
      "286",
      "286",
      "286",
      "300",
      "300",
      "300",
      "312",
      "312",
      "370",
      "370",
      "370",
      "377",
      "383",
      "383",
      "383",
      "383",
      "398C",
      "398C",
      "400C",
      "400C",
      "400C",
      "400C",
      "400C",
      "400C",
      "400C",
      "400C",
      "400C",
      "400C",
      "400C",
      "400C",
      "400C",
      "400C",
      "400C",
      "400C",
      "400C",
      "400C",
      "400C",
      "400C",
      "400C",
      "400C",
      "400C",
      "400C",
      "400C",
      "400C",
      "400C",
      "400C",
      "400C",
      "400C",
      "400C",
      "400C",
      "400C",
      "400C",
      "400C",
      "388",
      "378",
      "378",
      "378",
      "378",
      "378",
      "340",
      "340",
      "330",
      "330",
      "309",
      "309",
      "309",
      "219",
      "219",
      "191",
      "191",
      "191",
      "168",
      "168",
      "154",
      "138",
      "138",
      "138",
      "120",
      "091",
      "091",
      "091",
      "091",
      "047",
      "047",
      "047",
      "047"
    ],
    "swim:geom": "path",
    "swim:speeds": [
      162,
      162,
      166,
      166,
      259,
      259,
      284,
      284,
      284,
      284,
      393,
      393,
      393,
      393,
      396,
      396,
      396,
      396,
      394,
      394,
      394,
      396,
      396,
      415,
      415,
      415,
      421,
      430,
      430,
      430,
      430,
      434,
      434,
      440,
      440,
      440,
      440,
      434,
      434,
      434,
      434,
      430,
      430,
      430,
      426,
      426,
      424,
      424,
      424,
      423,
      423,
      418,
      418,
      418,
      418,
      418,
      408,
      408,
      408,
      405,
      403,
      403,
      403,
      403,
      403,
      403,
      403,
      403,
      406,
      390,
      390,
      390,
      390,
      390,
      395,
      395,
      401,
      401,
      397,
      397,
      397,
      365,
      365,
      350,
      350,
      350,
      295,
      295,
      294,
      294,
      294,
      294,
      264,
      216,
      216,
      216,
      216,
      156,
      156,
      156,
      156
    ],
    "swim:timestamps": [
      1777396991,
      1777396991,
      1777397022,
      1777397022,
      1777397088,
      1777397088,
      1777397171,
      1777397171,
      1777397171,
      1777397171,
      1777397592,
      1777397592,
      1777397592,
      1777397592,
      1777397649,
      1777397649,
      1777397649,
      1777397649,
      1777397712,
      1777397712,
      1777397712,
      1777397772,
      1777397772,
      1777398073,
      1777398073,
      1777398073,
      1777398133,
      1777398190,
      1777398190,
      1777398190,
      1777398190,
      1777398313,
      1777398313,
      1777398370,
      1777398370,
      1777398370,
      1777398370,
      1777398430,
      1777398430,
      1777398430,
      1777398430,
      1777398550,
      1777398550,
      1777398550,
      1777398673,
      1777398673,
      1777398733,
      1777398733,
      1777398733,
      1777398790,
      1777398790,
      1777398911,
      1777398911,
      1777398911,
      1777398911,
      1777398911,
      1777399094,
      1777399094,
      1777399094,
      1777399151,
      1777399214,
      1777399214,
      1777399214,
      1777399214,
      1777399214,
      1777399271,
      1777399271,
      1777399271,
      1777399454,
      1777399511,
      1777399511,
      1777399511,
      1777399511,
      1777399511,
      1777399752,
      1777399752,
      1777399812,
      1777399812,
      1777399872,
      1777399872,
      1777399872,
      1777400112,
      1777400112,
      1777400232,
      1777400232,
      1777400232,
      1777400352,
      1777400352,
      1777400412,
      1777400472,
      1777400472,
      1777400472,
      1777400533,
      1777400713,
      1777400713,
      1777400713,
      1777400713,
      1777401013,
      1777401013,
      1777401013,
      1777401013
    ],
    "wof:geomhash": "5f29a8be0159c18fb24e3d3abac8ff11",
    "wof:id": 2031137759,
    "wof:repo": "sfomuseum-data-flights-2026-04"
  },
  "bbox": [
    -122.40305555555557,
    37.63777777777778,
    -121.25916666666667,
    44.209722222222226
  ],
  "geometry": {"coordinates":[[-122.40305555555557,37.63777777777778],[-122.40305555555557,37.63777777777778],[-122.38333333333334,37.65],[-122.38333333333334,37.65],[-122.31666666666666,37.68333333333333],[-122.31666666666666,37.68333333333333],[-122.28138888888888,37.78944444444444],[-122.28138888888888,37.78944444444444],[-122.28138888888888,37.78944444444444],[-122.28138888888888,37.78944444444444],[-122.1061111111111,38.49055555555556],[-122.1061111111111,38.49055555555556],[-122.1061111111111,38.49055555555556],[-122.1061111111111,38.49055555555556],[-122.10277777777777,38.59388888888889],[-122.10277777777777,38.59388888888889],[-122.10277777777777,38.59388888888889],[-122.10277777777777,38.59388888888889],[-122.09666666666666,38.711666666666666],[-122.09666666666666,38.711666666666666],[-122.09666666666666,38.711666666666666],[-122.09166666666667,38.823888888888895],[-122.09166666666667,38.823888888888895],[-122.06666666666666,39.38472222222222],[-122.06666666666666,39.38472222222222],[-122.06666666666666,39.38472222222222],[-122.06166666666667,39.50361111111111],[-122.05833333333334,39.60861111111111],[-122.05833333333334,39.60861111111111],[-122.05833333333334,39.60861111111111],[-122.05833333333334,39.60861111111111],[-122.04444444444444,39.867777777777775],[-122.04444444444444,39.867777777777775],[-122.03999999999999,39.970555555555556],[-122.03999999999999,39.970555555555556],[-122.03999999999999,39.970555555555556],[-122.03999999999999,39.970555555555556],[-122.03444444444445,40.08972222222222],[-122.03444444444445,40.08972222222222],[-122.03444444444445,40.08972222222222],[-122.03444444444445,40.08972222222222],[-122.02416666666666,40.32805555555556],[-122.02416666666666,40.32805555555556],[-122.02416666666666,40.32805555555556],[-122.0125,40.573888888888895],[-122.0125,40.573888888888895],[-122.00694444444444,40.69166666666666],[-122.00694444444444,40.69166666666666],[-122.00694444444444,40.69166666666666],[-122.00166666666667,40.8075],[-122.00166666666667,40.8075],[-121.99027777777778,41.038888888888884],[-121.99027777777778,41.038888888888884],[-121.99027777777778,41.038888888888884],[-121.99027777777778,41.038888888888884],[-121.99027777777778,41.038888888888884],[-121.97444444444444,41.38333333333333],[-121.97444444444444,41.38333333333333],[-121.97444444444444,41.38333333333333],[-121.96944444444445,41.495],[-121.95416666666667,41.605000000000004],[-121.95416666666667,41.605000000000004],[-121.95416666666667,41.605000000000004],[-121.95416666666667,41.605000000000004],[-121.95416666666667,41.605000000000004],[-121.92777777777778,41.71555555555556],[-121.92777777777778,41.71555555555556],[-121.92777777777778,41.71555555555556],[-121.84916666666666,42.04611111111111],[-121.82472222222222,42.14944444444444],[-121.82472222222222,42.14944444444444],[-121.82472222222222,42.14944444444444],[-121.82472222222222,42.14944444444444],[-121.82472222222222,42.14944444444444],[-121.7225,42.57333333333334],[-121.7225,42.57333333333334],[-121.69555555555556,42.68416666666666],[-121.69555555555556,42.68416666666666],[-121.66888888888889,42.79361111111111],[-121.66888888888889,42.79361111111111],[-121.66888888888889,42.79361111111111],[-121.56777777777778,43.20527777777778],[-121.56777777777778,43.20527777777778],[-121.51805555555555,43.396388888888886],[-121.51805555555555,43.396388888888886],[-121.51805555555555,43.396388888888886],[-121.47055555555556,43.57555555555556],[-121.47055555555556,43.57555555555556],[-121.45083333333334,43.64972222222222],[-121.42861111111111,43.7325],[-121.42861111111111,43.7325],[-121.42861111111111,43.7325],[-121.4088888888889,43.80611111111111],[-121.35722222222222,43.99861111111111],[-121.35722222222222,43.99861111111111],[-121.35722222222222,43.99861111111111],[-121.35722222222222,43.99861111111111],[-121.25916666666667,44.209722222222226],[-121.25916666666667,44.209722222222226],[-121.25916666666667,44.209722222222226],[-121.25916666666667,44.209722222222226]],"type":"LineString"}
}
