{
  "id": 2015186639,
  "type": "Feature",
  "properties": {
    "geom:area": 0,
    "geom:bbox": "-122.355980,36.759100,-121.898960,37.610720",
    "geom:latitude": 37.245108552931036,
    "geom:longitude": -122.0802597577839,
    "src:alt_label": "swim-approach",
    "src:geom": "swim",
    "swim:elevations": [
      5685,
      5586,
      5467,
      5102,
      4888,
      4702,
      4352,
      4134,
      3854,
      3702,
      3493,
      3217,
      3121,
      2993,
      2920,
      2726,
      2501,
      2339,
      2266,
      2181,
      1967,
      1830,
      1583,
      1303,
      1219,
      1219,
      1209,
      1185,
      943,
      849,
      729,
      636,
      604,
      515,
      375,
      322,
      232,
      137,
      29
    ],
    "swim:geom": "approach",
    "swim:timestamps": [
      1775142077,
      1775142090,
      1775142108,
      1775142147,
      1775142173,
      1775142195,
      1775142238,
      1775142265,
      1775142298,
      1775142319,
      1775142346,
      1775142384,
      1775142416,
      1775142448,
      1775142466,
      1775142506,
      1775142536,
      1775142565,
      1775142576,
      1775142600,
      1775142640,
      1775142660,
      1775142694,
      1775142727,
      1775142768,
      1775142799,
      1775142830,
      1775142846,
      1775142895,
      1775142918,
      1775142947,
      1775142974,
      1775142984,
      1775143004,
      1775143044,
      1775143059,
      1775143098,
      1775143123,
      1775143154
    ],
    "wof:geomhash": "df041b63cb235bf1c25efdfbbbac3da3",
    "wof:id": 2015186639,
    "wof:repo": "sfomuseum-data-flights-2026-04"
  },
  "bbox": [
    -122.35598,
    36.7591,
    -121.89896,
    37.61072
  ],
  "geometry": {"coordinates":[[-121.89896,36.7591],[-121.90376,36.77646],[-121.91023,36.79939],[-121.92484,36.85116],[-121.93428,36.8858],[-121.94257,36.91578],[-121.96065,36.97083],[-121.97354,37.00425],[-121.98923,37.04481],[-121.99901,37.06999],[-122.01171,37.10211],[-122.02862,37.14552],[-122.04412,37.18127],[-122.07426,37.20607],[-122.0913,37.21956],[-122.1194,37.25184],[-122.13683,37.27967],[-122.15366,37.30638],[-122.15466,37.31697],[-122.14191,37.339],[-122.12117,37.37063],[-122.11119,37.38588],[-122.09561,37.4105],[-122.08159,37.43461],[-122.07081,37.46588],[-122.09103,37.48717],[-122.11286,37.50723],[-122.12727,37.51472],[-122.1739,37.53405],[-122.19298,37.54219],[-122.21551,37.5516],[-122.23558,37.56008],[-122.24288,37.56315],[-122.25733,37.5693],[-122.28604,37.58119],[-122.29581,37.58541],[-122.32014,37.59557],[-122.33576,37.60211],[-122.35598,37.61072]],"type":"LineString"}
}
