{
  "id": 2031110151,
  "type": "Feature",
  "properties": {
    "geom:area": 0,
    "geom:bbox": "-122.401111,25.768889,-80.315000,38.497222",
    "geom:latitude": 33.33828206758984,
    "geom:longitude": -101.1667218042142,
    "src:alt_label": "swim-path",
    "src:geom": "swim",
    "swim:altitudes": [
      "012",
      "012",
      "012",
      "033",
      "033",
      "077",
      "138",
      "138",
      "138",
      "138",
      "138",
      "184",
      "202",
      "202",
      "236",
      "236",
      "246",
      "262",
      "262",
      "288",
      "288",
      "329",
      "329",
      "339",
      "339",
      "339",
      "357",
      "363",
      "363",
      "363",
      "370C",
      "370C",
      "370C",
      "370C",
      "370C",
      "370C",
      "370C",
      "370C",
      "370C",
      "370C",
      "370C",
      "370C",
      "370C",
      "370C",
      "370C",
      "370C",
      "370C",
      "370C",
      "370C",
      "370C",
      "370C",
      "370C",
      "370C",
      "370C",
      "370C",
      "370C",
      "370C",
      "370C",
      "370C",
      "370C",
      "370C",
      "370C",
      "370C",
      "370C",
      "370C",
      "370C",
      "370C",
      "370C",
      "370C",
      "370C",
      "370C",
      "370C",
      "370C",
      "370C",
      "370C",
      "370C",
      "370C",
      "370C",
      "370C",
      "370C",
      "370C",
      "370C",
      "370C",
      "370C",
      "370C",
      "370C",
      "370C",
      "370C",
      "370C",
      "370C",
      "370C",
      "370C",
      "370C",
      "370C",
      "370C",
      "370C",
      "370C",
      "370C",
      "370C",
      "370C",
      "370C",
      "370C",
      "370C",
      "370C",
      "370C",
      "370C",
      "370C",
      "370C",
      "370C",
      "370C",
      "370C",
      "370C",
      "370C",
      "370C",
      "370C",
      "370C",
      "370C",
      "370C",
      "370C",
      "370C",
      "370C",
      "370C",
      "370C",
      "370C",
      "370C",
      "370C",
      "370C",
      "370C",
      "370C",
      "370C",
      "370C",
      "370C",
      "370C",
      "370C",
      "370C",
      "370C",
      "370C",
      "370C",
      "370C",
      "370C",
      "370C",
      "370C",
      "370C",
      "370C",
      "370C",
      "370C",
      "370C",
      "370C",
      "370C",
      "370C",
      "370C",
      "370C",
      "370C",
      "370C",
      "370C",
      "370C",
      "370C",
      "370C",
      "370C",
      "370C",
      "370C",
      "370C",
      "370C",
      "370C",
      "370C",
      "370C",
      "370C",
      "370C",
      "370C",
      "370C",
      "370C",
      "370C",
      "370C",
      "370C",
      "370C",
      "370C",
      "370C",
      "370C",
      "370C",
      "370C",
      "370C",
      "370C",
      "370C",
      "370C",
      "370C",
      "370C",
      "370C",
      "370C",
      "370C",
      "370C",
      "370C",
      "370C",
      "370C",
      "370C",
      "370C",
      "370C",
      "370C",
      "370C",
      "370C",
      "370C",
      "370C",
      "370C",
      "370C",
      "370C",
      "370",
      "370",
      "370",
      "386",
      "386",
      "386",
      "390C",
      "390C",
      "390C",
      "390C",
      "390C",
      "390C",
      "390C",
      "390C",
      "390C",
      "390C",
      "390C",
      "390C",
      "390C",
      "390C",
      "390C",
      "390C",
      "390C",
      "390C",
      "390C",
      "390C",
      "390C",
      "390C",
      "390C",
      "390C",
      "390C",
      "390C",
      "390C",
      "390C",
      "390C",
      "390C",
      "390C",
      "390C",
      "390C",
      "390C",
      "390C",
      "390C",
      "390C",
      "390C",
      "390C",
      "390C",
      "390C",
      "390C",
      "390C",
      "390C",
      "390C",
      "390C",
      "390C",
      "390C",
      "390C",
      "390C",
      "390C",
      "390C",
      "390C",
      "390C",
      "390C",
      "390C",
      "390C",
      "390C",
      "390C",
      "390C",
      "390C",
      "390C",
      "390C",
      "390C",
      "390C",
      "390C",
      "390C",
      "390C",
      "390C",
      "390C",
      "390C",
      "390C",
      "390C",
      "390C",
      "390C",
      "390C",
      "390C",
      "390C",
      "390C",
      "390C",
      "390C",
      "390C",
      "390C",
      "390C",
      "390C",
      "390C",
      "390C",
      "390C",
      "390C",
      "390C",
      "390C",
      "390C",
      "390C",
      "390C",
      "390C",
      "390C",
      "390C",
      "390C",
      "390C",
      "390C",
      "390C",
      "390C",
      "390C",
      "390C",
      "390C",
      "390C",
      "390C",
      "390C",
      "390C",
      "390C",
      "390C",
      "390C",
      "390C",
      "390C",
      "390C",
      "390C",
      "390C",
      "390C",
      "390C",
      "390C",
      "390C",
      "390C",
      "390C",
      "390C",
      "390C",
      "390C",
      "390C",
      "390C",
      "390C",
      "390C",
      "390C",
      "390C",
      "390C",
      "390C",
      "390C",
      "390C",
      "390C",
      "390C",
      "390C",
      "390C",
      "390C",
      "390C",
      "390C",
      "390C",
      "390C",
      "390C",
      "390C",
      "390C",
      "390C",
      "390C",
      "390C",
      "390C",
      "390C",
      "390C",
      "390C",
      "390C",
      "390C",
      "390C",
      "390C",
      "390C",
      "390C",
      "390C",
      "390C",
      "390C",
      "390C",
      "390C",
      "390C",
      "390C",
      "390C",
      "390C",
      "390C",
      "390C",
      "390C",
      "390C",
      "390C",
      "390C",
      "390C",
      "390C",
      "390C",
      "390C",
      "390C",
      "390C",
      "390C",
      "390C",
      "390C",
      "390C",
      "390C",
      "390C",
      "390C",
      "390C",
      "390C",
      "390C",
      "390C",
      "390C",
      "390C",
      "390C",
      "390C",
      "390C",
      "390C",
      "390C",
      "390C",
      "390C",
      "390C",
      "390C",
      "390C",
      "390C",
      "390C",
      "390C",
      "390C",
      "390C",
      "390C",
      "390C",
      "390C",
      "390C",
      "390C",
      "390C",
      "390C",
      "390C",
      "390C",
      "390C",
      "390C",
      "390C",
      "390C",
      "390C",
      "390C",
      "390C",
      "390C",
      "390C",
      "390C",
      "390C",
      "390C",
      "390C",
      "390C",
      "390C",
      "390C",
      "390C",
      "390C",
      "390C",
      "390C",
      "390C",
      "390C",
      "390C",
      "390C",
      "390C",
      "390C",
      "390C",
      "390C",
      "390C",
      "390C",
      "390C",
      "390C",
      "390C",
      "390C",
      "390C",
      "390C",
      "390C",
      "390C",
      "390C",
      "390C",
      "390C",
      "390C",
      "390C",
      "390C",
      "390C",
      "390C",
      "390C",
      "390C",
      "390C",
      "390C",
      "390C",
      "390C",
      "390C",
      "390C",
      "390C",
      "390C",
      "390C",
      "390C",
      "390C",
      "390C",
      "390C",
      "390C",
      "390C",
      "390C",
      "390C",
      "390C",
      "390C",
      "390C",
      "390C",
      "390C",
      "390C",
      "390C",
      "390C",
      "390C",
      "390C",
      "390C",
      "390C",
      "390C",
      "390C",
      "390C",
      "390C",
      "390C",
      "390C",
      "390C",
      "390C",
      "390C",
      "390C",
      "390C",
      "390C",
      "390C",
      "390C",
      "390C",
      "390C",
      "390C",
      "390C",
      "390C",
      "390C",
      "390C",
      "390C",
      "390C",
      "390C",
      "390C",
      "390C",
      "390C",
      "390C",
      "390C",
      "390C",
      "390C",
      "390C",
      "390C",
      "390C",
      "390C",
      "390C",
      "390C",
      "390C",
      "390C",
      "390C",
      "390C",
      "390C",
      "390C",
      "390C",
      "390C",
      "390",
      "390",
      "390",
      "390",
      "381",
      "381",
      "381",
      "372",
      "372",
      "372",
      "362",
      "362",
      "362",
      "362",
      "362",
      "362",
      "344",
      "344",
      "335",
      "335",
      "335",
      "335",
      "335",
      "311",
      "311",
      "287",
      "287",
      "287",
      "287",
      "287",
      "287",
      "287",
      "248",
      "248",
      "248",
      "248",
      "248",
      "248",
      "238",
      "238",
      "228",
      "228",
      "228",
      "228",
      "218",
      "218",
      "218",
      "218",
      "210",
      "210",
      "210",
      "210",
      "178",
      "178",
      "178",
      "140",
      "121",
      "121",
      "121",
      "121",
      "121",
      "121",
      "113",
      "113",
      "095",
      "095",
      "095",
      "073",
      "073",
      "073",
      "072",
      "072",
      "060",
      "060",
      "060",
      "060",
      "060",
      "060",
      "059",
      "059",
      "059",
      "047",
      "037",
      "037",
      "037",
      "037",
      "037",
      "003",
      "003",
      "003",
      "002",
      "002"
    ],
    "swim:geom": "path",
    "swim:speeds": [
      163,
      163,
      163,
      251,
      251,
      273,
      349,
      349,
      349,
      349,
      349,
      373,
      388,
      388,
      412,
      412,
      436,
      444,
      444,
      463,
      463,
      491,
      491,
      492,
      492,
      492,
      490,
      489,
      489,
      490,
      496,
      495,
      495,
      495,
      518,
      520,
      521,
      521,
      521,
      521,
      521,
      521,
      522,
      522,
      507,
      507,
      507,
      509,
      514,
      514,
      514,
      514,
      514,
      511,
      511,
      511,
      511,
      510,
      510,
      510,
      518,
      518,
      519,
      519,
      519,
      519,
      520,
      520,
      520,
      520,
      520,
      520,
      520,
      518,
      518,
      518,
      518,
      518,
      521,
      521,
      521,
      521,
      519,
      519,
      519,
      519,
      519,
      519,
      523,
      523,
      523,
      524,
      524,
      524,
      524,
      524,
      528,
      528,
      528,
      529,
      529,
      529,
      517,
      517,
      517,
      517,
      517,
      514,
      514,
      514,
      514,
      509,
      509,
      509,
      509,
      508,
      508,
      508,
      508,
      508,
      526,
      526,
      526,
      526,
      526,
      532,
      532,
      532,
      532,
      530,
      530,
      530,
      530,
      531,
      531,
      531,
      531,
      540,
      540,
      540,
      540,
      540,
      540,
      540,
      544,
      544,
      544,
      544,
      544,
      544,
      544,
      544,
      544,
      544,
      544,
      547,
      547,
      547,
      547,
      547,
      543,
      543,
      543,
      543,
      543,
      543,
      543,
      538,
      538,
      538,
      538,
      538,
      538,
      538,
      534,
      534,
      534,
      534,
      534,
      535,
      535,
      535,
      540,
      540,
      540,
      540,
      540,
      540,
      542,
      542,
      542,
      542,
      542,
      544,
      544,
      545,
      545,
      545,
      546,
      546,
      547,
      547,
      547,
      547,
      545,
      545,
      545,
      536,
      536,
      536,
      542,
      542,
      542,
      544,
      544,
      544,
      543,
      543,
      543,
      543,
      543,
      543,
      542,
      541,
      541,
      538,
      538,
      538,
      538,
      538,
      538,
      534,
      534,
      534,
      536,
      536,
      536,
      536,
      536,
      536,
      537,
      537,
      537,
      537,
      537,
      537,
      537,
      538,
      538,
      538,
      538,
      538,
      538,
      538,
      538,
      538,
      540,
      540,
      541,
      541,
      541,
      542,
      542,
      542,
      542,
      543,
      543,
      543,
      543,
      543,
      543,
      543,
      543,
      543,
      543,
      543,
      541,
      541,
      541,
      541,
      541,
      542,
      542,
      542,
      542,
      542,
      542,
      541,
      541,
      540,
      540,
      540,
      540,
      540,
      537,
      537,
      540,
      539,
      539,
      541,
      541,
      541,
      541,
      541,
      541,
      541,
      542,
      542,
      542,
      542,
      542,
      542,
      542,
      542,
      542,
      542,
      542,
      541,
      541,
      541,
      541,
      541,
      541,
      539,
      539,
      539,
      539,
      539,
      538,
      538,
      538,
      538,
      537,
      537,
      537,
      534,
      534,
      534,
      534,
      534,
      534,
      534,
      534,
      533,
      533,
      533,
      533,
      533,
      533,
      533,
      533,
      533,
      533,
      533,
      533,
      533,
      533,
      532,
      532,
      532,
      531,
      531,
      524,
      524,
      523,
      523,
      522,
      522,
      522,
      521,
      521,
      521,
      520,
      520,
      517,
      517,
      517,
      517,
      517,
      517,
      517,
      498,
      498,
      498,
      498,
      498,
      498,
      498,
      498,
      499,
      499,
      499,
      499,
      499,
      499,
      504,
      504,
      504,
      504,
      504,
      504,
      504,
      504,
      504,
      503,
      504,
      504,
      504,
      501,
      501,
      500,
      500,
      503,
      503,
      503,
      500,
      500,
      500,
      502,
      502,
      502,
      502,
      502,
      501,
      501,
      501,
      501,
      502,
      502,
      502,
      501,
      501,
      501,
      501,
      501,
      501,
      501,
      501,
      500,
      496,
      496,
      496,
      496,
      496,
      491,
      491,
      489,
      489,
      487,
      487,
      487,
      487,
      487,
      487,
      487,
      485,
      485,
      485,
      485,
      485,
      485,
      486,
      486,
      486,
      495,
      495,
      495,
      495,
      495,
      496,
      496,
      496,
      496,
      496,
      495,
      495,
      495,
      495,
      495,
      495,
      495,
      491,
      491,
      489,
      489,
      489,
      489,
      489,
      489,
      483,
      483,
      481,
      473,
      473,
      473,
      468,
      468,
      468,
      476,
      476,
      476,
      476,
      476,
      476,
      481,
      483,
      483,
      483,
      482,
      482,
      482,
      484,
      484,
      484,
      484,
      484,
      487,
      487,
      487,
      489,
      489,
      489,
      489,
      492,
      492,
      492,
      492,
      492,
      492,
      492,
      492,
      492,
      492,
      492,
      492,
      492,
      492,
      492,
      492,
      492,
      492,
      492,
      492,
      491,
      491,
      491,
      490,
      490,
      490,
      490,
      490,
      490,
      490,
      490,
      490,
      490,
      490,
      490,
      489,
      489,
      489,
      486,
      486,
      486,
      486,
      486,
      486,
      485,
      485,
      485,
      485,
      485,
      485,
      485,
      474,
      474,
      447,
      447,
      447,
      447,
      447,
      447,
      447,
      445,
      445,
      445,
      445,
      445,
      445,
      442,
      442,
      440,
      440,
      440,
      440,
      427,
      427,
      427,
      427,
      420,
      420,
      420,
      420,
      396,
      396,
      396,
      378,
      368,
      368,
      368,
      368,
      368,
      368,
      361,
      361,
      294,
      294,
      294,
      253,
      253,
      253,
      241,
      241,
      233,
      233,
      233,
      232,
      232,
      232,
      233,
      233,
      233,
      231,
      199,
      199,
      199,
      199,
      199,
      146,
      146,
      146,
      147,
      147
    ],
    "swim:timestamps": [
      1777123740,
      1777123740,
      1777123740,
      1777123811,
      1777123811,
      1777123921,
      1777124101,
      1777124101,
      1777124101,
      1777124101,
      1777124101,
      1777124221,
      1777124281,
      1777124281,
      1777124401,
      1777124401,
      1777124461,
      1777124521,
      1777124521,
      1777124641,
      1777124641,
      1777124881,
      1777124881,
      1777124941,
      1777124941,
      1777124941,
      1777125061,
      1777125121,
      1777125121,
      1777125132,
      1777125241,
      1777125252,
      1777125252,
      1777125252,
      1777125362,
      1777125482,
      1777125492,
      1777125552,
      1777125612,
      1777125612,
      1777125782,
      1777125782,
      1777125962,
      1777125962,
      1777126033,
      1777126033,
      1777126033,
      1777126142,
      1777126262,
      1777126262,
      1777126262,
      1777126262,
      1777126262,
      1777126573,
      1777126573,
      1777126573,
      1777126573,
      1777126634,
      1777126634,
      1777126634,
      1777126754,
      1777126754,
      1777126814,
      1777126814,
      1777126814,
      1777126814,
      1777126874,
      1777126874,
      1777126874,
      1777126874,
      1777126934,
      1777126934,
      1777126934,
      1777127054,
      1777127054,
      1777127174,
      1777127174,
      1777127234,
      1777127257,
      1777127257,
      1777127257,
      1777127257,
      1777127294,
      1777127294,
      1777127294,
      1777127294,
      1777127294,
      1777127294,
      1777127557,
      1777127557,
      1777127557,
      1777127595,
      1777127595,
      1777127595,
      1777127595,
      1777127595,
      1777127835,
      1777127835,
      1777127835,
      1777127895,
      1777127895,
      1777127895,
      1777127955,
      1777127955,
      1777127955,
      1777127978,
      1777127978,
      1777128038,
      1777128038,
      1777128038,
      1777128038,
      1777128136,
      1777128136,
      1777128136,
      1777128136,
      1777128196,
      1777128196,
      1777128196,
      1777128218,
      1777128218,
      1777128338,
      1777128338,
      1777128338,
      1777128338,
      1777128338,
      1777128459,
      1777128459,
      1777128459,
      1777128459,
      1777128518,
      1777128518,
      1777128518,
      1777128518,
      1777128578,
      1777128578,
      1777128578,
      1777128578,
      1777128820,
      1777128820,
      1777128820,
      1777128820,
      1777128820,
      1777128820,
      1777128820,
      1777129119,
      1777129119,
      1777129119,
      1777129119,
      1777129119,
      1777129119,
      1777129119,
      1777129241,
      1777129241,
      1777129241,
      1777129241,
      1777129301,
      1777129301,
      1777129301,
      1777129301,
      1777129301,
      1777129661,
      1777129661,
      1777129661,
      1777129661,
      1777129661,
      1777129661,
      1777129661,
      1777129902,
      1777129902,
      1777129902,
      1777129902,
      1777129902,
      1777129902,
      1777129902,
      1777130082,
      1777130082,
      1777130082,
      1777130082,
      1777130082,
      1777130202,
      1777130202,
      1777130202,
      1777130322,
      1777130322,
      1777130322,
      1777130322,
      1777130322,
      1777130322,
      1777130443,
      1777130443,
      1777130443,
      1777130443,
      1777130443,
      1777130503,
      1777130503,
      1777130563,
      1777130563,
      1777130563,
      1777130623,
      1777130623,
      1777130743,
      1777130743,
      1777130743,
      1777130743,
      1777130803,
      1777130803,
      1777130803,
      1777130924,
      1777130924,
      1777130924,
      1777131044,
      1777131044,
      1777131044,
      1777131104,
      1777131104,
      1777131104,
      1777131224,
      1777131224,
      1777131224,
      1777131224,
      1777131224,
      1777131224,
      1777131284,
      1777131344,
      1777131344,
      1777131464,
      1777131464,
      1777131464,
      1777131464,
      1777131464,
      1777131464,
      1777131645,
      1777131645,
      1777131645,
      1777131825,
      1777131825,
      1777131825,
      1777131825,
      1777131825,
      1777131825,
      1777131945,
      1777131945,
      1777131945,
      1777131945,
      1777132005,
      1777132005,
      1777132005,
      1777132065,
      1777132065,
      1777132065,
      1777132065,
      1777132065,
      1777132125,
      1777132125,
      1777132125,
      1777132125,
      1777132245,
      1777132245,
      1777132305,
      1777132305,
      1777132305,
      1777132366,
      1777132366,
      1777132366,
      1777132366,
      1777132426,
      1777132426,
      1777132426,
      1777132426,
      1777132786,
      1777132786,
      1777132786,
      1777132786,
      1777132786,
      1777132786,
      1777132874,
      1777132906,
      1777132906,
      1777132906,
      1777132966,
      1777132966,
      1777132994,
      1777132994,
      1777132994,
      1777132994,
      1777133055,
      1777133055,
      1777133115,
      1777133115,
      1777133147,
      1777133147,
      1777133147,
      1777133147,
      1777133147,
      1777133175,
      1777133175,
      1777133207,
      1777133235,
      1777133235,
      1777133267,
      1777133267,
      1777133267,
      1777133327,
      1777133327,
      1777133355,
      1777133355,
      1777133387,
      1777133387,
      1777133387,
      1777133387,
      1777133387,
      1777133475,
      1777133475,
      1777133475,
      1777133507,
      1777133535,
      1777133535,
      1777133567,
      1777133567,
      1777133595,
      1777133595,
      1777133595,
      1777133595,
      1777133716,
      1777133716,
      1777133747,
      1777133747,
      1777133747,
      1777133776,
      1777133776,
      1777133776,
      1777133776,
      1777133836,
      1777133836,
      1777133836,
      1777134076,
      1777134076,
      1777134168,
      1777134168,
      1777134168,
      1777134168,
      1777134168,
      1777134196,
      1777134288,
      1777134288,
      1777134288,
      1777134288,
      1777134317,
      1777134317,
      1777134317,
      1777134317,
      1777134348,
      1777134348,
      1777134348,
      1777134348,
      1777134377,
      1777134377,
      1777134408,
      1777134408,
      1777134408,
      1777134437,
      1777134437,
      1777134529,
      1777134529,
      1777134557,
      1777134557,
      1777134589,
      1777134589,
      1777134589,
      1777134617,
      1777134617,
      1777134617,
      1777134649,
      1777134649,
      1777134737,
      1777134737,
      1777134737,
      1777134737,
      1777134737,
      1777134737,
      1777134737,
      1777135038,
      1777135038,
      1777135038,
      1777135038,
      1777135038,
      1777135098,
      1777135098,
      1777135098,
      1777135158,
      1777135158,
      1777135158,
      1777135158,
      1777135158,
      1777135158,
      1777135254,
      1777135254,
      1777135254,
      1777135254,
      1777135494,
      1777135494,
      1777135494,
      1777135494,
      1777135494,
      1777135518,
      1777135554,
      1777135554,
      1777135554,
      1777135614,
      1777135614,
      1777135638,
      1777135638,
      1777135675,
      1777135675,
      1777135675,
      1777135699,
      1777135759,
      1777135759,
      1777135855,
      1777135855,
      1777135855,
      1777135855,
      1777135855,
      1777135879,
      1777135879,
      1777135879,
      1777135879,
      1777135975,
      1777135975,
      1777135975,
      1777136119,
      1777136119,
      1777136119,
      1777136119,
      1777136119,
      1777136155,
      1777136155,
      1777136155,
      1777136215,
      1777136275,
      1777136275,
      1777136275,
      1777136275,
      1777136275,
      1777136336,
      1777136336,
      1777136360,
      1777136396,
      1777136420,
      1777136420,
      1777136456,
      1777136456,
      1777136456,
      1777136456,
      1777136456,
      1777136516,
      1777136516,
      1777136516,
      1777136516,
      1777136516,
      1777136540,
      1777136576,
      1777136576,
      1777136576,
      1777136660,
      1777136660,
      1777136660,
      1777136696,
      1777136696,
      1777136756,
      1777136756,
      1777136756,
      1777136756,
      1777136756,
      1777136840,
      1777136840,
      1777136840,
      1777136996,
      1777136996,
      1777136996,
      1777137020,
      1777137081,
      1777137081,
      1777137117,
      1777137117,
      1777137117,
      1777137141,
      1777137141,
      1777137141,
      1777137177,
      1777137177,
      1777137201,
      1777137261,
      1777137261,
      1777137261,
      1777137310,
      1777137310,
      1777137310,
      1777137381,
      1777137381,
      1777137381,
      1777137381,
      1777137381,
      1777137381,
      1777137491,
      1777137537,
      1777137537,
      1777137537,
      1777137551,
      1777137551,
      1777137551,
      1777137597,
      1777137597,
      1777137611,
      1777137611,
      1777137611,
      1777137657,
      1777137657,
      1777137657,
      1777137717,
      1777137717,
      1777137717,
      1777137717,
      1777137778,
      1777137778,
      1777137791,
      1777137791,
      1777137791,
      1777137838,
      1777137838,
      1777137898,
      1777137898,
      1777137898,
      1777137898,
      1777137971,
      1777137971,
      1777137971,
      1777138018,
      1777138018,
      1777138018,
      1777138032,
      1777138032,
      1777138032,
      1777138078,
      1777138078,
      1777138078,
      1777138152,
      1777138152,
      1777138152,
      1777138152,
      1777138152,
      1777138318,
      1777138318,
      1777138318,
      1777138318,
      1777138392,
      1777138392,
      1777138392,
      1777138452,
      1777138452,
      1777138452,
      1777138512,
      1777138512,
      1777138512,
      1777138512,
      1777138512,
      1777138512,
      1777138619,
      1777138619,
      1777138679,
      1777138679,
      1777138679,
      1777138679,
      1777138679,
      1777138813,
      1777138813,
      1777138933,
      1777138933,
      1777138933,
      1777138933,
      1777138933,
      1777138933,
      1777138933,
      1777139173,
      1777139173,
      1777139173,
      1777139173,
      1777139173,
      1777139173,
      1777139234,
      1777139234,
      1777139294,
      1777139294,
      1777139294,
      1777139294,
      1777139354,
      1777139354,
      1777139354,
      1777139354,
      1777139414,
      1777139414,
      1777139414,
      1777139414,
      1777139594,
      1777139594,
      1777139594,
      1777139714,
      1777139774,
      1777139774,
      1777139774,
      1777139774,
      1777139774,
      1777139774,
      1777139791,
      1777139791,
      1777139895,
      1777139895,
      1777139895,
      1777139997,
      1777139997,
      1777139997,
      1777140015,
      1777140015,
      1777140135,
      1777140135,
      1777140135,
      1777140173,
      1777140173,
      1777140173,
      1777140195,
      1777140195,
      1777140195,
      1777140234,
      1777140294,
      1777140294,
      1777140294,
      1777140294,
      1777140294,
      1777140536,
      1777140536,
      1777140536,
      1777140556,
      1777140556
    ],
    "wof:geomhash": "255ac0b1c22dd93284a3436f21c7083e",
    "wof:id": 2031110151,
    "wof:repo": "sfomuseum-data-flights-2026-04"
  },
  "bbox": [
    -122.40111111111112,
    25.76888888888889,
    -80.315,
    38.49722222222222
  ],
  "geometry": {"coordinates":[[-122.40111111111112,37.63111111111111],[-122.40111111111112,37.63111111111111],[-122.40111111111112,37.63111111111111],[-122.35,37.7],[-122.35,37.7],[-122.37166666666666,37.81472222222222],[-122.19305555555556,37.97916666666667],[-122.19305555555556,37.97916666666667],[-122.19305555555556,37.97916666666667],[-122.19305555555556,37.97916666666667],[-122.19305555555556,37.97916666666667],[-121.9375,37.989444444444445],[-121.80166666666666,37.99],[-121.80166666666666,37.99],[-121.52388888888889,37.99111111111111],[-121.52388888888889,37.99111111111111],[-121.37194444444444,37.99111111111111],[-121.21638888888889,37.99111111111111],[-121.21638888888889,37.99111111111111],[-120.86611111111111,38.02777777777778],[-120.86611111111111,38.02777777777778],[-120.19500000000001,38.12916666666667],[-120.19500000000001,38.12916666666667],[-120.02666666666667,38.15361111111111],[-120.02666666666667,38.15361111111111],[-120.02666666666667,38.15361111111111],[-119.68861111111111,38.20277777777778],[-119.5175,38.22694444444445],[-119.5175,38.22694444444445],[-119.49694444444445,38.22916666666667],[-119.18805555555556,38.27305555555555],[-119.15333333333334,38.27638888888889],[-119.15333333333334,38.27638888888889],[-119.15333333333334,38.27638888888889],[-118.82972222222222,38.322500000000005],[-118.46833333333333,38.37083333333334],[-118.43555555555555,38.375],[-118.26444444444445,38.3975],[-118.08138888888888,38.42111111111111],[-118.08138888888888,38.42111111111111],[-117.56472222222222,38.48638888888889],[-117.56472222222222,38.48638888888889],[-117.00638888888889,38.49722222222222],[-117.00638888888889,38.49722222222222],[-116.78944444444444,38.47916666666667],[-116.78944444444444,38.47916666666667],[-116.78944444444444,38.47916666666667],[-116.465,38.45111111111111],[-116.09861111111111,38.41833333333333],[-116.09861111111111,38.41833333333333],[-116.09861111111111,38.41833333333333],[-116.09861111111111,38.41833333333333],[-116.09861111111111,38.41833333333333],[-115.17222222222223,38.31444444444444],[-115.17222222222223,38.31444444444444],[-115.17222222222223,38.31444444444444],[-115.17222222222223,38.31444444444444],[-114.99694444444445,38.27444444444444],[-114.99694444444445,38.27444444444444],[-114.99694444444445,38.27444444444444],[-114.64750000000001,38.19333333333333],[-114.64750000000001,38.19333333333333],[-114.47083333333333,38.15222222222222],[-114.47083333333333,38.15222222222222],[-114.47083333333333,38.15222222222222],[-114.47083333333333,38.15222222222222],[-114.29527777777777,38.11055555555556],[-114.29527777777777,38.11055555555556],[-114.29527777777777,38.11055555555556],[-114.29527777777777,38.11055555555556],[-114.11972222222222,38.06888888888889],[-114.11972222222222,38.06888888888889],[-114.11972222222222,38.06888888888889],[-113.77111111111111,37.98527777777778],[-113.77111111111111,37.98527777777778],[-113.42305555555556,37.900277777777774],[-113.42305555555556,37.900277777777774],[-113.25111111111111,37.85805555555556],[-113.17972222222222,37.84055555555556],[-113.17972222222222,37.84055555555556],[-113.17972222222222,37.84055555555556],[-113.17972222222222,37.84055555555556],[-113.0736111111111,37.81388888888888],[-113.0736111111111,37.81388888888888],[-113.0736111111111,37.81388888888888],[-113.0736111111111,37.81388888888888],[-113.0736111111111,37.81388888888888],[-113.0736111111111,37.81388888888888],[-112.295,37.61666666666667],[-112.295,37.61666666666667],[-112.295,37.61666666666667],[-112.18972222222223,37.59],[-112.18972222222223,37.59],[-112.18972222222223,37.59],[-112.18972222222223,37.59],[-112.18972222222223,37.59],[-111.48861111111111,37.40611111111111],[-111.48861111111111,37.40611111111111],[-111.48861111111111,37.40611111111111],[-111.31138888888889,37.35944444444445],[-111.31138888888889,37.35944444444445],[-111.31138888888889,37.35944444444445],[-111.14888888888889,37.29888888888889],[-111.14888888888889,37.29888888888889],[-111.14888888888889,37.29888888888889],[-111.0886111111111,37.26722222222222],[-111.0886111111111,37.26722222222222],[-110.93944444444445,37.189166666666665],[-110.93944444444445,37.189166666666665],[-110.93944444444445,37.189166666666665],[-110.93944444444445,37.189166666666665],[-110.70361111111112,37.066111111111105],[-110.70361111111112,37.066111111111105],[-110.70361111111112,37.066111111111105],[-110.70361111111112,37.066111111111105],[-110.55666666666666,36.989444444444445],[-110.55666666666666,36.989444444444445],[-110.55666666666666,36.989444444444445],[-110.49805555555555,36.95888888888889],[-110.49805555555555,36.95888888888889],[-110.1575,36.858333333333334],[-110.1575,36.858333333333334],[-110.1575,36.858333333333334],[-110.1575,36.858333333333334],[-110.1575,36.858333333333334],[-109.83944444444444,36.77916666666667],[-109.83944444444444,36.77916666666667],[-109.83944444444444,36.77916666666667],[-109.83944444444444,36.77916666666667],[-109.62888888888888,36.725833333333334],[-109.62888888888888,36.725833333333334],[-109.62888888888888,36.725833333333334],[-109.62888888888888,36.725833333333334],[-109.45111111111112,36.68083333333333],[-109.45111111111112,36.68083333333333],[-109.45111111111112,36.68083333333333],[-109.45111111111112,36.68083333333333],[-108.77416666666666,36.50666666666667],[-108.77416666666666,36.50666666666667],[-108.77416666666666,36.50666666666667],[-108.77416666666666,36.50666666666667],[-108.77416666666666,36.50666666666667],[-108.77416666666666,36.50666666666667],[-108.77416666666666,36.50666666666667],[-107.88083333333333,36.26916666666666],[-107.88083333333333,36.26916666666666],[-107.88083333333333,36.26916666666666],[-107.88083333333333,36.26916666666666],[-107.88083333333333,36.26916666666666],[-107.88083333333333,36.26916666666666],[-107.88083333333333,36.26916666666666],[-107.53,36.157777777777774],[-107.53,36.157777777777774],[-107.53,36.157777777777774],[-107.53,36.157777777777774],[-107.35416666666666,36.105000000000004],[-107.35416666666666,36.105000000000004],[-107.35416666666666,36.105000000000004],[-107.35416666666666,36.105000000000004],[-107.35416666666666,36.105000000000004],[-106.2761111111111,35.77861111111111],[-106.2761111111111,35.77861111111111],[-106.2761111111111,35.77861111111111],[-106.2761111111111,35.77861111111111],[-106.2761111111111,35.77861111111111],[-106.2761111111111,35.77861111111111],[-106.2761111111111,35.77861111111111],[-105.59416666666667,35.565555555555555],[-105.59416666666667,35.565555555555555],[-105.59416666666667,35.565555555555555],[-105.59416666666667,35.565555555555555],[-105.59416666666667,35.565555555555555],[-105.59416666666667,35.565555555555555],[-105.59416666666667,35.565555555555555],[-105.0975,35.407222222222224],[-105.0975,35.407222222222224],[-105.0975,35.407222222222224],[-105.0975,35.407222222222224],[-105.0975,35.407222222222224],[-104.75944444444444,35.29805555555556],[-104.75944444444444,35.29805555555556],[-104.75944444444444,35.29805555555556],[-104.41277777777778,35.18472222222222],[-104.41277777777778,35.18472222222222],[-104.41277777777778,35.18472222222222],[-104.41277777777778,35.18472222222222],[-104.41277777777778,35.18472222222222],[-104.41277777777778,35.18472222222222],[-104.09083333333332,35.07833333333333],[-104.09083333333332,35.07833333333333],[-104.09083333333332,35.07833333333333],[-104.09083333333332,35.07833333333333],[-104.09083333333332,35.07833333333333],[-103.88666666666667,35.01027777777778],[-103.88666666666667,35.01027777777778],[-103.71333333333334,34.952222222222225],[-103.71333333333334,34.952222222222225],[-103.71333333333334,34.952222222222225],[-103.54305555555555,34.894444444444446],[-103.54305555555555,34.894444444444446],[-103.20194444444445,34.77777777777778],[-103.20194444444445,34.77777777777778],[-103.20194444444445,34.77777777777778],[-103.20194444444445,34.77777777777778],[-103.03527777777778,34.72138888888889],[-103.03527777777778,34.72138888888889],[-103.03527777777778,34.72138888888889],[-102.70166666666667,34.60611111111111],[-102.70166666666667,34.60611111111111],[-102.70166666666667,34.60611111111111],[-102.36722222222221,34.48916666666667],[-102.36722222222221,34.48916666666667],[-102.36722222222221,34.48916666666667],[-102.20055555555555,34.43],[-102.20055555555555,34.43],[-102.20055555555555,34.43],[-101.86861111111111,34.31222222222222],[-101.86861111111111,34.31222222222222],[-101.86861111111111,34.31222222222222],[-101.86861111111111,34.31222222222222],[-101.86861111111111,34.31222222222222],[-101.86861111111111,34.31222222222222],[-101.70277777777778,34.253055555555555],[-101.53416666666666,34.192499999999995],[-101.53416666666666,34.192499999999995],[-101.21000000000001,34.07472222222223],[-101.21000000000001,34.07472222222223],[-101.21000000000001,34.07472222222223],[-101.21000000000001,34.07472222222223],[-101.21000000000001,34.07472222222223],[-101.21000000000001,34.07472222222223],[-100.73444444444445,33.9],[-100.73444444444445,33.9],[-100.73444444444445,33.9],[-100.24527777777777,33.71805555555556],[-100.24527777777777,33.71805555555556],[-100.24527777777777,33.71805555555556],[-100.24527777777777,33.71805555555556],[-100.24527777777777,33.71805555555556],[-100.24527777777777,33.71805555555556],[-99.91555555555556,33.593611111111116],[-99.91555555555556,33.593611111111116],[-99.91555555555556,33.593611111111116],[-99.91555555555556,33.593611111111116],[-99.75194444444445,33.53138888888889],[-99.75194444444445,33.53138888888889],[-99.75194444444445,33.53138888888889],[-99.58749999999999,33.468611111111116],[-99.58749999999999,33.468611111111116],[-99.58749999999999,33.468611111111116],[-99.58749999999999,33.468611111111116],[-99.58749999999999,33.468611111111116],[-99.42500000000001,33.40611111111111],[-99.42500000000001,33.40611111111111],[-99.42500000000001,33.40611111111111],[-99.42500000000001,33.40611111111111],[-99.09638888888888,33.27916666666667],[-99.09638888888888,33.27916666666667],[-98.93333333333334,33.21555555555556],[-98.93333333333334,33.21555555555556],[-98.93333333333334,33.21555555555556],[-98.76805555555555,33.15083333333333],[-98.76805555555555,33.15083333333333],[-98.76805555555555,33.15083333333333],[-98.76805555555555,33.15083333333333],[-98.60416666666666,33.086666666666666],[-98.60416666666666,33.086666666666666],[-98.60416666666666,33.086666666666666],[-98.60416666666666,33.086666666666666],[-97.64222222222223,32.70194444444445],[-97.64222222222223,32.70194444444445],[-97.64222222222223,32.70194444444445],[-97.64222222222223,32.70194444444445],[-97.64222222222223,32.70194444444445],[-97.64222222222223,32.70194444444445],[-97.3825,32.59638888888889],[-97.32166666666666,32.57138888888889],[-97.32166666666666,32.57138888888889],[-97.32166666666666,32.57138888888889],[-97.15944444444445,32.505],[-97.15944444444445,32.505],[-97.06083333333333,32.46555555555556],[-97.06083333333333,32.46555555555556],[-97.06083333333333,32.46555555555556],[-97.06083333333333,32.46555555555556],[-96.90138888888889,32.39888888888889],[-96.90138888888889,32.39888888888889],[-96.74194444444444,32.331388888888895],[-96.74194444444444,32.331388888888895],[-96.68083333333334,32.306666666666665],[-96.68083333333334,32.306666666666665],[-96.68083333333334,32.306666666666665],[-96.68083333333334,32.306666666666665],[-96.68083333333334,32.306666666666665],[-96.58472222222221,32.266666666666666],[-96.58472222222221,32.266666666666666],[-96.51972222222223,32.23972222222222],[-96.4263888888889,32.20055555555556],[-96.4263888888889,32.20055555555556],[-96.36166666666666,32.17361111111111],[-96.36166666666666,32.17361111111111],[-96.36166666666666,32.17361111111111],[-96.20333333333333,32.10666666666667],[-96.20333333333333,32.10666666666667],[-96.10777777777777,32.066111111111105],[-96.10777777777777,32.066111111111105],[-96.0425,32.03861111111111],[-96.0425,32.03861111111111],[-96.0425,32.03861111111111],[-96.0425,32.03861111111111],[-96.0425,32.03861111111111],[-95.79638888888888,31.933611111111112],[-95.79638888888888,31.933611111111112],[-95.79638888888888,31.933611111111112],[-95.72694444444444,31.904166666666665],[-95.63861111111112,31.866388888888892],[-95.63861111111112,31.866388888888892],[-95.56944444444444,31.836666666666666],[-95.56944444444444,31.836666666666666],[-95.47972222222222,31.797777777777778],[-95.47972222222222,31.797777777777778],[-95.47972222222222,31.797777777777778],[-95.47972222222222,31.797777777777778],[-95.16388888888889,31.66111111111111],[-95.16388888888889,31.66111111111111],[-95.09972222222221,31.633333333333333],[-95.09972222222221,31.633333333333333],[-95.09972222222221,31.633333333333333],[-95.00638888888889,31.592777777777776],[-95.00638888888889,31.592777777777776],[-95.00638888888889,31.592777777777776],[-95.00638888888889,31.592777777777776],[-94.85138888888888,31.525],[-94.85138888888888,31.525],[-94.85138888888888,31.525],[-94.25611111111111,31.261944444444445],[-94.25611111111111,31.261944444444445],[-94.005,31.149722222222223],[-94.005,31.149722222222223],[-94.005,31.149722222222223],[-94.005,31.149722222222223],[-94.005,31.149722222222223],[-93.94805555555556,31.12388888888889],[-93.71000000000001,31.016666666666666],[-93.71000000000001,31.016666666666666],[-93.71000000000001,31.016666666666666],[-93.71000000000001,31.016666666666666],[-93.63138888888888,30.981111111111108],[-93.63138888888888,30.981111111111108],[-93.63138888888888,30.981111111111108],[-93.63138888888888,30.981111111111108],[-93.55666666666666,30.947222222222223],[-93.55666666666666,30.947222222222223],[-93.55666666666666,30.947222222222223],[-93.55666666666666,30.947222222222223],[-93.47805555555556,30.911388888888887],[-93.47805555555556,30.911388888888887],[-93.40833333333335,30.879722222222224],[-93.40833333333335,30.879722222222224],[-93.40833333333335,30.879722222222224],[-93.32527777777777,30.841944444444444],[-93.32527777777777,30.841944444444444],[-93.10916666666667,30.745555555555555],[-93.10916666666667,30.745555555555555],[-93.02416666666666,30.70888888888889],[-93.02416666666666,30.70888888888889],[-92.95944444444444,30.680555555555557],[-92.95944444444444,30.680555555555557],[-92.95944444444444,30.680555555555557],[-92.87333333333332,30.643055555555556],[-92.87333333333332,30.643055555555556],[-92.87333333333332,30.643055555555556],[-92.78222222222222,30.603055555555557],[-92.78222222222222,30.603055555555557],[-92.575,30.511388888888888],[-92.575,30.511388888888888],[-92.575,30.511388888888888],[-92.575,30.511388888888888],[-92.575,30.511388888888888],[-92.575,30.511388888888888],[-92.575,30.511388888888888],[-91.8561111111111,30.190555555555555],[-91.8561111111111,30.190555555555555],[-91.8561111111111,30.190555555555555],[-91.8561111111111,30.190555555555555],[-91.8561111111111,30.190555555555555],[-91.715,30.12666666666667],[-91.715,30.12666666666667],[-91.715,30.12666666666667],[-91.58222222222221,30.066666666666666],[-91.58222222222221,30.066666666666666],[-91.58222222222221,30.066666666666666],[-91.58222222222221,30.066666666666666],[-91.58222222222221,30.066666666666666],[-91.58222222222221,30.066666666666666],[-91.36333333333333,29.960833333333333],[-91.36333333333333,29.960833333333333],[-91.36333333333333,29.960833333333333],[-91.36333333333333,29.960833333333333],[-90.76666666666667,29.69],[-90.76666666666667,29.69],[-90.76666666666667,29.69],[-90.76666666666667,29.69],[-90.76666666666667,29.69],[-90.73333333333333,29.677222222222223],[-90.62722222222222,29.625],[-90.62722222222222,29.625],[-90.62722222222222,29.625],[-90.48722222222223,29.560277777777777],[-90.48722222222223,29.560277777777777],[-90.4525,29.546666666666667],[-90.4525,29.546666666666667],[-90.34083333333332,29.50138888888889],[-90.34083333333332,29.50138888888889],[-90.34083333333332,29.50138888888889],[-90.30888888888889,29.494444444444447],[-90.13305555555554,29.43138888888889],[-90.13305555555554,29.43138888888889],[-89.90055555555556,29.34583333333333],[-89.90055555555556,29.34583333333333],[-89.90055555555556,29.34583333333333],[-89.90055555555556,29.34583333333333],[-89.90055555555556,29.34583333333333],[-89.83944444444444,29.325277777777778],[-89.83944444444444,29.325277777777778],[-89.83944444444444,29.325277777777778],[-89.83944444444444,29.325277777777778],[-89.60583333333332,29.238055555555558],[-89.60583333333332,29.238055555555558],[-89.60583333333332,29.238055555555558],[-89.2525,29.110555555555557],[-89.2525,29.110555555555557],[-89.2525,29.110555555555557],[-89.2525,29.110555555555557],[-89.2525,29.110555555555557],[-89.16944444444445,29.079444444444444],[-89.16944444444445,29.079444444444444],[-89.16944444444445,29.079444444444444],[-89.02583333333334,29.026666666666667],[-88.88138888888888,28.973055555555554],[-88.88138888888888,28.973055555555554],[-88.88138888888888,28.973055555555554],[-88.88138888888888,28.973055555555554],[-88.88138888888888,28.973055555555554],[-88.74,28.92027777777778],[-88.74,28.92027777777778],[-88.67583333333334,28.89611111111111],[-88.60083333333333,28.868055555555557],[-88.53722222222223,28.844166666666666],[-88.53722222222223,28.844166666666666],[-88.46027777777778,28.81527777777778],[-88.46027777777778,28.81527777777778],[-88.46027777777778,28.81527777777778],[-88.46027777777778,28.81527777777778],[-88.46027777777778,28.81527777777778],[-88.32111111111111,28.7625],[-88.32111111111111,28.7625],[-88.32111111111111,28.7625],[-88.32111111111111,28.7625],[-88.32111111111111,28.7625],[-88.25416666666666,28.737222222222222],[-88.17972222222222,28.70888888888889],[-88.17972222222222,28.70888888888889],[-88.17972222222222,28.70888888888889],[-87.96944444444445,28.629166666666666],[-87.96944444444445,28.629166666666666],[-87.96944444444445,28.629166666666666],[-87.88972222222223,28.598888888888887],[-87.88972222222223,28.598888888888887],[-87.74361111111111,28.54277777777778],[-87.74361111111111,28.54277777777778],[-87.74361111111111,28.54277777777778],[-87.74361111111111,28.54277777777778],[-87.74361111111111,28.54277777777778],[-87.54305555555555,28.465555555555554],[-87.54305555555555,28.465555555555554],[-87.54305555555555,28.465555555555554],[-87.17222222222223,28.32138888888889],[-87.17222222222223,28.32138888888889],[-87.17222222222223,28.32138888888889],[-87.11583333333333,28.299722222222226],[-86.9725,28.24361111111111],[-86.9725,28.24361111111111],[-86.89222222222223,28.210555555555555],[-86.89222222222223,28.210555555555555],[-86.89222222222223,28.210555555555555],[-86.8461111111111,28.175],[-86.8461111111111,28.175],[-86.8461111111111,28.175],[-86.785,28.11388888888889],[-86.785,28.11388888888889],[-86.7461111111111,28.07361111111111],[-86.65444444444445,27.97472222222222],[-86.65444444444445,27.97472222222222],[-86.65444444444445,27.97472222222222],[-86.57444444444444,27.886666666666667],[-86.57444444444444,27.886666666666667],[-86.57444444444444,27.886666666666667],[-86.46777777777778,27.770833333333332],[-86.46777777777778,27.770833333333332],[-86.46777777777778,27.770833333333332],[-86.46777777777778,27.770833333333332],[-86.46777777777778,27.770833333333332],[-86.46777777777778,27.770833333333332],[-86.24472222222222,27.633888888888887],[-86.13722222222223,27.624444444444446],[-86.13722222222223,27.624444444444446],[-86.13722222222223,27.624444444444446],[-86.09861111111111,27.620833333333334],[-86.09861111111111,27.620833333333334],[-86.09861111111111,27.620833333333334],[-85.98555555555555,27.610000000000003],[-85.98555555555555,27.610000000000003],[-85.95472222222223,27.604166666666668],[-85.95472222222223,27.604166666666668],[-85.95472222222223,27.604166666666668],[-85.83888888888889,27.57],[-85.83888888888889,27.57],[-85.83888888888889,27.57],[-85.69583333333334,27.52583333333333],[-85.69583333333334,27.52583333333333],[-85.69583333333334,27.52583333333333],[-85.69583333333334,27.52583333333333],[-85.54916666666666,27.47972222222222],[-85.54916666666666,27.47972222222222],[-85.52222222222223,27.47138888888889],[-85.52222222222223,27.47138888888889],[-85.52222222222223,27.47138888888889],[-85.405,27.434444444444445],[-85.405,27.434444444444445],[-85.25972222222222,27.38861111111111],[-85.25972222222222,27.38861111111111],[-85.25972222222222,27.38861111111111],[-85.25972222222222,27.38861111111111],[-85.085,27.33361111111111],[-85.085,27.33361111111111],[-85.085,27.33361111111111],[-84.96972222222223,27.296944444444446],[-84.96972222222223,27.296944444444446],[-84.96972222222223,27.296944444444446],[-84.94166666666668,27.28805555555556],[-84.94166666666668,27.28805555555556],[-84.94166666666668,27.28805555555556],[-84.82555555555555,27.25138888888889],[-84.82555555555555,27.25138888888889],[-84.82555555555555,27.25138888888889],[-84.65472222222223,27.19611111111111],[-84.65472222222223,27.19611111111111],[-84.65472222222223,27.19611111111111],[-84.65472222222223,27.19611111111111],[-84.65472222222223,27.19611111111111],[-84.25138888888888,27.06638888888889],[-84.25138888888888,27.06638888888889],[-84.25138888888888,27.06638888888889],[-84.25138888888888,27.06638888888889],[-84.08138888888888,27.010833333333334],[-84.08138888888888,27.010833333333334],[-84.08138888888888,27.010833333333334],[-83.9388888888889,26.964166666666667],[-83.9388888888889,26.964166666666667],[-83.9388888888889,26.964166666666667],[-83.79777777777778,26.918055555555558],[-83.79777777777778,26.918055555555558],[-83.79777777777778,26.918055555555558],[-83.79777777777778,26.918055555555558],[-83.79777777777778,26.918055555555558],[-83.79777777777778,26.918055555555558],[-83.54333333333334,26.834999999999997],[-83.54333333333334,26.834999999999997],[-83.40333333333334,26.788333333333334],[-83.40333333333334,26.788333333333334],[-83.40333333333334,26.788333333333334],[-83.40333333333334,26.788333333333334],[-83.40333333333334,26.788333333333334],[-83.06777777777778,26.676111111111112],[-83.06777777777778,26.676111111111112],[-82.80472222222222,26.5875],[-82.80472222222222,26.5875],[-82.80472222222222,26.5875],[-82.80472222222222,26.5875],[-82.80472222222222,26.5875],[-82.80472222222222,26.5875],[-82.80472222222222,26.5875],[-82.2875,26.411944444444444],[-82.2875,26.411944444444444],[-82.2875,26.411944444444444],[-82.2875,26.411944444444444],[-82.2875,26.411944444444444],[-82.2875,26.411944444444444],[-82.16083333333334,26.368333333333332],[-82.16083333333334,26.368333333333332],[-82.03388888888888,26.325],[-82.03388888888888,26.325],[-82.03388888888888,26.325],[-82.03388888888888,26.325],[-81.91166666666668,26.282777777777778],[-81.91166666666668,26.282777777777778],[-81.91166666666668,26.282777777777778],[-81.91166666666668,26.282777777777778],[-81.79527777777777,26.2425],[-81.79527777777777,26.2425],[-81.79527777777777,26.2425],[-81.79527777777777,26.2425],[-81.4575,26.096944444444443],[-81.4575,26.096944444444443],[-81.4575,26.096944444444443],[-81.24638888888889,26.004722222222224],[-81.14527777777778,25.960555555555555],[-81.14527777777778,25.960555555555555],[-81.14527777777778,25.960555555555555],[-81.14527777777778,25.960555555555555],[-81.14527777777778,25.960555555555555],[-81.14527777777778,25.960555555555555],[-81.10805555555555,25.943055555555556],[-81.10805555555555,25.943055555555556],[-80.96055555555556,25.883888888888887],[-80.96055555555556,25.883888888888887],[-80.96055555555556,25.883888888888887],[-80.87638888888888,25.774444444444445],[-80.87638888888888,25.774444444444445],[-80.87638888888888,25.774444444444445],[-80.86027777777777,25.77],[-80.86027777777777,25.77],[-80.71805555555555,25.76888888888889],[-80.71805555555555,25.76888888888889],[-80.71805555555555,25.76888888888889],[-80.66527777777779,25.769444444444442],[-80.66527777777779,25.769444444444442],[-80.66527777777779,25.769444444444442],[-80.64583333333334,25.771944444444443],[-80.64583333333334,25.771944444444443],[-80.64583333333334,25.771944444444443],[-80.59416666666667,25.774166666666666],[-80.53166666666667,25.77611111111111],[-80.53166666666667,25.77611111111111],[-80.53166666666667,25.77611111111111],[-80.53166666666667,25.77611111111111],[-80.53166666666667,25.77611111111111],[-80.32888888888888,25.785],[-80.32888888888888,25.785],[-80.32888888888888,25.785],[-80.315,25.78611111111111],[-80.315,25.78611111111111]],"type":"LineString"}
}
