{
  "id": 2015353059,
  "type": "Feature",
  "properties": {
    "geom:area": 0,
    "geom:bbox": "-122.380000,37.490000,-79.630000,44.560000",
    "geom:latitude": 41.76163454055108,
    "geom:longitude": -101.11819805206774,
    "src:alt_label": "swim-route",
    "src:geom": "swim",
    "swim:geom": "route",
    "wof:geomhash": "ef88c110c1fcb50b5e552e8d10c9b78b",
    "wof:id": 2015353059,
    "wof:repo": "sfomuseum-data-flights-2026-04"
  },
  "bbox": [
    -122.38,
    37.49,
    -79.63,
    44.56
  ],
  "geometry": {"coordinates":[[-79.63,43.68],[-79.74,43.71],[-79.83,43.73],[-79.93,43.76],[-80.16,43.81],[-80.19,43.82],[-80.19,43.82],[-80.28,43.84],[-80.37,43.87],[-80.42,43.88],[-80.78,43.97],[-80.81,43.97],[-81.07,43.97],[-81.36,43.97],[-81.47,43.97],[-81.63,43.97],[-81.68,43.97],[-81.71,43.97],[-81.97,43.98],[-82.17,44.01],[-82.21,44.01],[-82.21,44.01],[-82.31,44.02],[-85.99,44.39],[-87.23,44.49],[-87.9,44.52],[-88.19,44.56],[-89.71,44.27],[-90.46,44.12],[-91.02,44.01],[-91.47,43.91],[-91.86,43.85],[-92.07,43.82],[-92.71,43.72],[-92.99,43.67],[-93.84,43.53],[-94,43.5],[-95.12,43.34],[-95.16,43.33],[-96.32,43.15],[-96.61,43.11],[-98.93,42.7],[-99.51,42.59],[-100,42.5],[-100.82,42.38],[-102.17,42.18],[-103.09,42.03],[-104.6,41.76],[-105.21,41.65],[-106,41.5],[-106.04,41.49],[-106.85,41.29],[-107.43,41.15],[-108,41],[-108.16,40.96],[-108.65,40.84],[-108.94,40.77],[-109.11,40.73],[-109.32,40.67],[-109.99,40.5],[-110,40.5],[-110.34,40.34],[-110.57,40.23],[-110.89,40.09],[-111.54,39.74],[-112.08,39.57],[-113.32,39.29],[-113.48,39.18],[-113.58,39.12],[-113.88,38.92],[-114.45,38.82],[-115.3,38.65],[-115.87,38.53],[-116.1,38.49],[-117.27,38.23],[-118.76,37.9],[-119.1,37.86],[-119.27,37.84],[-119.38,37.82],[-120.37,37.7],[-120.4,37.7],[-120.75,37.66],[-120.96,37.63],[-121,37.63],[-121.2,37.6],[-121.26,37.59],[-121.34,37.58],[-121.6,37.55],[-121.62,37.55],[-121.8,37.51],[-121.88,37.49],[-121.93,37.5],[-122.08,37.54],[-122.14,37.56],[-122.18,37.57],[-122.28,37.59],[-122.33,37.61],[-122.36,37.61],[-122.38,37.62]],"type":"LineString"}
}
