{
  "id": 2031150297,
  "type": "Feature",
  "properties": {
    "geom:area": 0,
    "geom:bbox": "-122.200278,33.432222,-117.896111,37.531389",
    "geom:latitude": 35.21577795445511,
    "geom:longitude": -120.27616033650348,
    "src:alt_label": "swim-path",
    "src:geom": "swim",
    "swim:altitudes": [
      "036",
      "036",
      "036",
      "080",
      "105",
      "105",
      "105",
      "105",
      "157",
      "157",
      "157",
      "157",
      "233",
      "249",
      "249",
      "267",
      "267",
      "288",
      "323",
      "323",
      "340C",
      "340C",
      "340C",
      "340C",
      "340C",
      "340C",
      "340C",
      "340C",
      "340C",
      "340C",
      "340C",
      "340C",
      "340C",
      "340C",
      "340C",
      "340C",
      "340C",
      "340C",
      "340C",
      "340C",
      "340C",
      "340C",
      "340C",
      "340C",
      "340C",
      "340C",
      "340C",
      "340C",
      "340C",
      "340C",
      "340C",
      "340C",
      "340C",
      "340C",
      "336",
      "336",
      "336",
      "309",
      "274",
      "257",
      "244",
      "236",
      "215",
      "215",
      "184",
      "184",
      "155",
      "155",
      "125",
      "125",
      "125",
      "125",
      "106",
      "098",
      "081",
      "081",
      "068",
      "068",
      "068",
      "051",
      "040",
      "040",
      "040",
      "035",
      "030",
      "030"
    ],
    "swim:geom": "path",
    "swim:speeds": [
      201,
      201,
      201,
      296,
      304,
      304,
      304,
      304,
      378,
      378,
      378,
      378,
      395,
      416,
      416,
      425,
      425,
      425,
      428,
      428,
      425,
      425,
      425,
      413,
      413,
      413,
      413,
      413,
      418,
      418,
      418,
      418,
      419,
      419,
      419,
      417,
      415,
      415,
      415,
      414,
      410,
      409,
      409,
      409,
      409,
      406,
      406,
      406,
      408,
      408,
      408,
      408,
      408,
      408,
      407,
      407,
      407,
      411,
      401,
      390,
      383,
      373,
      361,
      361,
      352,
      352,
      339,
      339,
      332,
      332,
      332,
      332,
      324,
      259,
      245,
      245,
      234,
      234,
      234,
      209,
      187,
      187,
      187,
      184,
      185,
      185
    ],
    "swim:timestamps": [
      1777559635,
      1777559635,
      1777559635,
      1777559755,
      1777559815,
      1777559815,
      1777559815,
      1777559815,
      1777559935,
      1777559935,
      1777559935,
      1777559935,
      1777560116,
      1777560176,
      1777560176,
      1777560236,
      1777560236,
      1777560296,
      1777560416,
      1777560416,
      1777560474,
      1777560474,
      1777560474,
      1777560594,
      1777560594,
      1777560594,
      1777560594,
      1777560594,
      1777560714,
      1777560714,
      1777560774,
      1777560774,
      1777560897,
      1777560897,
      1777560897,
      1777561015,
      1777561137,
      1777561137,
      1777561137,
      1777561195,
      1777561258,
      1777561315,
      1777561315,
      1777561315,
      1777561315,
      1777561438,
      1777561438,
      1777561438,
      1777561615,
      1777561615,
      1777561676,
      1777561676,
      1777561676,
      1777561676,
      1777561856,
      1777561856,
      1777561856,
      1777561916,
      1777562004,
      1777562052,
      1777562096,
      1777562112,
      1777562172,
      1777562172,
      1777562276,
      1777562276,
      1777562358,
      1777562358,
      1777562457,
      1777562457,
      1777562457,
      1777562457,
      1777562517,
      1777562598,
      1777562697,
      1777562697,
      1777562757,
      1777562757,
      1777562757,
      1777562839,
      1777562937,
      1777562937,
      1777562937,
      1777562965,
      1777562997,
      1777562997
    ],
    "wof:geomhash": "1443769f4899101c835a627d828649f5",
    "wof:id": 2031150297,
    "wof:repo": "sfomuseum-data-flights-2026-04"
  },
  "bbox": [
    -122.20027777777779,
    33.43222222222222,
    -117.89611111111111,
    37.53138888888889
  ],
  "geometry": {"coordinates":[[-117.89611111111111,33.595],[-117.89611111111111,33.595],[-117.89611111111111,33.595],[-118.01305555555555,33.475],[-118.10027777777778,33.43222222222222],[-118.10027777777778,33.43222222222222],[-118.10027777777778,33.43222222222222],[-118.10027777777778,33.43222222222222],[-118.33055555555555,33.4525],[-118.33055555555555,33.4525],[-118.33055555555555,33.4525],[-118.33055555555555,33.4525],[-118.6463888888889,33.64333333333333],[-118.74277777777777,33.72777777777778],[-118.74277777777777,33.72777777777778],[-118.8411111111111,33.81361111111111],[-118.8411111111111,33.81361111111111],[-118.93555555555555,33.901944444444446],[-119.12805555555555,34.07944444444445],[-119.12805555555555,34.07944444444445],[-119.2225,34.164722222222224],[-119.2225,34.164722222222224],[-119.2225,34.164722222222224],[-119.40583333333333,34.335],[-119.40583333333333,34.335],[-119.40583333333333,34.335],[-119.40583333333333,34.335],[-119.40583333333333,34.335],[-119.59888888888888,34.51027777777778],[-119.59888888888888,34.51027777777778],[-119.69333333333334,34.595555555555556],[-119.69333333333334,34.595555555555556],[-119.88361111111112,34.76722222222222],[-119.88361111111112,34.76722222222222],[-119.88361111111112,34.76722222222222],[-120.07583333333334,34.93888888888888],[-120.26333333333334,35.10638888888889],[-120.26333333333334,35.10638888888889],[-120.26333333333334,35.10638888888889],[-120.34277777777777,35.176944444444445],[-120.45361111111112,35.275],[-120.53416666666666,35.346111111111114],[-120.53416666666666,35.346111111111114],[-120.53416666666666,35.346111111111114],[-120.53416666666666,35.346111111111114],[-120.72944444444444,35.5175],[-120.72944444444444,35.5175],[-120.72944444444444,35.5175],[-121.01166666666667,35.76361111111111],[-121.01166666666667,35.76361111111111],[-121.10583333333332,35.84527777777778],[-121.10583333333332,35.84527777777778],[-121.10583333333332,35.84527777777778],[-121.10583333333332,35.84527777777778],[-121.36611111111111,36.11194444444445],[-121.36611111111111,36.11194444444445],[-121.36611111111111,36.11194444444445],[-121.44638888888889,36.20611111111111],[-121.56666666666666,36.35],[-121.63333333333334,36.416666666666664],[-121.6825,36.47694444444445],[-121.71666666666667,36.516666666666666],[-121.78333333333333,36.6],[-121.78333333333333,36.6],[-121.885,36.73083333333334],[-121.885,36.73083333333334],[-121.93333333333334,36.86666666666667],[-121.93333333333334,36.86666666666667],[-121.97416666666666,37.00388888888889],[-121.97416666666666,37.00388888888889],[-121.97416666666666,37.00388888888889],[-121.97416666666666,37.00388888888889],[-122.00694444444444,37.08972222222222],[-122.06666666666666,37.2],[-122.15666666666667,37.26888888888889],[-122.15666666666667,37.26888888888889],[-122.20027777777779,37.32138888888889],[-122.20027777777779,37.32138888888889],[-122.20027777777779,37.32138888888889],[-122.18333333333334,37.416666666666664],[-122.14583333333334,37.48555555555556],[-122.14583333333334,37.48555555555556],[-122.14583333333334,37.48555555555556],[-122.16666666666667,37.516666666666666],[-122.17277777777778,37.53138888888889],[-122.17277777777778,37.53138888888889]],"type":"LineString"}
}
