{
  "id": 2031092547,
  "type": "Feature",
  "properties": {
    "geom:area": 0,
    "geom:bbox": "-122.354920,37.492100,-121.288190,37.612590",
    "geom:latitude": 37.54095109845935,
    "geom:longitude": -121.8284267265072,
    "src:alt_label": "swim-approach",
    "src:geom": "swim",
    "swim:elevations": [
      4346,
      4030,
      3874,
      3662,
      3197,
      3114,
      2967,
      2898,
      2607,
      2312,
      2199,
      2101,
      1643,
      1473,
      1272,
      1162,
      1104,
      1028,
      836,
      642,
      615,
      425,
      271,
      246,
      63,
      33
    ],
    "swim:geom": "approach",
    "swim:timestamps": [
      1776964795,
      1776964828,
      1776964846,
      1776964869,
      1776964920,
      1776964940,
      1776964977,
      1776964986,
      1776965026,
      1776965098,
      1776965116,
      1776965142,
      1776965215,
      1776965243,
      1776965276,
      1776965297,
      1776965315,
      1776965343,
      1776965388,
      1776965425,
      1776965433,
      1776965474,
      1776965513,
      1776965520,
      1776965573,
      1776965580
    ],
    "wof:geomhash": "c752248664097578d00eddfe3a83249c",
    "wof:id": 2031092547,
    "wof:repo": "sfomuseum-data-flights-2026-04"
  },
  "bbox": [
    -122.35492,
    37.4921,
    -121.28819,
    37.61259
  ],
  "geometry": {"coordinates":[[-121.28819,37.58937],[-121.35474,37.58208],[-121.39053,37.57806],[-121.43655,37.57287],[-121.53681,37.56122],[-121.5751,37.5567],[-121.64217,37.5465],[-121.6588,37.54269],[-121.72408,37.52707],[-121.83392,37.50083],[-121.85968,37.4947],[-121.89743,37.4921],[-122.00095,37.49809],[-122.03926,37.5002],[-122.08318,37.50287],[-122.10994,37.50912],[-122.1303,37.51798],[-122.16029,37.53071],[-122.20411,37.54913],[-122.23969,37.56416],[-122.24709,37.56723],[-122.28161,37.58185],[-122.30993,37.59366],[-122.31464,37.59566],[-122.35023,37.6106],[-122.35492,37.61259]],"type":"LineString"}
}
