{
  "id": 2015203917,
  "type": "Feature",
  "properties": {
    "geom:area": 0,
    "geom:bbox": "-122.361320,37.477250,-121.257810,37.615720",
    "geom:latitude": 37.54033970778232,
    "geom:longitude": -121.81706240572879,
    "src:alt_label": "swim-approach",
    "src:geom": "swim",
    "swim:elevations": [
      4682,
      4314,
      3660,
      3565,
      2650,
      2134,
      1555,
      1555,
      1302,
      855,
      635,
      492,
      355,
      251,
      204,
      0,
      0
    ],
    "swim:geom": "approach",
    "swim:timestamps": [
      1775322875,
      1775322922,
      1775323011,
      1775323040,
      1775323173,
      1775323305,
      1775323401,
      1775323411,
      1775323456,
      1775323556,
      1775323603,
      1775323637,
      1775323673,
      1775323703,
      1775323718,
      1775323767,
      1775323772
    ],
    "wof:geomhash": "414649c5f8c751b35ef3b4a3445ad0cf",
    "wof:id": 2015203917,
    "wof:repo": "sfomuseum-data-flights-2026-04"
  },
  "bbox": [
    -122.36132,
    37.47725,
    -121.25781,
    37.61572
  ],
  "geometry": {"coordinates":[[-121.25781,37.59345],[-121.34501,37.58323],[-121.50776,37.56449],[-121.55743,37.55877],[-121.74941,37.52101],[-121.90668,37.47725],[-122.03696,37.49537],[-122.04893,37.49705],[-122.1,37.50577],[-122.19467,37.54509],[-122.23724,37.56315],[-122.26577,37.57515],[-122.29202,37.58615],[-122.31311,37.595],[-122.32322,37.59927],[-122.35736,37.61368],[-122.36132,37.61572]],"type":"LineString"}
}
