{
  "id": 2015241063,
  "type": "Feature",
  "properties": {
    "geom:area": 0,
    "geom:bbox": "-122.414060,37.627690,-121.261230,38.416350",
    "geom:latitude": 38.016788084356214,
    "geom:longitude": -121.85066537907711,
    "src:alt_label": "swim-takeoff",
    "src:geom": "swim",
    "swim:elevations": [
      183,
      325,
      647,
      861,
      1158,
      1356,
      1636,
      1862,
      1980,
      2123,
      2429,
      3033,
      3140,
      3408,
      3586,
      3957,
      4651,
      5029,
      5158,
      5425,
      5569,
      5873,
      6251,
      6388,
      6694,
      6958,
      6988,
      7224,
      7375
    ],
    "swim:geom": "takeoff",
    "swim:timestamps": [
      1775639933,
      1775639946,
      1775639968,
      1775639988,
      1775640022,
      1775640057,
      1775640085,
      1775640102,
      1775640112,
      1775640124,
      1775640152,
      1775640204,
      1775640214,
      1775640267,
      1775640286,
      1775640312,
      1775640358,
      1775640387,
      1775640396,
      1775640421,
      1775640441,
      1775640470,
      1775640508,
      1775640522,
      1775640560,
      1775640598,
      1775640603,
      1775640642,
      1775640666
    ],
    "wof:geomhash": "f797df2b4c06ffe8486b721cf88e7927",
    "wof:id": 2015241063,
    "wof:repo": "sfomuseum-data-flights-2026-04"
  },
  "bbox": [
    -122.41406,
    37.62769,
    -121.26123,
    38.41635
  ],
  "geometry": {"coordinates":[[-122.39642,37.62769],[-122.40801,37.63414],[-122.41406,37.65117],[-122.39941,37.66375],[-122.36194,37.67225],[-122.31782,37.68572],[-122.27825,37.69873],[-122.2525,37.70648],[-122.23821,37.7107],[-122.21998,37.71715],[-122.18878,37.74429],[-122.13783,37.80244],[-122.128,37.81351],[-122.06207,37.88203],[-122.0296,37.90497],[-121.98385,37.93519],[-121.89965,37.99349],[-121.8458,38.02991],[-121.82819,38.04175],[-121.77912,38.07479],[-121.74135,38.10029],[-121.68112,38.14095],[-121.60509,38.19219],[-121.5747,38.21256],[-121.49471,38.26613],[-121.4138,38.32007],[-121.40368,38.32682],[-121.31722,38.38223],[-121.26123,38.41635]],"type":"LineString"}
}
