{
  "id": 2015321197,
  "type": "Feature",
  "properties": {
    "geom:area": 0,
    "geom:bbox": "-122.759980,37.437160,-122.118670,38.394860",
    "geom:latitude": 37.79627802468589,
    "geom:longitude": -122.4759088435378,
    "src:alt_label": "swim-approach",
    "src:geom": "swim",
    "swim:elevations": [
      7925,
      7540,
      7274,
      6820,
      6790,
      6562,
      6105,
      5812,
      5435,
      5305,
      4893,
      4738,
      4702,
      4559,
      4245,
      3921,
      3759,
      3397,
      3353,
      3353,
      3353,
      3353,
      3165,
      3129,
      3008,
      2863,
      2828,
      2756,
      2600,
      2417,
      2297,
      2035,
      1989,
      1754,
      1610,
      1524,
      1524,
      1342,
      1075,
      805,
      717,
      517,
      365,
      243,
      104,
      40
    ],
    "swim:geom": "approach",
    "swim:timestamps": [
      1776546276,
      1776546310,
      1776546335,
      1776546374,
      1776546377,
      1776546398,
      1776546438,
      1776546466,
      1776546500,
      1776546513,
      1776546551,
      1776546567,
      1776546570,
      1776546585,
      1776546614,
      1776546645,
      1776546662,
      1776546709,
      1776546744,
      1776546768,
      1776546786,
      1776546834,
      1776546868,
      1776546874,
      1776546900,
      1776546924,
      1776546931,
      1776546943,
      1776546978,
      1776547012,
      1776547042,
      1776547074,
      1776547080,
      1776547105,
      1776547120,
      1776547161,
      1776547182,
      1776547213,
      1776547254,
      1776547288,
      1776547297,
      1776547326,
      1776547364,
      1776547395,
      1776547432,
      1776547450
    ],
    "wof:geomhash": "cd1bf4b6619c52dad7050142d5401eb1",
    "wof:id": 2015321197,
    "wof:repo": "sfomuseum-data-flights-2026-04"
  },
  "bbox": [
    -122.75998,
    37.43716,
    -122.11867,
    38.39486
  ],
  "geometry": {"coordinates":[[-122.65908,38.39486],[-122.69294,38.34129],[-122.71759,38.30252],[-122.75518,38.24236],[-122.75703,38.23751],[-122.75998,38.20256],[-122.74212,38.13739],[-122.72963,38.09323],[-122.71383,38.03894],[-122.70771,38.01827],[-122.69039,37.95881],[-122.68355,37.9353],[-122.68188,37.92953],[-122.67303,37.9071],[-122.64084,37.86915],[-122.60128,37.83164],[-122.58051,37.81175],[-122.52123,37.75582],[-122.48185,37.71878],[-122.45453,37.69313],[-122.43467,37.67444],[-122.38638,37.62901],[-122.35679,37.59786],[-122.35271,37.59187],[-122.33968,37.5657],[-122.32777,37.54117],[-122.32305,37.53372],[-122.31587,37.52211],[-122.29566,37.48905],[-122.26227,37.46618],[-122.22608,37.45586],[-122.18807,37.44541],[-122.18085,37.44341],[-122.15023,37.43716],[-122.13195,37.44192],[-122.11867,37.48023],[-122.13303,37.49697],[-122.1547,37.5219],[-122.19298,37.54211],[-122.22249,37.55454],[-122.23055,37.55803],[-122.25662,37.56894],[-122.28749,37.58186],[-122.31257,37.59237],[-122.34053,37.6042],[-122.35367,37.60976]],"type":"LineString"}
}
