{
  "id": 2031150145,
  "type": "Feature",
  "properties": {
    "geom:area": 0,
    "geom:bbox": "-122.380000,29.820000,-95.340000,37.700000",
    "geom:latitude": 34.52530786738039,
    "geom:longitude": -108.66157031260327,
    "src:alt_label": "swim-route",
    "src:geom": "swim",
    "swim:geom": "route",
    "wof:geomhash": "425d8bdb219c200a76db11bfa7e55ce0",
    "wof:id": 2031150145,
    "wof:repo": "sfomuseum-data-flights-2026-04"
  },
  "bbox": [
    -122.38,
    29.82,
    -95.34,
    37.7
  ],
  "geometry": {"coordinates":[[-95.34,29.98],[-95.42,29.91],[-95.48,29.86],[-95.49,29.85],[-95.54,29.83],[-95.56,29.82],[-95.56,29.82],[-95.72,29.9],[-95.76,29.92],[-95.93,30.01],[-95.96,30.03],[-96.09,30.09],[-96.24,30.16],[-96.28,30.19],[-96.4,30.25],[-96.46,30.28],[-96.48,30.29],[-96.64,30.37],[-96.71,30.4],[-96.86,30.48],[-96.95,30.52],[-97.12,30.6],[-97.78,30.93],[-98.74,31.39],[-98.98,31.5],[-99.67,31.82],[-100.35,32.13],[-101.25,32.53],[-101.94,32.83],[-102.25,32.97],[-102.7,33.16],[-103.58,33.53],[-104.88,34.06],[-105,34.1],[-105.15,34.16],[-105.33,34.23],[-105.68,34.37],[-106.6,34.54],[-106.64,34.55],[-107.67,34.74],[-107.77,34.76],[-108.45,34.87],[-110,35.13],[-110.06,35.14],[-110.35,35.18],[-111.96,35.49],[-114.16,35.88],[-114.86,36],[-115.52,36.28],[-115.73,36.37],[-115.93,36.46],[-116.13,36.54],[-116.26,36.6],[-116.75,36.8],[-117.22,37.22],[-117.23,37.24],[-117.28,37.23],[-118.27,37.39],[-118.85,37.5],[-119.01,37.5],[-119.09,37.51],[-119.45,37.56],[-119.81,37.62],[-119.99,37.64],[-120.05,37.65],[-120.26,37.68],[-120.28,37.68],[-120.38,37.7],[-120.4,37.7],[-120.75,37.66],[-120.78,37.66],[-120.83,37.65],[-120.96,37.63],[-121,37.63],[-121.08,37.62],[-121.18,37.6],[-121.26,37.59],[-121.39,37.58],[-121.41,37.58],[-121.6,37.55],[-121.61,37.55],[-121.62,37.55],[-121.7,37.53],[-121.8,37.51],[-121.83,37.5],[-121.88,37.49],[-122.08,37.54],[-122.14,37.56],[-122.18,37.57],[-122.28,37.59],[-122.33,37.61],[-122.36,37.61],[-122.38,37.62]],"type":"LineString"}
}
