{
  "id": 2015179795,
  "type": "Feature",
  "properties": {
    "geom:area": 0,
    "geom:bbox": "-122.526980,37.626190,-121.255110,38.149940",
    "geom:latitude": 37.936815816000234,
    "geom:longitude": -121.98688811903392,
    "src:alt_label": "swim-takeoff",
    "src:geom": "swim",
    "swim:elevations": [
      183,
      294,
      485,
      710,
      943,
      1087,
      1268,
      1903,
      2088,
      2311,
      2500,
      2835,
      3252,
      3487,
      3672,
      3934,
      4059,
      4087,
      4335,
      4713,
      4874,
      5005,
      5224,
      5355,
      5572,
      5818,
      6029,
      6127,
      6349,
      6388,
      6473,
      6624
    ],
    "swim:geom": "takeoff",
    "swim:timestamps": [
      1775078933,
      1775078942,
      1775078962,
      1775078993,
      1775079026,
      1775079045,
      1775079062,
      1775079113,
      1775079128,
      1775079146,
      1775079165,
      1775079196,
      1775079233,
      1775079258,
      1775079274,
      1775079321,
      1775079354,
      1775079362,
      1775079393,
      1775079433,
      1775079460,
      1775079478,
      1775079506,
      1775079530,
      1775079557,
      1775079592,
      1775079622,
      1775079640,
      1775079681,
      1775079692,
      1775079709,
      1775079730
    ],
    "wof:geomhash": "725bbbf9c7cdd7382b9cd36576a4c908",
    "wof:id": 2015179795,
    "wof:repo": "sfomuseum-data-flights-2026-04"
  },
  "bbox": [
    -122.52698,
    37.62619,
    -121.25511,
    38.14994
  ],
  "geometry": {"coordinates":[[-122.39228,37.62619],[-122.39871,37.62926],[-122.41543,37.63647],[-122.44246,37.64795],[-122.47632,37.66251],[-122.49782,37.67167],[-122.51587,37.68384],[-122.52634,37.74622],[-122.52698,37.76589],[-122.52336,37.78878],[-122.50533,37.81014],[-122.45839,37.83307],[-122.39317,37.851],[-122.34792,37.86319],[-122.31713,37.87153],[-122.22699,37.89568],[-122.15665,37.91439],[-122.13888,37.91913],[-122.06918,37.93764],[-121.97957,37.96134],[-121.91939,37.97725],[-121.87674,37.98846],[-121.81161,38.00559],[-121.7524,38.02109],[-121.68715,38.03819],[-121.6035,38.05998],[-121.52921,38.07924],[-121.48566,38.09056],[-121.38062,38.1177],[-121.3525,38.12492],[-121.30941,38.13603],[-121.25511,38.14994]],"type":"LineString"}
}
