{
  "id": 2031101385,
  "type": "Feature",
  "properties": {
    "geom:area": 0,
    "geom:bbox": "-127.314722,37.148333,-122.099722,38.526389",
    "geom:latitude": 37.78813780167724,
    "geom:longitude": -124.49455560420714,
    "src:alt_label": "swim-path",
    "src:geom": "swim",
    "swim:altitudes": [
      "360C",
      "360C",
      "360C",
      "360C",
      "360C",
      "360C",
      "360C",
      "360C",
      "360C",
      "360C",
      "360C",
      "360",
      "360",
      "360",
      "360",
      "360",
      "360",
      "360",
      "360",
      "360",
      "360",
      "360",
      "360",
      "360",
      "276",
      "276",
      "249",
      "249",
      "231",
      "231",
      "213",
      "213",
      "199",
      "199",
      "184",
      "184",
      "184",
      "168",
      "168",
      "108",
      "108",
      "099C",
      "099C",
      "100",
      "100",
      "100",
      "099C",
      "099C",
      "100C",
      "100C",
      "080",
      "079",
      "079",
      "080",
      "080",
      "073",
      "073",
      "060",
      "060",
      "060",
      "060",
      "048",
      "040",
      "040",
      "040",
      "040",
      "008",
      "008",
      "008"
    ],
    "swim:geom": "path",
    "swim:speeds": [
      495,
      495,
      495,
      495,
      497,
      497,
      497,
      497,
      497,
      497,
      497,
      498,
      498,
      498,
      498,
      498,
      497,
      497,
      497,
      497,
      496,
      497,
      497,
      497,
      432,
      432,
      413,
      413,
      402,
      402,
      392,
      392,
      381,
      381,
      366,
      366,
      366,
      353,
      353,
      335,
      335,
      286,
      286,
      279,
      279,
      279,
      283,
      283,
      262,
      262,
      255,
      255,
      255,
      254,
      254,
      235,
      235,
      227,
      227,
      227,
      227,
      227,
      226,
      226,
      226,
      226,
      149,
      149,
      149
    ],
    "swim:timestamps": [
      1777046603,
      1777046603,
      1777046603,
      1777046603,
      1777046904,
      1777046904,
      1777046904,
      1777046904,
      1777047024,
      1777047024,
      1777047024,
      1777047144,
      1777047144,
      1777047144,
      1777047204,
      1777047204,
      1777047384,
      1777047384,
      1777047384,
      1777047384,
      1777047444,
      1777047505,
      1777047505,
      1777047505,
      1777047745,
      1777047745,
      1777047805,
      1777047805,
      1777047865,
      1777047865,
      1777047925,
      1777047925,
      1777047985,
      1777047985,
      1777048045,
      1777048045,
      1777048045,
      1777048105,
      1777048105,
      1777048346,
      1777048346,
      1777048466,
      1777048466,
      1777048500,
      1777048500,
      1777048500,
      1777048586,
      1777048586,
      1777048646,
      1777048646,
      1777048766,
      1777048826,
      1777048826,
      1777048886,
      1777048886,
      1777048947,
      1777048947,
      1777049040,
      1777049040,
      1777049040,
      1777049100,
      1777049187,
      1777049247,
      1777049247,
      1777049247,
      1777049247,
      1777049455,
      1777049455,
      1777049455
    ],
    "wof:geomhash": "cb944dedfefa975629464bf587cd1522",
    "wof:id": 2031101385,
    "wof:repo": "sfomuseum-data-flights-2026-04"
  },
  "bbox": [
    -127.31472222222222,
    37.14833333333333,
    -122.09972222222221,
    38.52638888888889
  ],
  "geometry": {"coordinates":[[-127.31472222222222,38.52638888888889],[-127.31472222222222,38.52638888888889],[-127.31472222222222,38.52638888888889],[-127.31472222222222,38.52638888888889],[-126.48027777777779,38.324444444444445],[-126.48027777777779,38.324444444444445],[-126.48027777777779,38.324444444444445],[-126.48027777777779,38.324444444444445],[-126.12833333333333,38.22694444444445],[-126.12833333333333,38.22694444444445],[-126.12833333333333,38.22694444444445],[-125.79777777777778,38.134166666666665],[-125.79777777777778,38.134166666666665],[-125.79777777777778,38.134166666666665],[-125.63222222222221,38.08722222222222],[-125.63222222222221,38.08722222222222],[-125.13944444444445,37.94555555555555],[-125.13944444444445,37.94555555555555],[-125.13944444444445,37.94555555555555],[-125.13944444444445,37.94555555555555],[-124.97611111111111,37.89805555555556],[-124.81527777777778,37.85111111111111],[-124.81527777777778,37.85111111111111],[-124.81527777777778,37.85111111111111],[-124.19638888888889,37.6675],[-124.19638888888889,37.6675],[-124.06,37.62638888888889],[-124.06,37.62638888888889],[-123.93,37.58694444444445],[-123.93,37.58694444444445],[-123.79583333333333,37.546388888888885],[-123.79583333333333,37.546388888888885],[-123.67805555555556,37.510555555555555],[-123.67805555555556,37.510555555555555],[-123.55916666666667,37.473888888888894],[-123.55916666666667,37.473888888888894],[-123.55916666666667,37.473888888888894],[-123.44388888888889,37.43861111111111],[-123.44388888888889,37.43861111111111],[-123.0111111111111,37.303888888888885],[-123.0111111111111,37.303888888888885],[-122.8086111111111,37.27055555555555],[-122.8086111111111,37.27055555555555],[-122.73333333333333,37.28333333333333],[-122.73333333333333,37.28333333333333],[-122.73333333333333,37.28333333333333],[-122.62083333333332,37.314166666666665],[-122.62083333333332,37.314166666666665],[-122.53416666666666,37.29833333333333],[-122.53416666666666,37.29833333333333],[-122.405,37.203611111111115],[-122.34055555555555,37.15555555555555],[-122.34055555555555,37.15555555555555],[-122.2575,37.14833333333333],[-122.2575,37.14833333333333],[-122.19722222222222,37.18888888888888],[-122.19722222222222,37.18888888888888],[-122.13333333333334,37.28333333333333],[-122.13333333333334,37.28333333333333],[-122.13333333333334,37.28333333333333],[-122.11666666666666,37.35],[-122.09972222222221,37.42972222222222],[-122.12138888888889,37.485],[-122.12138888888889,37.485],[-122.12138888888889,37.485],[-122.12138888888889,37.485],[-122.31666666666666,37.6],[-122.31666666666666,37.6],[-122.31666666666666,37.6]],"type":"LineString"}
}
