{
  "id": 2031092443,
  "type": "Feature",
  "properties": {
    "geom:area": 0,
    "geom:bbox": "-122.350000,32.035833,-116.922500,37.602500",
    "geom:latitude": 34.808703905014966,
    "geom:longitude": -119.76775086345364,
    "src:alt_label": "swim-path",
    "src:geom": "swim",
    "swim:altitudes": [
      "380C",
      "380C",
      "380C",
      "380C",
      "380C",
      "380C",
      "380C",
      "399C",
      "400C",
      "400C",
      "400C",
      "400C",
      "400C",
      "400C",
      "400C",
      "400C",
      "400C",
      "400C",
      "400C",
      "400C",
      "400C",
      "400C",
      "400C",
      "400C",
      "400C",
      "400C",
      "400C",
      "400C",
      "400C",
      "400C",
      "400C",
      "400C",
      "400C",
      "400C",
      "400C",
      "400C",
      "400C",
      "400C",
      "400C",
      "400C",
      "400C",
      "400C",
      "400C",
      "400C",
      "400C",
      "400C",
      "400C",
      "400C",
      "400C",
      "399",
      "399",
      "399",
      "376",
      "346",
      "346",
      "272",
      "272",
      "262",
      "262",
      "184",
      "184",
      "178",
      "178",
      "164",
      "145",
      "139",
      "127",
      "103",
      "103",
      "094",
      "089",
      "084",
      "080",
      "080",
      "080",
      "080",
      "079",
      "068",
      "055",
      "055",
      "046",
      "046",
      "046",
      "005",
      "003",
      "003",
      "003"
    ],
    "swim:geom": "path",
    "swim:speeds": [
      390,
      390,
      390,
      391,
      392,
      392,
      392,
      393,
      394,
      394,
      394,
      394,
      394,
      392,
      392,
      389,
      388,
      388,
      388,
      390,
      390,
      389,
      389,
      389,
      389,
      390,
      390,
      390,
      391,
      391,
      391,
      391,
      391,
      391,
      391,
      392,
      392,
      392,
      395,
      398,
      398,
      398,
      402,
      402,
      404,
      404,
      405,
      409,
      409,
      409,
      409,
      409,
      402,
      410,
      410,
      389,
      389,
      381,
      381,
      358,
      358,
      349,
      349,
      351,
      345,
      334,
      330,
      306,
      306,
      291,
      276,
      245,
      232,
      232,
      232,
      233,
      224,
      230,
      230,
      230,
      227,
      227,
      227,
      136,
      133,
      133,
      133
    ],
    "swim:timestamps": [
      1776980829,
      1776980829,
      1776980829,
      1776981189,
      1776981249,
      1776981249,
      1776981249,
      1776981430,
      1776981550,
      1776981550,
      1776981550,
      1776981670,
      1776981670,
      1776981730,
      1776981730,
      1776981850,
      1776981970,
      1776981970,
      1776981970,
      1776982271,
      1776982331,
      1776982391,
      1776982391,
      1776982391,
      1776982451,
      1776982571,
      1776982571,
      1776982571,
      1776982752,
      1776982752,
      1776982812,
      1776982872,
      1776982872,
      1776982932,
      1776982932,
      1776983052,
      1776983052,
      1776983052,
      1776983112,
      1776983172,
      1776983172,
      1776983172,
      1776983292,
      1776983292,
      1776983353,
      1776983353,
      1776983413,
      1776983533,
      1776983533,
      1776983713,
      1776983713,
      1776983713,
      1776983777,
      1776983837,
      1776983837,
      1776984017,
      1776984017,
      1776984040,
      1776984040,
      1776984257,
      1776984257,
      1776984274,
      1776984274,
      1776984317,
      1776984377,
      1776984395,
      1776984437,
      1776984520,
      1776984520,
      1776984558,
      1776984575,
      1776984618,
      1776984635,
      1776984635,
      1776984635,
      1776984678,
      1776984695,
      1776984738,
      1776984875,
      1776984875,
      1776984918,
      1776984918,
      1776984918,
      1776985219,
      1776985235,
      1776985235,
      1776985235
    ],
    "wof:geomhash": "e0fb8b95f5acbe4d85bb9c6f62e0359c",
    "wof:id": 2031092443,
    "wof:repo": "sfomuseum-data-flights-2026-04"
  },
  "bbox": [
    -122.35,
    32.03583333333333,
    -116.9225,
    37.6025
  ],
  "geometry": {"coordinates":[[-116.9225,32.03583333333333],[-116.9225,32.03583333333333],[-116.9225,32.03583333333333],[-117.33749999999999,32.587500000000006],[-117.41333333333334,32.67666666666666],[-117.41333333333334,32.67666666666666],[-117.41333333333334,32.67666666666666],[-117.6375,32.93833333333333],[-117.78999999999999,33.11527777777778],[-117.78999999999999,33.11527777777778],[-117.78999999999999,33.11527777777778],[-117.95611111111111,33.285555555555554],[-117.95611111111111,33.285555555555554],[-118.04805555555555,33.36138888888889],[-118.04805555555555,33.36138888888889],[-118.23138888888889,33.511944444444445],[-118.42027777777778,33.66611111111111],[-118.42027777777778,33.66611111111111],[-118.42027777777778,33.66611111111111],[-118.89083333333333,34.04722222222222],[-118.98388888888888,34.121944444444445],[-119.07944444444443,34.19555555555555],[-119.07944444444443,34.19555555555555],[-119.07944444444443,34.19555555555555],[-119.17694444444444,34.26916666666666],[-119.37027777777777,34.41555555555556],[-119.37027777777777,34.41555555555556],[-119.37027777777777,34.41555555555556],[-119.65472222222223,34.62888888888889],[-119.65472222222223,34.62888888888889],[-119.75333333333333,34.7025],[-119.85055555555554,34.775],[-119.85055555555554,34.775],[-119.95027777777779,34.84861111111111],[-119.95027777777779,34.84861111111111],[-120.14722222222223,34.99444444444445],[-120.14722222222223,34.99444444444445],[-120.14722222222223,34.99444444444445],[-120.24444444444444,35.07],[-120.33583333333333,35.15277777777778],[-120.33583333333333,35.15277777777778],[-120.33583333333333,35.15277777777778],[-120.52361111111111,35.32222222222222],[-120.52361111111111,35.32222222222222],[-120.61722222222221,35.40611111111111],[-120.61722222222221,35.40611111111111],[-120.71194444444444,35.490833333333335],[-120.90166666666667,35.66027777777778],[-120.90166666666667,35.66027777777778],[-121.18694444444445,35.91222222222222],[-121.18694444444445,35.91222222222222],[-121.18694444444445,35.91222222222222],[-121.28111111111112,35.995],[-121.375,36.081388888888895],[-121.375,36.081388888888895],[-121.59861111111111,36.367777777777775],[-121.59861111111111,36.367777777777775],[-121.63333333333334,36.4],[-121.63333333333334,36.4],[-121.87583333333333,36.718333333333334],[-121.87583333333333,36.718333333333334],[-121.9,36.75],[-121.9,36.75],[-121.91305555555556,36.809999999999995],[-121.93916666666667,36.90277777777778],[-121.95,36.93333333333333],[-121.96861111111112,36.99111111111111],[-122.01666666666667,37.11666666666667],[-122.01666666666667,37.11666666666667],[-122.03222222222222,37.15472222222222],[-122.05,37.166666666666664],[-122.08694444444444,37.21333333333334],[-122.1,37.233333333333334],[-122.1,37.233333333333334],[-122.1,37.233333333333334],[-122.13583333333334,37.26444444444444],[-122.15,37.28333333333333],[-122.11861111111111,37.31583333333333],[-122.06666666666666,37.45],[-122.06666666666666,37.45],[-122.08138888888888,37.486666666666665],[-122.08138888888888,37.486666666666665],[-122.08138888888888,37.486666666666665],[-122.33055555555555,37.6025],[-122.35,37.6],[-122.35,37.6],[-122.35,37.6]],"type":"LineString"}
}
