{
  "id": 2015346489,
  "type": "Feature",
  "properties": {
    "geom:area": 0,
    "geom:bbox": "-122.360610,37.491270,-121.244480,37.615180",
    "geom:latitude": 37.543184899291546,
    "geom:longitude": -121.80969900123871,
    "src:alt_label": "swim-approach",
    "src:geom": "swim",
    "swim:elevations": [
      5415,
      5212,
      4988,
      4898,
      4494,
      4367,
      3917,
      3644,
      3382,
      3297,
      3083,
      2936,
      2758,
      2464,
      2368,
      2136,
      2049,
      1859,
      1823,
      1796,
      1621,
      1405,
      1249,
      1154,
      1054,
      935,
      741,
      576,
      448,
      399,
      210,
      118,
      0
    ],
    "swim:geom": "approach",
    "swim:timestamps": [
      1776811032,
      1776811050,
      1776811074,
      1776811086,
      1776811128,
      1776811143,
      1776811191,
      1776811222,
      1776811253,
      1776811263,
      1776811288,
      1776811307,
      1776811332,
      1776811371,
      1776811387,
      1776811419,
      1776811435,
      1776811468,
      1776811498,
      1776811504,
      1776811532,
      1776811579,
      1776811606,
      1776811627,
      1776811648,
      1776811669,
      1776811703,
      1776811735,
      1776811767,
      1776811774,
      1776811827,
      1776811856,
      1776811883
    ],
    "wof:geomhash": "0f4c481d933541b57196636189b230db",
    "wof:id": 2015346489,
    "wof:repo": "sfomuseum-data-flights-2026-04"
  },
  "bbox": [
    -122.36061,
    37.49127,
    -121.24448,
    37.61518
  ],
  "geometry": {"coordinates":[[-121.24448,37.59502],[-121.27865,37.59058],[-121.3238,37.58507],[-121.34608,37.58265],[-121.42116,37.57422],[-121.44924,37.57097],[-121.53454,37.56119],[-121.58914,37.55474],[-121.64095,37.5469],[-121.65705,37.54297],[-121.6956,37.53361],[-121.7246,37.52669],[-121.75953,37.51838],[-121.8124,37.50588],[-121.83333,37.50083],[-121.87639,37.49127],[-121.89853,37.4919],[-121.94395,37.49489],[-121.98518,37.49712],[-121.99342,37.49761],[-122.03079,37.49971],[-122.0908,37.5039],[-122.12177,37.51453],[-122.14485,37.52413],[-122.16827,37.53405],[-122.18957,37.54306],[-122.22334,37.55731],[-122.25292,37.56971],[-122.27964,37.58102],[-122.28513,37.58333],[-122.32176,37.59864],[-122.34244,37.60727],[-122.36061,37.61518]],"type":"LineString"}
}
