{
  "id": 2015323753,
  "type": "Feature",
  "properties": {
    "geom:area": 0,
    "geom:bbox": "-123.339560,37.626060,-122.392830,38.518860",
    "geom:latitude": 38.030489464060324,
    "geom:longitude": -122.8998284779119,
    "src:alt_label": "swim-takeoff",
    "src:geom": "swim",
    "swim:elevations": [
      122,
      315,
      730,
      1057,
      1154,
      1374,
      1880,
      1920,
      2678,
      2769,
      3168,
      3298,
      3581,
      4126,
      4320,
      4754,
      4860,
      4939,
      5227,
      5679,
      5990,
      6141,
      6654,
      6980,
      7254,
      7315
    ],
    "swim:geom": "takeoff",
    "swim:timestamps": [
      1776515002,
      1776515015,
      1776515046,
      1776515079,
      1776515108,
      1776515130,
      1776515183,
      1776515190,
      1776515248,
      1776515255,
      1776515288,
      1776515315,
      1776515347,
      1776515393,
      1776515412,
      1776515452,
      1776515464,
      1776515471,
      1776515496,
      1776515543,
      1776515575,
      1776515592,
      1776515646,
      1776515686,
      1776515724,
      1776515731
    ],
    "wof:geomhash": "dd7d03e8215ccc373ed54704da2e51ea",
    "wof:id": 2015323753,
    "wof:repo": "sfomuseum-data-flights-2026-04"
  },
  "bbox": [
    -123.33956,
    37.62606,
    -122.39283,
    38.51886
  ],
  "geometry": {"coordinates":[[-122.39283,37.62606],[-122.40589,37.6313],[-122.43732,37.64514],[-122.47063,37.66024],[-122.50442,37.67553],[-122.53152,37.69128],[-122.60035,37.7319],[-122.61051,37.73789],[-122.69511,37.78782],[-122.70523,37.79367],[-122.75365,37.82414],[-122.78533,37.85814],[-122.82316,37.90372],[-122.87871,37.97083],[-122.90182,37.99854],[-122.95344,38.06049],[-122.96842,38.07842],[-122.97756,38.08939],[-123.01154,38.13002],[-123.07343,38.20386],[-123.11816,38.25715],[-123.14095,38.28415],[-123.21708,38.37466],[-123.27317,38.44089],[-123.32892,38.50583],[-123.33956,38.51886]],"type":"LineString"}
}
