{
  "id": 2015186933,
  "type": "Feature",
  "properties": {
    "geom:area": 0,
    "geom:bbox": "-122.553690,37.360280,-122.112120,37.786420",
    "geom:latitude": 37.54421144686749,
    "geom:longitude": -122.28940009679249,
    "src:alt_label": "swim-approach",
    "src:geom": "swim",
    "swim:elevations": [
      3701,
      3352,
      3379,
      3353,
      3353,
      3349,
      3215,
      3098,
      2958,
      2683,
      2525,
      2371,
      2255,
      2061,
      1986,
      1764,
      1625,
      1525,
      1524,
      1349,
      1219,
      1110,
      944,
      874,
      693,
      598,
      518,
      291,
      203,
      138,
      28
    ],
    "swim:geom": "approach",
    "swim:timestamps": [
      1775150254,
      1775150299,
      1775150316,
      1775150355,
      1775150379,
      1775150428,
      1775150456,
      1775150474,
      1775150495,
      1775150535,
      1775150561,
      1775150583,
      1775150610,
      1775150665,
      1775150686,
      1775150722,
      1775150747,
      1775150762,
      1775150802,
      1775150835,
      1775150863,
      1775150880,
      1775150907,
      1775150926,
      1775150965,
      1775150987,
      1775151003,
      1775151057,
      1775151078,
      1775151094,
      1775151122
    ],
    "wof:geomhash": "58ce513904bbf965cd6edeb625774fb3",
    "wof:id": 2015186933,
    "wof:repo": "sfomuseum-data-flights-2026-04"
  },
  "bbox": [
    -122.55369,
    37.36028,
    -122.11212,
    37.78642
  ],
  "geometry": {"coordinates":[[-122.55369,37.78642],[-122.49787,37.73386],[-122.47738,37.71466],[-122.43192,37.67198],[-122.40279,37.64475],[-122.35298,37.59276],[-122.33623,37.56017],[-122.32554,37.53766],[-122.31131,37.5147],[-122.28468,37.47044],[-122.26737,37.44256],[-122.25333,37.41974],[-122.23599,37.39105],[-122.17433,37.36028],[-122.15056,37.36852],[-122.12143,37.39481],[-122.11559,37.41799],[-122.11212,37.43154],[-122.11563,37.46855],[-122.1291,37.4972],[-122.14049,37.51902],[-122.15475,37.52766],[-122.18083,37.53943],[-122.19839,37.54674],[-122.23267,37.56114],[-122.25216,37.56936],[-122.26586,37.57518],[-122.30838,37.59308],[-122.32385,37.59955],[-122.33535,37.60435],[-122.35563,37.61288]],"type":"LineString"}
}
