{
  "id": 2015240069,
  "type": "Feature",
  "properties": {
    "date:inception_lower": "2026-04-08",
    "date:inception_upper": "2026-04-08",
    "edtf:cessation": "",
    "edtf:inception": "2026-04-08",
    "flysfo:actual_timestamp": -1,
    "flysfo:airline": "HA",
    "flysfo:base_airline": "",
    "flysfo:base_flight_number": "7007",
    "flysfo:date": "2026-04-08",
    "flysfo:estimated_timestamp": 1775661000,
    "flysfo:event": "D",
    "flysfo:flight_number": "HA7007",
    "flysfo:gate": "B3",
    "flysfo:journey": "SFO-PDX",
    "flysfo:scheduled_timestamp": 1775660400,
    "flysfo:timestamp": 1775661000,
    "geom:area": 0,
    "geom:bbox": "-122.597389,37.617990,-122.370943,45.586144",
    "geom:latitude": 41.602067,
    "geom:longitude": -122.484166,
    "iata:airline": "HA",
    "iata:base_airline": "",
    "icao:airline": "HAL",
    "icao:base_airline": "HAL",
    "lbl:latitude": 37.61799,
    "lbl:longitude": -122.370943,
    "sfomuseum:airline_id": 1159284489,
    "sfomuseum:arrival_id": 102532251,
    "sfomuseum:base_flight_id": "20260408-D-HAL-7007",
    "sfomuseum:departure_id": 102527513,
    "sfomuseum:flight_id": "20260408-D-HAL-7007",
    "sfomuseum:flight_number": [
      "HAL7007",
      "HA7007"
    ],
    "sfomuseum:placetype": "flight",
    "src:geom": "flysfo",
    "wof:belongsto": [
      1947304067,
      102527513,
      1947304261,
      102191575,
      85633793,
      102087579,
      85922583,
      554784711,
      85688637,
      1947304289,
      1947304259,
      102085387
    ],
    "wof:country": "US",
    "wof:created": 1775751237,
    "wof:geomhash": "a0e250e9237d15725a2a6f51d6b7a6b6",
    "wof:hierarchy": [
      {
        "building_id": 1947304067,
        "campus_id": 102527513,
        "concourse_id": 1947304261,
        "continent_id": 102191575,
        "country_id": 85633793,
        "county_id": 102087579,
        "custom_id": 2015240069,
        "flight_id": 2015240069,
        "locality_id": 85922583,
        "postalcode_id": 554784711,
        "region_id": 85688637,
        "venue_id": 1947304289,
        "wing_id": 1947304259
      },
      {
        "building_id": 1947304067,
        "campus_id": 102527513,
        "concourse_id": 1947304261,
        "continent_id": 102191575,
        "country_id": 85633793,
        "county_id": 102085387,
        "custom_id": 2015240069,
        "flight_id": 2015240069,
        "region_id": 85688637,
        "venue_id": 1947304289,
        "wing_id": 1947304259
      }
    ],
    "wof:id": 2015240069,
    "wof:involves": [
      102532251,
      102527513,
      1159284489,
      1947304289,
      1159284489
    ],
    "wof:lastmodified": 1775751237,
    "wof:name": "HA7007 (SFO-PDX)",
    "wof:parent_id": 1947304289,
    "wof:placetype": "custom",
    "wof:placetype_alt": [
      "flight"
    ],
    "wof:repo": "sfomuseum-data-flights-2026-04",
    "wof:superseded_by": [],
    "wof:supersedes": []
  },
  "bbox": [
    -122.597389,
    37.61799,
    -122.370943,
    45.586144
  ],
  "geometry": {"coordinates":[[-122.370943,37.61799],[-122.597389,45.586144]],"type":"MultiPoint"}
}
