{
  "id": 2015225471,
  "type": "Feature",
  "properties": {
    "geom:area": 0,
    "geom:bbox": "-122.524450,36.764970,-121.606260,37.663710",
    "geom:latitude": 37.2317383309281,
    "geom:longitude": -122.13504650181173,
    "src:alt_label": "swim-takeoff",
    "src:geom": "swim",
    "swim:elevations": [
      236,
      415,
      590,
      1134,
      1203,
      1272,
      1587,
      1754,
      2505,
      2987,
      3360,
      3831,
      4237,
      4526,
      4811,
      5317,
      5511,
      5606,
      5879,
      6157,
      6661,
      6772,
      6934,
      7166,
      7445,
      7765,
      7854,
      8135,
      8377,
      8726,
      8894
    ],
    "swim:geom": "takeoff",
    "swim:timestamps": [
      1775481116,
      1775481133,
      1775481151,
      1775481208,
      1775481220,
      1775481230,
      1775481268,
      1775481280,
      1775481322,
      1775481349,
      1775481376,
      1775481418,
      1775481444,
      1775481466,
      1775481489,
      1775481526,
      1775481549,
      1775481559,
      1775481585,
      1775481608,
      1775481653,
      1775481666,
      1775481683,
      1775481709,
      1775481737,
      1775481777,
      1775481787,
      1775481828,
      1775481853,
      1775481886,
      1775481902
    ],
    "wof:geomhash": "905de90fe972dd92614cab43f983f561",
    "wof:id": 2015225471,
    "wof:repo": "sfomuseum-data-flights-2026-04"
  },
  "bbox": [
    -122.52445,
    36.76497,
    -121.60626,
    37.66371
  ],
  "geometry": {"coordinates":[[-122.38739,37.62425],[-122.39885,37.62973],[-122.41168,37.63545],[-122.45826,37.6545],[-122.4694,37.65949],[-122.47896,37.66371],[-122.52176,37.65228],[-122.52445,37.63792],[-122.50712,37.58637],[-122.49488,37.55124],[-122.48285,37.51396],[-122.43807,37.45949],[-122.39977,37.42765],[-122.36733,37.40074],[-122.33142,37.371],[-122.27382,37.32334],[-122.23685,37.2926],[-122.22148,37.27979],[-122.17769,37.24341],[-122.13921,37.21134],[-122.06241,37.14716],[-122.03939,37.12798],[-122.00921,37.10263],[-121.96464,37.06521],[-121.91335,37.02226],[-121.84146,36.96152],[-121.8238,36.94684],[-121.74593,36.8819],[-121.69871,36.84249],[-121.63689,36.7906],[-121.60626,36.76497]],"type":"LineString"}
}
