{
  "id": 2015356521,
  "type": "Feature",
  "properties": {
    "geom:area": 0,
    "geom:bbox": "-122.525810,37.623560,-121.259080,38.008740",
    "geom:latitude": 37.85362110261659,
    "geom:longitude": -121.97762555434856,
    "src:alt_label": "swim-takeoff",
    "src:geom": "swim",
    "swim:elevations": [
      152,
      581,
      811,
      950,
      1059,
      1763,
      2075,
      2319,
      2702,
      3150,
      3403,
      3493,
      3710,
      4007,
      4228,
      4589,
      4715,
      5083,
      5213,
      5334,
      5405,
      5876,
      6049,
      6211,
      6338,
      6494
    ],
    "swim:geom": "takeoff",
    "swim:timestamps": [
      1776842069,
      1776842097,
      1776842126,
      1776842148,
      1776842165,
      1776842217,
      1776842242,
      1776842260,
      1776842286,
      1776842324,
      1776842359,
      1776842373,
      1776842412,
      1776842458,
      1776842476,
      1776842518,
      1776842536,
      1776842577,
      1776842598,
      1776842615,
      1776842636,
      1776842697,
      1776842725,
      1776842749,
      1776842766,
      1776842791
    ],
    "wof:geomhash": "16815698d2c5126a92851ed3786ed9cc",
    "wof:id": 2015356521,
    "wof:repo": "sfomuseum-data-flights-2026-04"
  },
  "bbox": [
    -122.52581,
    37.62356,
    -121.25908,
    38.00874
  ],
  "geometry": {"coordinates":[[-122.38664,37.62356],[-122.41072,37.6339],[-122.4363,37.6452],[-122.45982,37.65531],[-122.4797,37.66379],[-122.52448,37.70855],[-122.52581,37.74089],[-122.52316,37.7649],[-122.49534,37.79239],[-122.43157,37.80461],[-122.36559,37.81392],[-122.33854,37.81788],[-122.25363,37.83019],[-122.14706,37.8454],[-122.10347,37.85165],[-121.99803,37.86673],[-121.95226,37.87323],[-121.84499,37.8885],[-121.78895,37.89663],[-121.74411,37.90308],[-121.6854,37.91122],[-121.51429,37.93501],[-121.43386,37.94621],[-121.36796,37.9648],[-121.32262,37.9831],[-121.25908,38.00874]],"type":"LineString"}
}
