{
  "id": 2031109171,
  "type": "Feature",
  "properties": {
    "geom:area": 0,
    "geom:bbox": "-122.764720,37.361190,-122.126160,38.514610",
    "geom:latitude": 37.83263248408425,
    "geom:longitude": -122.46904251950076,
    "src:alt_label": "swim-approach",
    "src:geom": "swim",
    "swim:elevations": [
      7437,
      7224,
      6958,
      6753,
      6732,
      6542,
      6519,
      6048,
      5804,
      5622,
      5325,
      4896,
      4741,
      4632,
      4613,
      4572,
      4480,
      4449,
      4380,
      4101,
      3938,
      3811,
      3691,
      3434,
      3383,
      3352,
      3353,
      3353,
      3353,
      3353,
      3353,
      3234,
      3067,
      2893,
      2760,
      2704,
      2611,
      2466,
      2357,
      2166,
      1838,
      1791,
      1413,
      1245,
      1228,
      1218,
      1219,
      1186,
      1051,
      912,
      886,
      698,
      599,
      483,
      364,
      263,
      152,
      0
    ],
    "swim:geom": "approach",
    "swim:timestamps": [
      1777149838,
      1777149859,
      1777149886,
      1777149907,
      1777149910,
      1777149928,
      1777149931,
      1777149982,
      1777150015,
      1777150033,
      1777150062,
      1777150106,
      1777150119,
      1777150137,
      1777150143,
      1777150158,
      1777150192,
      1777150206,
      1777150239,
      1777150278,
      1777150301,
      1777150323,
      1777150340,
      1777150378,
      1777150386,
      1777150414,
      1777150435,
      1777150465,
      1777150474,
      1777150489,
      1777150501,
      1777150525,
      1777150552,
      1777150577,
      1777150600,
      1777150641,
      1777150656,
      1777150677,
      1777150692,
      1777150719,
      1777150765,
      1777150776,
      1777150828,
      1777150857,
      1777150860,
      1777150879,
      1777150912,
      1777150945,
      1777150975,
      1777151005,
      1777151023,
      1777151060,
      1777151084,
      1777151109,
      1777151139,
      1777151163,
      1777151191,
      1777151227
    ],
    "wof:geomhash": "08eebf22f5fd5330dd2d8d8c81502aa5",
    "wof:id": 2031109171,
    "wof:repo": "sfomuseum-data-flights-2026-04"
  },
  "bbox": [
    -122.76472,
    37.36119,
    -122.12616,
    38.51461
  ],
  "geometry": {"coordinates":[[-122.46939,38.51461],[-122.50115,38.48373],[-122.54202,38.44401],[-122.57356,38.41342],[-122.57804,38.4091],[-122.60475,38.3831],[-122.60918,38.37878],[-122.6836,38.30656],[-122.73148,38.25971],[-122.75247,38.23224],[-122.76472,38.18243],[-122.7439,38.10688],[-122.73559,38.08311],[-122.72492,38.05287],[-122.72146,38.04303],[-122.71313,38.01883],[-122.69543,37.96674],[-122.68858,37.94639],[-122.66988,37.90081],[-122.62716,37.85616],[-122.59984,37.83024],[-122.57511,37.80715],[-122.55422,37.78761],[-122.51107,37.74665],[-122.50212,37.73817],[-122.47179,37.70933],[-122.45017,37.68903],[-122.42013,37.66074],[-122.4111,37.65228],[-122.39613,37.63814],[-122.38407,37.62679],[-122.36026,37.60276],[-122.34527,37.57203],[-122.33074,37.5445],[-122.31586,37.51906],[-122.29234,37.4743],[-122.29485,37.45669],[-122.30155,37.43246],[-122.30599,37.41528],[-122.30817,37.38423],[-122.25349,37.36119],[-122.23869,37.36537],[-122.17285,37.39401],[-122.14907,37.42013],[-122.14665,37.42288],[-122.13167,37.4401],[-122.12616,37.47025],[-122.14135,37.49723],[-122.15497,37.52168],[-122.17879,37.53824],[-122.19631,37.54553],[-122.22991,37.55986],[-122.25164,37.56931],[-122.27287,37.57802],[-122.29517,37.58737],[-122.31279,37.59496],[-122.33356,37.6036],[-122.36023,37.61487]],"type":"LineString"}
}
