{
  "id": 2015221021,
  "type": "Feature",
  "properties": {
    "geom:area": 0,
    "geom:bbox": "-122.357490,36.722810,-121.879100,37.611320",
    "geom:latitude": 37.22150396597359,
    "geom:longitude": -122.06647693449612,
    "src:alt_label": "swim-approach",
    "src:geom": "swim",
    "swim:elevations": [
      5550,
      5393,
      5302,
      5158,
      4958,
      4439,
      4257,
      4111,
      3861,
      3586,
      3420,
      3179,
      3065,
      3012,
      2674,
      2530,
      2435,
      2390,
      2023,
      1829,
      1745,
      1524,
      1524,
      1524,
      1375,
      1219,
      1191,
      1005,
      858,
      802,
      617,
      583,
      430,
      334,
      166,
      64,
      24
    ],
    "swim:geom": "approach",
    "swim:timestamps": [
      1775495800,
      1775495821,
      1775495835,
      1775495857,
      1775495885,
      1775495938,
      1775495955,
      1775495970,
      1775495994,
      1775496022,
      1775496040,
      1775496070,
      1775496087,
      1775496095,
      1775496141,
      1775496171,
      1775496201,
      1775496211,
      1775496259,
      1775496286,
      1775496319,
      1775496355,
      1775496377,
      1775496408,
      1775496431,
      1775496473,
      1775496490,
      1775496521,
      1775496562,
      1775496578,
      1775496624,
      1775496634,
      1775496673,
      1775496699,
      1775496742,
      1775496772,
      1775496783
    ],
    "wof:geomhash": "0bbacfe4019f4a6640d10701226eb24d",
    "wof:id": 2015221021,
    "wof:repo": "sfomuseum-data-flights-2026-04"
  },
  "bbox": [
    -122.35749,
    36.72281,
    -121.8791,
    37.61132
  ],
  "geometry": {"coordinates":[[-121.8791,36.72281],[-121.89614,36.7533],[-121.90353,36.77564],[-121.91318,36.80968],[-121.92451,36.85019],[-121.94482,36.92307],[-121.95168,36.94718],[-121.95889,36.96667],[-121.97165,36.99965],[-121.98562,37.03543],[-121.99501,37.05957],[-122.00987,37.0976],[-122.01813,37.11865],[-122.02217,37.12915],[-122.04478,37.18648],[-122.05893,37.22285],[-122.07397,37.25487],[-122.08234,37.26231],[-122.11239,37.3048],[-122.10284,37.33295],[-122.0912,37.36704],[-122.0829,37.40454],[-122.09047,37.42703],[-122.09923,37.45411],[-122.10512,37.47217],[-122.11609,37.50477],[-122.12845,37.51372],[-122.15385,37.52592],[-122.18711,37.53972],[-122.19944,37.54489],[-122.23674,37.56055],[-122.24419,37.56366],[-122.27545,37.57691],[-122.29537,37.58521],[-122.32761,37.59879],[-122.34926,37.608],[-122.35749,37.61132]],"type":"LineString"}
}
