{
  "id": 2015266159,
  "type": "Feature",
  "properties": {
    "geom:area": 0,
    "geom:bbox": "-122.528410,37.624060,-121.246630,38.151710",
    "geom:latitude": 37.9358880550823,
    "geom:longitude": -121.98254838717446,
    "src:alt_label": "swim-takeoff",
    "src:geom": "swim",
    "swim:elevations": [
      152,
      713,
      976,
      1026,
      1062,
      1199,
      1616,
      1998,
      2477,
      2698,
      3387,
      3621,
      4270,
      4525,
      4996,
      5481,
      5940,
      6219,
      6353,
      6545,
      6614,
      7023,
      7103,
      7313,
      7515,
      7772,
      7917,
      8014,
      8201,
      8311,
      8380,
      8402
    ],
    "swim:geom": "takeoff",
    "swim:timestamps": [
      1775948786,
      1775948817,
      1775948841,
      1775948847,
      1775948850,
      1775948871,
      1775948907,
      1775948932,
      1775948965,
      1775948981,
      1775949025,
      1775949040,
      1775949081,
      1775949102,
      1775949141,
      1775949178,
      1775949208,
      1775949232,
      1775949244,
      1775949261,
      1775949273,
      1775949323,
      1775949345,
      1775949385,
      1775949417,
      1775949447,
      1775949468,
      1775949483,
      1775949522,
      1775949551,
      1775949566,
      1775949570
    ],
    "wof:geomhash": "e6c01463863730f5a6cb3e804d3f8c6f",
    "wof:id": 2015266159,
    "wof:repo": "sfomuseum-data-flights-2026-04"
  },
  "bbox": [
    -122.52841,
    37.62406,
    -121.24663,
    38.15171
  ],
  "geometry": {"coordinates":[[-122.38786,37.62406],[-122.41661,37.63617],[-122.43903,37.64547],[-122.44498,37.64814],[-122.44791,37.64948],[-122.47072,37.65948],[-122.51431,37.68297],[-122.52757,37.71269],[-122.52841,37.75792],[-122.52504,37.78023],[-122.46817,37.8253],[-122.44255,37.83469],[-122.36796,37.85566],[-122.32862,37.86615],[-122.2541,37.8864],[-122.17982,37.90631],[-122.11863,37.9225],[-122.0692,37.93574],[-122.04515,37.94213],[-122.00914,37.95163],[-121.98381,37.95847],[-121.87229,37.98821],[-121.81979,38.00213],[-121.72272,38.02769],[-121.64331,38.04861],[-121.56693,38.06859],[-121.51326,38.08238],[-121.47487,38.09212],[-121.37312,38.11907],[-121.29638,38.13868],[-121.25597,38.14922],[-121.24663,38.15171]],"type":"LineString"}
}
