{
  "id": 2015354319,
  "type": "Feature",
  "properties": {
    "geom:area": 0,
    "geom:bbox": "-122.770000,37.620000,-93.220000,44.880000",
    "geom:latitude": 41.23036796886174,
    "geom:longitude": -108.37666767810977,
    "src:alt_label": "swim-route",
    "src:geom": "swim",
    "swim:geom": "route",
    "wof:geomhash": "7741cfc3b871896cd58f5eea04938df8",
    "wof:id": 2015354319,
    "wof:repo": "sfomuseum-data-flights-2026-04"
  },
  "bbox": [
    -122.77,
    37.62,
    -93.22,
    44.88
  ],
  "geometry": {"coordinates":[[-93.22,44.88],[-93.32,44.84],[-93.4,44.8],[-93.49,44.75],[-93.68,44.66],[-93.87,44.56],[-93.93,44.53],[-94.09,44.44],[-94.27,44.35],[-94.41,44.28],[-94.48,44.25],[-94.48,44.25],[-94.5,44.24],[-94.68,44.14],[-94.76,44.1],[-94.92,44.01],[-94.94,44],[-95.22,43.85],[-95.75,43.57],[-96.27,43.29],[-96.53,43.21],[-97.07,43.03],[-98.1,42.78],[-98.29,42.6],[-98.69,42.44],[-99.08,42.28],[-99.15,42.25],[-99.21,42.23],[-99.34,42.18],[-100.27,41.94],[-100.28,41.84],[-100.54,41.74],[-100.68,41.74],[-101.3,41.6],[-101.33,41.46],[-101.4,41.43],[-101.61,41.39],[-102.32,41.39],[-102.55,41.42],[-103.06,41.41],[-103.33,41.38],[-104.56,41.38],[-105.16,41.34],[-106.86,41.29],[-108.54,41.2],[-109.97,41.1],[-112.1,40.92],[-112.98,40.84],[-114.45,40.68],[-114.74,40.64],[-115.03,40.61],[-117.06,40.35],[-117.93,40.22],[-118.58,40.13],[-119.42,39.96],[-120.51,39.56],[-121.1,39.34],[-121.54,39.08],[-121.83,38.91],[-121.88,38.88],[-122.05,38.78],[-122.07,38.76],[-122.15,38.72],[-122.44,38.54],[-122.47,38.52],[-122.5,38.48],[-122.77,38.22],[-122.73,38.11],[-122.73,38.1],[-122.68,37.94],[-122.67,37.9],[-122.68,37.85],[-122.7,37.78],[-122.71,37.72],[-122.71,37.7],[-122.7,37.7],[-122.53,37.67],[-122.48,37.66],[-122.48,37.68],[-122.47,37.71],[-122.46,37.71],[-122.45,37.74],[-122.42,37.69],[-122.38,37.62]],"type":"LineString"}
}
