{
  "id": 2015354319,
  "type": "Feature",
  "properties": {
    "geom:area": 0,
    "geom:bbox": "-122.752890,37.431760,-122.158870,38.518140",
    "geom:latitude": 37.88541193803901,
    "geom:longitude": -122.4957888336212,
    "src:alt_label": "swim-approach",
    "src:geom": "swim",
    "swim:elevations": [
      8534,
      8004,
      7961,
      7313,
      6839,
      6561,
      6265,
      5937,
      5469,
      5400,
      4916,
      4540,
      4376,
      4215,
      4100,
      3717,
      3445,
      3413,
      3349,
      3353,
      3353,
      3353,
      3353,
      3174,
      2933,
      2912,
      2714,
      2459,
      2343,
      2073,
      1813,
      1411,
      1363,
      1197,
      1088,
      915,
      914,
      902,
      664,
      495,
      372,
      304,
      104,
      0
    ],
    "swim:geom": "approach",
    "swim:timestamps": [
      1776900137,
      1776900176,
      1776900181,
      1776900228,
      1776900266,
      1776900288,
      1776900312,
      1776900341,
      1776900383,
      1776900398,
      1776900442,
      1776900478,
      1776900496,
      1776900530,
      1776900543,
      1776900585,
      1776900625,
      1776900634,
      1776900658,
      1776900676,
      1776900708,
      1776900741,
      1776900750,
      1776900798,
      1776900838,
      1776900841,
      1776900868,
      1776900898,
      1776900910,
      1776900942,
      1776900972,
      1776901017,
      1776901024,
      1776901045,
      1776901066,
      1776901106,
      1776901130,
      1776901141,
      1776901180,
      1776901219,
      1776901249,
      1776901269,
      1776901317,
      1776901342
    ],
    "wof:geomhash": "050bec73b739b5c48865b30fec5de90c",
    "wof:id": 2015354319,
    "wof:repo": "sfomuseum-data-flights-2026-04"
  },
  "bbox": [
    -122.75289,
    37.43176,
    -122.15887,
    38.51814
  ],
  "geometry": {"coordinates":[[-122.46578,38.51814],[-122.52593,38.45999],[-122.53327,38.4529],[-122.60268,38.38538],[-122.65778,38.33167],[-122.6887,38.30144],[-122.7229,38.26811],[-122.75289,38.22508],[-122.74492,38.14649],[-122.73701,38.11869],[-122.71445,38.04157],[-122.69622,37.97921],[-122.68768,37.94899],[-122.66421,37.89344],[-122.64897,37.87615],[-122.59282,37.82355],[-122.54119,37.77498],[-122.53021,37.76462],[-122.50187,37.73761],[-122.4809,37.71772],[-122.44331,37.68272],[-122.40628,37.6479],[-122.39618,37.63835],[-122.35178,37.59003],[-122.33014,37.5453],[-122.32823,37.54218],[-122.31155,37.51487],[-122.29322,37.48467],[-122.28577,37.47265],[-122.26002,37.44614],[-122.2242,37.43176],[-122.18142,37.44953],[-122.17813,37.45548],[-122.16812,37.47326],[-122.15887,37.49049],[-122.17728,37.51989],[-122.19295,37.53527],[-122.20003,37.54211],[-122.23397,37.56173],[-122.26804,37.57603],[-122.29037,37.58548],[-122.30428,37.59136],[-122.33935,37.60611],[-122.35676,37.61348]],"type":"LineString"}
}
