{
  "id": 2015232247,
  "type": "Feature",
  "properties": {
    "geom:area": 0,
    "geom:bbox": "-122.147222,37.793611,-70.766667,43.504444",
    "geom:latitude": 42.365154953114384,
    "geom:longitude": -96.76965320166808,
    "src:alt_label": "swim-path",
    "src:geom": "swim",
    "swim:altitudes": [
      "091",
      "091",
      "124",
      "124",
      "124",
      "124",
      "193",
      "193",
      "193",
      "193",
      "221",
      "221",
      "254",
      "254",
      "254",
      "254",
      "263",
      "263",
      "271",
      "279",
      "279",
      "289",
      "289",
      "289",
      "289",
      "302",
      "302",
      "320",
      "328",
      "328",
      "328",
      "335",
      "335",
      "335",
      "350C",
      "350C",
      "350C",
      "350C",
      "350C",
      "350C",
      "350C",
      "350C",
      "350C",
      "350C",
      "350C",
      "350C",
      "350C",
      "350C",
      "350C",
      "350C",
      "350C",
      "350C",
      "350C",
      "350C",
      "350C",
      "350C",
      "350C",
      "350C",
      "350C",
      "350C",
      "350C",
      "350C",
      "350C",
      "350C",
      "350C",
      "350C",
      "350C",
      "350C",
      "350C",
      "350C",
      "350C",
      "350C",
      "350C",
      "350C",
      "350C",
      "350C",
      "350C",
      "350C",
      "350C",
      "350C",
      "350C",
      "350C",
      "350C",
      "350C",
      "350C",
      "350C",
      "350C",
      "350C",
      "350C",
      "350C",
      "350C",
      "350C",
      "350C",
      "350C",
      "350C",
      "350C",
      "350C",
      "350C",
      "350C",
      "350C",
      "350C",
      "350C",
      "350C",
      "350C",
      "350C",
      "350C",
      "350C",
      "350C",
      "350C",
      "350C",
      "350C",
      "350C",
      "350C",
      "350C",
      "350C",
      "350C",
      "350C",
      "350C",
      "350C",
      "351C",
      "351C",
      "350C",
      "350C",
      "350C",
      "350C",
      "350C",
      "350C",
      "350C",
      "350C",
      "350C",
      "350C",
      "350C",
      "350C",
      "350C",
      "350C",
      "350C",
      "350C",
      "351C",
      "351C",
      "350C",
      "350C",
      "350C",
      "350C",
      "350C",
      "350C",
      "350C",
      "350C",
      "350C",
      "350C",
      "350C",
      "350C",
      "351C",
      "351C",
      "351C",
      "351C",
      "350C",
      "350C",
      "350C",
      "350C",
      "350C",
      "351C",
      "351C",
      "351C",
      "350C",
      "350C",
      "350C",
      "350C",
      "350C",
      "350C",
      "350C",
      "350C",
      "350C",
      "350C",
      "350C",
      "350C",
      "350C",
      "350C",
      "350C",
      "350C",
      "350C",
      "350C",
      "350C",
      "350C",
      "350C",
      "350C",
      "350C",
      "350C",
      "350C",
      "350C",
      "350C",
      "350C",
      "350C",
      "350C",
      "350C",
      "350C",
      "350C",
      "350C",
      "350C",
      "350C",
      "350C",
      "350C",
      "350C",
      "350C",
      "350C",
      "350C",
      "350C",
      "350C",
      "350C",
      "350C",
      "350C",
      "350C",
      "350C",
      "350C",
      "350C",
      "350C",
      "350C",
      "350C",
      "350C",
      "350C",
      "350C",
      "350C",
      "350C",
      "350C",
      "350C",
      "350C",
      "350C",
      "350C",
      "350C",
      "350C",
      "350C",
      "350C",
      "350C",
      "350C",
      "350C",
      "350C",
      "350C",
      "350C",
      "350C",
      "350C",
      "350C",
      "350C",
      "350C",
      "350C",
      "350C",
      "350C",
      "350C",
      "350C",
      "350C",
      "350C",
      "350C",
      "350C",
      "350C",
      "350C",
      "350C",
      "350C",
      "350C",
      "350C",
      "350C",
      "350C",
      "350C",
      "350C",
      "350C",
      "350C",
      "350C",
      "350C",
      "350C",
      "350C",
      "350C",
      "351C",
      "350C",
      "350C",
      "351C",
      "350C",
      "350C",
      "350C",
      "350C",
      "350C",
      "350C",
      "350C",
      "350C",
      "350C",
      "350C",
      "350C",
      "350C",
      "350C",
      "350C",
      "350C",
      "350C",
      "350C",
      "350C",
      "350C",
      "350C",
      "350C",
      "350C",
      "350C",
      "350C",
      "350C",
      "350C",
      "350C",
      "350C",
      "350C",
      "350C",
      "350C",
      "350C",
      "350C",
      "350C",
      "345",
      "345",
      "327",
      "327",
      "317",
      "298",
      "298",
      "286",
      "270",
      "233",
      "233",
      "217",
      "177",
      "167",
      "167",
      "160",
      "127",
      "115",
      "111",
      "111",
      "100",
      "092",
      "090",
      "073",
      "067",
      "067",
      "051",
      "033",
      "030",
      "030",
      "025",
      "025",
      "010"
    ],
    "swim:geom": "path",
    "swim:speeds": [
      283,
      283,
      342,
      342,
      342,
      342,
      405,
      405,
      405,
      405,
      431,
      431,
      453,
      453,
      453,
      453,
      461,
      461,
      460,
      464,
      464,
      475,
      475,
      475,
      475,
      479,
      479,
      483,
      481,
      481,
      481,
      480,
      480,
      480,
      475,
      475,
      475,
      475,
      475,
      475,
      476,
      475,
      477,
      477,
      477,
      477,
      478,
      478,
      477,
      477,
      477,
      477,
      481,
      481,
      485,
      485,
      485,
      485,
      485,
      485,
      485,
      484,
      484,
      482,
      482,
      482,
      482,
      480,
      480,
      480,
      480,
      479,
      479,
      479,
      480,
      480,
      479,
      479,
      479,
      479,
      477,
      477,
      477,
      477,
      480,
      480,
      480,
      480,
      480,
      477,
      477,
      477,
      477,
      477,
      477,
      476,
      474,
      474,
      474,
      474,
      472,
      473,
      473,
      473,
      475,
      475,
      475,
      475,
      475,
      475,
      475,
      474,
      474,
      476,
      476,
      476,
      479,
      479,
      479,
      479,
      479,
      478,
      478,
      478,
      472,
      476,
      476,
      476,
      479,
      477,
      477,
      483,
      483,
      485,
      486,
      486,
      488,
      487,
      487,
      487,
      487,
      487,
      484,
      484,
      484,
      484,
      483,
      484,
      484,
      484,
      485,
      487,
      487,
      487,
      487,
      489,
      489,
      491,
      491,
      491,
      491,
      491,
      491,
      487,
      487,
      484,
      484,
      484,
      484,
      483,
      483,
      483,
      483,
      483,
      485,
      485,
      487,
      487,
      487,
      484,
      484,
      482,
      482,
      482,
      485,
      485,
      485,
      487,
      487,
      487,
      487,
      488,
      488,
      487,
      487,
      487,
      486,
      484,
      484,
      484,
      483,
      483,
      484,
      484,
      484,
      484,
      485,
      485,
      485,
      485,
      486,
      486,
      489,
      490,
      490,
      490,
      490,
      492,
      492,
      492,
      491,
      491,
      492,
      493,
      493,
      493,
      494,
      494,
      494,
      494,
      494,
      495,
      495,
      496,
      498,
      498,
      498,
      498,
      499,
      499,
      499,
      500,
      500,
      500,
      500,
      500,
      500,
      501,
      502,
      503,
      503,
      504,
      504,
      504,
      505,
      505,
      503,
      502,
      505,
      504,
      506,
      507,
      500,
      507,
      507,
      509,
      509,
      509,
      510,
      509,
      507,
      511,
      514,
      518,
      512,
      510,
      511,
      511,
      516,
      519,
      519,
      519,
      511,
      510,
      509,
      509,
      501,
      471,
      471,
      469,
      507,
      507,
      510,
      509,
      509,
      510,
      509,
      510,
      510,
      510,
      514,
      515,
      515,
      515,
      518,
      518,
      519,
      519,
      521,
      521,
      524,
      529,
      529,
      528,
      520,
      498,
      498,
      481,
      422,
      409,
      409,
      400,
      364,
      342,
      331,
      331,
      314,
      296,
      298,
      261,
      254,
      254,
      246,
      241,
      214,
      214,
      172,
      172,
      132
    ],
    "swim:timestamps": [
      1775578610,
      1775578610,
      1775578730,
      1775578730,
      1775578730,
      1775578730,
      1775578970,
      1775578970,
      1775578970,
      1775578970,
      1775579091,
      1775579091,
      1775579271,
      1775579271,
      1775579271,
      1775579271,
      1775579331,
      1775579331,
      1775579379,
      1775579439,
      1775579439,
      1775579511,
      1775579511,
      1775579511,
      1775579511,
      1775579619,
      1775579619,
      1775579752,
      1775579812,
      1775579812,
      1775579812,
      1775579872,
      1775579872,
      1775579872,
      1775580052,
      1775580112,
      1775580112,
      1775580160,
      1775580160,
      1775580160,
      1775580220,
      1775580232,
      1775580280,
      1775580292,
      1775580292,
      1775580292,
      1775580340,
      1775580340,
      1775580460,
      1775580460,
      1775580520,
      1775580533,
      1775580581,
      1775580581,
      1775580641,
      1775580641,
      1775580641,
      1775580881,
      1775580881,
      1775580953,
      1775580953,
      1775581001,
      1775581001,
      1775581133,
      1775581133,
      1775581133,
      1775581133,
      1775581362,
      1775581362,
      1775581362,
      1775581362,
      1775581482,
      1775581482,
      1775581482,
      1775581542,
      1775581542,
      1775581602,
      1775581602,
      1775581662,
      1775581662,
      1775581782,
      1775581782,
      1775581782,
      1775581782,
      1775582022,
      1775582022,
      1775582203,
      1775582203,
      1775582203,
      1775582323,
      1775582323,
      1775582443,
      1775582443,
      1775582443,
      1775582443,
      1775582563,
      1775582683,
      1775582683,
      1775582683,
      1775582683,
      1775582803,
      1775582924,
      1775582924,
      1775582924,
      1775583044,
      1775583044,
      1775583224,
      1775583224,
      1775583224,
      1775583284,
      1775583284,
      1775583404,
      1775583404,
      1775583524,
      1775583524,
      1775583524,
      1775583584,
      1775583584,
      1775583584,
      1775583765,
      1775583765,
      1775583825,
      1775583825,
      1775583825,
      1775583866,
      1775583926,
      1775583926,
      1775583926,
      1775583945,
      1775583986,
      1775583986,
      1775584065,
      1775584065,
      1775584107,
      1775584125,
      1775584125,
      1775584167,
      1775584245,
      1775584245,
      1775584287,
      1775584287,
      1775584287,
      1775584366,
      1775584366,
      1775584426,
      1775584426,
      1775584587,
      1775584606,
      1775584606,
      1775584606,
      1775584647,
      1775584707,
      1775584707,
      1775584707,
      1775584726,
      1775584828,
      1775584828,
      1775584948,
      1775584948,
      1775584948,
      1775585008,
      1775585008,
      1775585008,
      1775585128,
      1775585128,
      1775585248,
      1775585248,
      1775585308,
      1775585308,
      1775585488,
      1775585488,
      1775585548,
      1775585548,
      1775585548,
      1775585669,
      1775585669,
      1775585789,
      1775585789,
      1775585789,
      1775586029,
      1775586029,
      1775586269,
      1775586269,
      1775586269,
      1775586453,
      1775586453,
      1775586453,
      1775586570,
      1775586570,
      1775586570,
      1775586750,
      1775586814,
      1775586814,
      1775586994,
      1775587054,
      1775587054,
      1775587174,
      1775587295,
      1775587295,
      1775587295,
      1775587415,
      1775587415,
      1775587535,
      1775587595,
      1775587595,
      1775587595,
      1775587835,
      1775587895,
      1775588015,
      1775588015,
      1775588136,
      1775588136,
      1775588256,
      1775588316,
      1775588316,
      1775588376,
      1775588376,
      1775588556,
      1775588616,
      1775588616,
      1775588665,
      1775588665,
      1775588725,
      1775588736,
      1775588736,
      1775588845,
      1775588857,
      1775588905,
      1775588905,
      1775588917,
      1775588917,
      1775588965,
      1775588977,
      1775589037,
      1775589206,
      1775589217,
      1775589217,
      1775589217,
      1775589266,
      1775589326,
      1775589326,
      1775589397,
      1775589397,
      1775589506,
      1775589578,
      1775589578,
      1775589578,
      1775589638,
      1775589698,
      1775589747,
      1775589747,
      1775589818,
      1775589867,
      1775589878,
      1775589987,
      1775589998,
      1775590118,
      1775590238,
      1775590468,
      1775590479,
      1775590528,
      1775590648,
      1775590943,
      1775591009,
      1775591009,
      1775591124,
      1775591184,
      1775591184,
      1775591364,
      1775591484,
      1775591664,
      1775591785,
      1775591905,
      1775592145,
      1775592265,
      1775592386,
      1775592566,
      1775592566,
      1775592866,
      1775593107,
      1775593107,
      1775593167,
      1775593287,
      1775593347,
      1775593407,
      1775593407,
      1775593467,
      1775593527,
      1775593527,
      1775593588,
      1775593828,
      1775593828,
      1775594068,
      1775594083,
      1775594083,
      1775594128,
      1775594203,
      1775594249,
      1775594263,
      1775594263,
      1775594609,
      1775594684,
      1775594729,
      1775594729,
      1775594924,
      1775594924,
      1775594984,
      1775594984,
      1775595104,
      1775595104,
      1775595164,
      1775595285,
      1775595285,
      1775595345,
      1775595405,
      1775595525,
      1775595525,
      1775595585,
      1775595705,
      1775595727,
      1775595727,
      1775595751,
      1775595865,
      1775595925,
      1775595946,
      1775595946,
      1775596006,
      1775596057,
      1775596066,
      1775596186,
      1775596231,
      1775596231,
      1775596291,
      1775596351,
      1775596405,
      1775596405,
      1775596477,
      1775596477,
      1775596591
    ],
    "wof:geomhash": "5ce170b6bdcdc0109b7aa03a370c8956",
    "wof:id": 2015232247,
    "wof:repo": "sfomuseum-data-flights-2026-04"
  },
  "bbox": [
    -122.14722222222223,
    37.79361111111111,
    -70.76666666666667,
    43.504444444444445
  ],
  "geometry": {"coordinates":[[-122.14722222222223,37.79361111111111],[-122.14722222222223,37.79361111111111],[-122.01666666666667,37.93583333333333],[-122.01666666666667,37.93583333333333],[-122.01666666666667,37.93583333333333],[-122.01666666666667,37.93583333333333],[-121.68305555555555,38.299166666666665],[-121.68305555555555,38.299166666666665],[-121.68305555555555,38.299166666666665],[-121.68305555555555,38.299166666666665],[-121.4925,38.47944444444445],[-121.4925,38.47944444444445],[-121.13166666666666,38.7],[-121.13166666666666,38.7],[-121.13166666666666,38.7],[-121.13166666666666,38.7],[-120.99972222222222,38.77972222222222],[-120.99972222222222,38.77972222222222],[-120.8913888888889,38.84138888888889],[-120.75944444444444,38.92055555555555],[-120.75944444444444,38.92055555555555],[-120.59805555555555,39.019999999999996],[-120.59805555555555,39.019999999999996],[-120.59805555555555,39.019999999999996],[-120.59805555555555,39.019999999999996],[-120.34972222222221,39.165277777777774],[-120.34972222222221,39.165277777777774],[-120.04472222222222,39.34638888888889],[-119.90583333333333,39.427499999999995],[-119.90583333333333,39.427499999999995],[-119.90583333333333,39.427499999999995],[-119.76888888888888,39.50694444444444],[-119.76888888888888,39.50694444444444],[-119.76888888888888,39.50694444444444],[-119.35583333333332,39.74527777777778],[-119.21888888888888,39.82333333333334],[-119.21888888888888,39.82333333333334],[-119.10916666666667,39.88583333333333],[-119.10916666666667,39.88583333333333],[-119.10916666666667,39.88583333333333],[-118.96555555555555,39.95888888888889],[-118.9325,39.97555555555556],[-118.81583333333333,40.026666666666664],[-118.7825,40.04083333333333],[-118.7825,40.04083333333333],[-118.7825,40.04083333333333],[-118.66166666666668,40.092222222222226],[-118.66166666666668,40.092222222222226],[-118.36027777777777,40.22],[-118.36027777777777,40.22],[-118.20805555555556,40.28361111111111],[-118.1725,40.29805555555556],[-118.04666666666667,40.33583333333333],[-118.04666666666667,40.33583333333333],[-117.8761111111111,40.37166666666667],[-117.8761111111111,40.37166666666667],[-117.8761111111111,40.37166666666667],[-117.1913888888889,40.51444444444444],[-117.1913888888889,40.51444444444444],[-116.98055555555555,40.5575],[-116.98055555555555,40.5575],[-116.84555555555555,40.59027777777778],[-116.84555555555555,40.59027777777778],[-116.47805555555556,40.69],[-116.47805555555556,40.69],[-116.47805555555556,40.69],[-116.47805555555556,40.69],[-115.84777777777778,40.8575],[-115.84777777777778,40.8575],[-115.84777777777778,40.8575],[-115.84777777777778,40.8575],[-115.51472222222222,40.94444444444444],[-115.51472222222222,40.94444444444444],[-115.51472222222222,40.94444444444444],[-115.34888888888888,40.98722222222222],[-115.34888888888888,40.98722222222222],[-115.18361111111112,41.029444444444444],[-115.18361111111112,41.029444444444444],[-115.01472222222222,41.072500000000005],[-115.01472222222222,41.072500000000005],[-114.70944444444444,41.14972222222222],[-114.70944444444444,41.14972222222222],[-114.70944444444444,41.14972222222222],[-114.70944444444444,41.14972222222222],[-114.03777777777778,41.31527777777777],[-114.03777777777778,41.31527777777777],[-113.54055555555556,41.45805555555556],[-113.54055555555556,41.45805555555556],[-113.54055555555556,41.45805555555556],[-113.21444444444445,41.56027777777778],[-113.21444444444445,41.56027777777778],[-112.88666666666667,41.66138888888889],[-112.88666666666667,41.66138888888889],[-112.88666666666667,41.66138888888889],[-112.88666666666667,41.66138888888889],[-112.55888888888889,41.76138888888889],[-112.23166666666667,41.86],[-112.23166666666667,41.86],[-112.23166666666667,41.86],[-112.23166666666667,41.86],[-111.93666666666667,41.948055555555555],[-111.57416666666666,42.05444444444444],[-111.57416666666666,42.05444444444444],[-111.57416666666666,42.05444444444444],[-111.24222222222222,42.15083333333333],[-111.24222222222222,42.15083333333333],[-110.72638888888889,42.297777777777775],[-110.72638888888889,42.297777777777775],[-110.72638888888889,42.297777777777775],[-110.55916666666667,42.345],[-110.55916666666667,42.345],[-110.22527777777778,42.43805555555555],[-110.22527777777778,42.43805555555555],[-109.88555555555556,42.519999999999996],[-109.88555555555556,42.519999999999996],[-109.88555555555556,42.519999999999996],[-109.71027777777778,42.55083333333333],[-109.71027777777778,42.55083333333333],[-109.71027777777778,42.55083333333333],[-109.17833333333334,42.64194444444444],[-109.17833333333334,42.64194444444444],[-109.00444444444445,42.671388888888885],[-109.00444444444445,42.671388888888885],[-109.00444444444445,42.671388888888885],[-108.89861111111112,42.68861111111111],[-108.72083333333333,42.717222222222226],[-108.72083333333333,42.717222222222226],[-108.72083333333333,42.717222222222226],[-108.65111111111112,42.72944444444445],[-108.54444444444444,42.746944444444445],[-108.54444444444444,42.746944444444445],[-108.29277777777777,42.7875],[-108.29277777777777,42.7875],[-108.18527777777778,42.80472222222222],[-108.11166666666666,42.81638888888889],[-108.11166666666666,42.81638888888889],[-108.00222222222222,42.83361111111111],[-107.75055555555555,42.87277777777778],[-107.75055555555555,42.87277777777778],[-107.64444444444445,42.88916666666667],[-107.64444444444445,42.88916666666667],[-107.64444444444445,42.88916666666667],[-107.39222222222223,42.92805555555555],[-107.39222222222223,42.92805555555555],[-107.23805555555556,42.95111111111111],[-107.23805555555556,42.95111111111111],[-106.765,43.02111111111111],[-106.69333333333334,43.03138888888889],[-106.69333333333334,43.03138888888889],[-106.69333333333334,43.03138888888889],[-106.58388888888888,43.04722222222222],[-106.40333333333334,43.073055555555555],[-106.40333333333334,43.073055555555555],[-106.40333333333334,43.073055555555555],[-106.3286111111111,43.08361111111111],[-106.03472222222221,43.11333333333334],[-106.03472222222221,43.11333333333334],[-105.66305555555556,43.14666666666667],[-105.66305555555556,43.14666666666667],[-105.66305555555556,43.14666666666667],[-105.47583333333334,43.1625],[-105.47583333333334,43.1625],[-105.47583333333334,43.1625],[-105.10916666666667,43.193888888888885],[-105.10916666666667,43.193888888888885],[-104.7425,43.22361111111111],[-104.7425,43.22361111111111],[-104.56083333333333,43.237500000000004],[-104.56083333333333,43.237500000000004],[-104.00888888888889,43.279444444444444],[-104.00888888888889,43.279444444444444],[-103.82555555555555,43.2925],[-103.82555555555555,43.2925],[-103.82555555555555,43.2925],[-103.45722222222223,43.31805555555556],[-103.45722222222223,43.31805555555556],[-103.08694444444444,43.34277777777778],[-103.08694444444444,43.34277777777778],[-103.08694444444444,43.34277777777778],[-102.34888888888888,43.38777777777778],[-102.34888888888888,43.38777777777778],[-101.58999999999999,43.42972222222222],[-101.58999999999999,43.42972222222222],[-101.58999999999999,43.42972222222222],[-101.0375,43.45666666666667],[-101.0375,43.45666666666667],[-101.0375,43.45666666666667],[-100.66833333333334,43.473055555555554],[-100.66833333333334,43.473055555555554],[-100.66833333333334,43.473055555555554],[-100.10944444444443,43.49611111111111],[-99.92277777777778,43.50222222222222],[-99.92277777777778,43.50222222222222],[-99.36777777777777,43.50388888888889],[-99.18277777777779,43.50416666666667],[-99.18277777777779,43.50416666666667],[-98.81305555555555,43.504444444444445],[-98.42194444444445,43.503055555555555],[-98.42194444444445,43.503055555555555],[-98.42194444444445,43.503055555555555],[-98.05333333333333,43.50055555555556],[-98.05333333333333,43.50055555555556],[-97.68361111111112,43.5025],[-97.49805555555555,43.50333333333333],[-97.49805555555555,43.50333333333333],[-97.49805555555555,43.50333333333333],[-96.76277777777777,43.50416666666667],[-96.57944444444443,43.50388888888889],[-96.21111111111111,43.501666666666665],[-96.21111111111111,43.501666666666665],[-95.84138888888889,43.490833333333335],[-95.84138888888889,43.490833333333335],[-95.46722222222222,43.468611111111116],[-95.28194444444445,43.45722222222223],[-95.28194444444445,43.45722222222223],[-95.0961111111111,43.445277777777775],[-95.0961111111111,43.445277777777775],[-94.53444444444445,43.4075],[-94.34888888888888,43.394444444444446],[-94.34888888888888,43.394444444444446],[-94.20666666666666,43.38444444444444],[-94.20666666666666,43.38444444444444],[-94.02083333333333,43.37083333333334],[-93.98333333333333,43.36805555555556],[-93.98333333333333,43.36805555555556],[-93.64500000000001,43.342222222222226],[-93.60749999999999,43.339444444444446],[-93.4588888888889,43.32777777777778],[-93.4588888888889,43.32777777777778],[-93.42166666666667,43.32472222222223],[-93.42166666666667,43.32472222222223],[-93.27222222222223,43.312777777777775],[-93.23138888888889,43.309444444444445],[-93.04444444444444,43.29416666666666],[-92.51861111111111,43.24916666666667],[-92.47833333333334,43.24583333333334],[-92.47833333333334,43.24583333333334],[-92.47833333333334,43.24583333333334],[-92.32694444444444,43.23222222222223],[-92.14027777777778,43.21555555555556],[-92.14027777777778,43.21555555555556],[-91.91055555555556,43.19444444444444],[-91.91055555555556,43.19444444444444],[-91.56888888888888,43.161944444444444],[-91.34055555555555,43.14],[-91.34055555555555,43.14],[-91.34055555555555,43.14],[-91.14972222222222,43.12111111111111],[-90.9588888888889,43.10166666666667],[-90.80805555555555,43.086111111111116],[-90.80805555555555,43.086111111111116],[-90.57777777777777,43.0625],[-90.42972222222222,43.04666666666667],[-90.38916666666667,43.0425],[-90.05027777777778,43.00555555555555],[-90.0125,43.00138888888889],[-89.64416666666668,42.97944444444445],[-89.2675,42.95416666666667],[-88.54555555555555,42.90083333333333],[-88.47611111111111,42.8975],[-88.35888888888888,42.88666666666666],[-87.97916666666667,42.85722222222223],[-87.05027777777778,42.77833333333333],[-86.80694444444444,42.7575],[-86.80694444444444,42.7575],[-86.46666666666667,42.72638888888889],[-86.28,42.70888888888889],[-86.28,42.70888888888889],[-85.67694444444444,42.655277777777776],[-85.29833333333333,42.6225],[-84.73138888888889,42.571111111111115],[-84.37972222222221,42.53722222222222],[-84.00361111111111,42.47],[-83.22305555555556,42.31388888888888],[-82.85749999999999,42.31333333333333],[-82.47722222222222,42.34638888888889],[-81.88972222222223,42.39416666666666],[-81.88972222222223,42.39416666666666],[-80.9213888888889,42.467222222222226],[-80.1438888888889,42.519444444444446],[-80.1438888888889,42.519444444444446],[-79.94722222222222,42.531666666666666],[-79.56861111111111,42.55444444444444],[-79.37888888888888,42.56527777777777],[-79.1863888888889,42.57638888888889],[-79.1863888888889,42.57638888888889],[-79.00083333333333,42.60027777777778],[-78.86694444444444,42.68527777777778],[-78.86694444444444,42.68527777777778],[-78.75722222222223,42.78916666666667],[-78.0363888888889,42.871944444444445],[-78.0363888888889,42.871944444444445],[-77.29527777777777,42.86083333333333],[-77.2213888888889,42.85944444444445],[-77.2213888888889,42.85944444444445],[-77.10333333333332,42.85722222222223],[-76.83472222222221,42.85194444444445],[-76.71416666666667,42.84916666666667],[-76.64055555555557,42.847500000000004],[-76.64055555555557,42.847500000000004],[-75.53277777777778,42.81638888888889],[-75.30444444444444,42.80888888888889],[-75.15083333333334,42.80333333333333],[-75.15083333333334,42.80333333333333],[-74.48777777777778,42.777499999999996],[-74.48777777777778,42.777499999999996],[-74.295,42.76916666666666],[-74.295,42.76916666666666],[-73.90611111111112,42.75138888888889],[-73.90611111111112,42.75138888888889],[-73.7075,42.74444444444445],[-73.30555555555556,42.74333333333333],[-73.30555555555556,42.74333333333333],[-73.10583333333332,42.739444444444445],[-72.91666666666667,42.7175],[-72.55916666666667,42.67611111111111],[-72.55916666666667,42.67611111111111],[-72.3863888888889,42.65472222222222],[-72.03888888888889,42.61361111111111],[-71.96666666666667,42.6],[-71.96666666666667,42.6],[-71.91666666666667,42.6],[-71.65,42.56666666666667],[-71.51666666666667,42.53333333333333],[-71.48083333333334,42.52777777777778],[-71.48083333333334,42.52777777777778],[-71.36694444444444,42.50416666666667],[-71.26666666666667,42.483333333333334],[-71.25805555555556,42.481944444444444],[-71.06277777777777,42.45305555555556],[-70.98333333333333,42.45],[-70.98333333333333,42.45],[-70.9,42.45],[-70.8,42.46666666666667],[-70.76666666666667,42.416666666666664],[-70.76666666666667,42.416666666666664],[-70.83333333333333,42.38333333333333],[-70.83333333333333,42.38333333333333],[-70.93333333333334,42.36666666666667]],"type":"LineString"}
}
