{
  "id": 2031109117,
  "type": "Feature",
  "properties": {
    "geom:area": 0,
    "geom:bbox": "-122.380000,37.490000,-82.890000,40.200000",
    "geom:latitude": 39.46197700791674,
    "geom:longitude": -102.69473538164608,
    "src:alt_label": "swim-route",
    "src:geom": "swim",
    "swim:geom": "route",
    "wof:geomhash": "477fd1b30b30b3629e3bc4141e75e25f",
    "wof:id": 2031109117,
    "wof:repo": "sfomuseum-data-flights-2026-04"
  },
  "bbox": [
    -122.38,
    37.49,
    -82.89,
    40.2
  ],
  "geometry": {"coordinates":[[-82.89,40],[-83.04,40],[-83.12,40],[-83.15,40],[-83.2,40],[-83.22,40.01],[-83.23,40.01],[-83.3,40],[-83.4,40],[-83.55,40],[-83.62,40],[-83.71,40],[-83.79,40],[-83.96,40],[-84.18,40],[-84.36,40],[-84.46,40],[-84.58,40],[-84.78,40],[-84.89,39.99],[-85,39.99],[-85.11,39.99],[-85.32,39.99],[-85.49,39.99],[-87.22,39.94],[-87.64,39.93],[-87.67,39.93],[-88.19,39.91],[-89.68,39.84],[-89.85,39.85],[-91.55,39.98],[-93.12,40.08],[-93.9,40.12],[-94.4,40.14],[-95.42,40.18],[-95.58,40.18],[-96.21,40.2],[-99.06,40.18],[-103.19,40.02],[-103.5,40.01],[-105.1,39.9],[-105.58,39.87],[-106.53,39.79],[-106.7,39.77],[-107.22,39.71],[-107.65,39.69],[-107.88,39.64],[-108.12,39.61],[-110.1,39.35],[-110.54,39.29],[-111.73,39.11],[-113.49,38.82],[-117.27,38.11],[-117.77,38],[-118.76,37.9],[-119.1,37.86],[-119.51,37.81],[-119.94,37.76],[-119.98,37.75],[-120.03,37.75],[-120.4,37.7],[-120.4,37.7],[-120.47,37.69],[-120.69,37.67],[-120.75,37.66],[-120.76,37.66],[-120.82,37.65],[-120.96,37.63],[-121,37.63],[-121.07,37.62],[-121.17,37.61],[-121.26,37.59],[-121.39,37.58],[-121.41,37.58],[-121.6,37.55],[-121.61,37.55],[-121.62,37.55],[-121.7,37.53],[-121.8,37.51],[-121.82,37.51],[-121.88,37.49],[-122.08,37.54],[-122.11,37.55],[-122.18,37.57],[-122.28,37.59],[-122.33,37.61],[-122.36,37.61],[-122.38,37.62]],"type":"LineString"}
}
