{
  "id": 2015204101,
  "type": "Feature",
  "properties": {
    "geom:area": 0,
    "geom:bbox": "-122.761820,37.425770,-122.105210,38.511200",
    "geom:latitude": 37.82578699196261,
    "geom:longitude": -122.48665549918415,
    "src:alt_label": "swim-approach",
    "src:geom": "swim",
    "swim:elevations": [
      7777,
      7445,
      7339,
      7044,
      6604,
      6362,
      5900,
      5681,
      5397,
      5244,
      4886,
      4533,
      4410,
      4119,
      3761,
      3535,
      3446,
      3413,
      3385,
      3353,
      3353,
      3353,
      3353,
      3326,
      3068,
      2823,
      2541,
      2336,
      1988,
      1951,
      1797,
      1612,
      1391,
      1288,
      1082,
      979,
      904,
      894,
      702,
      557,
      427,
      336,
      202,
      88,
      0
    ],
    "swim:geom": "approach",
    "swim:timestamps": [
      1775315087,
      1775315119,
      1775315130,
      1775315161,
      1775315206,
      1775315229,
      1775315277,
      1775315300,
      1775315330,
      1775315347,
      1775315385,
      1775315425,
      1775315438,
      1775315471,
      1775315511,
      1775315539,
      1775315552,
      1775315569,
      1775315582,
      1775315627,
      1775315662,
      1775315694,
      1775315719,
      1775315735,
      1775315775,
      1775315806,
      1775315834,
      1775315858,
      1775315902,
      1775315910,
      1775315951,
      1775315984,
      1775316024,
      1775316044,
      1775316093,
      1775316113,
      1775316123,
      1775316162,
      1775316201,
      1775316232,
      1775316253,
      1775316275,
      1775316314,
      1775316342,
      1775316363
    ],
    "wof:geomhash": "b0bc6ed13bec04a44b85b4962d025705",
    "wof:id": 2015204101,
    "wof:repo": "sfomuseum-data-flights-2026-04"
  },
  "bbox": [
    -122.76182,
    37.42577,
    -122.10521,
    38.5112
  ],
  "geometry": {"coordinates":[[-122.72056,38.5112],[-122.72965,38.45258],[-122.73297,38.43265],[-122.74217,38.37727],[-122.75516,38.29928],[-122.76182,38.25891],[-122.75361,38.17725],[-122.74319,38.1409],[-122.72863,38.09124],[-122.72047,38.0632],[-122.70328,38.0038],[-122.68476,37.93954],[-122.67883,37.92014],[-122.64753,37.87527],[-122.59615,37.82672],[-122.56085,37.79364],[-122.54514,37.77886],[-122.52617,37.76089],[-122.51033,37.74587],[-122.46353,37.70159],[-122.43109,37.67115],[-122.40169,37.64348],[-122.37867,37.62182],[-122.36429,37.60783],[-122.34352,37.5672],[-122.3255,37.53508],[-122.30852,37.50783],[-122.29398,37.48511],[-122.24952,37.45564],[-122.23922,37.45255],[-122.19014,37.43781],[-122.15044,37.42577],[-122.11312,37.44271],[-122.10521,37.4597],[-122.13013,37.49945],[-122.1438,37.51445],[-122.1506,37.5217],[-122.18632,37.54139],[-122.22476,37.55778],[-122.25654,37.57119],[-122.277,37.57977],[-122.2951,37.58748],[-122.32433,37.59974],[-122.34541,37.60861],[-122.36015,37.61453]],"type":"LineString"}
}
