{
  "id": 2015195551,
  "type": "Feature",
  "properties": {
    "geom:area": 0,
    "geom:bbox": "-122.353190,37.484350,-121.256390,37.650090",
    "geom:latitude": 37.563977224604066,
    "geom:longitude": -121.81949625778536,
    "src:alt_label": "swim-approach",
    "src:geom": "swim",
    "swim:elevations": [
      4695,
      4505,
      4057,
      3688,
      3549,
      3438,
      3205,
      3086,
      3048,
      3048,
      3048,
      3048,
      3048,
      3048,
      3048,
      3048,
      2774,
      2650,
      2628,
      2535,
      2425,
      2256,
      2024,
      1913,
      1649,
      1553,
      1419,
      1243,
      962,
      822,
      685,
      459,
      336,
      197,
      122,
      50
    ],
    "swim:geom": "approach",
    "swim:timestamps": [
      1775254493,
      1775254508,
      1775254551,
      1775254585,
      1775254599,
      1775254612,
      1775254639,
      1775254671,
      1775254700,
      1775254731,
      1775254750,
      1775254770,
      1775254794,
      1775254817,
      1775254833,
      1775254861,
      1775254907,
      1775254930,
      1775254936,
      1775254954,
      1775254978,
      1775254999,
      1775255031,
      1775255047,
      1775255099,
      1775255120,
      1775255147,
      1775255169,
      1775255218,
      1775255239,
      1775255263,
      1775255306,
      1775255334,
      1775255363,
      1775255387,
      1775255405
    ],
    "wof:geomhash": "c6c7035cc25c1964d17b75466dfdd877",
    "wof:id": 2015195551,
    "wof:repo": "sfomuseum-data-flights-2026-04"
  },
  "bbox": [
    -122.35319,
    37.48435,
    -121.25639,
    37.65009
  ],
  "geometry": {"coordinates":[[-121.25639,37.5946],[-121.28745,37.59049],[-121.37549,37.5802],[-121.44189,37.57236],[-121.46888,37.5691],[-121.49205,37.56638],[-121.54376,37.56007],[-121.60407,37.55276],[-121.65399,37.54621],[-121.69954,37.56136],[-121.72001,37.57687],[-121.74171,37.59344],[-121.76739,37.61304],[-121.79176,37.63164],[-121.80981,37.64338],[-121.84929,37.65009],[-121.90131,37.61974],[-121.90768,37.59351],[-121.90851,37.58666],[-121.91111,37.5666],[-121.91475,37.54033],[-121.91796,37.51723],[-121.94148,37.48907],[-121.96193,37.48435],[-122.03301,37.48965],[-122.06245,37.49214],[-122.09629,37.50346],[-122.12344,37.51523],[-122.18102,37.53932],[-122.20466,37.54938],[-122.22975,37.56001],[-122.27314,37.57822],[-122.29788,37.58852],[-122.32091,37.59826],[-122.33935,37.60605],[-122.35319,37.6118]],"type":"LineString"}
}
