{
  "id": 2015230139,
  "type": "Feature",
  "properties": {
    "geom:area": 0,
    "geom:bbox": "-122.380000,35.070000,-80.950000,38.520000",
    "geom:latitude": 37.57589091788649,
    "geom:longitude": -101.51095981092882,
    "src:alt_label": "swim-route",
    "src:geom": "swim",
    "swim:geom": "route",
    "wof:geomhash": "1303b3919423e3c80e7415dc192c08f6",
    "wof:id": 2015230139,
    "wof:repo": "sfomuseum-data-flights-2026-04"
  },
  "bbox": [
    -122.38,
    35.07,
    -80.95,
    38.52
  ],
  "geometry": {"coordinates":[[-122.38,37.62],[-122.27,37.69],[-122.22,37.72],[-122.21,37.72],[-122.16,37.75],[-122.12,37.76],[-122.09,37.78],[-122.02,37.82],[-122.01,37.82],[-122,37.83],[-121.94,37.84],[-121.73,37.88],[-121.7,37.88],[-121.59,37.9],[-121.46,37.93],[-121.41,37.94],[-121.34,37.95],[-121.17,37.98],[-121.16,37.98],[-121.1,37.99],[-120.89,38.02],[-120.7,38.05],[-120.66,38.06],[-120.54,38.08],[-120.12,38.14],[-119.96,38.16],[-119.8,38.19],[-119.65,38.21],[-119.18,38.27],[-118.62,38.35],[-117.93,38.44],[-117.47,38.5],[-117.29,38.52],[-117.28,38.52],[-115.41,38.45],[-114.33,38.4],[-113.87,38.4],[-112.48,38.39],[-112.22,38.38],[-111.91,38.39],[-110.78,38.42],[-110.7,38.42],[-110.27,38.43],[-110.22,38.43],[-109.98,38.43],[-108.61,38.45],[-108.44,38.45],[-108.24,38.45],[-107.04,38.45],[-105.77,38.37],[-105.44,38.31],[-105.24,38.27],[-104.82,38.23],[-103.49,38.19],[-101.56,38.07],[-101.5,38.08],[-99.46,37.92],[-98.97,37.88],[-97.99,37.79],[-97.58,37.75],[-94.96,37.54],[-94.82,37.52],[-94.74,37.51],[-93.33,37.36],[-93.07,37.31],[-91.49,37.01],[-90.36,36.79],[-89.87,36.69],[-89.6,36.63],[-88.75,36.49],[-87.54,36.29],[-87.32,36.25],[-86.68,36.14],[-85.43,35.94],[-85.34,35.93],[-84.64,35.81],[-84.55,35.82],[-83.47,35.89],[-83.36,35.87],[-83.16,35.83],[-83.11,35.81],[-82.7,35.72],[-82.32,35.64],[-82.28,35.63],[-82.06,35.58],[-81.93,35.53],[-81.81,35.48],[-81.73,35.45],[-81.68,35.44],[-81.57,35.41],[-81.49,35.38],[-81.46,35.37],[-81.32,35.34],[-81.23,35.31],[-81.07,35.26],[-81.07,35.26],[-81.07,35.23],[-81.06,35.15],[-81.06,35.1],[-81.06,35.07],[-81.02,35.11],[-80.97,35.18],[-80.95,35.21]],"type":"LineString"}
}
