{
  "id": 2015275065,
  "type": "Feature",
  "properties": {
    "geom:area": 0,
    "geom:bbox": "-123.490290,37.084850,-122.396420,37.667490",
    "geom:latitude": 37.39189645275812,
    "geom:longitude": -122.94209661926082,
    "src:alt_label": "swim-takeoff",
    "src:geom": "swim",
    "swim:elevations": [
      239,
      454,
      638,
      729,
      848,
      1145,
      1225,
      1539,
      1916,
      2445,
      2855,
      3158,
      3259,
      3493,
      3930,
      4001,
      4087,
      4423,
      4593,
      4726,
      4784,
      5203,
      5272,
      5484,
      5646,
      5749,
      5887,
      6224,
      6350,
      6501,
      6738,
      7011
    ],
    "swim:geom": "takeoff",
    "swim:timestamps": [
      1776021956,
      1776021972,
      1776021988,
      1776021997,
      1776022009,
      1776022048,
      1776022060,
      1776022093,
      1776022122,
      1776022161,
      1776022194,
      1776022225,
      1776022240,
      1776022279,
      1776022315,
      1776022321,
      1776022330,
      1776022360,
      1776022376,
      1776022394,
      1776022410,
      1776022454,
      1776022463,
      1776022492,
      1776022514,
      1776022526,
      1776022545,
      1776022586,
      1776022603,
      1776022620,
      1776022651,
      1776022692
    ],
    "wof:geomhash": "12fc3d21332ea83c340243bfbccc222f",
    "wof:id": 2015275065,
    "wof:repo": "sfomuseum-data-flights-2026-04"
  },
  "bbox": [
    -123.49029,
    37.08485,
    -122.39642,
    37.66749
  ],
  "geometry": {"coordinates":[[-122.39642,37.62788],[-122.41055,37.63411],[-122.42403,37.63976],[-122.43219,37.64313],[-122.443,37.64791],[-122.4809,37.66455],[-122.49537,37.66749],[-122.53551,37.65409],[-122.56781,37.63281],[-122.61365,37.6042],[-122.65361,37.57858],[-122.69177,37.55399],[-122.71191,37.541],[-122.76724,37.50528],[-122.82208,37.46969],[-122.83144,37.46359],[-122.84525,37.45472],[-122.89164,37.42497],[-122.91622,37.40914],[-122.94398,37.39115],[-122.96954,37.37462],[-123.04402,37.32624],[-123.05903,37.31638],[-123.10891,37.28387],[-123.14728,37.25899],[-123.16909,37.24631],[-123.20299,37.22696],[-123.27967,37.18326],[-123.3125,37.16579],[-123.34641,37.15037],[-123.40761,37.12248],[-123.49029,37.08485]],"type":"LineString"}
}
