{
  "id": 2015337631,
  "type": "Feature",
  "properties": {
    "geom:area": 0,
    "geom:bbox": "-122.602778,37.638333,-71.033333,43.303889",
    "geom:latitude": 40.98018804591056,
    "geom:longitude": -96.85708213837593,
    "src:alt_label": "swim-path",
    "src:geom": "swim",
    "swim:altitudes": [
      "021",
      "021",
      "031",
      "031",
      "068",
      "068",
      "068",
      "068",
      "068",
      "108",
      "117",
      "117",
      "137",
      "137",
      "137",
      "137",
      "187",
      "187",
      "187",
      "187",
      "201",
      "201",
      "213",
      "213",
      "213",
      "213",
      "213",
      "213",
      "249",
      "249",
      "249",
      "249",
      "249",
      "249",
      "274",
      "274",
      "274",
      "274",
      "291",
      "296",
      "296",
      "296",
      "296",
      "296",
      "302",
      "302",
      "307",
      "307",
      "307",
      "320C",
      "320C",
      "320C",
      "320C",
      "320C",
      "320C",
      "320C",
      "320C",
      "320C",
      "320C",
      "321C",
      "321C",
      "321C",
      "320C",
      "320C",
      "320C",
      "320C",
      "320C",
      "320C",
      "320C",
      "320C",
      "320C",
      "320C",
      "320C",
      "320C",
      "320C",
      "320C",
      "320C",
      "320C",
      "320C",
      "320C",
      "320C",
      "320C",
      "320C",
      "320C",
      "320C",
      "320C",
      "320C",
      "320C",
      "320C",
      "320C",
      "321C",
      "321C",
      "321C",
      "320C",
      "320C",
      "320C",
      "320C",
      "320C",
      "320C",
      "321C",
      "320C",
      "320C",
      "320C",
      "320C",
      "320C",
      "320C",
      "320C",
      "320C",
      "320C",
      "320C",
      "320C",
      "320C",
      "320C",
      "320C",
      "321C",
      "321C",
      "320C",
      "320C",
      "320C",
      "320C",
      "320C",
      "320",
      "320",
      "320",
      "320",
      "320",
      "321",
      "321",
      "324",
      "328",
      "331",
      "331",
      "335",
      "335",
      "340C",
      "340C",
      "340C",
      "340C",
      "340C",
      "340C",
      "340C",
      "340C",
      "340C",
      "340C",
      "340C",
      "340C",
      "340C",
      "340C",
      "340C",
      "340C",
      "340C",
      "340C",
      "340C",
      "340C",
      "340C",
      "340C",
      "340C",
      "340C",
      "340C",
      "340C",
      "340C",
      "340C",
      "340C",
      "341C",
      "341C",
      "340C",
      "340C",
      "340C",
      "340C",
      "340C",
      "340C",
      "340C",
      "340C",
      "340C",
      "341C",
      "341C",
      "341C",
      "341C",
      "340C",
      "340C",
      "340C",
      "340C",
      "340C",
      "340C",
      "340C",
      "340C",
      "340C",
      "340C",
      "340C",
      "340C",
      "340C",
      "340C",
      "340C",
      "340C",
      "340C",
      "340C",
      "340C",
      "340C",
      "340C",
      "340C",
      "340C",
      "340C",
      "340C",
      "340C",
      "340C",
      "340C",
      "340C",
      "340C",
      "340C",
      "340C",
      "340C",
      "340C",
      "340C",
      "340C",
      "340C",
      "340C",
      "340C",
      "340C",
      "340C",
      "340C",
      "340C",
      "340C",
      "340C",
      "340C",
      "340C",
      "340C",
      "340C",
      "340C",
      "340C",
      "340C",
      "340C",
      "340C",
      "340C",
      "340C",
      "340C",
      "340C",
      "340C",
      "340C",
      "340C",
      "340C",
      "340C",
      "340C",
      "340C",
      "340C",
      "340C",
      "340C",
      "340C",
      "340C",
      "340C",
      "340C",
      "340C",
      "340C",
      "340C",
      "340C",
      "340C",
      "340C",
      "340C",
      "340C",
      "340C",
      "340C",
      "340C",
      "340C",
      "340C",
      "340C",
      "340C",
      "340C",
      "340C",
      "340C",
      "340C",
      "340C",
      "341C",
      "341C",
      "341C",
      "340C",
      "340C",
      "340C",
      "340C",
      "341C",
      "341C",
      "341C",
      "340C",
      "340C",
      "340C",
      "340C",
      "340C",
      "340C",
      "340C",
      "340C",
      "340C",
      "340C",
      "340C",
      "340C",
      "340C",
      "340C",
      "340C",
      "340C",
      "340C",
      "340C",
      "340C",
      "340C",
      "340C",
      "340C",
      "340C",
      "340C",
      "340C",
      "340C",
      "340C",
      "340C",
      "340C",
      "340C",
      "340C",
      "340C",
      "340C",
      "340C",
      "340C",
      "340C",
      "340C",
      "340C",
      "340C",
      "340C",
      "340C",
      "340C",
      "340C",
      "340C",
      "340C",
      "340C",
      "340C",
      "340C",
      "340C",
      "340C",
      "340C",
      "340C",
      "341C",
      "341C",
      "341C",
      "340C",
      "340C",
      "340C",
      "340C",
      "340C",
      "340C",
      "340C",
      "340C",
      "340C",
      "340C",
      "340C",
      "340C",
      "340C",
      "340C",
      "340C",
      "340C",
      "340C",
      "340C",
      "340C",
      "340C",
      "340C",
      "341C",
      "341C",
      "340C",
      "340C",
      "340C",
      "340C",
      "340C",
      "340C",
      "340C",
      "340C",
      "340C",
      "340C",
      "340C",
      "340C",
      "340C",
      "340C",
      "340C",
      "340C",
      "340C",
      "340C",
      "340C",
      "340C",
      "340C",
      "340C",
      "340C",
      "340C",
      "340C",
      "340C",
      "340C",
      "340C",
      "340C",
      "340C",
      "340C",
      "340C",
      "340C",
      "340C",
      "340C",
      "340C",
      "340C",
      "340C",
      "340C",
      "340C",
      "340C",
      "340C",
      "340C",
      "340C",
      "340C",
      "340C",
      "340C",
      "340C",
      "340C",
      "340C",
      "340C",
      "340C",
      "340C",
      "340C",
      "340C",
      "340C",
      "340C",
      "340C",
      "340C",
      "340C",
      "340C",
      "340C",
      "340C",
      "340C",
      "340C",
      "340C",
      "340C",
      "340C",
      "340C",
      "340C",
      "340C",
      "340C",
      "340C",
      "340C",
      "340C",
      "340",
      "340",
      "340",
      "303",
      "284",
      "242",
      "227",
      "227",
      "227",
      "212",
      "185",
      "167",
      "162",
      "150",
      "150",
      "135",
      "135",
      "120",
      "120",
      "091",
      "091",
      "070",
      "070",
      "070",
      "070",
      "070",
      "063",
      "063",
      "033",
      "031",
      "024",
      "024",
      "009",
      "009",
      "009"
    ],
    "swim:geom": "path",
    "swim:speeds": [
      158,
      158,
      183,
      183,
      256,
      256,
      256,
      256,
      256,
      290,
      340,
      340,
      332,
      332,
      332,
      332,
      356,
      356,
      356,
      356,
      370,
      370,
      382,
      382,
      382,
      382,
      382,
      382,
      406,
      406,
      406,
      406,
      406,
      406,
      417,
      417,
      417,
      417,
      423,
      429,
      429,
      429,
      429,
      429,
      435,
      435,
      434,
      434,
      434,
      435,
      435,
      435,
      435,
      435,
      424,
      424,
      425,
      425,
      425,
      429,
      429,
      429,
      431,
      431,
      431,
      433,
      433,
      433,
      433,
      433,
      433,
      433,
      433,
      433,
      429,
      429,
      427,
      427,
      427,
      427,
      427,
      427,
      427,
      427,
      427,
      427,
      427,
      427,
      427,
      427,
      428,
      428,
      428,
      427,
      427,
      427,
      426,
      426,
      426,
      426,
      425,
      425,
      423,
      423,
      420,
      420,
      420,
      420,
      420,
      428,
      428,
      422,
      422,
      422,
      422,
      422,
      422,
      422,
      422,
      419,
      420,
      419,
      417,
      418,
      418,
      418,
      417,
      417,
      418,
      419,
      419,
      419,
      419,
      419,
      420,
      423,
      423,
      425,
      425,
      425,
      425,
      425,
      425,
      425,
      425,
      425,
      425,
      424,
      424,
      425,
      425,
      425,
      425,
      418,
      418,
      418,
      416,
      416,
      416,
      412,
      412,
      412,
      412,
      409,
      409,
      410,
      410,
      409,
      409,
      408,
      408,
      408,
      408,
      408,
      408,
      408,
      408,
      407,
      402,
      402,
      402,
      403,
      403,
      404,
      404,
      404,
      407,
      407,
      407,
      407,
      407,
      407,
      407,
      407,
      407,
      408,
      408,
      408,
      408,
      408,
      408,
      408,
      408,
      409,
      409,
      409,
      410,
      410,
      412,
      414,
      414,
      415,
      415,
      415,
      415,
      415,
      414,
      414,
      414,
      414,
      412,
      412,
      412,
      412,
      412,
      413,
      413,
      414,
      414,
      415,
      415,
      416,
      416,
      416,
      416,
      416,
      416,
      415,
      415,
      415,
      415,
      410,
      410,
      410,
      410,
      410,
      410,
      410,
      410,
      410,
      411,
      412,
      412,
      412,
      412,
      412,
      412,
      412,
      409,
      410,
      410,
      410,
      411,
      413,
      413,
      413,
      414,
      414,
      413,
      413,
      412,
      412,
      412,
      411,
      410,
      410,
      410,
      413,
      413,
      413,
      420,
      420,
      420,
      420,
      420,
      418,
      418,
      418,
      419,
      419,
      418,
      418,
      418,
      418,
      420,
      420,
      419,
      419,
      421,
      419,
      423,
      423,
      420,
      420,
      420,
      420,
      423,
      423,
      420,
      422,
      419,
      420,
      420,
      420,
      413,
      411,
      416,
      420,
      420,
      420,
      419,
      420,
      419,
      419,
      419,
      421,
      421,
      421,
      424,
      424,
      425,
      425,
      435,
      435,
      435,
      441,
      441,
      440,
      441,
      441,
      439,
      439,
      437,
      437,
      437,
      437,
      435,
      435,
      435,
      433,
      432,
      432,
      430,
      430,
      430,
      430,
      431,
      431,
      429,
      429,
      428,
      428,
      428,
      428,
      428,
      425,
      424,
      424,
      424,
      424,
      424,
      424,
      424,
      425,
      425,
      426,
      426,
      426,
      433,
      433,
      434,
      434,
      431,
      431,
      431,
      430,
      430,
      429,
      430,
      430,
      428,
      428,
      427,
      426,
      427,
      427,
      428,
      428,
      428,
      427,
      427,
      427,
      427,
      427,
      427,
      428,
      428,
      428,
      428,
      428,
      428,
      428,
      428,
      428,
      428,
      428,
      428,
      428,
      427,
      427,
      402,
      402,
      403,
      404,
      404,
      411,
      411,
      410,
      422,
      422,
      424,
      424,
      424,
      414,
      414,
      414,
      420,
      402,
      346,
      349,
      349,
      349,
      327,
      318,
      319,
      327,
      324,
      324,
      324,
      324,
      317,
      317,
      294,
      294,
      236,
      236,
      236,
      215,
      215,
      212,
      212,
      155,
      180,
      171,
      171,
      137,
      137,
      137
    ],
    "swim:timestamps": [
      1776704010,
      1776704010,
      1776704053,
      1776704053,
      1776704174,
      1776704174,
      1776704174,
      1776704174,
      1776704174,
      1776704294,
      1776704354,
      1776704354,
      1776704414,
      1776704414,
      1776704414,
      1776704414,
      1776704594,
      1776704594,
      1776704594,
      1776704594,
      1776704654,
      1776704654,
      1776704714,
      1776704714,
      1776704714,
      1776704714,
      1776704714,
      1776704714,
      1776704895,
      1776704895,
      1776704895,
      1776704895,
      1776704895,
      1776704895,
      1776705075,
      1776705075,
      1776705075,
      1776705075,
      1776705195,
      1776705255,
      1776705255,
      1776705255,
      1776705255,
      1776705255,
      1776705315,
      1776705315,
      1776705375,
      1776705375,
      1776705375,
      1776705556,
      1776705556,
      1776705556,
      1776705556,
      1776705556,
      1776705916,
      1776705916,
      1776705976,
      1776705976,
      1776705976,
      1776706097,
      1776706097,
      1776706097,
      1776706217,
      1776706217,
      1776706217,
      1776706337,
      1776706337,
      1776706337,
      1776706397,
      1776706397,
      1776706397,
      1776706517,
      1776706517,
      1776706517,
      1776706637,
      1776706637,
      1776706698,
      1776706698,
      1776706698,
      1776706698,
      1776706698,
      1776706758,
      1776706823,
      1776706823,
      1776706883,
      1776706883,
      1776706883,
      1776707652,
      1776707652,
      1776707652,
      1776707712,
      1776707712,
      1776707712,
      1776707832,
      1776707832,
      1776707832,
      1776707953,
      1776707953,
      1776707953,
      1776708013,
      1776708073,
      1776708073,
      1776708133,
      1776708133,
      1776708253,
      1776708253,
      1776708373,
      1776708373,
      1776708373,
      1776708794,
      1776708794,
      1776709034,
      1776709063,
      1776709063,
      1776709123,
      1776709155,
      1776709243,
      1776709243,
      1776709243,
      1776709335,
      1776709364,
      1776709424,
      1776709455,
      1776709484,
      1776709484,
      1776709484,
      1776709515,
      1776709515,
      1776709544,
      1776709575,
      1776709604,
      1776709604,
      1776709635,
      1776709635,
      1776709724,
      1776709816,
      1776709816,
      1776709876,
      1776709876,
      1776709876,
      1776709876,
      1776709904,
      1776709936,
      1776709996,
      1776710025,
      1776710025,
      1776710025,
      1776710056,
      1776710056,
      1776710205,
      1776710205,
      1776710205,
      1776710205,
      1776710506,
      1776710506,
      1776710506,
      1776710566,
      1776710566,
      1776710566,
      1776710746,
      1776710746,
      1776710746,
      1776710746,
      1776710986,
      1776710986,
      1776711047,
      1776711047,
      1776711107,
      1776711107,
      1776711167,
      1776711167,
      1776711167,
      1776711467,
      1776711467,
      1776711527,
      1776711527,
      1776711527,
      1776711565,
      1776711708,
      1776711708,
      1776711708,
      1776711866,
      1776711866,
      1776711888,
      1776711888,
      1776711888,
      1776712008,
      1776712008,
      1776712008,
      1776712106,
      1776712106,
      1776712226,
      1776712226,
      1776712226,
      1776712226,
      1776712467,
      1776712467,
      1776712467,
      1776712527,
      1776712587,
      1776712587,
      1776712669,
      1776712669,
      1776712707,
      1776712707,
      1776712729,
      1776712767,
      1776712767,
      1776712850,
      1776712970,
      1776712970,
      1776713008,
      1776713008,
      1776713008,
      1776713030,
      1776713030,
      1776713128,
      1776713128,
      1776713188,
      1776713188,
      1776713330,
      1776713391,
      1776713391,
      1776713391,
      1776713428,
      1776713488,
      1776713488,
      1776713548,
      1776713548,
      1776713609,
      1776713609,
      1776713669,
      1776713789,
      1776713789,
      1776713849,
      1776713909,
      1776713909,
      1776713969,
      1776713969,
      1776713969,
      1776713969,
      1776714209,
      1776714209,
      1776714209,
      1776714209,
      1776714450,
      1776714450,
      1776714450,
      1776714450,
      1776714582,
      1776714642,
      1776714702,
      1776714762,
      1776714762,
      1776714822,
      1776714822,
      1776714822,
      1776714822,
      1776715003,
      1776715183,
      1776715246,
      1776715246,
      1776715303,
      1776715423,
      1776715423,
      1776715423,
      1776715664,
      1776715664,
      1776715724,
      1776715724,
      1776715907,
      1776715907,
      1776715907,
      1776715967,
      1776716087,
      1776716087,
      1776716087,
      1776716302,
      1776716302,
      1776716302,
      1776716387,
      1776716447,
      1776716508,
      1776716508,
      1776716508,
      1776716663,
      1776716663,
      1776716663,
      1776716783,
      1776716783,
      1776716988,
      1776716988,
      1776717108,
      1776717108,
      1776717228,
      1776717228,
      1776717263,
      1776717263,
      1776717289,
      1776717323,
      1776717409,
      1776717409,
      1776717444,
      1776717444,
      1776717444,
      1776717504,
      1776717529,
      1776717529,
      1776717564,
      1776717589,
      1776717829,
      1776717864,
      1776717864,
      1776717864,
      1776717949,
      1776717984,
      1776718104,
      1776718190,
      1776718190,
      1776718190,
      1776718225,
      1776718250,
      1776718285,
      1776718405,
      1776718465,
      1776718490,
      1776718490,
      1776718490,
      1776718550,
      1776718550,
      1776718585,
      1776718585,
      1776718670,
      1776718670,
      1776718670,
      1776718765,
      1776718765,
      1776718851,
      1776718886,
      1776718886,
      1776718911,
      1776718911,
      1776719126,
      1776719186,
      1776719186,
      1776719186,
      1776719306,
      1776719306,
      1776719331,
      1776719391,
      1776719426,
      1776719426,
      1776719486,
      1776719512,
      1776719572,
      1776719572,
      1776719667,
      1776719667,
      1776719752,
      1776719752,
      1776719787,
      1776719847,
      1776719847,
      1776719872,
      1776719872,
      1776720027,
      1776720147,
      1776720147,
      1776720207,
      1776720207,
      1776720267,
      1776720267,
      1776720267,
      1776720388,
      1776720388,
      1776720448,
      1776720448,
      1776720448,
      1776720808,
      1776720808,
      1776720868,
      1776720868,
      1776721169,
      1776721169,
      1776721169,
      1776721229,
      1776721229,
      1776721289,
      1776721349,
      1776721349,
      1776721469,
      1776721469,
      1776721529,
      1776721565,
      1776721649,
      1776721649,
      1776721769,
      1776721769,
      1776721769,
      1776721865,
      1776721890,
      1776721890,
      1776721925,
      1776721950,
      1776721985,
      1776722010,
      1776722010,
      1776722046,
      1776722046,
      1776722166,
      1776722190,
      1776722190,
      1776722226,
      1776722250,
      1776722250,
      1776722286,
      1776722310,
      1776722346,
      1776722370,
      1776722370,
      1776722526,
      1776722526,
      1776722550,
      1776722586,
      1776722586,
      1776722766,
      1776722766,
      1776722791,
      1776723127,
      1776723187,
      1776723307,
      1776723307,
      1776723307,
      1776723547,
      1776723547,
      1776723547,
      1776723727,
      1776723788,
      1776723916,
      1776723968,
      1776723968,
      1776723968,
      1776724028,
      1776724088,
      1776724148,
      1776724157,
      1776724208,
      1776724208,
      1776724268,
      1776724268,
      1776724328,
      1776724328,
      1776724508,
      1776724508,
      1776724809,
      1776724809,
      1776724809,
      1776724989,
      1776724989,
      1776725057,
      1776725057,
      1776725289,
      1776725351,
      1776725410,
      1776725410,
      1776725530,
      1776725530,
      1776725530
    ],
    "wof:geomhash": "11e05dd2ea2a0b43349150b11ff8371e",
    "wof:id": 2015337631,
    "wof:repo": "sfomuseum-data-flights-2026-04"
  },
  "bbox": [
    -122.60277777777777,
    37.638333333333335,
    -71.03333333333333,
    43.303888888888885
  ],
  "geometry": {"coordinates":[[-71.03333333333333,42.38333333333333],[-71.03333333333333,42.38333333333333],[-71.08,42.40361111111111],[-71.08,42.40361111111111],[-71.15694444444445,42.52305555555555],[-71.15694444444445,42.52305555555555],[-71.15694444444445,42.52305555555555],[-71.15694444444445,42.52305555555555],[-71.15694444444445,42.52305555555555],[-71.22305555555556,42.66694444444444],[-71.26333333333334,42.75333333333333],[-71.26333333333334,42.75333333333333],[-71.36972222222222,42.79805555555556],[-71.36972222222222,42.79805555555556],[-71.36972222222222,42.79805555555556],[-71.36972222222222,42.79805555555556],[-71.74555555555555,42.86944444444445],[-71.74555555555555,42.86944444444445],[-71.74555555555555,42.86944444444445],[-71.74555555555555,42.86944444444445],[-71.87944444444443,42.89388888888889],[-71.87944444444443,42.89388888888889],[-72.02222222222223,42.92027777777778],[-72.02222222222223,42.92027777777778],[-72.02222222222223,42.92027777777778],[-72.02222222222223,42.92027777777778],[-72.02222222222223,42.92027777777778],[-72.02222222222223,42.92027777777778],[-72.45777777777778,42.99861111111111],[-72.45777777777778,42.99861111111111],[-72.45777777777778,42.99861111111111],[-72.45777777777778,42.99861111111111],[-72.45777777777778,42.99861111111111],[-72.45777777777778,42.99861111111111],[-72.92583333333334,43.04],[-72.92583333333334,43.04],[-72.92583333333334,43.04],[-72.92583333333334,43.04],[-73.25277777777778,43.06666666666667],[-73.41722222222222,43.080000000000005],[-73.41722222222222,43.080000000000005],[-73.41722222222222,43.080000000000005],[-73.41722222222222,43.080000000000005],[-73.41722222222222,43.080000000000005],[-73.58666666666666,43.093611111111116],[-73.58666666666666,43.093611111111116],[-73.75166666666667,43.10611111111111],[-73.75166666666667,43.10611111111111],[-73.75166666666667,43.10611111111111],[-74.2475,43.143055555555556],[-74.2475,43.143055555555556],[-74.2475,43.143055555555556],[-74.2475,43.143055555555556],[-74.2475,43.143055555555556],[-75.18333333333334,43.20666666666667],[-75.18333333333334,43.20666666666667],[-75.35027777777778,43.217222222222226],[-75.35027777777778,43.217222222222226],[-75.35027777777778,43.217222222222226],[-75.67833333333334,43.23694444444445],[-75.67833333333334,43.23694444444445],[-75.67833333333334,43.23694444444445],[-76.00666666666666,43.25611111111111],[-76.00666666666666,43.25611111111111],[-76.00666666666666,43.25611111111111],[-76.33583333333333,43.27444444444444],[-76.33583333333333,43.27444444444444],[-76.33583333333333,43.27444444444444],[-76.5025,43.282777777777774],[-76.5025,43.282777777777774],[-76.5025,43.282777777777774],[-76.8275,43.29388888888889],[-76.8275,43.29388888888889],[-76.8275,43.29388888888889],[-77.15027777777779,43.297777777777775],[-77.15027777777779,43.297777777777775],[-77.31,43.29972222222222],[-77.31,43.29972222222222],[-77.31,43.29972222222222],[-77.31,43.29972222222222],[-77.31,43.29972222222222],[-77.47194444444445,43.30138888888889],[-77.66638888888889,43.30277777777778],[-77.66638888888889,43.30277777777778],[-77.82972222222222,43.303888888888885],[-77.82972222222222,43.303888888888885],[-77.82972222222222,43.303888888888885],[-79.90222222222222,43.28916666666667],[-79.90222222222222,43.28916666666667],[-79.90222222222222,43.28916666666667],[-80.06666666666666,43.28972222222222],[-80.06666666666666,43.28972222222222],[-80.06666666666666,43.28972222222222],[-80.39,43.28944444444444],[-80.39,43.28944444444444],[-80.39,43.28944444444444],[-80.71222222222222,43.28861111111111],[-80.71222222222222,43.28861111111111],[-80.71222222222222,43.28861111111111],[-80.8736111111111,43.28805555555555],[-81.03666666666666,43.28666666666666],[-81.03666666666666,43.28666666666666],[-81.20444444444445,43.28527777777778],[-81.20444444444445,43.28527777777778],[-81.525,43.282222222222224],[-81.525,43.282222222222224],[-81.84472222222222,43.277499999999996],[-81.84472222222222,43.277499999999996],[-81.84472222222222,43.277499999999996],[-82.96694444444445,43.22166666666667],[-82.96694444444445,43.22166666666667],[-83.58805555555556,43.120555555555555],[-83.6675,43.1075],[-83.6675,43.1075],[-83.82416666666666,43.08111111111111],[-83.89916666666667,43.06861111111112],[-84.1325,43.028888888888886],[-84.1325,43.028888888888886],[-84.1325,43.028888888888886],[-84.38194444444444,42.98583333333333],[-84.44333333333334,42.97527777777778],[-84.59722222222221,42.948611111111106],[-84.68722222222223,42.93277777777777],[-84.74805555555555,42.92222222222222],[-84.74805555555555,42.92222222222222],[-84.74805555555555,42.92222222222222],[-84.8425,42.905277777777776],[-84.8425,42.905277777777776],[-84.90527777777778,42.89416666666666],[-84.99583333333334,42.878055555555555],[-85.06,42.86638888888889],[-85.06,42.86638888888889],[-85.14944444444446,42.85027777777778],[-85.14944444444446,42.85027777777778],[-85.36916666666666,42.81055555555555],[-85.61472222222221,42.76222222222222],[-85.61472222222221,42.76222222222222],[-85.77055555555556,42.72694444444445],[-85.77055555555556,42.72694444444445],[-85.77055555555556,42.72694444444445],[-85.77055555555556,42.72694444444445],[-85.83472222222221,42.71277777777778],[-85.92416666666666,42.69277777777778],[-86.05083333333333,42.66444444444444],[-86.14444444444445,42.64361111111111],[-86.14444444444445,42.64361111111111],[-86.14444444444445,42.64361111111111],[-86.205,42.63],[-86.205,42.63],[-86.60555555555555,42.53916666666667],[-86.60555555555555,42.53916666666667],[-86.60555555555555,42.53916666666667],[-86.60555555555555,42.53916666666667],[-87.34527777777777,42.36694444444444],[-87.34527777777777,42.36694444444444],[-87.34527777777777,42.36694444444444],[-87.49138888888889,42.33222222222223],[-87.49138888888889,42.33222222222223],[-87.49138888888889,42.33222222222223],[-87.93222222222222,42.22666666666667],[-87.93222222222222,42.22666666666667],[-87.93222222222222,42.22666666666667],[-87.93222222222222,42.22666666666667],[-88.5275,42.15333333333333],[-88.5275,42.15333333333333],[-88.67861111111111,42.135],[-88.67861111111111,42.135],[-88.82777777777777,42.11638888888889],[-88.82777777777777,42.11638888888889],[-88.99166666666667,42.096111111111114],[-88.99166666666667,42.096111111111114],[-88.99166666666667,42.096111111111114],[-89.75416666666666,41.998333333333335],[-89.75416666666666,41.998333333333335],[-89.90138888888889,41.980000000000004],[-89.90138888888889,41.980000000000004],[-89.90138888888889,41.980000000000004],[-89.97694444444444,41.969722222222224],[-90.33,41.92444444444444],[-90.33,41.92444444444444],[-90.33,41.92444444444444],[-90.71472222222222,41.87222222222222],[-90.71472222222222,41.87222222222222],[-90.77472222222222,41.86527777777778],[-90.77472222222222,41.86527777777778],[-90.77472222222222,41.86527777777778],[-91.0736111111111,41.82416666666667],[-91.0736111111111,41.82416666666667],[-91.0736111111111,41.82416666666667],[-91.31472222222222,41.79083333333333],[-91.31472222222222,41.79083333333333],[-91.61305555555555,41.748333333333335],[-91.61305555555555,41.748333333333335],[-91.61305555555555,41.748333333333335],[-91.61305555555555,41.748333333333335],[-92.22194444444445,41.65972222222222],[-92.22194444444445,41.65972222222222],[-92.22194444444445,41.65972222222222],[-92.37194444444444,41.63722222222222],[-92.51916666666666,41.615],[-92.51916666666666,41.615],[-92.71361111111112,41.58527777777778],[-92.71361111111112,41.58527777777778],[-92.81305555555555,41.57],[-92.81305555555555,41.57],[-92.87333333333332,41.56083333333333],[-92.96111111111111,41.54694444444444],[-92.96111111111111,41.54694444444444],[-93.17222222222223,41.513888888888886],[-93.47027777777778,41.46611111111111],[-93.47027777777778,41.46611111111111],[-93.56,41.45194444444445],[-93.56,41.45194444444445],[-93.56,41.45194444444445],[-93.61999999999999,41.44222222222222],[-93.61999999999999,41.44222222222222],[-93.86138888888888,41.411944444444444],[-93.86138888888888,41.411944444444444],[-94.01166666666667,41.39361111111111],[-94.01166666666667,41.39361111111111],[-94.36999999999999,41.34861111111111],[-94.51916666666666,41.32972222222222],[-94.51916666666666,41.32972222222222],[-94.51916666666666,41.32972222222222],[-94.60472222222222,41.31861111111112],[-94.75305555555556,41.29944444444444],[-94.75305555555556,41.29944444444444],[-94.9063888888889,41.279444444444444],[-94.9063888888889,41.279444444444444],[-95.05722222222222,41.25944444444445],[-95.05722222222222,41.25944444444445],[-95.2075,41.239444444444445],[-95.50972222222222,41.198611111111106],[-95.50972222222222,41.198611111111106],[-95.66444444444446,41.176944444444445],[-95.81638888888888,41.155833333333334],[-95.81638888888888,41.155833333333334],[-95.96583333333334,41.134166666666665],[-95.96583333333334,41.134166666666665],[-95.96583333333334,41.134166666666665],[-95.96583333333334,41.134166666666665],[-96.56555555555555,41.045833333333334],[-96.56555555555555,41.045833333333334],[-96.56555555555555,41.045833333333334],[-96.56555555555555,41.045833333333334],[-97.15416666666667,40.95611111111111],[-97.15416666666667,40.95611111111111],[-97.15416666666667,40.95611111111111],[-97.15416666666667,40.95611111111111],[-97.44472222222223,40.91027777777778],[-97.62277777777777,40.88194444444444],[-97.77166666666666,40.858333333333334],[-97.91944444444445,40.83416666666667],[-97.91944444444445,40.83416666666667],[-98.06833333333333,40.809999999999995],[-98.06833333333333,40.809999999999995],[-98.06833333333333,40.809999999999995],[-98.06833333333333,40.809999999999995],[-98.51333333333334,40.7625],[-98.96694444444445,40.736111111111114],[-99.11611111111111,40.727222222222224],[-99.11611111111111,40.727222222222224],[-99.2675,40.717777777777776],[-99.56916666666666,40.69833333333333],[-99.56916666666666,40.69833333333333],[-99.56916666666666,40.69833333333333],[-100.17333333333333,40.657222222222224],[-100.17333333333333,40.657222222222224],[-100.32277777777777,40.64666666666667],[-100.32277777777777,40.64666666666667],[-100.76638888888888,40.61388888888889],[-100.76638888888888,40.61388888888889],[-100.76638888888888,40.61388888888889],[-100.91888888888889,40.602222222222224],[-101.2175,40.578611111111115],[-101.2175,40.578611111111115],[-101.2175,40.578611111111115],[-101.75805555555556,40.53527777777778],[-101.75805555555556,40.53527777777778],[-101.75805555555556,40.53527777777778],[-101.97611111111111,40.51555555555556],[-102.12805555555555,40.5025],[-102.27944444444444,40.48888888888889],[-102.27944444444444,40.48888888888889],[-102.27944444444444,40.48888888888889],[-102.67555555555556,40.45194444444445],[-102.67555555555556,40.45194444444445],[-102.67555555555556,40.45194444444445],[-102.9786111111111,40.422777777777775],[-102.9786111111111,40.422777777777775],[-103.49333333333334,40.37388888888889],[-103.49333333333334,40.37388888888889],[-103.79527777777777,40.343333333333334],[-103.79527777777777,40.343333333333334],[-104.09694444444445,40.31194444444444],[-104.09694444444445,40.31194444444444],[-104.18972222222223,40.300555555555555],[-104.18972222222223,40.300555555555555],[-104.24861111111112,40.29555555555555],[-104.3411111111111,40.28583333333333],[-104.5525,40.26277777777778],[-104.5525,40.26277777777778],[-104.64611111111111,40.25222222222222],[-104.64611111111111,40.25222222222222],[-104.64611111111111,40.25222222222222],[-104.7961111111111,40.23583333333333],[-104.85388888888889,40.22944444444445],[-104.85388888888889,40.22944444444445],[-104.94694444444445,40.218611111111116],[-105.00222222222222,40.21277777777778],[-105.63166666666666,40.13916666666667],[-105.70166666666667,40.12861111111111],[-105.70166666666667,40.12861111111111],[-105.70166666666667,40.12861111111111],[-105.92472222222223,40.10388888888889],[-105.9961111111111,40.094722222222224],[-106.295,40.05777777777777],[-106.52305555555556,40.02916666666667],[-106.52305555555556,40.02916666666667],[-106.52305555555556,40.02916666666667],[-106.59583333333333,40.01861111111111],[-106.65416666666667,40.0125],[-106.74583333333334,39.99944444444444],[-107.04444444444444,39.961111111111116],[-107.19444444444444,39.94166666666666],[-107.25444444444445,39.933611111111105],[-107.25444444444445,39.933611111111105],[-107.25444444444445,39.933611111111105],[-107.40555555555557,39.913333333333334],[-107.40555555555557,39.913333333333334],[-107.49805555555555,39.9],[-107.49805555555555,39.9],[-107.71361111111112,39.87111111111111],[-107.71361111111112,39.87111111111111],[-107.71361111111112,39.87111111111111],[-107.97,39.83527777777778],[-107.97,39.83527777777778],[-108.18583333333333,39.80472222222222],[-108.27222222222223,39.79222222222222],[-108.27222222222223,39.79222222222222],[-108.3386111111111,39.782777777777774],[-108.3386111111111,39.782777777777774],[-108.91638888888889,39.698055555555555],[-109.07055555555556,39.675],[-109.07055555555556,39.675],[-109.07055555555556,39.675],[-109.37444444444444,39.62861111111111],[-109.37444444444444,39.62861111111111],[-109.43583333333333,39.619166666666665],[-109.58722222222222,39.59583333333334],[-109.67944444444444,39.581388888888895],[-109.67944444444444,39.581388888888895],[-109.82888888888888,39.55777777777777],[-109.88777777777779,39.54861111111111],[-110.03999999999999,39.524166666666666],[-110.03999999999999,39.524166666666666],[-110.285,39.484722222222224],[-110.285,39.484722222222224],[-110.49472222222222,39.450833333333335],[-110.49472222222222,39.450833333333335],[-110.58333333333333,39.436388888888885],[-110.73555555555555,39.41083333333333],[-110.73555555555555,39.41083333333333],[-110.79305555555555,39.401111111111106],[-110.79305555555555,39.401111111111106],[-111.18194444444445,39.33583333333333],[-111.47111111111111,39.291666666666664],[-111.47111111111111,39.291666666666664],[-111.61861111111111,39.26833333333333],[-111.61861111111111,39.26833333333333],[-111.76694444444445,39.24472222222222],[-111.76694444444445,39.24472222222222],[-111.76694444444445,39.24472222222222],[-112.06694444444445,39.19638888888888],[-112.06694444444445,39.19638888888888],[-112.215,39.17222222222222],[-112.215,39.17222222222222],[-112.215,39.17222222222222],[-113.12277777777777,39.01972222222222],[-113.12277777777777,39.01972222222222],[-113.27361111111111,38.993611111111115],[-113.27361111111111,38.993611111111115],[-114.02388888888889,38.86083333333333],[-114.02388888888889,38.86083333333333],[-114.02388888888889,38.86083333333333],[-114.1713888888889,38.83416666666667],[-114.1713888888889,38.83416666666667],[-114.32194444444444,38.80638888888888],[-114.47222222222223,38.77861111111111],[-114.47222222222223,38.77861111111111],[-114.76805555555555,38.72361111111111],[-114.76805555555555,38.72361111111111],[-114.915,38.69583333333333],[-115.00472222222223,38.67861111111111],[-115.21000000000001,38.63944444444444],[-115.21000000000001,38.63944444444444],[-115.49416666666667,38.584722222222226],[-115.49416666666667,38.584722222222226],[-115.49416666666667,38.584722222222226],[-115.72972222222222,38.538888888888884],[-115.78861111111111,38.526666666666664],[-115.78861111111111,38.526666666666664],[-115.88166666666666,38.50833333333333],[-115.935,38.49777777777778],[-116.025,38.47972222222222],[-116.08305555555555,38.468333333333334],[-116.08305555555555,38.468333333333334],[-116.17277777777778,38.45027777777778],[-116.17277777777778,38.45027777777778],[-116.46583333333334,38.39083333333333],[-116.52305555555556,38.37916666666667],[-116.52305555555556,38.37916666666667],[-116.61194444444443,38.36083333333333],[-116.66861111111112,38.34916666666667],[-116.66861111111112,38.34916666666667],[-116.76027777777777,38.33027777777778],[-116.81638888888888,38.31861111111112],[-116.90444444444445,38.30027777777777],[-116.96083333333334,38.28861111111111],[-116.96083333333334,38.28861111111111],[-117.32444444444444,38.21222222222222],[-117.32444444444444,38.21222222222222],[-117.39583333333334,38.196666666666665],[-117.48055555555555,38.17861111111111],[-117.48055555555555,38.17861111111111],[-117.89944444444446,38.088055555555556],[-117.89944444444446,38.088055555555556],[-117.9538888888889,38.07611111111112],[-118.7375,37.901666666666664],[-118.8825,37.88166666666667],[-119.17694444444444,37.848333333333336],[-119.17694444444444,37.848333333333336],[-119.17694444444444,37.848333333333336],[-119.75611111111111,37.77972222222222],[-119.75611111111111,37.77972222222222],[-119.75611111111111,37.77972222222222],[-120.1975,37.72527777777778],[-120.33805555555556,37.7075],[-120.61666666666666,37.68333333333333],[-120.69083333333333,37.66583333333333],[-120.69083333333333,37.66583333333333],[-120.69083333333333,37.66583333333333],[-120.8086111111111,37.651666666666664],[-120.91833333333334,37.638333333333335],[-121.02666666666667,37.64611111111111],[-121.06666666666666,37.65],[-121.1375,37.66694444444444],[-121.1375,37.66694444444444],[-121.25055555555555,37.6875],[-121.25055555555555,37.6875],[-121.35805555555555,37.70722222222223],[-121.35805555555555,37.70722222222223],[-121.66361111111112,37.76277777777778],[-121.66361111111112,37.76277777777778],[-122.11527777777778,37.84388888888889],[-122.11527777777778,37.84388888888889],[-122.11527777777778,37.84388888888889],[-122.35055555555554,37.87111111111111],[-122.35055555555554,37.87111111111111],[-122.45,37.85],[-122.45,37.85],[-122.60277777777777,37.75055555555556],[-122.56666666666666,37.71666666666667],[-122.52694444444444,37.69166666666666],[-122.52694444444444,37.69166666666666],[-122.44194444444445,37.65138888888889],[-122.44194444444445,37.65138888888889],[-122.44194444444445,37.65138888888889]],"type":"LineString"}
}
