{
  "id": 2031145565,
  "type": "Feature",
  "properties": {
    "geom:area": 0,
    "geom:bbox": "-122.262250,36.744870,-121.473930,37.333990",
    "geom:latitude": 37.04033847075842,
    "geom:longitude": -121.86740302255298,
    "src:alt_label": "swim-takeoff",
    "src:geom": "swim",
    "swim:elevations": [
      5548,
      5888,
      6133,
      6576,
      6851,
      7182,
      7380,
      8043,
      8289,
      8499,
      8765,
      8839,
      8839,
      8839,
      8839,
      8839,
      8839
    ],
    "swim:geom": "takeoff",
    "swim:timestamps": [
      1777488070,
      1777488104,
      1777488127,
      1777488172,
      1777488195,
      1777488225,
      1777488245,
      1777488296,
      1777488315,
      1777488332,
      1777488356,
      1777488381,
      1777488412,
      1777488443,
      1777488452,
      1777488508,
      1777488512
    ],
    "wof:geomhash": "feaf26d3e35dd14cad68a738bef5a32f",
    "wof:id": 2031145565,
    "wof:repo": "sfomuseum-data-flights-2026-04"
  },
  "bbox": [
    -122.26225,
    36.74487,
    -121.47393,
    37.33399
  ],
  "geometry": {"coordinates":[[-122.26225,37.33399],[-122.20685,37.29321],[-122.16623,37.2631],[-122.08797,37.20503],[-122.04575,37.1736],[-121.99055,37.1326],[-121.95339,37.10492],[-121.8589,37.03427],[-121.82568,37.00967],[-121.7944,36.98584],[-121.75105,36.95447],[-121.70688,36.9217],[-121.65229,36.88012],[-121.59654,36.83732],[-121.58008,36.82549],[-121.48168,36.75102],[-121.47393,36.74487]],"type":"LineString"}
}
