{
  "id": 2015355459,
  "type": "Feature",
  "properties": {
    "geom:area": 0,
    "geom:bbox": "-122.380000,25.800000,-80.290000,38.330000",
    "geom:latitude": 34.790968986578456,
    "geom:longitude": -100.20888865576211,
    "src:alt_label": "swim-route",
    "src:geom": "swim",
    "swim:geom": "route",
    "wof:geomhash": "fb1eb554ebf4e162f71fae8a7bf59488",
    "wof:id": 2015355459,
    "wof:repo": "sfomuseum-data-flights-2026-04"
  },
  "bbox": [
    -122.38,
    25.8,
    -80.29,
    38.33
  ],
  "geometry": {"coordinates":[[-80.29,25.8],[-80.38,25.81],[-80.39,25.81],[-80.4,25.81],[-80.4,25.81],[-80.45,25.85],[-80.45,25.86],[-80.45,25.86],[-80.49,25.93],[-80.56,26.09],[-80.64,26.24],[-80.71,26.38],[-80.72,26.4],[-80.75,26.42],[-80.75,26.43],[-80.78,26.45],[-80.83,26.5],[-80.87,26.55],[-80.95,26.65],[-80.99,26.7],[-81.08,26.81],[-81.12,26.87],[-81.17,26.93],[-81.25,27.03],[-81.28,27.06],[-81.5,27.33],[-81.56,27.41],[-81.83,27.74],[-82.1,28.08],[-82.11,28.08],[-82.9,29.06],[-82.97,29.15],[-83.06,29.26],[-83.13,29.48],[-83.15,29.53],[-83.79,30.15],[-83.82,30.17],[-84.07,30.32],[-84.84,30.77],[-85.47,31.13],[-86.35,31.61],[-87.28,32.12],[-87.48,32.21],[-87.82,32.35],[-88.14,32.48],[-90.03,33.25],[-90.37,33.44],[-91.47,33.82],[-92,34],[-92.76,34.21],[-94.38,34.62],[-94.61,34.68],[-94.8,34.73],[-95.23,34.83],[-96,35],[-97.17,35.23],[-99.33,35.63],[-100,35.69],[-101.38,35.81],[-102.37,36.08],[-104,36.5],[-104.79,36.7],[-104.93,36.74],[-105.66,36.92],[-106,37],[-106.29,37.08],[-106.75,37.22],[-108.14,37.6],[-108.93,37.81],[-109.08,37.83],[-109.12,37.83],[-109.32,37.85],[-110,37.92],[-110.53,37.98],[-110.86,38.01],[-111.04,38.03],[-111.24,38.04],[-111.46,38.07],[-111.62,38.08],[-112.31,38.14],[-113.51,38.23],[-113.98,38.27],[-114,38.27],[-114.96,38.33],[-115.84,38.33],[-116.21,38.17],[-116.22,38.14],[-116.29,38.04],[-116.34,38.08],[-116.81,38.05],[-117.21,38.02],[-118.76,37.9],[-119.03,37.86],[-119.1,37.86],[-119.38,37.82],[-119.94,37.76],[-120.04,37.75],[-120.22,37.72],[-120.4,37.7],[-120.41,37.7],[-120.48,37.69],[-120.69,37.67],[-120.75,37.66],[-120.77,37.66],[-120.83,37.65],[-120.96,37.63],[-121,37.63],[-121.08,37.62],[-121.17,37.6],[-121.26,37.59],[-121.39,37.58],[-121.41,37.58],[-121.6,37.55],[-121.61,37.55],[-121.62,37.55],[-121.7,37.53],[-121.8,37.51],[-121.83,37.5],[-121.88,37.49],[-122.08,37.54],[-122.14,37.56],[-122.18,37.57],[-122.28,37.59],[-122.33,37.61],[-122.36,37.61],[-122.38,37.62]],"type":"LineString"}
}
