{
  "id": 2015347793,
  "type": "Feature",
  "properties": {
    "geom:area": 0,
    "geom:bbox": "-122.318611,33.433333,-112.050000,37.696944",
    "geom:latitude": 36.37873781957879,
    "geom:longitude": -116.80465753011222,
    "src:alt_label": "swim-path",
    "src:geom": "swim",
    "swim:altitudes": [
      "018",
      "018",
      "043",
      "043",
      "070",
      "068",
      "068",
      "135",
      "163",
      "186",
      "187",
      "187",
      "187",
      "208",
      "228",
      "228",
      "245",
      "245",
      "245",
      "275",
      "275",
      "275",
      "275",
      "300",
      "300",
      "300",
      "347",
      "347",
      "347",
      "347",
      "347",
      "347",
      "360C",
      "360C",
      "360C",
      "360C",
      "360C",
      "360C",
      "360C",
      "360C",
      "360C",
      "360C",
      "360C",
      "360C",
      "360C",
      "360C",
      "360C",
      "360C",
      "360C",
      "360C",
      "360C",
      "360C",
      "360C",
      "360C",
      "360C",
      "360C",
      "360C",
      "360C",
      "360C",
      "360C",
      "360C",
      "360C",
      "360C",
      "360C",
      "360C",
      "360C",
      "360C",
      "360C",
      "360C",
      "360C",
      "360C",
      "360C",
      "360C",
      "360C",
      "360C",
      "360C",
      "360C",
      "360C",
      "360C",
      "360C",
      "360C",
      "360C",
      "360C",
      "360C",
      "360C",
      "360C",
      "360C",
      "360C",
      "360C",
      "361C",
      "361C",
      "361C",
      "360C",
      "360C",
      "360C",
      "360C",
      "360C",
      "348",
      "348",
      "348",
      "309",
      "309",
      "287",
      "217",
      "194",
      "194",
      "194",
      "114",
      "114",
      "114",
      "107",
      "084",
      "063",
      "063",
      "063",
      "056",
      "056",
      "056",
      "008",
      "007",
      "007"
    ],
    "swim:geom": "path",
    "swim:speeds": [
      185,
      185,
      229,
      229,
      254,
      249,
      249,
      351,
      360,
      374,
      371,
      371,
      371,
      383,
      386,
      386,
      389,
      389,
      389,
      411,
      411,
      411,
      411,
      425,
      425,
      425,
      403,
      403,
      403,
      402,
      402,
      402,
      413,
      413,
      413,
      414,
      414,
      414,
      415,
      415,
      415,
      410,
      410,
      410,
      409,
      409,
      409,
      408,
      408,
      408,
      414,
      414,
      414,
      414,
      409,
      409,
      409,
      419,
      419,
      419,
      411,
      435,
      435,
      435,
      437,
      441,
      441,
      451,
      451,
      451,
      453,
      453,
      454,
      454,
      454,
      453,
      453,
      442,
      442,
      434,
      421,
      421,
      407,
      407,
      404,
      403,
      401,
      407,
      396,
      382,
      382,
      382,
      388,
      374,
      395,
      395,
      395,
      385,
      385,
      385,
      384,
      384,
      380,
      392,
      384,
      384,
      384,
      302,
      302,
      302,
      260,
      241,
      234,
      234,
      238,
      216,
      216,
      216,
      147,
      148,
      148
    ],
    "swim:timestamps": [
      1776812483,
      1776812483,
      1776812549,
      1776812549,
      1776812609,
      1776812618,
      1776812618,
      1776812805,
      1776812866,
      1776812919,
      1776812926,
      1776812926,
      1776812926,
      1776812979,
      1776813046,
      1776813046,
      1776813099,
      1776813099,
      1776813099,
      1776813219,
      1776813219,
      1776813226,
      1776813226,
      1776813346,
      1776813346,
      1776813346,
      1776813580,
      1776813580,
      1776813580,
      1776813587,
      1776813587,
      1776813587,
      1776813760,
      1776813760,
      1776813760,
      1776813880,
      1776813880,
      1776813880,
      1776814067,
      1776814067,
      1776814067,
      1776814127,
      1776814127,
      1776814127,
      1776814428,
      1776814428,
      1776814428,
      1776814488,
      1776814488,
      1776814488,
      1776814848,
      1776814848,
      1776814848,
      1776814848,
      1776815089,
      1776815089,
      1776815089,
      1776815189,
      1776815189,
      1776815209,
      1776815249,
      1776815309,
      1776815309,
      1776815309,
      1776815329,
      1776815429,
      1776815429,
      1776815489,
      1776815489,
      1776815489,
      1776815549,
      1776815549,
      1776815610,
      1776815610,
      1776815629,
      1776815689,
      1776815689,
      1776815730,
      1776815730,
      1776815810,
      1776815850,
      1776815850,
      1776815930,
      1776815930,
      1776815970,
      1776815990,
      1776816030,
      1776816150,
      1776816230,
      1776816290,
      1776816290,
      1776816290,
      1776816330,
      1776816390,
      1776816631,
      1776816631,
      1776816631,
      1776816871,
      1776816871,
      1776816871,
      1776817111,
      1776817111,
      1776817171,
      1776817351,
      1776817411,
      1776817411,
      1776817411,
      1776817652,
      1776817652,
      1776817652,
      1776817712,
      1776817819,
      1776817945,
      1776817945,
      1776817952,
      1776818012,
      1776818012,
      1776818012,
      1776818299,
      1776818312,
      1776818312
    ],
    "wof:geomhash": "38565e99da0a9759362a3b5ab9d0e779",
    "wof:id": 2015347793,
    "wof:repo": "sfomuseum-data-flights-2026-04"
  },
  "bbox": [
    -122.31861111111111,
    33.43333333333333,
    -112.05,
    37.69694444444444
  ],
  "geometry": {"coordinates":[[-112.05,33.43333333333333],[-112.05,33.43333333333333],[-112.11666666666666,33.43333333333333],[-112.11666666666666,33.43333333333333],[-112.18333333333334,33.45],[-112.19,33.45166666666667],[-112.19,33.45166666666667],[-112.22833333333334,33.71083333333333],[-112.26305555555555,33.8075],[-112.29444444444444,33.904444444444444],[-112.29666666666667,33.908055555555556],[-112.29666666666667,33.908055555555556],[-112.29666666666667,33.908055555555556],[-112.32888888888888,34.00833333333333],[-112.4063888888889,34.10027777777778],[-112.4063888888889,34.10027777777778],[-112.48666666666666,34.17916666666667],[-112.48666666666666,34.17916666666667],[-112.48666666666666,34.17916666666667],[-112.66416666666667,34.35472222222222],[-112.66416666666667,34.35472222222222],[-112.66666666666667,34.35722222222223],[-112.66666666666667,34.35722222222223],[-112.85111111111111,34.53861111111111],[-112.85111111111111,34.53861111111111],[-112.85111111111111,34.53861111111111],[-113.2713888888889,34.84027777777778],[-113.2713888888889,34.84027777777778],[-113.2713888888889,34.84027777777778],[-113.27361111111111,34.840833333333336],[-113.27361111111111,34.840833333333336],[-113.27361111111111,34.840833333333336],[-113.62527777777777,35.02833333333333],[-113.62527777777777,35.02833333333333],[-113.62527777777777,35.02833333333333],[-113.85944444444443,35.1575],[-113.85944444444443,35.1575],[-113.85944444444443,35.1575],[-114.22277777777778,35.35666666666667],[-114.22277777777778,35.35666666666667],[-114.22277777777778,35.35666666666667],[-114.33833333333332,35.419444444444444],[-114.33833333333332,35.419444444444444],[-114.33833333333332,35.419444444444444],[-114.91694444444445,35.73083333333334],[-114.91694444444445,35.73083333333334],[-114.91694444444445,35.73083333333334],[-115.03388888888888,35.793055555555554],[-115.03388888888888,35.793055555555554],[-115.03388888888888,35.793055555555554],[-115.75527777777778,36.1725],[-115.75527777777778,36.1725],[-115.75527777777778,36.1725],[-115.75527777777778,36.1725],[-116.23083333333334,36.41833333333333],[-116.23083333333334,36.41833333333333],[-116.23083333333334,36.41833333333333],[-116.42777777777778,36.519444444444446],[-116.42777777777778,36.519444444444446],[-116.47638888888889,36.54416666666666],[-116.54944444444445,36.581388888888895],[-116.65305555555557,36.66361111111111],[-116.65305555555557,36.66361111111111],[-116.65305555555557,36.66361111111111],[-116.68583333333333,36.70277777777778],[-116.82333333333332,36.86805555555556],[-116.82333333333332,36.86805555555556],[-116.91027777777778,36.97222222222222],[-116.91027777777778,36.97222222222222],[-116.91027777777778,36.97222222222222],[-116.99888888888889,37.07805555555556],[-116.99888888888889,37.07805555555556],[-117.08805555555556,37.18388888888889],[-117.08805555555556,37.18388888888889],[-117.12416666666665,37.22666666666667],[-117.215,37.32805555555556],[-117.215,37.32805555555556],[-117.27777777777777,37.382777777777775],[-117.27777777777777,37.382777777777775],[-117.46166666666667,37.468611111111116],[-117.545,37.495],[-117.545,37.495],[-117.74388888888889,37.5125],[-117.74388888888889,37.5125],[-117.82805555555555,37.519444444444446],[-117.88444444444445,37.524166666666666],[-117.96805555555555,37.530833333333334],[-118.25361111111111,37.55333333333333],[-118.42166666666667,37.56583333333333],[-118.55305555555556,37.575833333333335],[-118.55305555555556,37.575833333333335],[-118.55305555555556,37.575833333333335],[-118.66222222222223,37.58361111111111],[-118.79388888888889,37.593611111111116],[-119.3386111111111,37.63166666666667],[-119.3386111111111,37.63166666666667],[-119.3386111111111,37.63166666666667],[-119.88,37.66722222222222],[-119.88,37.66722222222222],[-119.88,37.66722222222222],[-120.41583333333334,37.69694444444444],[-120.41583333333334,37.69694444444444],[-120.54777777777778,37.6825],[-120.9525,37.63388888888889],[-121.08666666666666,37.61666666666667],[-121.08666666666666,37.61666666666667],[-121.08666666666666,37.61666666666667],[-121.53027777777778,37.56194444444444],[-121.53027777777778,37.56194444444444],[-121.53027777777778,37.56194444444444],[-121.625,37.550555555555555],[-121.78333333333333,37.516666666666666],[-121.95,37.5],[-121.95,37.5],[-121.95055555555555,37.496944444444445],[-122.02722222222222,37.503055555555555],[-122.02722222222222,37.503055555555555],[-122.02722222222222,37.503055555555555],[-122.31666666666666,37.6],[-122.31861111111111,37.595],[-122.31861111111111,37.595]],"type":"LineString"}
}
