{
  "id": 2015191697,
  "type": "Feature",
  "properties": {
    "geom:area": 0,
    "geom:bbox": "-122.408320,37.625390,-121.251100,37.955900",
    "geom:latitude": 37.808866009390535,
    "geom:longitude": -121.84597857254823,
    "src:alt_label": "swim-takeoff",
    "src:geom": "swim",
    "swim:elevations": [
      122,
      427,
      452,
      1077,
      1288,
      1610,
      2013,
      2317,
      2701,
      3039,
      3320,
      3562,
      3785,
      3928,
      4056,
      4179,
      4592,
      4759,
      5108,
      5366,
      5622,
      5756,
      6126,
      6219
    ],
    "swim:geom": "takeoff",
    "swim:timestamps": [
      1775115006,
      1775115027,
      1775115031,
      1775115080,
      1775115116,
      1775115147,
      1775115175,
      1775115195,
      1775115219,
      1775115252,
      1775115289,
      1775115325,
      1775115350,
      1775115366,
      1775115384,
      1775115399,
      1775115445,
      1775115462,
      1775115499,
      1775115527,
      1775115562,
      1775115578,
      1775115622,
      1775115635
    ],
    "wof:geomhash": "6a67996524dffc521b9e1cbca4d1534a",
    "wof:id": 2015191697,
    "wof:repo": "sfomuseum-data-flights-2026-04"
  },
  "bbox": [
    -122.40832,
    37.62539,
    -121.2511,
    37.9559
  ],
  "geometry": {"coordinates":[[-122.39094,37.62539],[-122.40728,37.63593],[-122.40832,37.63848],[-122.37538,37.66583],[-122.33237,37.67999],[-122.28984,37.69372],[-122.24729,37.70722],[-122.21634,37.71765],[-122.18163,37.73003],[-122.12737,37.74405],[-122.06164,37.76036],[-121.98758,37.77795],[-121.93639,37.79038],[-121.90005,37.79928],[-121.86142,37.80869],[-121.82802,37.81681],[-121.71962,37.84331],[-121.6787,37.85332],[-121.58964,37.87472],[-121.523,37.89073],[-121.43455,37.91199],[-121.39418,37.92166],[-121.28383,37.94808],[-121.2511,37.9559]],"type":"LineString"}
}
