{
  "id": 2015338901,
  "type": "Feature",
  "properties": {
    "geom:area": 0,
    "geom:bbox": "-122.360200,37.466910,-121.274340,37.615370",
    "geom:latitude": 37.53505961143355,
    "geom:longitude": -121.824566158876,
    "src:alt_label": "swim-approach",
    "src:geom": "swim",
    "swim:elevations": [
      4557,
      4223,
      4016,
      3740,
      3419,
      3264,
      3199,
      3012,
      2934,
      2793,
      2579,
      2491,
      2433,
      2239,
      2134,
      1993,
      1953,
      1829,
      1782,
      1472,
      1154,
      1007,
      976,
      887,
      690,
      512,
      341,
      277,
      108,
      62,
      356
    ],
    "swim:geom": "approach",
    "swim:timestamps": [
      1776713628,
      1776713664,
      1776713686,
      1776713717,
      1776713752,
      1776713786,
      1776713801,
      1776713848,
      1776713860,
      1776713883,
      1776713923,
      1776713937,
      1776713949,
      1776713974,
      1776714014,
      1776714058,
      1776714068,
      1776714116,
      1776714130,
      1776714167,
      1776714200,
      1776714234,
      1776714255,
      1776714284,
      1776714319,
      1776714356,
      1776714389,
      1776714407,
      1776714447,
      1776714459,
      1776714475
    ],
    "wof:geomhash": "8d1052923e84c0d57c0fe839acb23278",
    "wof:id": 2015338901,
    "wof:repo": "sfomuseum-data-flights-2026-04"
  },
  "bbox": [
    -122.3602,
    37.46691,
    -121.27434,
    37.61537
  ],
  "geometry": {"coordinates":[[-121.27434,37.59131],[-121.34188,37.58357],[-121.38546,37.5788],[-121.4432,37.57217],[-121.51079,37.56428],[-121.57412,37.55686],[-121.60024,37.55387],[-121.67204,37.53962],[-121.68891,37.53559],[-121.72008,37.52817],[-121.76213,37.50744],[-121.77186,37.49758],[-121.78033,37.48882],[-121.80491,37.47537],[-121.85688,37.47392],[-121.91416,37.46817],[-121.92742,37.46691],[-121.99347,37.47516],[-122.01314,37.48045],[-122.06196,37.49412],[-122.10212,37.50594],[-122.14259,37.52331],[-122.16709,37.53355],[-122.19609,37.54577],[-122.23088,37.56045],[-122.26606,37.57523],[-122.29579,37.58779],[-122.30999,37.59371],[-122.34059,37.60662],[-122.34989,37.61054],[-122.3602,37.61537]],"type":"LineString"}
}
