{
  "id": 2015237125,
  "type": "Feature",
  "properties": {
    "geom:area": 0,
    "geom:bbox": "-122.362450,36.726960,-121.882250,37.614020",
    "geom:latitude": 37.21195085480074,
    "geom:longitude": -122.0819660775723,
    "src:alt_label": "swim-approach",
    "src:geom": "swim",
    "swim:elevations": [
      5817,
      5544,
      5364,
      4922,
      4621,
      4486,
      4298,
      4111,
      3989,
      3872,
      3624,
      3410,
      3233,
      2979,
      2765,
      2656,
      2450,
      2288,
      1954,
      1829,
      1720,
      1640,
      1220,
      1033,
      929,
      914,
      883,
      786,
      670,
      484,
      340,
      232,
      126,
      97,
      0
    ],
    "swim:geom": "approach",
    "swim:timestamps": [
      1775634173,
      1775634198,
      1775634219,
      1775634261,
      1775634295,
      1775634313,
      1775634341,
      1775634378,
      1775634403,
      1775634422,
      1775634472,
      1775634495,
      1775634514,
      1775634542,
      1775634568,
      1775634583,
      1775634607,
      1775634631,
      1775634678,
      1775634711,
      1775634737,
      1775634750,
      1775634808,
      1775634831,
      1775634847,
      1775634895,
      1775634924,
      1775634941,
      1775634969,
      1775635009,
      1775635045,
      1775635072,
      1775635103,
      1775635112,
      1775635143
    ],
    "wof:geomhash": "aa0d9e1d69cc6e2cb393206d9f31811b",
    "wof:id": 2015237125,
    "wof:repo": "sfomuseum-data-flights-2026-04"
  },
  "bbox": [
    -122.36245,
    36.72696,
    -121.88225,
    37.61402
  ],
  "geometry": {"coordinates":[[-121.88225,36.72696],[-121.9001,36.76356],[-121.90914,36.79533],[-121.92662,36.85748],[-121.94031,36.90679],[-121.94734,36.93179],[-121.96087,36.97175],[-121.97915,37.01977],[-121.99097,37.04951],[-121.99968,37.07154],[-122.02247,37.12568],[-122.0457,37.14157],[-122.06596,37.1532],[-122.097,37.17122],[-122.11858,37.19468],[-122.12938,37.20826],[-122.1315,37.23471],[-122.12891,37.26036],[-122.12421,37.31127],[-122.12023,37.34553],[-122.1203,37.37169],[-122.12467,37.38491],[-122.14325,37.44053],[-122.14965,37.46119],[-122.15442,37.47611],[-122.16833,37.51883],[-122.18586,37.53878],[-122.20205,37.54588],[-122.22891,37.55728],[-122.26456,37.57239],[-122.29361,37.58448],[-122.31289,37.59264],[-122.33505,37.60192],[-122.34154,37.60468],[-122.36245,37.61402]],"type":"LineString"}
}
