{
  "id": 2031112977,
  "type": "Feature",
  "properties": {
    "geom:area": 0,
    "geom:bbox": "-122.273889,37.698889,-70.956389,44.572778",
    "geom:latitude": 42.89187233269469,
    "geom:longitude": -96.94164672629435,
    "src:alt_label": "swim-path",
    "src:geom": "swim",
    "swim:altitudes": [
      "051",
      "051",
      "051",
      "051",
      "051",
      "102",
      "102",
      "102",
      "102",
      "115",
      "115",
      "115",
      "115",
      "184",
      "184",
      "184",
      "184",
      "184",
      "184",
      "184",
      "228",
      "228",
      "228",
      "228",
      "228",
      "249",
      "249",
      "249",
      "260",
      "260",
      "260",
      "260",
      "279",
      "279",
      "279",
      "279",
      "296",
      "296",
      "296",
      "296",
      "296",
      "319",
      "319",
      "319",
      "319",
      "319",
      "319",
      "330C",
      "330C",
      "330C",
      "330C",
      "330C",
      "330C",
      "330C",
      "330C",
      "330C",
      "330C",
      "330C",
      "330C",
      "330C",
      "330C",
      "330C",
      "330C",
      "330C",
      "330C",
      "330C",
      "330C",
      "330C",
      "330C",
      "330C",
      "330C",
      "330C",
      "330C",
      "330C",
      "330C",
      "330C",
      "330C",
      "330C",
      "330C",
      "330C",
      "330C",
      "330C",
      "330C",
      "330C",
      "330C",
      "330C",
      "330C",
      "330C",
      "330C",
      "330C",
      "330C",
      "330C",
      "330C",
      "330C",
      "330C",
      "330C",
      "330C",
      "330C",
      "330C",
      "330C",
      "330C",
      "330C",
      "330C",
      "330C",
      "330C",
      "330C",
      "330C",
      "330C",
      "330C",
      "330C",
      "330C",
      "330C",
      "330C",
      "330C",
      "330C",
      "330C",
      "330C",
      "330C",
      "330C",
      "330C",
      "330C",
      "330C",
      "330C",
      "330C",
      "330C",
      "330C",
      "330C",
      "330C",
      "330C",
      "330C",
      "330C",
      "330C",
      "330C",
      "330C",
      "330C",
      "330C",
      "330C",
      "330C",
      "330C",
      "330C",
      "330C",
      "330C",
      "330C",
      "330C",
      "330C",
      "330C",
      "330C",
      "330C",
      "330C",
      "330C",
      "330C",
      "330C",
      "330C",
      "330C",
      "330C",
      "330C",
      "330C",
      "330C",
      "330C",
      "330C",
      "330C",
      "330C",
      "330C",
      "330C",
      "330C",
      "330C",
      "330C",
      "330C",
      "330C",
      "330C",
      "330C",
      "330C",
      "330C",
      "330C",
      "330C",
      "330C",
      "330C",
      "330C",
      "330C",
      "330C",
      "330C",
      "330C",
      "330C",
      "330C",
      "330C",
      "330C",
      "330C",
      "330C",
      "330C",
      "330C",
      "330C",
      "330C",
      "330C",
      "330C",
      "330C",
      "330C",
      "330C",
      "330C",
      "330C",
      "330C",
      "330C",
      "330C",
      "330C",
      "330C",
      "330C",
      "330C",
      "330C",
      "330C",
      "330C",
      "330C",
      "330C",
      "330C",
      "330C",
      "330C",
      "330C",
      "330C",
      "330C",
      "330C",
      "330C",
      "330C",
      "330C",
      "330C",
      "330C",
      "330C",
      "330C",
      "330C",
      "330C",
      "330C",
      "330C",
      "330C",
      "330C",
      "330C",
      "330C",
      "330C",
      "330C",
      "330C",
      "330C",
      "330C",
      "330C",
      "330C",
      "330C",
      "330C",
      "330C",
      "330C",
      "330C",
      "330C",
      "330C",
      "330C",
      "330C",
      "330C",
      "330C",
      "330C",
      "330C",
      "330C",
      "330C",
      "330C",
      "330C",
      "350C",
      "350C",
      "350C",
      "350C",
      "350C",
      "350C",
      "350C",
      "350C",
      "350C",
      "350C",
      "350C",
      "350C",
      "350C",
      "350C",
      "350C",
      "350C",
      "350C",
      "350C",
      "350C",
      "350C",
      "350C",
      "350C",
      "350C",
      "350C",
      "350C",
      "350C",
      "350C",
      "350C",
      "350C",
      "350C",
      "350C",
      "350C",
      "350C",
      "350C",
      "350C",
      "350C",
      "350C",
      "350C",
      "350C",
      "350C",
      "350C",
      "350C",
      "350C",
      "350C",
      "350C",
      "350C",
      "350C",
      "350C",
      "350C",
      "350C",
      "350C",
      "350C",
      "350C",
      "350C",
      "350C",
      "350C",
      "350C",
      "350C",
      "350C",
      "350C",
      "350C",
      "350C",
      "350C",
      "350C",
      "350C",
      "350C",
      "350C",
      "350C",
      "350C",
      "350C",
      "350C",
      "350C",
      "350C",
      "350C",
      "350C",
      "350C",
      "350C",
      "350C",
      "350C",
      "350C",
      "350C",
      "350C",
      "350C",
      "350C",
      "350C",
      "350C",
      "350C",
      "350C",
      "350C",
      "350C",
      "350C",
      "350C",
      "350C",
      "350C",
      "350C",
      "350C",
      "350C",
      "350C",
      "350C",
      "350C",
      "350C",
      "350C",
      "350C",
      "350C",
      "350C",
      "350C",
      "350C",
      "350C",
      "350C",
      "350C",
      "350C",
      "350C",
      "350C",
      "350C",
      "350C",
      "350C",
      "350C",
      "350C",
      "350C",
      "350C",
      "350C",
      "350C",
      "350C",
      "350C",
      "350C",
      "350C",
      "350C",
      "350C",
      "350C",
      "350C",
      "350C",
      "350C",
      "350C",
      "350C",
      "350C",
      "350C",
      "350C",
      "350C",
      "350C",
      "350C",
      "350C",
      "350C",
      "350C",
      "350C",
      "350C",
      "350C",
      "350C",
      "350C",
      "350C",
      "350C",
      "350C",
      "350C",
      "350C",
      "350C",
      "350C",
      "350C",
      "350C",
      "350C",
      "350C",
      "350C",
      "350C",
      "350C",
      "350C",
      "350C",
      "350C",
      "350C",
      "350C",
      "350C",
      "350C",
      "350C",
      "350C",
      "350C",
      "350C",
      "350C",
      "350C",
      "350C",
      "350C",
      "350C",
      "350C",
      "350C",
      "350C",
      "350C",
      "350C",
      "350C",
      "350C",
      "350C",
      "350C",
      "350C",
      "350C",
      "350C",
      "350C",
      "350C",
      "350C",
      "350C",
      "350C",
      "350C",
      "350C",
      "350C",
      "350C",
      "284",
      "284",
      "246",
      "246",
      "246",
      "210",
      "186",
      "186",
      "186",
      "186",
      "186",
      "103",
      "103",
      "103",
      "078",
      "078",
      "066",
      "066",
      "050",
      "050",
      "050",
      "020",
      "020",
      "020"
    ],
    "swim:geom": "path",
    "swim:speeds": [
      259,
      259,
      259,
      259,
      259,
      284,
      284,
      284,
      284,
      334,
      334,
      334,
      334,
      354,
      354,
      354,
      354,
      354,
      354,
      354,
      393,
      393,
      393,
      393,
      393,
      427,
      427,
      427,
      437,
      437,
      437,
      437,
      454,
      454,
      454,
      454,
      470,
      470,
      470,
      470,
      470,
      487,
      487,
      487,
      487,
      487,
      487,
      504,
      504,
      504,
      504,
      505,
      505,
      505,
      505,
      505,
      505,
      505,
      503,
      503,
      503,
      503,
      503,
      503,
      503,
      503,
      505,
      505,
      505,
      507,
      507,
      507,
      508,
      509,
      509,
      509,
      509,
      509,
      510,
      510,
      510,
      510,
      517,
      518,
      518,
      518,
      518,
      520,
      520,
      520,
      520,
      522,
      522,
      522,
      522,
      523,
      523,
      523,
      523,
      523,
      525,
      525,
      525,
      525,
      525,
      527,
      527,
      527,
      527,
      527,
      528,
      528,
      529,
      529,
      530,
      530,
      532,
      532,
      532,
      533,
      533,
      533,
      533,
      533,
      535,
      535,
      535,
      535,
      536,
      536,
      536,
      537,
      537,
      539,
      539,
      539,
      539,
      539,
      539,
      539,
      543,
      543,
      543,
      543,
      543,
      543,
      548,
      548,
      548,
      548,
      548,
      548,
      548,
      548,
      548,
      548,
      548,
      548,
      548,
      548,
      549,
      547,
      549,
      549,
      549,
      549,
      549,
      544,
      544,
      543,
      543,
      543,
      544,
      544,
      545,
      547,
      547,
      544,
      544,
      544,
      542,
      535,
      535,
      535,
      532,
      532,
      532,
      532,
      532,
      532,
      532,
      533,
      533,
      533,
      529,
      529,
      529,
      525,
      525,
      523,
      523,
      523,
      519,
      515,
      515,
      513,
      513,
      513,
      508,
      508,
      508,
      506,
      506,
      509,
      509,
      512,
      513,
      513,
      512,
      512,
      512,
      512,
      512,
      512,
      512,
      512,
      510,
      510,
      510,
      510,
      509,
      509,
      509,
      511,
      511,
      511,
      511,
      509,
      509,
      509,
      500,
      500,
      500,
      500,
      500,
      500,
      504,
      504,
      504,
      504,
      504,
      504,
      503,
      503,
      503,
      503,
      503,
      506,
      506,
      506,
      506,
      506,
      507,
      507,
      507,
      507,
      507,
      507,
      507,
      507,
      507,
      506,
      506,
      506,
      506,
      505,
      505,
      505,
      506,
      506,
      506,
      506,
      506,
      507,
      507,
      507,
      508,
      508,
      508,
      509,
      509,
      509,
      509,
      509,
      509,
      509,
      509,
      504,
      504,
      504,
      504,
      503,
      503,
      503,
      503,
      494,
      494,
      491,
      491,
      491,
      491,
      491,
      489,
      489,
      489,
      489,
      487,
      487,
      487,
      488,
      489,
      489,
      489,
      489,
      491,
      491,
      491,
      497,
      497,
      497,
      497,
      497,
      499,
      499,
      499,
      499,
      499,
      498,
      498,
      498,
      498,
      498,
      498,
      498,
      498,
      498,
      496,
      496,
      496,
      496,
      496,
      492,
      492,
      492,
      492,
      492,
      492,
      492,
      493,
      493,
      492,
      492,
      492,
      492,
      490,
      490,
      488,
      488,
      488,
      488,
      482,
      482,
      482,
      480,
      480,
      480,
      478,
      478,
      476,
      476,
      476,
      476,
      476,
      476,
      476,
      476,
      475,
      475,
      475,
      471,
      471,
      471,
      471,
      471,
      471,
      471,
      471,
      471,
      471,
      472,
      472,
      472,
      472,
      472,
      472,
      474,
      474,
      474,
      474,
      474,
      479,
      479,
      479,
      479,
      479,
      479,
      480,
      480,
      480,
      480,
      480,
      480,
      480,
      480,
      480,
      480,
      480,
      480,
      480,
      479,
      479,
      478,
      478,
      478,
      478,
      477,
      477,
      477,
      477,
      503,
      503,
      503,
      504,
      504,
      504,
      504,
      505,
      505,
      505,
      505,
      504,
      504,
      504,
      505,
      505,
      505,
      479,
      479,
      448,
      448,
      448,
      429,
      425,
      425,
      425,
      425,
      425,
      325,
      325,
      325,
      295,
      295,
      275,
      275,
      267,
      267,
      267,
      180,
      180,
      180
    ],
    "swim:timestamps": [
      1777146950,
      1777146950,
      1777146950,
      1777146950,
      1777146950,
      1777147070,
      1777147070,
      1777147070,
      1777147070,
      1777147130,
      1777147130,
      1777147130,
      1777147130,
      1777147310,
      1777147310,
      1777147310,
      1777147310,
      1777147310,
      1777147310,
      1777147310,
      1777147491,
      1777147491,
      1777147491,
      1777147491,
      1777147491,
      1777147611,
      1777147611,
      1777147611,
      1777147671,
      1777147671,
      1777147671,
      1777147671,
      1777147791,
      1777147791,
      1777147791,
      1777147791,
      1777147911,
      1777147911,
      1777147911,
      1777147911,
      1777147911,
      1777148091,
      1777148091,
      1777148091,
      1777148091,
      1777148091,
      1777148091,
      1777148272,
      1777148272,
      1777148272,
      1777148272,
      1777148394,
      1777148394,
      1777148394,
      1777148394,
      1777148394,
      1777148394,
      1777148394,
      1777148767,
      1777148767,
      1777148767,
      1777148767,
      1777148767,
      1777148812,
      1777148812,
      1777148812,
      1777148872,
      1777148872,
      1777148872,
      1777148932,
      1777148947,
      1777148947,
      1777148993,
      1777149007,
      1777149007,
      1777149067,
      1777149067,
      1777149067,
      1777149113,
      1777149113,
      1777149113,
      1777149113,
      1777149353,
      1777149368,
      1777149368,
      1777149368,
      1777149368,
      1777149428,
      1777149428,
      1777149428,
      1777149428,
      1777149488,
      1777149488,
      1777149488,
      1777149488,
      1777149548,
      1777149548,
      1777149548,
      1777149548,
      1777149548,
      1777149668,
      1777149668,
      1777149668,
      1777149728,
      1777149728,
      1777149848,
      1777149848,
      1777149848,
      1777149848,
      1777149848,
      1777149908,
      1777149908,
      1777149968,
      1777149968,
      1777150029,
      1777150029,
      1777150089,
      1777150089,
      1777150089,
      1777150149,
      1777150149,
      1777150149,
      1777150149,
      1777150149,
      1777150269,
      1777150269,
      1777150269,
      1777150269,
      1777150329,
      1777150329,
      1777150329,
      1777150389,
      1777150389,
      1777150509,
      1777150509,
      1777150509,
      1777150509,
      1777150509,
      1777150509,
      1777150509,
      1777150930,
      1777150930,
      1777150930,
      1777150930,
      1777150930,
      1777150930,
      1777151470,
      1777151470,
      1777151530,
      1777151530,
      1777151530,
      1777151530,
      1777151530,
      1777151651,
      1777151651,
      1777151651,
      1777151711,
      1777151711,
      1777151711,
      1777151711,
      1777151831,
      1777151879,
      1777151891,
      1777151891,
      1777151939,
      1777151939,
      1777151939,
      1777151999,
      1777151999,
      1777152071,
      1777152071,
      1777152119,
      1777152131,
      1777152131,
      1777152191,
      1777152312,
      1777152312,
      1777152420,
      1777152420,
      1777152420,
      1777152492,
      1777152600,
      1777152600,
      1777152600,
      1777152792,
      1777152792,
      1777152792,
      1777152792,
      1777152840,
      1777152840,
      1777152840,
      1777153021,
      1777153021,
      1777153081,
      1777153201,
      1777153201,
      1777153201,
      1777153261,
      1777153261,
      1777153321,
      1777153321,
      1777153321,
      1777153381,
      1777153441,
      1777153441,
      1777153501,
      1777153501,
      1777153501,
      1777153681,
      1777153681,
      1777153681,
      1777153759,
      1777153759,
      1777153819,
      1777153819,
      1777153939,
      1777153982,
      1777153982,
      1777153999,
      1777154059,
      1777154059,
      1777154059,
      1777154102,
      1777154102,
      1777154102,
      1777154102,
      1777154300,
      1777154300,
      1777154300,
      1777154300,
      1777154402,
      1777154402,
      1777154463,
      1777154600,
      1777154600,
      1777154720,
      1777154720,
      1777154841,
      1777154841,
      1777154841,
      1777155021,
      1777155021,
      1777155021,
      1777155021,
      1777155021,
      1777155021,
      1777155441,
      1777155441,
      1777155441,
      1777155441,
      1777155441,
      1777155441,
      1777155742,
      1777155742,
      1777155742,
      1777155742,
      1777155742,
      1777155922,
      1777155922,
      1777155922,
      1777155922,
      1777155922,
      1777155982,
      1777155982,
      1777155982,
      1777156102,
      1777156102,
      1777156102,
      1777156102,
      1777156102,
      1777156162,
      1777156223,
      1777156223,
      1777156223,
      1777156223,
      1777156343,
      1777156343,
      1777156343,
      1777156403,
      1777156403,
      1777156403,
      1777156403,
      1777156403,
      1777156463,
      1777156463,
      1777156463,
      1777156523,
      1777156523,
      1777156523,
      1777156643,
      1777156643,
      1777156703,
      1777156703,
      1777156703,
      1777156703,
      1777156703,
      1777156703,
      1777157064,
      1777157064,
      1777157064,
      1777157064,
      1777157124,
      1777157124,
      1777157124,
      1777157124,
      1777157304,
      1777157304,
      1777157364,
      1777157364,
      1777157364,
      1777157364,
      1777157364,
      1777157424,
      1777157424,
      1777157424,
      1777157424,
      1777157604,
      1777157604,
      1777157604,
      1777157665,
      1777157725,
      1777157725,
      1777157725,
      1777157725,
      1777157785,
      1777157785,
      1777157785,
      1777157965,
      1777157965,
      1777157965,
      1777157965,
      1777157965,
      1777158085,
      1777158085,
      1777158085,
      1777158085,
      1777158085,
      1777158145,
      1777158145,
      1777158145,
      1777158325,
      1777158325,
      1777158325,
      1777158325,
      1777158386,
      1777158386,
      1777158446,
      1777158446,
      1777158446,
      1777158446,
      1777158446,
      1777158806,
      1777158806,
      1777158806,
      1777158806,
      1777158866,
      1777158866,
      1777158866,
      1777158926,
      1777158926,
      1777159047,
      1777159047,
      1777159047,
      1777159047,
      1777159227,
      1777159227,
      1777159287,
      1777159287,
      1777159287,
      1777159287,
      1777159467,
      1777159467,
      1777159467,
      1777159527,
      1777159527,
      1777159527,
      1777159587,
      1777159587,
      1777159707,
      1777159707,
      1777159707,
      1777159707,
      1777160177,
      1777160177,
      1777160177,
      1777160177,
      1777160238,
      1777160238,
      1777160238,
      1777160418,
      1777160418,
      1777160418,
      1777160418,
      1777160418,
      1777160478,
      1777160478,
      1777160478,
      1777160478,
      1777160478,
      1777160658,
      1777160658,
      1777160658,
      1777160658,
      1777160658,
      1777160658,
      1777160899,
      1777160899,
      1777160899,
      1777160899,
      1777160899,
      1777161199,
      1777161199,
      1777161199,
      1777161199,
      1777161199,
      1777161199,
      1777161379,
      1777161379,
      1777161379,
      1777161439,
      1777161439,
      1777161439,
      1777161439,
      1777161560,
      1777161560,
      1777161560,
      1777161560,
      1777161560,
      1777161560,
      1777161680,
      1777161680,
      1777161740,
      1777161740,
      1777161740,
      1777161740,
      1777161860,
      1777161920,
      1777161920,
      1777161920,
      1777162040,
      1777162040,
      1777162040,
      1777162161,
      1777162161,
      1777162161,
      1777162161,
      1777162581,
      1777162581,
      1777162581,
      1777162581,
      1777162701,
      1777162701,
      1777162701,
      1777162821,
      1777162821,
      1777162821,
      1777163302,
      1777163302,
      1777163422,
      1777163422,
      1777163422,
      1777163543,
      1777163603,
      1777163603,
      1777163603,
      1777163603,
      1777163603,
      1777163897,
      1777163897,
      1777163897,
      1777164023,
      1777164023,
      1777164077,
      1777164077,
      1777164144,
      1777164144,
      1777164144,
      1777164445,
      1777164445,
      1777164445
    ],
    "wof:geomhash": "baef7819c2b82b1d159339fdc39808dd",
    "wof:id": 2031112977,
    "wof:repo": "sfomuseum-data-flights-2026-04"
  },
  "bbox": [
    -122.27388888888889,
    37.69888888888889,
    -70.9563888888889,
    44.57277777777778
  ],
  "geometry": {"coordinates":[[-122.27388888888889,37.69888888888889],[-122.27388888888889,37.69888888888889],[-122.27388888888889,37.69888888888889],[-122.27388888888889,37.69888888888889],[-122.27388888888889,37.69888888888889],[-122.12166666666666,37.79361111111111],[-122.12166666666666,37.79361111111111],[-122.12166666666666,37.79361111111111],[-122.12166666666666,37.79361111111111],[-122.0411111111111,37.85527777777778],[-122.0411111111111,37.85527777777778],[-122.0411111111111,37.85527777777778],[-122.0411111111111,37.85527777777778],[-121.75805555555556,38.06472222222222],[-121.75805555555556,38.06472222222222],[-121.75805555555556,38.06472222222222],[-121.75805555555556,38.06472222222222],[-121.75805555555556,38.06472222222222],[-121.75805555555556,38.06472222222222],[-121.75805555555556,38.06472222222222],[-121.46527777777779,38.280833333333334],[-121.46527777777779,38.280833333333334],[-121.46527777777779,38.280833333333334],[-121.46527777777779,38.280833333333334],[-121.46527777777779,38.280833333333334],[-121.24166666666667,38.42805555555555],[-121.24166666666667,38.42805555555555],[-121.24166666666667,38.42805555555555],[-121.12333333333332,38.50111111111111],[-121.12333333333332,38.50111111111111],[-121.12333333333332,38.50111111111111],[-121.12333333333332,38.50111111111111],[-120.87472222222222,38.653888888888886],[-120.87472222222222,38.653888888888886],[-120.87472222222222,38.653888888888886],[-120.87472222222222,38.653888888888886],[-120.61194444444443,38.814166666666665],[-120.61194444444443,38.814166666666665],[-120.61194444444443,38.814166666666665],[-120.61194444444443,38.814166666666665],[-120.61194444444443,38.814166666666665],[-120.20138888888889,39.06222222222222],[-120.20138888888889,39.06222222222222],[-120.20138888888889,39.06222222222222],[-120.20138888888889,39.06222222222222],[-120.20138888888889,39.06222222222222],[-120.20138888888889,39.06222222222222],[-119.76361111111112,39.29694444444444],[-119.76361111111112,39.29694444444444],[-119.76361111111112,39.29694444444444],[-119.76361111111112,39.29694444444444],[-119.43833333333333,39.42027777777778],[-119.43833333333333,39.42027777777778],[-119.43833333333333,39.42027777777778],[-119.43833333333333,39.42027777777778],[-119.43833333333333,39.42027777777778],[-119.43833333333333,39.42027777777778],[-119.43833333333333,39.42027777777778],[-118.42027777777778,39.80305555555555],[-118.42027777777778,39.80305555555555],[-118.42027777777778,39.80305555555555],[-118.42027777777778,39.80305555555555],[-118.42027777777778,39.80305555555555],[-118.28527777777778,39.85277777777778],[-118.28527777777778,39.85277777777778],[-118.28527777777778,39.85277777777778],[-118.11916666666666,39.913888888888884],[-118.11916666666666,39.913888888888884],[-118.11916666666666,39.913888888888884],[-117.95277777777778,39.974444444444444],[-117.92111111111112,39.98583333333333],[-117.92111111111112,39.98583333333333],[-117.78694444444444,40.03444444444444],[-117.75472222222223,40.045833333333334],[-117.75472222222223,40.045833333333334],[-117.58749999999999,40.10611111111111],[-117.58749999999999,40.10611111111111],[-117.58749999999999,40.10611111111111],[-117.45055555555555,40.15472222222222],[-117.45055555555555,40.15472222222222],[-117.45055555555555,40.15472222222222],[-117.45055555555555,40.15472222222222],[-116.78027777777778,40.39111111111111],[-116.73666666666666,40.406388888888884],[-116.73666666666666,40.406388888888884],[-116.73666666666666,40.406388888888884],[-116.73666666666666,40.406388888888884],[-116.56388888888888,40.46611111111111],[-116.56388888888888,40.46611111111111],[-116.56388888888888,40.46611111111111],[-116.56388888888888,40.46611111111111],[-116.38972222222223,40.52638888888889],[-116.38972222222223,40.52638888888889],[-116.38972222222223,40.52638888888889],[-116.38972222222223,40.52638888888889],[-116.215,40.586111111111116],[-116.215,40.586111111111116],[-116.215,40.586111111111116],[-116.215,40.586111111111116],[-116.215,40.586111111111116],[-115.84527777777777,40.71138888888889],[-115.84527777777777,40.71138888888889],[-115.84527777777777,40.71138888888889],[-115.67055555555557,40.77027777777778],[-115.67055555555557,40.77027777777778],[-115.31694444444445,40.88777777777778],[-115.31694444444445,40.88777777777778],[-115.31694444444445,40.88777777777778],[-115.31694444444445,40.88777777777778],[-115.31694444444445,40.88777777777778],[-115.13805555555557,40.94694444444444],[-115.13805555555557,40.94694444444444],[-114.96138888888889,41.004444444444445],[-114.96138888888889,41.004444444444445],[-114.78,41.06361111111111],[-114.78,41.06361111111111],[-114.60027777777778,41.121944444444445],[-114.60027777777778,41.121944444444445],[-114.60027777777778,41.121944444444445],[-114.41833333333334,41.18],[-114.41833333333334,41.18],[-114.41833333333334,41.18],[-114.41833333333334,41.18],[-114.41833333333334,41.18],[-114.05583333333333,41.29527777777778],[-114.05583333333333,41.29527777777778],[-114.05583333333333,41.29527777777778],[-114.05583333333333,41.29527777777778],[-113.8711111111111,41.35333333333333],[-113.8711111111111,41.35333333333333],[-113.8711111111111,41.35333333333333],[-113.685,41.404444444444444],[-113.685,41.404444444444444],[-113.30833333333334,41.50416666666667],[-113.30833333333334,41.50416666666667],[-113.30833333333334,41.50416666666667],[-113.30833333333334,41.50416666666667],[-113.30833333333334,41.50416666666667],[-113.30833333333334,41.50416666666667],[-113.30833333333334,41.50416666666667],[-112.00694444444444,41.83694444444445],[-112.00694444444444,41.83694444444445],[-112.00694444444444,41.83694444444445],[-112.00694444444444,41.83694444444445],[-112.00694444444444,41.83694444444445],[-112.00694444444444,41.83694444444445],[-110.23583333333333,42.260555555555555],[-110.23583333333333,42.260555555555555],[-110.03916666666666,42.30555555555555],[-110.03916666666666,42.30555555555555],[-110.03916666666666,42.30555555555555],[-110.03916666666666,42.30555555555555],[-110.03916666666666,42.30555555555555],[-109.64250000000001,42.39527777777778],[-109.64250000000001,42.39527777777778],[-109.64250000000001,42.39527777777778],[-109.44416666666667,42.43944444444444],[-109.44416666666667,42.43944444444444],[-109.44416666666667,42.43944444444444],[-109.44416666666667,42.43944444444444],[-109.04805555555555,42.52638888888889],[-108.88805555555557,42.56027777777778],[-108.84805555555555,42.57],[-108.84805555555555,42.57],[-108.68972222222223,42.603611111111114],[-108.68972222222223,42.603611111111114],[-108.68972222222223,42.603611111111114],[-108.49666666666667,42.644999999999996],[-108.49666666666667,42.644999999999996],[-108.25805555555556,42.695277777777775],[-108.25805555555556,42.695277777777775],[-108.10166666666666,42.72777777777778],[-108.06,42.736666666666665],[-108.06,42.736666666666665],[-107.85972222222222,42.77777777777778],[-107.46055555555556,42.85916666666667],[-107.46055555555556,42.85916666666667],[-107.12444444444444,42.92638888888889],[-107.12444444444444,42.92638888888889],[-107.12444444444444,42.92638888888889],[-106.88555555555556,42.97361111111111],[-106.53777777777778,43.04083333333333],[-106.53777777777778,43.04083333333333],[-106.53777777777778,43.04083333333333],[-105.90666666666667,43.146388888888886],[-105.90666666666667,43.146388888888886],[-105.90666666666667,43.146388888888886],[-105.90666666666667,43.146388888888886],[-105.7461111111111,43.17027777777778],[-105.7461111111111,43.17027777777778],[-105.7461111111111,43.17027777777778],[-105.14666666666668,43.256388888888885],[-105.14666666666668,43.256388888888885],[-104.94944444444445,43.28388888888889],[-104.55027777777778,43.33861111111111],[-104.55027777777778,43.33861111111111],[-104.55027777777778,43.33861111111111],[-104.35472222222222,43.365],[-104.35472222222222,43.365],[-104.15805555555556,43.39083333333333],[-104.15805555555556,43.39083333333333],[-104.15805555555556,43.39083333333333],[-103.96416666666667,43.41638888888889],[-103.77222222222223,43.44138888888889],[-103.77222222222223,43.44138888888889],[-103.58,43.46555555555556],[-103.58,43.46555555555556],[-103.58,43.46555555555556],[-103.00583333333333,43.53666666666666],[-103.00583333333333,43.53666666666666],[-103.00583333333333,43.53666666666666],[-102.74833333333333,43.56777777777778],[-102.74833333333333,43.56777777777778],[-102.54888888888888,43.59111111111111],[-102.54888888888888,43.59111111111111],[-102.16305555555556,43.635555555555555],[-102.0461111111111,43.64861111111111],[-102.0461111111111,43.64861111111111],[-101.97,43.6575],[-101.77333333333333,43.67916666666667],[-101.77333333333333,43.67916666666667],[-101.77333333333333,43.67916666666667],[-101.65722222222223,43.69166666666666],[-101.65722222222223,43.69166666666666],[-101.65722222222223,43.69166666666666],[-101.65722222222223,43.69166666666666],[-101.0025,43.76083333333333],[-101.0025,43.76083333333333],[-101.0025,43.76083333333333],[-101.0025,43.76083333333333],[-100.69500000000001,43.79222222222222],[-100.69500000000001,43.79222222222222],[-100.50166666666667,43.811388888888885],[-100.03611111111111,43.85583333333334],[-100.03611111111111,43.85583333333334],[-99.64611111111111,43.88666666666666],[-99.64611111111111,43.88666666666666],[-99.25861111111111,43.91555555555556],[-99.25861111111111,43.91555555555556],[-99.25861111111111,43.91555555555556],[-98.6875,43.955555555555556],[-98.6875,43.955555555555556],[-98.6875,43.955555555555556],[-98.6875,43.955555555555556],[-98.6875,43.955555555555556],[-98.6875,43.955555555555556],[-97.36916666666666,44.10944444444445],[-97.36916666666666,44.10944444444445],[-97.36916666666666,44.10944444444445],[-97.36916666666666,44.10944444444445],[-97.36916666666666,44.10944444444445],[-97.36916666666666,44.10944444444445],[-96.41861111111112,44.26722222222222],[-96.41861111111112,44.26722222222222],[-96.41861111111112,44.26722222222222],[-96.41861111111112,44.26722222222222],[-96.41861111111112,44.26722222222222],[-95.83222222222221,44.36],[-95.83222222222221,44.36],[-95.83222222222221,44.36],[-95.83222222222221,44.36],[-95.83222222222221,44.36],[-95.64083333333333,44.38972222222222],[-95.64083333333333,44.38972222222222],[-95.64083333333333,44.38972222222222],[-95.25416666666666,44.448611111111106],[-95.25416666666666,44.448611111111106],[-95.25416666666666,44.448611111111106],[-95.25416666666666,44.448611111111106],[-95.25416666666666,44.448611111111106],[-95.06027777777777,44.47027777777778],[-94.86361111111111,44.47833333333333],[-94.86361111111111,44.47833333333333],[-94.86361111111111,44.47833333333333],[-94.86361111111111,44.47833333333333],[-94.4863888888889,44.49305555555556],[-94.4863888888889,44.49305555555556],[-94.4863888888889,44.49305555555556],[-94.28861111111111,44.500277777777775],[-94.28861111111111,44.500277777777775],[-94.28861111111111,44.500277777777775],[-94.28861111111111,44.500277777777775],[-94.28861111111111,44.500277777777775],[-94.09138888888889,44.5075],[-94.09138888888889,44.5075],[-94.09138888888889,44.5075],[-93.8938888888889,44.513888888888886],[-93.8938888888889,44.513888888888886],[-93.8938888888889,44.513888888888886],[-93.46388888888889,44.526666666666664],[-93.46388888888889,44.526666666666664],[-93.26944444444445,44.53194444444444],[-93.26944444444445,44.53194444444444],[-93.26944444444445,44.53194444444444],[-93.26944444444445,44.53194444444444],[-93.26944444444445,44.53194444444444],[-93.26944444444445,44.53194444444444],[-92.10111111111111,44.5575],[-92.10111111111111,44.5575],[-92.10111111111111,44.5575],[-92.10111111111111,44.5575],[-91.90805555555556,44.56027777777778],[-91.90805555555556,44.56027777777778],[-91.90805555555556,44.56027777777778],[-91.90805555555556,44.56027777777778],[-91.3325,44.5675],[-91.3325,44.5675],[-91.14194444444445,44.56916666666667],[-91.14194444444445,44.56916666666667],[-91.14194444444445,44.56916666666667],[-91.14194444444445,44.56916666666667],[-91.14194444444445,44.56916666666667],[-90.95277777777778,44.57083333333334],[-90.95277777777778,44.57083333333334],[-90.95277777777778,44.57083333333334],[-90.95277777777778,44.57083333333334],[-90.39277777777778,44.57277777777778],[-90.39277777777778,44.57277777777778],[-90.39277777777778,44.57277777777778],[-90.20138888888889,44.57277777777778],[-90.01194444444444,44.57277777777778],[-90.01194444444444,44.57277777777778],[-90.01194444444444,44.57277777777778],[-90.01194444444444,44.57277777777778],[-89.82027777777778,44.572500000000005],[-89.82027777777778,44.572500000000005],[-89.82027777777778,44.572500000000005],[-89.24027777777778,44.56888888888889],[-89.24027777777778,44.56888888888889],[-89.24027777777778,44.56888888888889],[-89.24027777777778,44.56888888888889],[-89.24027777777778,44.56888888888889],[-88.84777777777778,44.565],[-88.84777777777778,44.565],[-88.84777777777778,44.565],[-88.84777777777778,44.565],[-88.84777777777778,44.565],[-88.65611111111112,44.56222222222222],[-88.65611111111112,44.56222222222222],[-88.65611111111112,44.56222222222222],[-88.0736111111111,44.551944444444445],[-88.0736111111111,44.551944444444445],[-88.0736111111111,44.551944444444445],[-88.0736111111111,44.551944444444445],[-87.85527777777777,44.54555555555555],[-87.85527777777777,44.54555555555555],[-87.66388888888889,44.540277777777774],[-87.66388888888889,44.540277777777774],[-87.66388888888889,44.540277777777774],[-87.66388888888889,44.540277777777774],[-87.66388888888889,44.540277777777774],[-86.52222222222223,44.5],[-86.52222222222223,44.5],[-86.52222222222223,44.5],[-86.52222222222223,44.5],[-86.33055555555555,44.492222222222225],[-86.33055555555555,44.492222222222225],[-86.33055555555555,44.492222222222225],[-86.14250000000001,44.48388888888889],[-86.14250000000001,44.48388888888889],[-85.76583333333333,44.466944444444444],[-85.76583333333333,44.466944444444444],[-85.76583333333333,44.466944444444444],[-85.76583333333333,44.466944444444444],[-85.2,44.43888888888888],[-85.2,44.43888888888888],[-85.01416666666667,44.42916666666667],[-85.01416666666667,44.42916666666667],[-85.01416666666667,44.42916666666667],[-85.01416666666667,44.42916666666667],[-84.45694444444445,44.39805555555556],[-84.45694444444445,44.39805555555556],[-84.45694444444445,44.39805555555556],[-84.27055555555556,44.386944444444445],[-84.27055555555556,44.386944444444445],[-84.27055555555556,44.386944444444445],[-84.08749999999999,44.37555555555556],[-84.08749999999999,44.37555555555556],[-83.71944444444445,44.3525],[-83.71944444444445,44.3525],[-83.71944444444445,44.3525],[-83.71944444444445,44.3525],[-82.29777777777778,44.25083333333333],[-82.29777777777778,44.25083333333333],[-82.29777777777778,44.25083333333333],[-82.29777777777778,44.25083333333333],[-82.12222222222222,44.22083333333334],[-82.12222222222222,44.22083333333334],[-82.12222222222222,44.22083333333334],[-81.59388888888888,44.118611111111115],[-81.59388888888888,44.118611111111115],[-81.59388888888888,44.118611111111115],[-81.59388888888888,44.118611111111115],[-81.59388888888888,44.118611111111115],[-81.42194444444445,44.084722222222226],[-81.42194444444445,44.084722222222226],[-81.42194444444445,44.084722222222226],[-81.42194444444445,44.084722222222226],[-81.42194444444445,44.084722222222226],[-80.89527777777778,43.97916666666667],[-80.89527777777778,43.97916666666667],[-80.89527777777778,43.97916666666667],[-80.89527777777778,43.97916666666667],[-80.89527777777778,43.97916666666667],[-80.89527777777778,43.97916666666667],[-80.17611111111111,43.83083333333334],[-80.17611111111111,43.83083333333334],[-80.17611111111111,43.83083333333334],[-80.17611111111111,43.83083333333334],[-80.17611111111111,43.83083333333334],[-79.30027777777778,43.63972222222222],[-79.30027777777778,43.63972222222222],[-79.30027777777778,43.63972222222222],[-79.30027777777778,43.63972222222222],[-79.30027777777778,43.63972222222222],[-79.30027777777778,43.63972222222222],[-78.78472222222221,43.49472222222222],[-78.78472222222221,43.49472222222222],[-78.78472222222221,43.49472222222222],[-78.61555555555555,43.446666666666665],[-78.61555555555555,43.446666666666665],[-78.61555555555555,43.446666666666665],[-78.61555555555555,43.446666666666665],[-78.27416666666666,43.348333333333336],[-78.27416666666666,43.348333333333336],[-78.27416666666666,43.348333333333336],[-78.27416666666666,43.348333333333336],[-78.27416666666666,43.348333333333336],[-78.27416666666666,43.348333333333336],[-77.94555555555556,43.230000000000004],[-77.94555555555556,43.230000000000004],[-77.78999999999999,43.164722222222224],[-77.78999999999999,43.164722222222224],[-77.78999999999999,43.164722222222224],[-77.78999999999999,43.164722222222224],[-77.47277777777778,43.030833333333334],[-77.31472222222222,42.96361111111111],[-77.31472222222222,42.96361111111111],[-77.31472222222222,42.96361111111111],[-76.96166666666667,42.88916666666667],[-76.96166666666667,42.88916666666667],[-76.96166666666667,42.88916666666667],[-76.60833333333333,42.87722222222222],[-76.60833333333333,42.87722222222222],[-76.60833333333333,42.87722222222222],[-76.60833333333333,42.87722222222222],[-75.24361111111111,42.82222222222222],[-75.24361111111111,42.82222222222222],[-75.24361111111111,42.82222222222222],[-75.24361111111111,42.82222222222222],[-74.86777777777777,42.80444444444444],[-74.86777777777777,42.80444444444444],[-74.86777777777777,42.80444444444444],[-74.48805555555556,42.78472222222222],[-74.48805555555556,42.78472222222222],[-74.48805555555556,42.78472222222222],[-72.96222222222222,42.723055555555554],[-72.96222222222222,42.723055555555554],[-72.62249999999999,42.68333333333333],[-72.62249999999999,42.68333333333333],[-72.62249999999999,42.68333333333333],[-72.31916666666666,42.64611111111111],[-72.1438888888889,42.62583333333333],[-72.1438888888889,42.62583333333333],[-72.1438888888889,42.62583333333333],[-72.1438888888889,42.62583333333333],[-72.1438888888889,42.62583333333333],[-71.45,42.516666666666666],[-71.45,42.516666666666666],[-71.45,42.516666666666666],[-71.23166666666667,42.47666666666667],[-71.23166666666667,42.47666666666667],[-71.13333333333334,42.46666666666667],[-71.13333333333334,42.46666666666667],[-71.05194444444444,42.51444444444444],[-71.05194444444444,42.51444444444444],[-71.05194444444444,42.51444444444444],[-70.9563888888889,42.46527777777778],[-70.9563888888889,42.46527777777778],[-70.9563888888889,42.46527777777778]],"type":"LineString"}
}
