{
  "id": 2015236879,
  "type": "Feature",
  "properties": {
    "geom:area": 0,
    "geom:bbox": "-122.356380,36.721870,-121.878480,37.610880",
    "geom:latitude": 37.22066776254122,
    "geom:longitude": -122.0910899877693,
    "src:alt_label": "swim-approach",
    "src:geom": "swim",
    "swim:elevations": [
      5256,
      5177,
      4910,
      4816,
      4738,
      4529,
      4249,
      4022,
      3908,
      3756,
      3729,
      3600,
      3225,
      3080,
      2919,
      2774,
      2710,
      2622,
      2388,
      2214,
      1973,
      1876,
      1854,
      1780,
      1644,
      1515,
      1465,
      1309,
      1235,
      1219,
      1219,
      992,
      960,
      804,
      793,
      747,
      697,
      484,
      442,
      330,
      214,
      165,
      19
    ],
    "swim:geom": "approach",
    "swim:timestamps": [
      1775685417,
      1775685428,
      1775685464,
      1775685476,
      1775685484,
      1775685513,
      1775685552,
      1775685584,
      1775685616,
      1775685644,
      1775685647,
      1775685662,
      1775685705,
      1775685742,
      1775685774,
      1775685800,
      1775685814,
      1775685834,
      1775685864,
      1775685889,
      1775685926,
      1775685938,
      1775685941,
      1775685952,
      1775685973,
      1775685991,
      1775686000,
      1775686045,
      1775686061,
      1775686095,
      1775686118,
      1775686161,
      1775686170,
      1775686202,
      1775686216,
      1775686253,
      1775686264,
      1775686312,
      1775686322,
      1775686356,
      1775686383,
      1775686397,
      1775686432
    ],
    "wof:geomhash": "45a2ca7b9c05fd9ecbe15e788a0503e7",
    "wof:id": 2015236879,
    "wof:repo": "sfomuseum-data-flights-2026-04"
  },
  "bbox": [
    -122.35638,
    36.72187,
    -121.87848,
    37.61088
  ],
  "geometry": {"coordinates":[[-121.87848,36.72187],[-121.88858,36.73723],[-121.90727,36.78896],[-121.91233,36.80676],[-121.91611,36.82007],[-121.92746,36.86138],[-121.94359,36.9182],[-121.95752,36.96318],[-121.97364,37.00448],[-121.98679,37.03906],[-121.98816,37.04267],[-121.99491,37.0601],[-122.01529,37.11118],[-122.04711,37.14595],[-122.07684,37.174],[-122.10055,37.19618],[-122.11368,37.20826],[-122.13196,37.22499],[-122.15838,37.24929],[-122.1811,37.2698],[-122.21345,37.30168],[-122.21682,37.31355],[-122.21666,37.31682],[-122.21249,37.32842],[-122.19599,37.34768],[-122.18073,37.36446],[-122.1735,37.37249],[-122.1399,37.40963],[-122.12998,37.42231],[-122.11835,37.4523],[-122.11201,37.47292],[-122.13339,37.5064],[-122.13884,37.51324],[-122.16438,37.53029],[-122.17739,37.53578],[-122.21147,37.54998],[-122.22227,37.55447],[-122.26576,37.57291],[-122.27367,37.57617],[-122.29805,37.5864],[-122.31913,37.59527],[-122.33038,37.59996],[-122.35638,37.61088]],"type":"LineString"}
}
