{
  "id": 2015207897,
  "type": "Feature",
  "properties": {
    "geom:area": 0,
    "geom:bbox": "-122.546300,36.721250,-121.277190,37.667870",
    "geom:latitude": 37.21855554123659,
    "geom:longitude": -121.97763626051015,
    "src:alt_label": "swim-takeoff",
    "src:geom": "swim",
    "swim:elevations": [
      152,
      643,
      927,
      1144,
      1251,
      1966,
      2496,
      2877,
      3116,
      3205,
      3579,
      3683,
      4091,
      4344,
      4682,
      4789,
      5295,
      5483,
      5601,
      5815,
      5969,
      6353,
      6614,
      6986,
      7099,
      7317,
      7379,
      7556,
      7740,
      7925,
      8220,
      8265,
      8473,
      8540,
      8639
    ],
    "swim:geom": "takeoff",
    "swim:timestamps": [
      1775338276,
      1775338318,
      1775338340,
      1775338370,
      1775338383,
      1775338432,
      1775338466,
      1775338493,
      1775338508,
      1775338545,
      1775338587,
      1775338593,
      1775338623,
      1775338645,
      1775338672,
      1775338682,
      1775338729,
      1775338754,
      1775338767,
      1775338787,
      1775338803,
      1775338841,
      1775338868,
      1775338914,
      1775338926,
      1775338960,
      1775338970,
      1775338997,
      1775339026,
      1775339048,
      1775339092,
      1775339104,
      1775339140,
      1775339152,
      1775339166
    ],
    "wof:geomhash": "54af1f9b6b1e1060e9dcc381f0d8b678",
    "wof:id": 2015207897,
    "wof:repo": "sfomuseum-data-flights-2026-04"
  },
  "bbox": [
    -122.5463,
    36.72125,
    -121.27719,
    37.66787
  ],
  "geometry": {"coordinates":[[-122.38761,37.624],[-122.42352,37.63855],[-122.44373,37.64758],[-122.47526,37.6615],[-122.49208,37.66787],[-122.5463,37.64064],[-122.53245,37.60317],[-122.50652,37.57568],[-122.49074,37.56048],[-122.43803,37.52463],[-122.36887,37.47787],[-122.3582,37.47048],[-122.30904,37.43638],[-122.27193,37.40995],[-122.22503,37.37789],[-122.20828,37.36642],[-122.12438,37.30899],[-122.08074,37.27943],[-122.05676,37.26301],[-122.01984,37.23765],[-121.98844,37.2161],[-121.91783,37.16754],[-121.86746,37.13276],[-121.78147,37.07318],[-121.75697,37.0562],[-121.69161,37.01064],[-121.67362,36.9981],[-121.61914,36.96028],[-121.56125,36.9203],[-121.51721,36.8895],[-121.42864,36.82722],[-121.40405,36.80979],[-121.33013,36.75828],[-121.30558,36.74078],[-121.27719,36.72125]],"type":"LineString"}
}
