{
  "id": 2015306503,
  "type": "Feature",
  "properties": {
    "geom:area": 0,
    "geom:bbox": "-122.553240,37.278170,-121.256280,37.667790",
    "geom:latitude": 37.395610398060796,
    "geom:longitude": -122.00762419092133,
    "src:alt_label": "swim-takeoff",
    "src:geom": "swim",
    "swim:elevations": [
      307,
      437,
      666,
      981,
      1208,
      1564,
      1840,
      2399,
      2510,
      2953,
      3201,
      3444,
      3952,
      4278,
      4373,
      4532,
      4814,
      5194,
      5622,
      5925,
      6300,
      6516,
      6853,
      7120,
      7193,
      7404,
      7720,
      7992,
      8332,
      8384
    ],
    "swim:geom": "takeoff",
    "swim:timestamps": [
      1776378598,
      1776378623,
      1776378654,
      1776378681,
      1776378706,
      1776378736,
      1776378757,
      1776378806,
      1776378815,
      1776378848,
      1776378888,
      1776378917,
      1776378958,
      1776378986,
      1776378993,
      1776379005,
      1776379031,
      1776379065,
      1776379104,
      1776379130,
      1776379168,
      1776379189,
      1776379223,
      1776379257,
      1776379266,
      1776379290,
      1776379325,
      1776379355,
      1776379403,
      1776379412
    ],
    "wof:geomhash": "456c9ea1c64ddc623b7104c0b58f75cb",
    "wof:id": 2015306503,
    "wof:repo": "sfomuseum-data-flights-2026-04"
  },
  "bbox": [
    -122.55324,
    37.27817,
    -121.25628,
    37.66779
  ],
  "geometry": {"coordinates":[[-122.40186,37.6301],[-122.42394,37.64029],[-122.45838,37.65552],[-122.49048,37.66779],[-122.52717,37.66488],[-122.55324,37.63341],[-122.54593,37.60544],[-122.50718,37.54598],[-122.50032,37.53403],[-122.47265,37.49343],[-122.41551,37.45472],[-122.36767,37.42861],[-122.28997,37.40182],[-122.23581,37.39073],[-122.22111,37.38787],[-122.19628,37.38298],[-122.14297,37.37288],[-122.071,37.35825],[-121.98675,37.34127],[-121.92916,37.32975],[-121.84294,37.31243],[-121.79631,37.30306],[-121.71893,37.28745],[-121.63797,37.27817],[-121.6161,37.27821],[-121.55631,37.28044],[-121.47039,37.28328],[-121.39764,37.28573],[-121.27892,37.29],[-121.25628,37.2904]],"type":"LineString"}
}
