{
  "id": 2015322185,
  "type": "Feature",
  "properties": {
    "geom:area": 0,
    "geom:bbox": "-122.404710,37.627820,-121.245500,37.965860",
    "geom:latitude": 37.83310609904718,
    "geom:longitude": -121.84369929477312,
    "src:alt_label": "swim-takeoff",
    "src:geom": "swim",
    "swim:elevations": [
      251,
      452,
      703,
      763,
      996,
      1628,
      1739,
      1979,
      2153,
      2591,
      2875,
      3193,
      3356,
      3408,
      3447,
      3571,
      4061,
      4359,
      4658,
      4794,
      5056,
      5194,
      5254,
      5590,
      5745,
      6047,
      6083
    ],
    "swim:geom": "takeoff",
    "swim:timestamps": [
      1776495759,
      1776495784,
      1776495837,
      1776495846,
      1776495875,
      1776495926,
      1776495935,
      1776495955,
      1776495970,
      1776496008,
      1776496034,
      1776496067,
      1776496102,
      1776496111,
      1776496121,
      1776496141,
      1776496189,
      1776496217,
      1776496253,
      1776496271,
      1776496298,
      1776496311,
      1776496320,
      1776496370,
      1776496395,
      1776496436,
      1776496440
    ],
    "wof:geomhash": "de9be86dc0f8cd1d1534dfd095756b66",
    "wof:id": 2015322185,
    "wof:repo": "sfomuseum-data-flights-2026-04"
  },
  "bbox": [
    -122.40471,
    37.62782,
    -121.2455,
    37.96586
  ],
  "geometry": {"coordinates":[[-122.39593,37.62782],[-122.40471,37.64558],[-122.35447,37.66839],[-122.34346,37.67195],[-122.30559,37.6851],[-122.23492,37.71049],[-122.22215,37.71515],[-122.19445,37.72817],[-122.17539,37.73818],[-122.12351,37.76509],[-122.08703,37.78394],[-122.0402,37.80812],[-121.9839,37.8304],[-121.96678,37.83364],[-121.94645,37.83732],[-121.90671,37.84448],[-121.8061,37.86319],[-121.74669,37.87423],[-121.66988,37.88841],[-121.63062,37.89567],[-121.57109,37.90658],[-121.54351,37.91163],[-121.52342,37.9153],[-121.40957,37.93618],[-121.35232,37.94655],[-121.25481,37.96419],[-121.2455,37.96586]],"type":"LineString"}
}
