{
  "id": 2015242585,
  "type": "Feature",
  "properties": {
    "geom:area": 0,
    "geom:bbox": "-123.253240,37.448090,-122.106280,38.501330",
    "geom:latitude": 37.841846980504094,
    "geom:longitude": -122.64684921108262,
    "src:alt_label": "swim-approach",
    "src:geom": "swim",
    "swim:elevations": [
      8568,
      8473,
      7953,
      7315,
      7344,
      7088,
      7016,
      6569,
      6471,
      5914,
      5612,
      5420,
      5220,
      5027,
      4802,
      4564,
      4480,
      4362,
      4169,
      4088,
      3975,
      3748,
      3554,
      3479,
      3416,
      3353,
      3288,
      3200,
      3072,
      2965,
      2815,
      2650,
      2341,
      1888,
      1715,
      1463,
      1381,
      1271,
      1151,
      1066,
      931,
      914,
      914,
      887,
      731,
      653,
      596,
      343,
      216,
      78,
      7
    ],
    "swim:geom": "approach",
    "swim:timestamps": [
      1775800944,
      1775800957,
      1775801008,
      1775801035,
      1775801068,
      1775801096,
      1775801105,
      1775801150,
      1775801164,
      1775801218,
      1775801248,
      1775801267,
      1775801288,
      1775801315,
      1775801354,
      1775801396,
      1775801409,
      1775801430,
      1775801483,
      1775801503,
      1775801524,
      1775801555,
      1775801582,
      1775801599,
      1775801621,
      1775801656,
      1775801699,
      1775801723,
      1775801753,
      1775801768,
      1775801783,
      1775801795,
      1775801822,
      1775801876,
      1775801901,
      1775801938,
      1775801956,
      1775801978,
      1775802024,
      1775802046,
      1775802078,
      1775802109,
      1775802132,
      1775802147,
      1775802178,
      1775802199,
      1775802211,
      1775802265,
      1775802293,
      1775802328,
      1775802339
    ],
    "wof:geomhash": "144b04eb01ccd38849191eb9b8d282b9",
    "wof:id": 2015242585,
    "wof:repo": "sfomuseum-data-flights-2026-04"
  },
  "bbox": [
    -123.25324,
    37.44809,
    -122.10628,
    38.50133
  ],
  "geometry": {"coordinates":[[-123.25324,38.50133],[-123.23628,38.48436],[-123.16643,38.41256],[-123.1322,38.37325],[-123.08727,38.3318],[-123.0498,38.29297],[-123.03803,38.28088],[-122.98042,38.22069],[-122.96334,38.20301],[-122.89606,38.13299],[-122.85768,38.09277],[-122.83337,38.06747],[-122.81052,38.03759],[-122.79286,37.99543],[-122.76901,37.93461],[-122.74471,37.87291],[-122.73758,37.85478],[-122.72606,37.82491],[-122.7054,37.75117],[-122.70186,37.72525],[-122.69748,37.69818],[-122.6699,37.6646],[-122.63515,37.64192],[-122.61439,37.62822],[-122.58676,37.60979],[-122.54575,37.58267],[-122.49431,37.549],[-122.46245,37.53653],[-122.42109,37.5246],[-122.40121,37.51902],[-122.38123,37.51328],[-122.36531,37.50861],[-122.32936,37.49804],[-122.25829,37.47731],[-122.22815,37.46861],[-122.18587,37.45691],[-122.16591,37.45133],[-122.14157,37.44809],[-122.1099,37.48171],[-122.10628,37.50135],[-122.13082,37.51781],[-122.15805,37.52963],[-122.17843,37.53832],[-122.19178,37.54392],[-122.22,37.55584],[-122.23849,37.56364],[-122.24886,37.56803],[-122.29447,37.58719],[-122.318,37.5971],[-122.34748,37.6095],[-122.35641,37.61315]],"type":"LineString"}
}
