{
  "id": 2015253709,
  "type": "Feature",
  "properties": {
    "date:cessation_lower": "2026-04-10",
    "date:cessation_upper": "2026-04-10",
    "date:inception_lower": "1970-01-01",
    "date:inception_upper": "1970-01-01",
    "edtf:cessation": "2026-04-10T12:46:28-07:00",
    "edtf:inception": "1970-01-01T00:00:00Z",
    "flysfo:actual_timestamp": -1,
    "flysfo:airline": "UA",
    "flysfo:base_airline": "",
    "flysfo:base_flight_number": "9559",
    "flysfo:date": "2026-04-10",
    "flysfo:estimated_timestamp": 1775875980,
    "flysfo:event": "A",
    "flysfo:flight_number": "UA1863",
    "flysfo:gate": "E4",
    "flysfo:journey": "RDU-SFO",
    "flysfo:scheduled_timestamp": 1775875560,
    "flysfo:timestamp": 1775875980,
    "geom:area": 0,
    "geom:bbox": "-122.370943,35.876323,-78.790399,37.617990",
    "geom:latitude": 36.7471565,
    "geom:longitude": -100.580671,
    "iata:airline": "UA",
    "iata:base_airline": "",
    "icao:aircraft": "B39M",
    "icao:airline": "UAL",
    "icao:base_airline": "ANZ",
    "lbl:latitude": 37.618161,
    "lbl:longitude": -122.384735,
    "sfomuseum:aircraft_id": 1528104577,
    "sfomuseum:airline_id": 1159285413,
    "sfomuseum:arrival_id": 102527513,
    "sfomuseum:base_flight_id": "20260410-A-ANZ-9559",
    "sfomuseum:departure_id": 102528779,
    "sfomuseum:flight_id": "20260410-A-UAL-1863",
    "sfomuseum:flight_number": [
      "UAL1863",
      "UA1863"
    ],
    "sfomuseum:placetype": "flight",
    "src:geom": "flysfo",
    "src:geom_alt": [
      "swim-approach"
    ],
    "swim:tail_number": "N17557",
    "wof:belongsto": [
      1763588121,
      102527513,
      1763588335,
      102191575,
      85633793,
      102087579,
      85922583,
      554784711,
      85688637,
      1763588337,
      1763588269,
      102085387
    ],
    "wof:country": "US",
    "wof:created": 1775923683,
    "wof:geomhash": "e1d14091bb010ff3febce3dc78c1c8b4",
    "wof:hierarchy": [
      {
        "building_id": 1763588121,
        "campus_id": 102527513,
        "concourse_id": 1763588335,
        "continent_id": 102191575,
        "country_id": 85633793,
        "county_id": 102087579,
        "custom_id": 2015253709,
        "flight_id": 2015253709,
        "locality_id": 85922583,
        "postalcode_id": 554784711,
        "region_id": 85688637,
        "venue_id": 1763588337,
        "wing_id": 1763588269
      },
      {
        "building_id": 1763588121,
        "campus_id": 102527513,
        "concourse_id": 1763588335,
        "continent_id": 102191575,
        "country_id": 85633793,
        "county_id": 102085387,
        "custom_id": 2015253709,
        "flight_id": 2015253709,
        "region_id": 85688637,
        "venue_id": 1763588337,
        "wing_id": 1763588269
      }
    ],
    "wof:id": 2015253709,
    "wof:involves": [
      1528104577,
      102527513,
      102528779,
      1159285413,
      1763588337,
      1159283697
    ],
    "wof:lastmodified": 1775924312,
    "wof:name": "UA1863 (RDU-SFO)",
    "wof:parent_id": 1763588337,
    "wof:placetype": "custom",
    "wof:placetype_alt": [
      "flight"
    ],
    "wof:repo": "sfomuseum-data-flights-2026-04",
    "wof:superseded_by": [],
    "wof:supersedes": []
  },
  "bbox": [
    -122.370943,
    35.876323,
    -78.790399,
    37.61799
  ],
  "geometry": {"coordinates":[[-78.790399,35.876323],[-122.370943,37.61799]],"type":"MultiPoint"}
}
