{
  "id": 2031129795,
  "type": "Feature",
  "properties": {
    "geom:area": 0,
    "geom:bbox": "-122.409080,37.625250,-122.151750,38.496020",
    "geom:latitude": 38.00625642465687,
    "geom:longitude": -122.20751756694204,
    "src:alt_label": "swim-takeoff",
    "src:geom": "swim",
    "swim:elevations": [
      152,
      213,
      515,
      721,
      884,
      1174,
      1504,
      2187,
      2666,
      3013,
      3155,
      3258,
      3526,
      4081,
      4565,
      4892,
      5190,
      5397,
      5615,
      6207,
      6545,
      7085,
      7304,
      7384,
      7579,
      7892,
      7983
    ],
    "swim:geom": "takeoff",
    "swim:timestamps": [
      1777325127,
      1777325132,
      1777325151,
      1777325168,
      1777325181,
      1777325206,
      1777325240,
      1777325278,
      1777325308,
      1777325330,
      1777325338,
      1777325346,
      1777325381,
      1777325420,
      1777325452,
      1777325479,
      1777325502,
      1777325520,
      1777325539,
      1777325586,
      1777325614,
      1777325669,
      1777325697,
      1777325704,
      1777325725,
      1777325758,
      1777325768
    ],
    "wof:geomhash": "9a94c1bc74cb81084efb50fa732e2fbf",
    "wof:id": 2031129795,
    "wof:repo": "sfomuseum-data-flights-2026-04"
  },
  "bbox": [
    -122.40908,
    37.62525,
    -122.15175,
    38.49602
  ],
  "geometry": {"coordinates":[[-122.39061,37.62525],[-122.39483,37.62694],[-122.40829,37.63632],[-122.40908,37.65004],[-122.40139,37.65899],[-122.3751,37.66661],[-122.32967,37.67856],[-122.27675,37.69675],[-122.23278,37.714],[-122.21067,37.73541],[-122.2068,37.74651],[-122.20467,37.75686],[-122.19935,37.808],[-122.19039,37.8698],[-122.18211,37.92163],[-122.17463,37.96563],[-122.16824,38.00441],[-122.16286,38.03653],[-122.16178,38.06864],[-122.16149,38.15157],[-122.16039,38.20227],[-122.15755,38.30298],[-122.15625,38.35857],[-122.15621,38.3721],[-122.15531,38.41151],[-122.1527,38.47716],[-122.15175,38.49602]],"type":"LineString"}
}
