{
  "id": 2031135475,
  "type": "Feature",
  "properties": {
    "geom:area": 0,
    "geom:bbox": "-176.250000,35.760000,180.000000,49.100000",
    "geom:latitude": 48.07815456362733,
    "geom:longitude": -1.6911347489215984,
    "src:alt_label": "swim-route",
    "src:geom": "swim",
    "swim:geom": "route",
    "wof:geomhash": "a607d58e6685161c2503733c6469d894",
    "wof:id": 2031135475,
    "wof:repo": "sfomuseum-data-flights-2026-04"
  },
  "bbox": [
    -176.25,
    35.76,
    180,
    49.1
  ],
  "geometry": {"coordinates":[[[-122.38,37.62],[-122.5,37.67],[-122.5,37.67],[-122.5,37.67],[-122.61,37.68],[-122.61,37.68],[-122.66,37.68],[-122.74,37.69],[-122.75,37.69],[-122.86,37.7],[-122.88,37.7],[-123,37.7],[-123.09,37.71],[-123.53,37.73],[-123.54,37.73],[-123.8,37.75],[-124.01,37.76],[-124.12,37.76],[-124.32,37.77],[-124.4,37.78],[-124.48,37.78],[-125.83,37.83],[-126.46,37.99],[-126.99,38.13],[-127,38.13],[-127.37,38.22],[-128.68,38.54],[-130,38.83],[-140,42],[-146.86,44.89],[-150,46],[-150.82,46.28],[-157.39,48.33],[-160,49],[-170,49],[-171.38,49.05],[-173.75,49.1],[-176.25,49.1]],[[180,49],[179.03,49.02],[175.87,49.01],[174.69,48.98],[168.78,48.68],[161.33,47.55],[155.1,44.18],[149.65,40.42],[145.67,37.2],[143.15,36.55],[143.05,36.52],[142.75,36.44],[142.66,36.42],[142.59,36.4],[142.34,36.33],[141.99,36.23],[141.68,36.14],[141.35,36.05],[141.31,36.04],[141.12,35.98],[140.97,35.94],[140.87,35.91],[140.82,35.89],[140.68,35.85],[140.58,35.82],[140.48,35.79],[140.44,35.78],[140.39,35.76]]],"type":"MultiLineString"}
}
