{
  "id": 2015219597,
  "type": "Feature",
  "properties": {
    "geom:area": 0,
    "geom:bbox": "-178.850000,51.033333,-173.000000,51.100000",
    "geom:latitude": 51.08299689065782,
    "geom:longitude": -175.92520324644792,
    "src:alt_label": "swim-path",
    "src:geom": "swim",
    "swim:altitudes": [
      "370",
      "375",
      "390",
      "390",
      "390",
      "390",
      "390",
      "390",
      "390",
      "390",
      "390",
      "390",
      "390",
      "390"
    ],
    "swim:geom": "path",
    "swim:speeds": [
      530,
      530,
      520,
      520,
      530,
      530,
      530,
      530,
      530,
      530,
      540,
      530,
      530,
      540
    ],
    "swim:timestamps": [
      1775564419,
      1775564480,
      1775564722,
      1775564782,
      1775564902,
      1775564962,
      1775565023,
      1775565205,
      1775565325,
      1775565567,
      1775565680,
      1775565741,
      1775565801,
      1775565923
    ],
    "wof:geomhash": "ae0f801162db8c912286a6a075a11073",
    "wof:id": 2015219597,
    "wof:repo": "sfomuseum-data-flights-2026-04"
  },
  "bbox": [
    -178.85,
    51.03333333333333,
    -173,
    51.1
  ],
  "geometry": {"coordinates":[[-178.85,51.03333333333333],[-178.61666666666667,51.05],[-177.68333333333334,51.06666666666667],[-177.45,51.06666666666667],[-176.98333333333332,51.083333333333336],[-176.75,51.083333333333336],[-176.51666666666668,51.083333333333336],[-175.81666666666666,51.1],[-175.33333333333334,51.1],[-174.38333333333333,51.1],[-173.95,51.1],[-173.71666666666667,51.083333333333336],[-173.46666666666667,51.083333333333336],[-173,51.083333333333336]],"type":"LineString"}
}
