{
  "id": 2015325517,
  "type": "Feature",
  "properties": {
    "date:inception_lower": "2026-04-18",
    "date:inception_upper": "2026-04-18",
    "edtf:cessation": "",
    "edtf:inception": "2026-04-18",
    "flysfo:actual_timestamp": -1,
    "flysfo:airline": "UA",
    "flysfo:base_airline": "",
    "flysfo:base_flight_number": "4686",
    "flysfo:date": "2026-04-18",
    "flysfo:estimated_timestamp": 1776557160,
    "flysfo:event": "D",
    "flysfo:flight_number": "UA5398",
    "flysfo:gate": "E3",
    "flysfo:journey": "SFO-OMA",
    "flysfo:scheduled_timestamp": 1776556200,
    "flysfo:timestamp": 1776557160,
    "geom:area": 0,
    "geom:bbox": "-122.370943,37.617990,-95.897601,41.301438",
    "geom:latitude": 39.459714,
    "geom:longitude": -109.134272,
    "iata:airline": "UA",
    "iata:base_airline": "",
    "icao:airline": "UAL",
    "icao:base_airline": "ACA",
    "lbl:latitude": 37.618578,
    "lbl:longitude": -122.385434,
    "sfomuseum:airline_id": 1159285413,
    "sfomuseum:arrival_id": 102524739,
    "sfomuseum:base_flight_id": "20260418-D-ACA-4686",
    "sfomuseum:departure_id": 102527513,
    "sfomuseum:flight_id": "20260418-D-UAL-5398",
    "sfomuseum:flight_number": [
      "UAL5398",
      "UA5398"
    ],
    "sfomuseum:placetype": "flight",
    "src:geom": "flysfo",
    "wof:belongsto": [
      1947304067,
      102527513,
      1947304451,
      102191575,
      85633793,
      102087579,
      85922583,
      554784711,
      85688637,
      1947304495,
      1947304447,
      102085387
    ],
    "wof:country": "US",
    "wof:created": 1776615351,
    "wof:geomhash": "b2b4de685cac2a2e83e7d43e9bbb14d9",
    "wof:hierarchy": [
      {
        "building_id": 1947304067,
        "campus_id": 102527513,
        "concourse_id": 1947304451,
        "continent_id": 102191575,
        "country_id": 85633793,
        "county_id": 102087579,
        "custom_id": 2015325517,
        "flight_id": 2015325517,
        "locality_id": 85922583,
        "postalcode_id": 554784711,
        "region_id": 85688637,
        "venue_id": 1947304495,
        "wing_id": 1947304447
      },
      {
        "building_id": 1947304067,
        "campus_id": 102527513,
        "concourse_id": 1947304451,
        "continent_id": 102191575,
        "country_id": 85633793,
        "county_id": 102085387,
        "custom_id": 2015325517,
        "flight_id": 2015325517,
        "region_id": 85688637,
        "venue_id": 1947304495,
        "wing_id": 1947304447
      }
    ],
    "wof:id": 2015325517,
    "wof:involves": [
      102524739,
      102527513,
      1159285413,
      1947304495,
      1159283597
    ],
    "wof:lastmodified": 1776615351,
    "wof:name": "UA5398 (SFO-OMA)",
    "wof:parent_id": 1947304495,
    "wof:placetype": "custom",
    "wof:placetype_alt": [
      "flight"
    ],
    "wof:repo": "sfomuseum-data-flights-2026-04",
    "wof:superseded_by": [],
    "wof:supersedes": []
  },
  "bbox": [
    -122.370943,
    37.61799,
    -95.897601,
    41.301438
  ],
  "geometry": {"coordinates":[[-122.370943,37.61799],[-95.897601,41.301438]],"type":"MultiPoint"}
}
