{
  "id": 2031136429,
  "type": "Feature",
  "properties": {
    "geom:area": 0,
    "geom:bbox": "-122.383333,37.666667,-93.021389,44.863333",
    "geom:latitude": 42.448515466168196,
    "geom:longitude": -107.96594847093152,
    "src:alt_label": "swim-path",
    "src:geom": "swim",
    "swim:altitudes": [
      "022",
      "022",
      "022",
      "022",
      "048",
      "078",
      "078",
      "125",
      "125",
      "125",
      "149",
      "149",
      "192",
      "209",
      "209",
      "209",
      "209",
      "230",
      "230",
      "230",
      "249",
      "249",
      "264",
      "264",
      "264",
      "264",
      "317",
      "317",
      "317",
      "341",
      "341",
      "341",
      "350C",
      "350C",
      "350C",
      "350C",
      "350C",
      "350C",
      "350C",
      "350C",
      "350C",
      "350C",
      "350C",
      "350C",
      "350C",
      "350C",
      "350C",
      "350C",
      "350C",
      "350C",
      "350C",
      "350C",
      "350C",
      "350C",
      "350C",
      "350C",
      "350C",
      "350C",
      "350C",
      "350C",
      "350C",
      "350C",
      "350C",
      "350C",
      "350C",
      "350C",
      "350C",
      "350C",
      "350C",
      "350C",
      "350C",
      "350C",
      "350C",
      "350C",
      "350C",
      "350C",
      "350C",
      "350C",
      "350C",
      "350C",
      "350C",
      "350C",
      "350C",
      "350C",
      "350C",
      "350C",
      "350C",
      "350C",
      "350C",
      "350C",
      "350C",
      "350C",
      "350C",
      "350C",
      "350C",
      "350C",
      "350C",
      "350C",
      "350C",
      "350C",
      "350C",
      "350C",
      "350C",
      "350C",
      "350C",
      "350C",
      "350C",
      "350C",
      "350C",
      "350C",
      "350C",
      "350C",
      "350C",
      "350C",
      "350C",
      "350C",
      "350C",
      "350C",
      "350C",
      "350C",
      "350C",
      "350C",
      "350C",
      "350C",
      "350C",
      "350C",
      "350C",
      "350C",
      "350C",
      "350C",
      "350C",
      "350C",
      "350C",
      "350C",
      "350C",
      "350C",
      "350C",
      "350C",
      "350C",
      "350C",
      "350C",
      "350C",
      "350C",
      "350C",
      "350C",
      "350C",
      "350C",
      "350C",
      "350C",
      "350C",
      "350C",
      "350C",
      "350C",
      "350C",
      "350C",
      "350C",
      "350C",
      "350C",
      "350C",
      "350C",
      "350C",
      "350C",
      "350C",
      "350C",
      "350C",
      "350C",
      "350C",
      "350C",
      "350C",
      "350C",
      "350C",
      "350C",
      "350C",
      "350C",
      "350C",
      "350C",
      "350C",
      "350C",
      "350C",
      "350C",
      "350C",
      "350C",
      "350C",
      "350C",
      "350C",
      "350C",
      "350C",
      "350C",
      "350C",
      "350C",
      "350C",
      "350C",
      "350C",
      "350C",
      "350C",
      "350C",
      "350C",
      "350C",
      "350C",
      "350C",
      "350C",
      "350C",
      "350C",
      "350C",
      "350C",
      "350C",
      "350C",
      "350C",
      "350C",
      "350C",
      "350C",
      "350C",
      "350C",
      "350C",
      "350C",
      "350C",
      "350C",
      "350C",
      "350C",
      "350C",
      "350C",
      "350C",
      "350C",
      "350",
      "341",
      "341",
      "341",
      "310",
      "310",
      "310",
      "310",
      "310",
      "310",
      "298",
      "259",
      "259",
      "234",
      "219",
      "201",
      "195",
      "149",
      "143",
      "125",
      "122",
      "111",
      "099",
      "080",
      "080",
      "054",
      "054",
      "047",
      "040",
      "031",
      "020",
      "020",
      "012"
    ],
    "swim:geom": "path",
    "swim:speeds": [
      224,
      224,
      224,
      224,
      259,
      269,
      269,
      348,
      348,
      348,
      361,
      361,
      380,
      391,
      391,
      391,
      391,
      396,
      396,
      396,
      396,
      396,
      404,
      404,
      404,
      404,
      402,
      402,
      402,
      416,
      416,
      416,
      440,
      440,
      440,
      444,
      444,
      442,
      443,
      442,
      442,
      443,
      442,
      443,
      444,
      444,
      444,
      447,
      456,
      456,
      449,
      449,
      452,
      451,
      451,
      452,
      452,
      452,
      452,
      452,
      453,
      454,
      455,
      455,
      455,
      455,
      456,
      457,
      457,
      457,
      457,
      457,
      458,
      457,
      457,
      457,
      453,
      453,
      451,
      451,
      449,
      449,
      449,
      449,
      450,
      456,
      456,
      459,
      459,
      461,
      461,
      461,
      461,
      464,
      465,
      465,
      465,
      466,
      465,
      465,
      465,
      465,
      468,
      468,
      468,
      470,
      472,
      472,
      472,
      473,
      473,
      475,
      475,
      475,
      477,
      477,
      477,
      475,
      473,
      473,
      473,
      471,
      471,
      472,
      476,
      476,
      476,
      476,
      484,
      484,
      486,
      486,
      487,
      487,
      488,
      488,
      488,
      488,
      488,
      488,
      488,
      488,
      488,
      487,
      487,
      487,
      489,
      491,
      491,
      491,
      492,
      492,
      492,
      492,
      492,
      493,
      494,
      494,
      494,
      494,
      494,
      494,
      494,
      494,
      494,
      494,
      494,
      494,
      494,
      494,
      494,
      494,
      494,
      494,
      494,
      494,
      497,
      497,
      497,
      496,
      496,
      496,
      495,
      495,
      495,
      495,
      496,
      496,
      496,
      492,
      492,
      491,
      491,
      491,
      490,
      490,
      491,
      490,
      490,
      489,
      489,
      489,
      488,
      488,
      488,
      488,
      488,
      494,
      494,
      494,
      495,
      495,
      496,
      497,
      497,
      497,
      503,
      503,
      503,
      503,
      501,
      501,
      501,
      501,
      499,
      499,
      499,
      494,
      494,
      494,
      487,
      487,
      491,
      485,
      459,
      459,
      447,
      430,
      414,
      402,
      376,
      369,
      326,
      318,
      315,
      283,
      269,
      269,
      248,
      248,
      228,
      180,
      176,
      151,
      151,
      148
    ],
    "swim:timestamps": [
      1777405957,
      1777405957,
      1777405957,
      1777405957,
      1777406018,
      1777406078,
      1777406078,
      1777406220,
      1777406220,
      1777406220,
      1777406280,
      1777406280,
      1777406400,
      1777406460,
      1777406460,
      1777406460,
      1777406460,
      1777406520,
      1777406520,
      1777406520,
      1777406580,
      1777406580,
      1777406641,
      1777406641,
      1777406641,
      1777406641,
      1777406881,
      1777406881,
      1777406881,
      1777407088,
      1777407088,
      1777407088,
      1777407328,
      1777407328,
      1777407328,
      1777407362,
      1777407362,
      1777407388,
      1777407422,
      1777407508,
      1777407508,
      1777407542,
      1777407568,
      1777407629,
      1777407689,
      1777407689,
      1777407689,
      1777407722,
      1777407749,
      1777407749,
      1777407782,
      1777407782,
      1777407809,
      1777407902,
      1777407902,
      1777407989,
      1777408034,
      1777408034,
      1777408034,
      1777408034,
      1777408049,
      1777408109,
      1777408169,
      1777408169,
      1777408169,
      1777408215,
      1777408229,
      1777408275,
      1777408275,
      1777408275,
      1777408275,
      1777408335,
      1777408350,
      1777408455,
      1777408455,
      1777408455,
      1777408575,
      1777408575,
      1777408635,
      1777408635,
      1777408710,
      1777408710,
      1777408755,
      1777408755,
      1777408830,
      1777409010,
      1777409010,
      1777409071,
      1777409071,
      1777409131,
      1777409131,
      1777409131,
      1777409131,
      1777409251,
      1777409311,
      1777409311,
      1777409311,
      1777409371,
      1777409491,
      1777409491,
      1777409491,
      1777409551,
      1777409731,
      1777409731,
      1777409731,
      1777409791,
      1777409852,
      1777409852,
      1777409852,
      1777409972,
      1777409972,
      1777410092,
      1777410092,
      1777410092,
      1777410272,
      1777410272,
      1777410272,
      1777410332,
      1777410392,
      1777410392,
      1777410392,
      1777410573,
      1777410633,
      1777410693,
      1777410813,
      1777410813,
      1777410813,
      1777410813,
      1777411113,
      1777411113,
      1777411173,
      1777411173,
      1777411233,
      1777411233,
      1777411354,
      1777411354,
      1777411414,
      1777411414,
      1777411414,
      1777411594,
      1777411594,
      1777411654,
      1777411654,
      1777411774,
      1777411774,
      1777411774,
      1777411954,
      1777412014,
      1777412014,
      1777412014,
      1777412062,
      1777412062,
      1777412062,
      1777412075,
      1777412075,
      1777412182,
      1777412195,
      1777412195,
      1777412242,
      1777412242,
      1777412302,
      1777412315,
      1777412375,
      1777412375,
      1777412375,
      1777412422,
      1777412422,
      1777412482,
      1777412542,
      1777412542,
      1777412542,
      1777412555,
      1777412603,
      1777412603,
      1777412603,
      1777412615,
      1777412783,
      1777412783,
      1777412783,
      1777412903,
      1777412903,
      1777412903,
      1777413143,
      1777413143,
      1777413143,
      1777413143,
      1777413203,
      1777413203,
      1777413203,
      1777413504,
      1777413504,
      1777413564,
      1777413564,
      1777413564,
      1777413646,
      1777413646,
      1777413684,
      1777413744,
      1777413744,
      1777413826,
      1777413826,
      1777413826,
      1777413864,
      1777413864,
      1777413864,
      1777413946,
      1777413946,
      1777414045,
      1777414066,
      1777414066,
      1777414127,
      1777414127,
      1777414187,
      1777414225,
      1777414225,
      1777414225,
      1777414607,
      1777414607,
      1777414607,
      1777414727,
      1777414908,
      1777414908,
      1777415028,
      1777415148,
      1777415208,
      1777415208,
      1777415208,
      1777415569,
      1777415569,
      1777415569,
      1777415869,
      1777415869,
      1777415929,
      1777415989,
      1777416110,
      1777416110,
      1777416188,
      1777416230,
      1777416290,
      1777416305,
      1777416470,
      1777416488,
      1777416590,
      1777416601,
      1777416650,
      1777416722,
      1777416831,
      1777416831,
      1777416951,
      1777416951,
      1777416975,
      1777417071,
      1777417131,
      1777417191,
      1777417191,
      1777417251
    ],
    "wof:geomhash": "c963e772d56fcb900bf33a289a76008c",
    "wof:id": 2031136429,
    "wof:repo": "sfomuseum-data-flights-2026-04"
  },
  "bbox": [
    -122.38333333333334,
    37.666666666666664,
    -93.0213888888889,
    44.86333333333334
  ],
  "geometry": {"coordinates":[[-122.38333333333334,37.666666666666664],[-122.38333333333334,37.666666666666664],[-122.38333333333334,37.666666666666664],[-122.38333333333334,37.666666666666664],[-122.3,37.68333333333333],[-122.21666666666667,37.71666666666667],[-122.21666666666667,37.71666666666667],[-122.06972222222223,37.87722222222222],[-122.06972222222223,37.87722222222222],[-122.06972222222223,37.87722222222222],[-121.9961111111111,37.95861111111111],[-121.9961111111111,37.95861111111111],[-121.84083333333332,38.12888888888889],[-121.76305555555555,38.214444444444446],[-121.76305555555555,38.214444444444446],[-121.76305555555555,38.214444444444446],[-121.76305555555555,38.214444444444446],[-121.68027777777779,38.30416666666667],[-121.68027777777779,38.30416666666667],[-121.68027777777779,38.30416666666667],[-121.59777777777778,38.39388888888889],[-121.59777777777778,38.39388888888889],[-121.50138888888888,38.474444444444444],[-121.50138888888888,38.474444444444444],[-121.50138888888888,38.474444444444444],[-121.50138888888888,38.474444444444444],[-121.05666666666666,38.745],[-121.05666666666666,38.745],[-121.05666666666666,38.745],[-120.65083333333334,38.98111111111111],[-120.65083333333334,38.98111111111111],[-120.65083333333334,38.98111111111111],[-120.11583333333333,39.23833333333334],[-120.11583333333333,39.23833333333334],[-120.11583333333333,39.23833333333334],[-120.03194444444445,39.28],[-120.03194444444445,39.28],[-119.97944444444444,39.30305555555555],[-119.89666666666668,39.344722222222224],[-119.70972222222223,39.431666666666665],[-119.70972222222223,39.431666666666665],[-119.62444444444444,39.47361111111111],[-119.57277777777777,39.49722222222222],[-119.43472222222222,39.56083333333333],[-119.29638888888888,39.62583333333333],[-119.29638888888888,39.62583333333333],[-119.29638888888888,39.62583333333333],[-119.20972222222223,39.6675],[-119.15555555555557,39.692499999999995],[-119.15555555555557,39.692499999999995],[-119.07,39.73222222222223],[-119.07,39.73222222222223],[-119.01611111111112,39.757222222222225],[-118.78861111111111,39.861666666666665],[-118.78861111111111,39.861666666666665],[-118.5925,39.95166666666667],[-118.47611111111111,40.004444444444445],[-118.47611111111111,40.004444444444445],[-118.47611111111111,40.004444444444445],[-118.47611111111111,40.004444444444445],[-118.45027777777779,40.01638888888889],[-118.30833333333334,40.080555555555556],[-118.16333333333334,40.145833333333336],[-118.16333333333334,40.145833333333336],[-118.16333333333334,40.145833333333336],[-118.04722222222222,40.198055555555555],[-118.02083333333333,40.209722222222226],[-117.9025,40.26277777777778],[-117.9025,40.26277777777778],[-117.9025,40.26277777777778],[-117.9025,40.26277777777778],[-117.7611111111111,40.325833333333335],[-117.73361111111112,40.33777777777778],[-117.47111111111111,40.453611111111115],[-117.47111111111111,40.453611111111115],[-117.47111111111111,40.453611111111115],[-117.18583333333333,40.57805555555556],[-117.18583333333333,40.57805555555556],[-117.04416666666667,40.64],[-117.04416666666667,40.64],[-116.87638888888888,40.712500000000006],[-116.87638888888888,40.712500000000006],[-116.75527777777778,40.75611111111111],[-116.75527777777778,40.75611111111111],[-116.57388888888889,40.812777777777775],[-116.09222222222222,40.96027777777778],[-116.09222222222222,40.96027777777778],[-115.93527777777778,41.007777777777775],[-115.93527777777778,41.007777777777775],[-115.77722222222222,41.05555555555555],[-115.77722222222222,41.05555555555555],[-115.77722222222222,41.05555555555555],[-115.77722222222222,41.05555555555555],[-115.46027777777778,41.14972222222222],[-115.29944444444445,41.1975],[-115.29944444444445,41.1975],[-115.29944444444445,41.1975],[-115.13944444444445,41.24472222222222],[-114.81944444444444,41.33777777777778],[-114.81944444444444,41.33777777777778],[-114.81944444444444,41.33777777777778],[-114.65833333333335,41.384166666666665],[-114.17416666666666,41.52222222222222],[-114.17416666666666,41.52222222222222],[-114.17416666666666,41.52222222222222],[-114.00972222222222,41.56805555555556],[-113.84638888888888,41.61388888888889],[-113.84638888888888,41.61388888888889],[-113.84638888888888,41.61388888888889],[-113.51583333333333,41.705555555555556],[-113.51583333333333,41.705555555555556],[-113.18305555555555,41.796388888888885],[-113.18305555555555,41.796388888888885],[-113.18305555555555,41.796388888888885],[-112.67861111111111,41.93222222222222],[-112.67861111111111,41.93222222222222],[-112.67861111111111,41.93222222222222],[-112.51138888888889,41.97638888888889],[-112.34777777777778,42.019444444444446],[-112.34777777777778,42.019444444444446],[-112.34777777777778,42.019444444444446],[-111.84833333333333,42.149166666666666],[-111.68055555555556,42.19194444444444],[-111.51416666666667,42.23416666666667],[-111.17277777777778,42.32],[-111.17277777777778,42.32],[-111.17277777777778,42.32],[-111.17277777777778,42.32],[-110.32583333333334,42.52777777777778],[-110.32583333333334,42.52777777777778],[-110.15083333333334,42.56916666666667],[-110.15083333333334,42.56916666666667],[-109.97500000000001,42.60638888888889],[-109.97500000000001,42.60638888888889],[-109.61916666666666,42.67833333333333],[-109.61916666666666,42.67833333333333],[-109.44194444444445,42.71388888888889],[-109.44194444444445,42.71388888888889],[-109.44194444444445,42.71388888888889],[-108.90472222222223,42.81861111111112],[-108.90472222222223,42.81861111111112],[-108.7275,42.85277777777778],[-108.7275,42.85277777777778],[-108.36833333333333,42.920833333333334],[-108.36833333333333,42.920833333333334],[-108.36833333333333,42.920833333333334],[-107.83027777777778,43.02361111111111],[-107.64972222222222,43.05833333333333],[-107.64972222222222,43.05833333333333],[-107.64972222222222,43.05833333333333],[-107.52277777777778,43.08277777777778],[-107.52277777777778,43.08277777777778],[-107.52277777777778,43.08277777777778],[-107.46888888888888,43.09277777777778],[-107.46888888888888,43.09277777777778],[-107.16027777777778,43.150555555555556],[-107.09305555555555,43.16305555555555],[-107.09305555555555,43.16305555555555],[-106.97805555555556,43.18472222222222],[-106.97805555555556,43.18472222222222],[-106.79583333333333,43.217777777777776],[-106.7575,43.224722222222226],[-106.57444444444444,43.25666666666667],[-106.57444444444444,43.25666666666667],[-106.57444444444444,43.25666666666667],[-106.42750000000001,43.282222222222224],[-106.42750000000001,43.282222222222224],[-106.24416666666667,43.31361111111111],[-106.06138888888889,43.34444444444445],[-106.06138888888889,43.34444444444445],[-106.06138888888889,43.34444444444445],[-106.02277777777778,43.35111111111111],[-105.87888888888888,43.37555555555556],[-105.87888888888888,43.37555555555556],[-105.87888888888888,43.37555555555556],[-105.83888888888889,43.382222222222225],[-105.32083333333333,43.466944444444444],[-105.32083333333333,43.466944444444444],[-105.32083333333333,43.466944444444444],[-104.95,43.52638888888889],[-104.95,43.52638888888889],[-104.95,43.52638888888889],[-104.20527777777778,43.641666666666666],[-104.20527777777778,43.641666666666666],[-104.20527777777778,43.641666666666666],[-104.20527777777778,43.641666666666666],[-104.01916666666666,43.66972222222222],[-104.01916666666666,43.66972222222222],[-104.01916666666666,43.66972222222222],[-103.09416666666667,43.80361111111111],[-103.09416666666667,43.80361111111111],[-102.90722222222223,43.82944444444445],[-102.90722222222223,43.82944444444445],[-102.90722222222223,43.82944444444445],[-102.65138888888889,43.86472222222223],[-102.65138888888889,43.86472222222223],[-102.5363888888889,43.88055555555555],[-102.35777777777777,43.90416666666667],[-102.35777777777777,43.90416666666667],[-102.10333333333332,43.93805555555555],[-102.10333333333332,43.93805555555555],[-102.10333333333332,43.93805555555555],[-101.98861111111111,43.953611111111115],[-101.98861111111111,43.953611111111115],[-101.98861111111111,43.953611111111115],[-101.73222222222222,43.986666666666665],[-101.73222222222222,43.986666666666665],[-101.43027777777779,44.024166666666666],[-101.35666666666665,44.032777777777774],[-101.35666666666665,44.032777777777774],[-101.16777777777779,44.05361111111111],[-101.16777777777779,44.05361111111111],[-100.97916666666667,44.074444444444445],[-100.86555555555555,44.08638888888889],[-100.86555555555555,44.08638888888889],[-100.86555555555555,44.08638888888889],[-99.64250000000001,44.21138888888889],[-99.64250000000001,44.21138888888889],[-99.64250000000001,44.21138888888889],[-99.25916666666667,44.246944444444445],[-98.64916666666667,44.302499999999995],[-98.64916666666667,44.302499999999995],[-98.27166666666666,44.33361111111111],[-97.88527777777779,44.36611111111111],[-97.69388888888889,44.38166666666667],[-97.69388888888889,44.38166666666667],[-97.69388888888889,44.38166666666667],[-96.55083333333333,44.46527777777778],[-96.55083333333333,44.46527777777778],[-96.55083333333333,44.46527777777778],[-95.63388888888889,44.4775],[-95.63388888888889,44.4775],[-95.44222222222223,44.469722222222224],[-95.25055555555555,44.46055555555556],[-94.90083333333334,44.522777777777776],[-94.90083333333334,44.522777777777776],[-94.68333333333334,44.583333333333336],[-94.55194444444444,44.60333333333333],[-94.39861111111112,44.638333333333335],[-94.35,44.65],[-93.9675,44.73527777777778],[-93.91666666666667,44.75],[-93.70583333333333,44.79333333333333],[-93.68333333333334,44.8],[-93.58833333333332,44.81944444444445],[-93.45,44.85],[-93.27888888888889,44.78805555555555],[-93.27888888888889,44.78805555555555],[-93.12222222222222,44.720555555555556],[-93.12222222222222,44.720555555555556],[-93.08333333333333,44.71666666666667],[-93.0213888888889,44.780833333333334],[-93.06666666666666,44.815],[-93.12972222222221,44.8425],[-93.12972222222221,44.8425],[-93.17805555555556,44.86333333333334]],"type":"LineString"}
}
