{
  "id": 2031145753,
  "type": "Feature",
  "properties": {
    "geom:area": 0,
    "geom:bbox": "-122.402530,37.629360,-121.453950,38.503740",
    "geom:latitude": 38.04662599443639,
    "geom:longitude": -121.92619100234045,
    "src:alt_label": "swim-takeoff",
    "src:geom": "swim",
    "swim:elevations": [
      183,
      747,
      863,
      1132,
      1263,
      1488,
      1692,
      1921,
      2281,
      2665,
      3066,
      3595,
      3801,
      3831,
      4364,
      4647,
      4788,
      5142,
      5399,
      5451,
      5853,
      5968,
      6223,
      6554,
      6755,
      6769
    ],
    "swim:geom": "takeoff",
    "swim:timestamps": [
      1777453630,
      1777453675,
      1777453684,
      1777453711,
      1777453735,
      1777453764,
      1777453785,
      1777453802,
      1777453830,
      1777453864,
      1777453898,
      1777453975,
      1777454006,
      1777454015,
      1777454086,
      1777454111,
      1777454130,
      1777454176,
      1777454215,
      1777454228,
      1777454276,
      1777454290,
      1777454320,
      1777454361,
      1777454395,
      1777454400
    ],
    "wof:geomhash": "7e8d328280e4e8ae16905babd2a46ccd",
    "wof:id": 2031145753,
    "wof:repo": "sfomuseum-data-flights-2026-04"
  },
  "bbox": [
    -122.40253,
    37.62936,
    -121.45395,
    38.50374
  ],
  "geometry": {"coordinates":[[-122.39497,37.62936],[-122.40253,37.66026],[-122.3938,37.66441],[-122.36572,37.67228],[-122.33782,37.68088],[-122.29902,37.6923],[-122.26912,37.7011],[-122.24463,37.70869],[-122.20678,37.72545],[-122.1744,37.76079],[-122.14269,37.79704],[-122.06132,37.88728],[-122.02445,37.92812],[-122.01344,37.94053],[-121.92026,38.04321],[-121.88735,38.0793],[-121.86212,38.1071],[-121.79903,38.17493],[-121.74316,38.2353],[-121.72484,38.25519],[-121.65688,38.32897],[-121.63678,38.35121],[-121.59519,38.39687],[-121.52855,38.45709],[-121.463,38.4982],[-121.45395,38.50374]],"type":"LineString"}
}
