{
  "id": 2031142063,
  "type": "Feature",
  "properties": {
    "geom:area": 0,
    "geom:bbox": "-165.690000,-37.680000,146.980000,37.620000",
    "geom:latitude": -12.018559071438276,
    "geom:longitude": -28.932782528988614,
    "src:alt_label": "swim-route",
    "src:geom": "swim",
    "swim:geom": "route",
    "wof:geomhash": "7c0c5dca518b0f1d5561c7bda519d0c4",
    "wof:id": 2031142063,
    "wof:repo": "sfomuseum-data-flights-2026-04"
  },
  "bbox": [
    -165.69,
    -37.68,
    146.98,
    37.62
  ],
  "geometry": {"coordinates":[[[144.85,-37.68],[146.98,-36.73]],[[-165.69,1.39],[-141.27,24.27],[-130,32],[-128.85,32.97],[-125.56,35.59],[-125.55,35.59],[-124.76,36.18],[-124.32,36.46],[-124.21,36.53],[-124.12,36.58],[-124.07,36.62],[-123.86,36.75],[-123.8,36.78],[-123.57,36.93],[-123.56,36.93],[-123.52,36.96],[-123.3,37.09],[-123.13,37.19],[-122.96,37.24],[-122.86,37.26],[-122.84,37.26],[-122.84,37.26],[-122.76,37.28],[-122.71,37.29],[-122.66,37.3],[-122.63,37.31],[-122.5,37.34],[-122.44,37.36],[-122.29,37.39],[-122.28,37.39],[-122.31,37.46],[-122.34,37.54],[-122.37,37.6],[-122.37,37.61],[-122.38,37.62]]],"type":"MultiLineString"}
}
