{
  "id": 2015279239,
  "type": "Feature",
  "properties": {
    "geom:area": 0,
    "geom:bbox": "-122.774740,37.376490,-122.127790,38.496850",
    "geom:latitude": 37.79850664357686,
    "geom:longitude": -122.48536117508044,
    "src:alt_label": "swim-approach",
    "src:geom": "swim",
    "swim:elevations": [
      6948,
      6773,
      6567,
      6303,
      6164,
      6086,
      5827,
      5687,
      5382,
      5206,
      4837,
      4503,
      4427,
      4278,
      4009,
      3863,
      3830,
      3624,
      3556,
      3353,
      3353,
      3353,
      3353,
      3353,
      3353,
      3353,
      3353,
      3353,
      3168,
      3020,
      2806,
      2713,
      2516,
      2407,
      2342,
      2151,
      1977,
      1730,
      1666,
      1603,
      1494,
      1277,
      1162,
      1095,
      1035,
      817,
      737,
      614,
      498,
      409,
      219,
      147,
      98
    ],
    "swim:geom": "approach",
    "swim:timestamps": [
      1776086755,
      1776086780,
      1776086808,
      1776086844,
      1776086863,
      1776086872,
      1776086908,
      1776086927,
      1776086968,
      1776086986,
      1776087036,
      1776087082,
      1776087092,
      1776087117,
      1776087147,
      1776087167,
      1776087171,
      1776087201,
      1776087211,
      1776087259,
      1776087287,
      1776087291,
      1776087300,
      1776087334,
      1776087357,
      1776087388,
      1776087418,
      1776087421,
      1776087475,
      1776087497,
      1776087536,
      1776087555,
      1776087587,
      1776087606,
      1776087615,
      1776087652,
      1776087672,
      1776087718,
      1776087737,
      1776087752,
      1776087783,
      1776087832,
      1776087861,
      1776087883,
      1776087900,
      1776087944,
      1776087960,
      1776087982,
      1776088008,
      1776088026,
      1776088076,
      1776088099,
      1776088112
    ],
    "wof:geomhash": "4977b5ea164899884f4cd14bda981199",
    "wof:id": 2015279239,
    "wof:repo": "sfomuseum-data-flights-2026-04"
  },
  "bbox": [
    -122.77474,
    37.37649,
    -122.12779,
    38.49685
  ],
  "geometry": {"coordinates":[[-122.77474,38.49685],[-122.77359,38.45339],[-122.77238,38.40633],[-122.77069,38.3433],[-122.76985,38.31043],[-122.76935,38.29416],[-122.76637,38.23235],[-122.76034,38.20023],[-122.74036,38.13126],[-122.73147,38.1009],[-122.70827,38.02064],[-122.68722,37.94843],[-122.68236,37.93125],[-122.66491,37.89497],[-122.62888,37.85769],[-122.60247,37.83264],[-122.59735,37.82782],[-122.55988,37.79255],[-122.54795,37.78128],[-122.48994,37.72645],[-122.45858,37.69703],[-122.45435,37.69307],[-122.44503,37.68426],[-122.41141,37.65275],[-122.38729,37.63002],[-122.35777,37.59927],[-122.34189,37.56586],[-122.34033,37.56274],[-122.31091,37.51144],[-122.30106,37.49012],[-122.31124,37.45105],[-122.31622,37.43321],[-122.31475,37.40272],[-122.29703,37.3917],[-122.28676,37.38771],[-122.24743,37.37649],[-122.22571,37.38337],[-122.18218,37.40826],[-122.16496,37.41795],[-122.15045,37.42607],[-122.1307,37.44927],[-122.12779,37.48839],[-122.14612,37.50821],[-122.15956,37.52324],[-122.17152,37.53425],[-122.21183,37.55229],[-122.22716,37.55885],[-122.24756,37.56745],[-122.27058,37.57715],[-122.28498,37.58318],[-122.31887,37.59749],[-122.33518,37.60432],[-122.34408,37.60808]],"type":"LineString"}
}
