{
  "id": 2031116009,
  "type": "Feature",
  "properties": {
    "geom:area": 0,
    "geom:bbox": "-122.300000,33.666667,-84.288889,38.251389",
    "geom:latitude": 36.90448723987775,
    "geom:longitude": -103.1553570805855,
    "src:alt_label": "swim-path",
    "src:geom": "swim",
    "swim:altitudes": [
      "037",
      "037",
      "045",
      "045",
      "111",
      "111",
      "111",
      "126",
      "144",
      "144",
      "144",
      "144",
      "184",
      "184",
      "184",
      "199",
      "199",
      "199",
      "214",
      "228",
      "239",
      "239",
      "239",
      "251",
      "251",
      "251",
      "263",
      "294",
      "294",
      "294",
      "294",
      "300C",
      "300C",
      "300C",
      "300C",
      "300C",
      "300C",
      "300C",
      "300C",
      "300C",
      "300C",
      "300C",
      "300C",
      "300C",
      "300C",
      "300C",
      "300C",
      "300C",
      "300C",
      "300C",
      "300C",
      "300C",
      "300C",
      "300C",
      "300C",
      "300C",
      "300C",
      "300C",
      "300C",
      "300C",
      "300C",
      "300C",
      "300C",
      "300C",
      "300C",
      "300C",
      "300C",
      "300C",
      "300C",
      "300C",
      "300C",
      "300C",
      "300C",
      "300C",
      "300C",
      "300C",
      "300C",
      "300C",
      "300C",
      "300C",
      "300C",
      "300C",
      "300C",
      "300C",
      "300C",
      "300C",
      "300C",
      "300C",
      "300C",
      "300C",
      "300C",
      "300C",
      "300C",
      "300C",
      "300C",
      "300C",
      "300C",
      "300C",
      "300C",
      "300C",
      "300C",
      "300C",
      "300C",
      "300C",
      "300C",
      "300C",
      "300C",
      "300C",
      "300C",
      "300C",
      "300C",
      "300C",
      "300C",
      "300C",
      "300C",
      "300C",
      "300C",
      "300C",
      "300C",
      "300C",
      "300C",
      "300C",
      "300C",
      "300C",
      "300C",
      "300C",
      "300C",
      "300C",
      "304",
      "304",
      "304",
      "304",
      "331",
      "331",
      "340C",
      "340C",
      "340C",
      "340C",
      "340C",
      "340C",
      "340C",
      "340C",
      "340C",
      "340C",
      "340C",
      "340C",
      "340C",
      "340C",
      "340C",
      "340C",
      "340C",
      "340C",
      "340C",
      "340C",
      "340C",
      "340C",
      "340C",
      "340C",
      "340C",
      "340C",
      "340C",
      "340C",
      "340C",
      "340C",
      "340C",
      "340C",
      "340C",
      "340C",
      "340C",
      "340C",
      "340C",
      "340C",
      "340C",
      "340C",
      "340C",
      "340C",
      "340C",
      "340C",
      "340C",
      "340C",
      "340C",
      "340C",
      "340C",
      "340C",
      "340C",
      "340C",
      "340C",
      "340C",
      "340C",
      "340C",
      "340C",
      "340C",
      "340C",
      "340C",
      "340C",
      "340C",
      "341C",
      "341C",
      "340C",
      "340C",
      "340C",
      "340C",
      "340C",
      "340C",
      "340C",
      "340C",
      "340C",
      "340C",
      "340C",
      "340C",
      "340C",
      "340C",
      "340C",
      "340C",
      "340C",
      "340C",
      "340C",
      "340C",
      "340C",
      "340C",
      "340C",
      "340C",
      "340C",
      "340C",
      "340C",
      "340C",
      "340C",
      "340C",
      "340C",
      "340C",
      "340C",
      "340C",
      "340C",
      "340C",
      "340C",
      "340C",
      "340C",
      "340C",
      "340C",
      "340C",
      "340C",
      "340C",
      "340C",
      "340C",
      "340C",
      "340C",
      "340C",
      "340C",
      "340C",
      "340C",
      "340C",
      "340C",
      "340C",
      "340C",
      "340C",
      "341",
      "352",
      "360C",
      "360C",
      "360C",
      "360C",
      "360C",
      "360C",
      "360C",
      "360C",
      "360C",
      "360C",
      "360C",
      "360C",
      "360C",
      "360C",
      "360C",
      "360C",
      "360C",
      "360C",
      "360C",
      "360C",
      "360C",
      "360C",
      "360C",
      "360C",
      "360C",
      "360",
      "360",
      "342",
      "282",
      "282",
      "197",
      "192",
      "163",
      "102",
      "091",
      "081",
      "068",
      "051",
      "031",
      "031",
      "021",
      "010",
      "010"
    ],
    "swim:geom": "path",
    "swim:speeds": [
      245,
      245,
      258,
      258,
      336,
      336,
      336,
      381,
      368,
      368,
      368,
      368,
      416,
      416,
      416,
      416,
      416,
      416,
      422,
      433,
      443,
      443,
      443,
      448,
      448,
      448,
      457,
      438,
      438,
      438,
      438,
      428,
      428,
      428,
      428,
      424,
      424,
      424,
      421,
      421,
      421,
      420,
      420,
      420,
      420,
      420,
      420,
      420,
      423,
      423,
      423,
      423,
      420,
      420,
      420,
      420,
      416,
      416,
      416,
      416,
      415,
      415,
      415,
      415,
      415,
      415,
      415,
      415,
      413,
      413,
      412,
      412,
      412,
      412,
      410,
      410,
      412,
      412,
      412,
      412,
      414,
      413,
      413,
      412,
      412,
      411,
      412,
      407,
      407,
      407,
      408,
      411,
      411,
      412,
      412,
      412,
      410,
      410,
      407,
      407,
      407,
      407,
      407,
      407,
      407,
      408,
      408,
      408,
      408,
      408,
      407,
      407,
      407,
      407,
      407,
      407,
      407,
      408,
      408,
      407,
      407,
      407,
      407,
      407,
      407,
      407,
      408,
      409,
      410,
      410,
      410,
      410,
      400,
      400,
      395,
      395,
      395,
      395,
      389,
      388,
      388,
      389,
      391,
      389,
      390,
      390,
      390,
      389,
      389,
      384,
      384,
      384,
      384,
      387,
      389,
      389,
      389,
      385,
      382,
      382,
      382,
      371,
      371,
      370,
      374,
      380,
      377,
      378,
      378,
      379,
      379,
      379,
      379,
      377,
      375,
      374,
      374,
      374,
      374,
      378,
      378,
      378,
      378,
      376,
      376,
      385,
      385,
      385,
      385,
      381,
      381,
      387,
      390,
      390,
      390,
      396,
      397,
      397,
      407,
      395,
      394,
      392,
      392,
      392,
      384,
      384,
      383,
      396,
      405,
      405,
      407,
      404,
      406,
      408,
      406,
      406,
      399,
      401,
      401,
      402,
      398,
      398,
      401,
      401,
      401,
      409,
      413,
      417,
      419,
      419,
      419,
      419,
      421,
      421,
      421,
      420,
      420,
      419,
      417,
      416,
      416,
      416,
      415,
      415,
      415,
      415,
      412,
      411,
      411,
      411,
      411,
      413,
      412,
      410,
      409,
      408,
      407,
      408,
      408,
      408,
      406,
      406,
      405,
      405,
      407,
      410,
      415,
      403,
      402,
      402,
      399,
      402,
      402,
      402,
      414,
      414,
      414,
      414,
      419,
      422,
      424,
      422,
      411,
      411,
      420,
      408,
      408,
      316,
      310,
      304,
      282,
      268,
      257,
      251,
      220,
      203,
      203,
      179,
      142,
      142
    ],
    "swim:timestamps": [
      1777255243,
      1777255243,
      1777255269,
      1777255269,
      1777255450,
      1777255450,
      1777255450,
      1777255510,
      1777255566,
      1777255566,
      1777255566,
      1777255566,
      1777255686,
      1777255686,
      1777255686,
      1777255750,
      1777255750,
      1777255750,
      1777255806,
      1777255866,
      1777255926,
      1777255926,
      1777255926,
      1777255986,
      1777255986,
      1777255986,
      1777256046,
      1777256167,
      1777256167,
      1777256167,
      1777256167,
      1777256347,
      1777256347,
      1777256347,
      1777256347,
      1777256467,
      1777256467,
      1777256467,
      1777256587,
      1777256587,
      1777256587,
      1777256707,
      1777256707,
      1777256767,
      1777256767,
      1777256767,
      1777256888,
      1777256888,
      1777257128,
      1777257128,
      1777257128,
      1777257128,
      1777257368,
      1777257368,
      1777257368,
      1777257368,
      1777257729,
      1777257729,
      1777257729,
      1777257729,
      1777257969,
      1777257969,
      1777258029,
      1777258029,
      1777258029,
      1777258209,
      1777258269,
      1777258269,
      1777258510,
      1777258510,
      1777258648,
      1777258648,
      1777258648,
      1777258648,
      1777258708,
      1777258708,
      1777258828,
      1777258870,
      1777258870,
      1777258870,
      1777258930,
      1777258990,
      1777259069,
      1777259110,
      1777259110,
      1777259170,
      1777259189,
      1777259290,
      1777259290,
      1777259290,
      1777259350,
      1777259410,
      1777259410,
      1777259429,
      1777259531,
      1777259531,
      1777259591,
      1777259591,
      1777259831,
      1777259910,
      1777259910,
      1777259910,
      1777260071,
      1777260071,
      1777260071,
      1777260151,
      1777260191,
      1777260191,
      1777260311,
      1777260311,
      1777260431,
      1777260431,
      1777260451,
      1777260451,
      1777260512,
      1777260512,
      1777260572,
      1777260629,
      1777260689,
      1777260750,
      1777260810,
      1777260810,
      1777260810,
      1777260870,
      1777260870,
      1777260870,
      1777260930,
      1777261049,
      1777261109,
      1777261109,
      1777261109,
      1777261109,
      1777261229,
      1777261229,
      1777261289,
      1777261289,
      1777261289,
      1777261350,
      1777261410,
      1777261472,
      1777261472,
      1777261532,
      1777261650,
      1777261671,
      1777261710,
      1777261710,
      1777261770,
      1777261792,
      1777261852,
      1777261972,
      1777261972,
      1777261972,
      1777262092,
      1777262152,
      1777262192,
      1777262192,
      1777262192,
      1777262273,
      1777262333,
      1777262333,
      1777262333,
      1777262393,
      1777262393,
      1777262430,
      1777262513,
      1777262567,
      1777262573,
      1777262611,
      1777262791,
      1777262851,
      1777262851,
      1777262971,
      1777262971,
      1777263151,
      1777263271,
      1777263331,
      1777263331,
      1777263331,
      1777263331,
      1777263571,
      1777263571,
      1777263631,
      1777263631,
      1777263754,
      1777263754,
      1777263997,
      1777263997,
      1777263997,
      1777263997,
      1777264297,
      1777264297,
      1777264357,
      1777264477,
      1777264477,
      1777264477,
      1777264597,
      1777264717,
      1777264717,
      1777264777,
      1777264868,
      1777264929,
      1777265049,
      1777265049,
      1777265049,
      1777265109,
      1777265109,
      1777265169,
      1777265198,
      1777265378,
      1777265378,
      1777265438,
      1777265469,
      1777265529,
      1777265558,
      1777265709,
      1777265709,
      1777265798,
      1777265918,
      1777265918,
      1777265950,
      1777266038,
      1777266038,
      1777266070,
      1777266218,
      1777266218,
      1777266278,
      1777266338,
      1777266430,
      1777266459,
      1777266459,
      1777266490,
      1777266490,
      1777266550,
      1777266550,
      1777266550,
      1777266730,
      1777266730,
      1777266759,
      1777266971,
      1777267059,
      1777267059,
      1777267059,
      1777267091,
      1777267151,
      1777267179,
      1777267239,
      1777267871,
      1777267931,
      1777267931,
      1777267931,
      1777267931,
      1777268112,
      1777268172,
      1777268232,
      1777268292,
      1777268352,
      1777268412,
      1777268652,
      1777268652,
      1777268652,
      1777268772,
      1777268892,
      1777268937,
      1777268937,
      1777268952,
      1777269072,
      1777269252,
      1777269357,
      1777269373,
      1777269373,
      1777269477,
      1777269597,
      1777269613,
      1777269613,
      1777269973,
      1777269973,
      1777269973,
      1777270093,
      1777270213,
      1777270273,
      1777270333,
      1777270438,
      1777270798,
      1777270858,
      1777271038,
      1777271158,
      1777271158,
      1777271458,
      1777271466,
      1777271578,
      1777271819,
      1777271879,
      1777271939,
      1777271999,
      1777272119,
      1777272239,
      1777272239,
      1777272299,
      1777272372,
      1777272372
    ],
    "wof:geomhash": "5153465cb03df9d69ab56e5fc3a27e80",
    "wof:id": 2031116009,
    "wof:repo": "sfomuseum-data-flights-2026-04"
  },
  "bbox": [
    -122.3,
    33.666666666666664,
    -84.28888888888889,
    38.25138888888889
  ],
  "geometry": {"coordinates":[[-84.31666666666666,33.666666666666664],[-84.31666666666666,33.666666666666664],[-84.28888888888889,33.68472222222222],[-84.28888888888889,33.68472222222222],[-84.44333333333334,33.81444444444444],[-84.44333333333334,33.81444444444444],[-84.44333333333334,33.81444444444444],[-84.57305555555556,33.81527777777777],[-84.69500000000001,33.816111111111105],[-84.69500000000001,33.816111111111105],[-84.69500000000001,33.816111111111105],[-84.69500000000001,33.816111111111105],[-84.97305555555556,33.816944444444445],[-84.97305555555556,33.816944444444445],[-84.97305555555556,33.816944444444445],[-85.09472222222222,33.818333333333335],[-85.09472222222222,33.818333333333335],[-85.09472222222222,33.818333333333335],[-85.2538888888889,33.81944444444445],[-85.39944444444446,33.8275],[-85.54944444444445,33.83444444444444],[-85.54944444444445,33.83444444444444],[-85.54944444444445,33.83444444444444],[-85.69777777777779,33.850833333333334],[-85.69777777777779,33.850833333333334],[-85.69777777777779,33.850833333333334],[-85.83999999999999,33.89388888888889],[-86.11861111111111,33.975],[-86.11861111111111,33.975],[-86.11861111111111,33.975],[-86.11861111111111,33.975],[-86.52277777777778,34.09055555555556],[-86.52277777777778,34.09055555555556],[-86.52277777777778,34.09055555555556],[-86.52277777777778,34.09055555555556],[-86.7911111111111,34.166666666666664],[-86.7911111111111,34.166666666666664],[-86.7911111111111,34.166666666666664],[-87.05888888888889,34.24194444444444],[-87.05888888888889,34.24194444444444],[-87.05888888888889,34.24194444444444],[-87.3261111111111,34.31583333333333],[-87.3261111111111,34.31583333333333],[-87.45916666666668,34.3525],[-87.45916666666668,34.3525],[-87.45916666666668,34.3525],[-87.71083333333334,34.42166666666667],[-87.71083333333334,34.42166666666667],[-88.25333333333333,34.56777777777778],[-88.25333333333333,34.56777777777778],[-88.25333333333333,34.56777777777778],[-88.25333333333333,34.56777777777778],[-88.81194444444444,34.71555555555556],[-88.81194444444444,34.71555555555556],[-88.81194444444444,34.71555555555556],[-88.81194444444444,34.71555555555556],[-89.61444444444444,34.92222222222222],[-89.61444444444444,34.92222222222222],[-89.61444444444444,34.92222222222222],[-89.61444444444444,34.92222222222222],[-90.13972222222223,35.061388888888885],[-90.13972222222223,35.061388888888885],[-90.2725,35.10055555555556],[-90.2725,35.10055555555556],[-90.2725,35.10055555555556],[-90.66805555555555,35.215833333333336],[-90.80194444444444,35.25416666666667],[-90.80194444444444,35.25416666666667],[-91.33166666666666,35.405277777777776],[-91.33166666666666,35.405277777777776],[-91.63166666666666,35.48888888888889],[-91.63166666666666,35.48888888888889],[-91.63166666666666,35.48888888888889],[-91.63166666666666,35.48888888888889],[-91.76277777777777,35.52583333333333],[-91.76277777777777,35.52583333333333],[-92.03305555555555,35.58638888888889],[-92.1438888888889,35.60333333333333],[-92.1438888888889,35.60333333333333],[-92.1438888888889,35.60333333333333],[-92.28027777777778,35.625],[-92.42083333333333,35.64722222222222],[-92.58388888888888,35.67361111111111],[-92.69416666666667,35.689722222222215],[-92.69416666666667,35.689722222222215],[-92.83055555555555,35.71055555555556],[-92.85694444444444,35.71527777777778],[-93.09916666666666,35.75138888888889],[-93.09916666666666,35.75138888888889],[-93.09916666666666,35.75138888888889],[-93.23611111111111,35.77194444444444],[-93.37472222222222,35.7925],[-93.37472222222222,35.7925],[-93.43055555555556,35.80083333333333],[-93.65027777777779,35.83305555555556],[-93.65027777777779,35.83305555555556],[-93.78666666666666,35.85277777777778],[-93.78666666666666,35.85277777777778],[-94.3586111111111,35.93388888888889],[-94.52388888888889,35.956944444444446],[-94.52388888888889,35.956944444444446],[-94.52388888888889,35.956944444444446],[-94.91027777777778,36.00944444444445],[-94.91027777777778,36.00944444444445],[-94.91027777777778,36.00944444444445],[-95.07666666666667,36.03944444444444],[-95.1575,36.0575],[-95.1575,36.0575],[-95.43,36.117777777777775],[-95.43,36.117777777777775],[-95.70305555555557,36.17777777777778],[-95.70305555555557,36.17777777777778],[-95.74277777777777,36.186388888888885],[-95.74277777777777,36.186388888888885],[-95.8963888888889,36.21666666666667],[-95.8963888888889,36.21666666666667],[-96.03388888888888,36.24166666666667],[-96.17055555555557,36.26694444444444],[-96.28083333333333,36.2875],[-96.41694444444445,36.31222222222222],[-96.55583333333333,36.33722222222222],[-96.55583333333333,36.33722222222222],[-96.55583333333333,36.33722222222222],[-96.69194444444445,36.361666666666665],[-96.69194444444445,36.361666666666665],[-96.69194444444445,36.361666666666665],[-96.83027777777778,36.38638888888889],[-97.10527777777777,36.434999999999995],[-97.24527777777777,36.45944444444445],[-97.24527777777777,36.45944444444445],[-97.24527777777777,36.45944444444445],[-97.24527777777777,36.45944444444445],[-97.515,36.505833333333335],[-97.515,36.505833333333335],[-97.6463888888889,36.52861111111111],[-97.6463888888889,36.52861111111111],[-97.6463888888889,36.52861111111111],[-97.78472222222221,36.57222222222222],[-97.90777777777778,36.61666666666667],[-98.0275,36.663333333333334],[-98.0275,36.663333333333334],[-98.14722222222223,36.71638888888889],[-98.38805555555557,36.816944444444445],[-98.4213888888889,36.830555555555556],[-98.50694444444444,36.86611111111111],[-98.50694444444444,36.86611111111111],[-98.62805555555555,36.91694444444444],[-98.65972222222223,36.93111111111111],[-98.77972222222222,36.981388888888894],[-99.01416666666667,37.083333333333336],[-99.01416666666667,37.083333333333336],[-99.01416666666667,37.083333333333336],[-99.24722222222222,37.18888888888888],[-99.36583333333333,37.24166666666667],[-99.45333333333333,37.281666666666666],[-99.45333333333333,37.281666666666666],[-99.45333333333333,37.281666666666666],[-99.5975,37.348888888888894],[-99.71388888888889,37.4],[-99.71388888888889,37.4],[-99.71388888888889,37.4],[-99.83694444444444,37.43055555555555],[-99.83694444444444,37.43055555555555],[-99.93861111111111,37.44083333333333],[-100.09555555555555,37.45888888888889],[-100.22722222222222,37.474722222222226],[-100.22722222222222,37.475],[-100.33111111111111,37.48694444444445],[-100.72583333333334,37.531666666666666],[-100.83194444444445,37.54333333333333],[-100.83194444444445,37.54333333333333],[-101.10166666666666,37.57277777777778],[-101.10166666666666,37.57277777777778],[-101.49583333333334,37.615],[-101.75555555555556,37.64194444444444],[-101.88472222222222,37.655],[-101.88472222222222,37.655],[-101.88472222222222,37.655],[-101.88472222222222,37.655],[-102.40972222222223,37.70722222222223],[-102.40972222222223,37.70722222222223],[-102.5425,37.72],[-102.5425,37.72],[-102.80194444444444,37.74444444444445],[-102.80194444444444,37.74444444444445],[-103.36361111111111,37.795833333333334],[-103.36361111111111,37.795833333333334],[-103.36361111111111,37.795833333333334],[-103.36361111111111,37.795833333333334],[-104.02666666666667,37.85277777777778],[-104.02666666666667,37.85277777777778],[-104.16166666666668,37.86361111111111],[-104.43388888888889,37.885555555555555],[-104.43388888888889,37.885555555555555],[-104.43388888888889,37.885555555555555],[-104.71055555555556,37.907222222222224],[-104.98611111111111,37.92805555555555],[-104.98611111111111,37.92805555555555],[-105.12916666666666,37.93888888888888],[-105.3386111111111,37.948055555555555],[-105.47527777777778,37.95722222222223],[-105.74694444444445,37.97916666666667],[-105.74694444444445,37.97916666666667],[-105.74694444444445,37.97916666666667],[-105.87777777777777,37.98833333333334],[-105.87777777777777,37.98833333333334],[-106.01277777777777,37.99944444444444],[-106.08083333333333,38.004444444444445],[-106.50527777777778,38.031666666666666],[-106.50527777777778,38.031666666666666],[-106.66638888888889,38.04138888888889],[-106.72722222222222,38.04277777777778],[-106.87083333333332,38.05166666666666],[-106.955,38.05833333333333],[-107.29694444444445,38.075],[-107.29694444444445,38.075],[-107.48694444444445,38.08777777777778],[-107.7713888888889,38.1025],[-107.7713888888889,38.1025],[-107.85722222222222,38.10611111111111],[-108.04916666666666,38.11611111111111],[-108.04916666666666,38.11611111111111],[-108.13833333333334,38.11833333333333],[-108.47416666666666,38.13583333333333],[-108.47416666666666,38.13583333333333],[-108.61972222222222,38.1425],[-108.76555555555555,38.14833333333333],[-109.00416666666666,38.15833333333333],[-109.06222222222222,38.160555555555554],[-109.06222222222222,38.160555555555554],[-109.15083333333334,38.16416666666667],[-109.15083333333334,38.16416666666667],[-109.30194444444444,38.16972222222222],[-109.30194444444444,38.16972222222222],[-109.30194444444444,38.16972222222222],[-109.7461111111111,38.18583333333333],[-109.7461111111111,38.18583333333333],[-109.80499999999999,38.187777777777775],[-110.33555555555554,38.20416666666667],[-110.54083333333332,38.21],[-110.54083333333332,38.21],[-110.54083333333332,38.21],[-110.62805555555555,38.21222222222222],[-110.77388888888889,38.215833333333336],[-110.83111111111111,38.217222222222226],[-110.99083333333333,38.221111111111114],[-112.53444444444445,38.24638888888889],[-112.67861111111111,38.24777777777778],[-112.67861111111111,38.24777777777778],[-112.67861111111111,38.24777777777778],[-112.67861111111111,38.24777777777778],[-113.11388888888888,38.25083333333333],[-113.25805555555556,38.25138888888889],[-113.4025,38.25083333333333],[-113.54444444444444,38.244166666666665],[-113.68583333333333,38.238055555555555],[-113.83083333333333,38.231388888888894],[-114.40111111111112,38.20305555555556],[-114.40111111111112,38.20305555555556],[-114.40111111111112,38.20305555555556],[-114.68805555555556,38.18805555555555],[-114.97194444444445,38.17222222222222],[-115.08611111111111,38.16722222222222],[-115.08611111111111,38.16722222222222],[-115.11694444444444,38.163888888888884],[-115.4025,38.14722222222222],[-115.83972222222222,38.12027777777778],[-116.10722222222222,38.10277777777778],[-116.13194444444444,38.10111111111111],[-116.13194444444444,38.10111111111111],[-116.38694444444445,38.08361111111111],[-116.67027777777778,38.06388888888888],[-116.69694444444445,38.06194444444444],[-116.69694444444445,38.06194444444444],[-117.57638888888889,37.99583333333334],[-117.57638888888889,37.99583333333334],[-117.57638888888889,37.99583333333334],[-117.86722222222221,37.972500000000004],[-118.16194444444444,37.948055555555555],[-118.31222222222222,37.93527777777778],[-118.45972222222223,37.9225],[-118.69638888888889,37.901944444444446],[-119.57305555555556,37.801944444444445],[-119.71638888888889,37.78444444444444],[-120.14805555555556,37.73111111111111],[-120.44222222222223,37.69416666666666],[-120.44222222222223,37.69416666666666],[-121.01055555555556,37.62694444444445],[-121.05,37.61666666666667],[-121.23333333333333,37.59666666666667],[-121.63277777777778,37.54888888888889],[-121.72083333333333,37.52777777777778],[-121.8086111111111,37.50666666666667],[-121.89222222222223,37.49166666666667],[-122.05277777777778,37.50083333333333],[-122.18805555555556,37.54222222222222],[-122.18805555555556,37.54222222222222],[-122.24472222222222,37.56638888888889],[-122.3,37.6],[-122.3,37.6]],"type":"LineString"}
}
