{
  "id": 2031092687,
  "type": "Feature",
  "properties": {
    "geom:area": 0,
    "geom:bbox": "-122.309722,29.847222,-95.341944,37.700000",
    "geom:latitude": 34.508051903934316,
    "geom:longitude": -108.67797146166778,
    "src:alt_label": "swim-path",
    "src:geom": "swim",
    "swim:altitudes": [
      "009",
      "009",
      "009",
      "016",
      "031",
      "031",
      "052",
      "052",
      "057",
      "101",
      "105",
      "115",
      "116",
      "132",
      "165",
      "165",
      "165",
      "180",
      "180",
      "194",
      "209",
      "209",
      "222",
      "223",
      "223",
      "236",
      "248",
      "260",
      "260",
      "260",
      "268",
      "268",
      "277",
      "277",
      "280C",
      "280C",
      "280C",
      "280C",
      "280C",
      "280C",
      "280C",
      "280C",
      "280C",
      "280C",
      "280C",
      "280C",
      "280C",
      "280C",
      "280C",
      "280C",
      "280C",
      "280C",
      "280C",
      "280C",
      "280C",
      "280C",
      "280C",
      "280C",
      "280C",
      "280C",
      "280C",
      "280C",
      "280C",
      "280C",
      "280C",
      "280C",
      "280C",
      "280C",
      "280C",
      "280C",
      "280C",
      "280C",
      "280C",
      "280C",
      "280C",
      "280C",
      "280C",
      "280C",
      "280C",
      "280C",
      "280C",
      "280C",
      "280C",
      "280C",
      "280C",
      "280C",
      "280C",
      "280C",
      "280C",
      "280C",
      "280C",
      "280C",
      "280C",
      "280C",
      "280C",
      "280C",
      "280",
      "288",
      "295",
      "300C",
      "300C",
      "300C",
      "300C",
      "300C",
      "300C",
      "300C",
      "300C",
      "300C",
      "300C",
      "300C",
      "300C",
      "300C",
      "300C",
      "300C",
      "300C",
      "300C",
      "300C",
      "300C",
      "300C",
      "300C",
      "300C",
      "300C",
      "300C",
      "300C",
      "300C",
      "300C",
      "300C",
      "300C",
      "300C",
      "300C",
      "300C",
      "300C",
      "300C",
      "300C",
      "300C",
      "300C",
      "300C",
      "300C",
      "300C",
      "300C",
      "300C",
      "300C",
      "300C",
      "300C",
      "300C",
      "300C",
      "300C",
      "300C",
      "300C",
      "300C",
      "300C",
      "300C",
      "300C",
      "300C",
      "300C",
      "300C",
      "300C",
      "300C",
      "300C",
      "300C",
      "300C",
      "300C",
      "300C",
      "300C",
      "300C",
      "300C",
      "300C",
      "300C",
      "300C",
      "300C",
      "300",
      "300",
      "312",
      "312",
      "319C",
      "319C",
      "320C",
      "320C",
      "320C",
      "320C",
      "320C",
      "320C",
      "320C",
      "320C",
      "320C",
      "320C",
      "320C",
      "320C",
      "320C",
      "320C",
      "320C",
      "320C",
      "320C",
      "320C",
      "320C",
      "320C",
      "320C",
      "320C",
      "320C",
      "320C",
      "320C",
      "320C",
      "320C",
      "320C",
      "320C",
      "320C",
      "320C",
      "320C",
      "320C",
      "320C",
      "320C",
      "320C",
      "320C",
      "320C",
      "320C",
      "320C",
      "320C",
      "320C",
      "320C",
      "320C",
      "320C",
      "320C",
      "320C",
      "320C",
      "320C",
      "320C",
      "320C",
      "320C",
      "320C",
      "320C",
      "320C",
      "320C",
      "320C",
      "320C",
      "320C",
      "320C",
      "320C",
      "320C",
      "320C",
      "320C",
      "320C",
      "320C",
      "320C",
      "320C",
      "320C",
      "320C",
      "320C",
      "320C",
      "320C",
      "320C",
      "320C",
      "320C",
      "320C",
      "320C",
      "320C",
      "320C",
      "320C",
      "320C",
      "320C",
      "320C",
      "320C",
      "320C",
      "320C",
      "320C",
      "320C",
      "320C",
      "320C",
      "320C",
      "320C",
      "320C",
      "320C",
      "320C",
      "320C",
      "320C",
      "320C",
      "320C",
      "320C",
      "320C",
      "320C",
      "320C",
      "320C",
      "320C",
      "320C",
      "320C",
      "320C",
      "320C",
      "320C",
      "320C",
      "320C",
      "320C",
      "320C",
      "320C",
      "320C",
      "320C",
      "320C",
      "320C",
      "320",
      "320",
      "320",
      "320",
      "320",
      "320",
      "318",
      "308",
      "308",
      "308",
      "308",
      "241",
      "224",
      "224",
      "224",
      "224",
      "202",
      "202",
      "202",
      "120",
      "120",
      "120",
      "120",
      "105",
      "105",
      "105",
      "098",
      "098",
      "098",
      "065",
      "065",
      "060",
      "060",
      "049",
      "049",
      "049",
      "034",
      "034",
      "034",
      "034",
      "009",
      "009",
      "009",
      "009"
    ],
    "swim:geom": "path",
    "swim:speeds": [
      172,
      172,
      172,
      192,
      225,
      225,
      257,
      257,
      266,
      279,
      278,
      313,
      327,
      314,
      371,
      371,
      360,
      382,
      382,
      396,
      404,
      404,
      413,
      414,
      414,
      418,
      425,
      427,
      427,
      427,
      431,
      431,
      437,
      437,
      441,
      441,
      441,
      441,
      441,
      441,
      441,
      441,
      441,
      440,
      439,
      439,
      439,
      439,
      439,
      439,
      439,
      437,
      437,
      437,
      436,
      435,
      435,
      436,
      436,
      437,
      437,
      440,
      440,
      440,
      441,
      442,
      439,
      439,
      439,
      438,
      438,
      436,
      436,
      436,
      436,
      436,
      436,
      436,
      435,
      435,
      436,
      435,
      432,
      432,
      431,
      431,
      430,
      430,
      428,
      428,
      427,
      427,
      428,
      429,
      429,
      429,
      429,
      429,
      424,
      419,
      419,
      418,
      418,
      418,
      419,
      419,
      420,
      420,
      420,
      421,
      422,
      423,
      423,
      423,
      423,
      423,
      425,
      425,
      425,
      425,
      425,
      425,
      423,
      420,
      415,
      415,
      415,
      421,
      421,
      421,
      421,
      430,
      430,
      430,
      430,
      430,
      429,
      429,
      429,
      424,
      417,
      412,
      412,
      405,
      408,
      408,
      408,
      407,
      407,
      404,
      405,
      406,
      406,
      406,
      406,
      406,
      406,
      403,
      403,
      403,
      403,
      403,
      400,
      400,
      400,
      400,
      400,
      389,
      388,
      388,
      389,
      389,
      387,
      387,
      387,
      387,
      383,
      382,
      382,
      382,
      388,
      388,
      388,
      377,
      377,
      383,
      382,
      382,
      380,
      380,
      380,
      380,
      380,
      379,
      379,
      379,
      379,
      379,
      380,
      380,
      381,
      381,
      381,
      382,
      382,
      382,
      382,
      382,
      382,
      382,
      382,
      382,
      381,
      381,
      380,
      380,
      380,
      380,
      377,
      377,
      377,
      377,
      377,
      377,
      379,
      380,
      380,
      380,
      380,
      379,
      378,
      378,
      378,
      378,
      378,
      378,
      379,
      379,
      379,
      380,
      387,
      387,
      387,
      387,
      384,
      384,
      384,
      384,
      384,
      388,
      388,
      388,
      388,
      388,
      396,
      396,
      396,
      398,
      398,
      398,
      398,
      399,
      399,
      399,
      399,
      399,
      399,
      399,
      379,
      374,
      374,
      373,
      373,
      373,
      372,
      372,
      373,
      373,
      373,
      373,
      377,
      377,
      377,
      379,
      379,
      382,
      382,
      382,
      383,
      383,
      383,
      384,
      384,
      384,
      383,
      383,
      383,
      383,
      383,
      383,
      383,
      383,
      384,
      387,
      387,
      387,
      387,
      379,
      361,
      361,
      361,
      361,
      371,
      371,
      371,
      332,
      332,
      332,
      332,
      318,
      318,
      318,
      288,
      288,
      288,
      227,
      227,
      196,
      196,
      193,
      193,
      193,
      162,
      162,
      162,
      162,
      156,
      156,
      156,
      156
    ],
    "swim:timestamps": [
      1776939474,
      1776939474,
      1776939474,
      1776939498,
      1776939546,
      1776939546,
      1776939606,
      1776939606,
      1776939618,
      1776939726,
      1776939732,
      1776939786,
      1776939793,
      1776939855,
      1776939966,
      1776939966,
      1776939975,
      1776940035,
      1776940035,
      1776940086,
      1776940147,
      1776940147,
      1776940207,
      1776940215,
      1776940215,
      1776940275,
      1776940335,
      1776940395,
      1776940395,
      1776940395,
      1776940456,
      1776940456,
      1776940516,
      1776940516,
      1776940567,
      1776940576,
      1776940576,
      1776940627,
      1776940747,
      1776940747,
      1776940816,
      1776940816,
      1776940816,
      1776940867,
      1776940987,
      1776940996,
      1776940996,
      1776941047,
      1776941047,
      1776941047,
      1776941107,
      1776941227,
      1776941227,
      1776941227,
      1776941347,
      1776941536,
      1776941536,
      1776941588,
      1776941596,
      1776941648,
      1776941656,
      1776941768,
      1776941768,
      1776941776,
      1776941828,
      1776941956,
      1776942128,
      1776942128,
      1776942128,
      1776942197,
      1776942197,
      1776942317,
      1776942317,
      1776942368,
      1776942377,
      1776942428,
      1776942437,
      1776942437,
      1776942497,
      1776942557,
      1776942587,
      1776942646,
      1776942677,
      1776942677,
      1776942767,
      1776942826,
      1776942857,
      1776942857,
      1776942917,
      1776942917,
      1776943037,
      1776943037,
      1776943097,
      1776943129,
      1776943157,
      1776943157,
      1776943187,
      1776943217,
      1776943247,
      1776943277,
      1776943277,
      1776943306,
      1776943306,
      1776943368,
      1776943458,
      1776943489,
      1776943518,
      1776943518,
      1776943546,
      1776943578,
      1776943606,
      1776943668,
      1776943668,
      1776943668,
      1776943698,
      1776943758,
      1776943818,
      1776943818,
      1776943818,
      1776943818,
      1776943818,
      1776943847,
      1776943907,
      1776943969,
      1776944118,
      1776944118,
      1776944178,
      1776944267,
      1776944267,
      1776944267,
      1776944267,
      1776944509,
      1776944509,
      1776944509,
      1776944539,
      1776944567,
      1776944629,
      1776944629,
      1776944629,
      1776944747,
      1776944867,
      1776944989,
      1776944989,
      1776945289,
      1776945407,
      1776945407,
      1776945407,
      1776945507,
      1776945507,
      1776945567,
      1776945589,
      1776945627,
      1776945649,
      1776945649,
      1776945707,
      1776945747,
      1776945747,
      1776945867,
      1776945867,
      1776945888,
      1776945888,
      1776945927,
      1776946068,
      1776946068,
      1776946068,
      1776946068,
      1776946068,
      1776946491,
      1776946506,
      1776946506,
      1776946551,
      1776946551,
      1776946626,
      1776946626,
      1776946668,
      1776946668,
      1776946747,
      1776946807,
      1776946807,
      1776946807,
      1776946867,
      1776946867,
      1776946867,
      1776946927,
      1776946927,
      1776947047,
      1776947107,
      1776947107,
      1776947149,
      1776947149,
      1776947149,
      1776947269,
      1776947287,
      1776947329,
      1776947329,
      1776947329,
      1776947347,
      1776947347,
      1776947450,
      1776947450,
      1776947467,
      1776947511,
      1776947511,
      1776947527,
      1776947587,
      1776947631,
      1776947631,
      1776947691,
      1776947691,
      1776947691,
      1776947707,
      1776947707,
      1776947751,
      1776947751,
      1776947767,
      1776947767,
      1776947767,
      1776947767,
      1776947887,
      1776947887,
      1776947947,
      1776947947,
      1776947947,
      1776947947,
      1776948188,
      1776948308,
      1776948308,
      1776948308,
      1776948308,
      1776948428,
      1776948488,
      1776948488,
      1776948488,
      1776948668,
      1776948668,
      1776948728,
      1776948788,
      1776948788,
      1776948788,
      1776948848,
      1776949028,
      1776949088,
      1776949088,
      1776949088,
      1776949389,
      1776949389,
      1776949389,
      1776949389,
      1776949389,
      1776949627,
      1776949627,
      1776949627,
      1776949627,
      1776949627,
      1776949929,
      1776949929,
      1776949929,
      1776949987,
      1776949987,
      1776949987,
      1776949987,
      1776950109,
      1776950109,
      1776950167,
      1776950167,
      1776950167,
      1776950167,
      1776950167,
      1776950410,
      1776950470,
      1776950470,
      1776950528,
      1776950528,
      1776950528,
      1776950588,
      1776950588,
      1776950650,
      1776950650,
      1776950650,
      1776950650,
      1776950830,
      1776950830,
      1776950830,
      1776950888,
      1776950888,
      1776951068,
      1776951068,
      1776951068,
      1776951188,
      1776951188,
      1776951188,
      1776951248,
      1776951248,
      1776951248,
      1776951428,
      1776951428,
      1776951548,
      1776951548,
      1776951548,
      1776951608,
      1776951608,
      1776951608,
      1776951668,
      1776951679,
      1776951679,
      1776951679,
      1776951679,
      1776951849,
      1776951909,
      1776951909,
      1776951909,
      1776951909,
      1776951969,
      1776951969,
      1776951969,
      1776952209,
      1776952209,
      1776952209,
      1776952209,
      1776952269,
      1776952269,
      1776952269,
      1776952329,
      1776952329,
      1776952329,
      1776952569,
      1776952569,
      1776952629,
      1776952629,
      1776952689,
      1776952689,
      1776952689,
      1776952809,
      1776952809,
      1776952809,
      1776952809,
      1776952990,
      1776952990,
      1776952990,
      1776952990
    ],
    "wof:geomhash": "f89121929e2ddc65fb25c59e1fafc7e9",
    "wof:id": 2031092687,
    "wof:repo": "sfomuseum-data-flights-2026-04"
  },
  "bbox": [
    -122.30972222222222,
    29.84722222222222,
    -95.34194444444444,
    37.7
  ],
  "geometry": {"coordinates":[[-95.34194444444444,29.955277777777777],[-95.34194444444444,29.955277777777777],[-95.34194444444444,29.955277777777777],[-95.34416666666667,29.936666666666667],[-95.38972222222223,29.911666666666665],[-95.38972222222223,29.911666666666665],[-95.45444444444445,29.872777777777777],[-95.45444444444445,29.872777777777777],[-95.47111111111111,29.86416666666667],[-95.61055555555555,29.84722222222222],[-95.62166666666666,29.852500000000003],[-95.69388888888889,29.889166666666664],[-95.70805555555556,29.895833333333332],[-95.78916666666666,29.935555555555556],[-95.98861111111111,30.034444444444446],[-95.98861111111111,30.034444444444446],[-95.99083333333333,30.034444444444446],[-96.10416666666666,30.079166666666666],[-96.10416666666666,30.079166666666666],[-96.21777777777778,30.09472222222222],[-96.34666666666666,30.114444444444445],[-96.34666666666666,30.114444444444445],[-96.48944444444444,30.13611111111111],[-96.49138888888889,30.136388888888888],[-96.49138888888889,30.136388888888888],[-96.62333333333332,30.156388888888888],[-96.75944444444444,30.176944444444445],[-96.89611111111111,30.199166666666667],[-96.89611111111111,30.199166666666667],[-96.89611111111111,30.199166666666667],[-97.02305555555556,30.247222222222224],[-97.02305555555556,30.247222222222224],[-97.15027777777779,30.299444444444447],[-97.15027777777779,30.299444444444447],[-97.27972222222222,30.352500000000003],[-97.27972222222222,30.352500000000003],[-97.27972222222222,30.352500000000003],[-97.38361111111112,30.395],[-97.64250000000001,30.50111111111111],[-97.64250000000001,30.50111111111111],[-97.79722222222222,30.56416666666667],[-97.79722222222222,30.56416666666667],[-97.79722222222222,30.56416666666667],[-97.89833333333334,30.60527777777778],[-98.15722222222223,30.709444444444443],[-98.185,30.720555555555553],[-98.185,30.720555555555553],[-98.28472222222221,30.760277777777777],[-98.28472222222221,30.760277777777777],[-98.28472222222221,30.760277777777777],[-98.41555555555556,30.8125],[-98.67194444444445,30.914166666666667],[-98.67194444444445,30.914166666666667],[-98.67194444444445,30.914166666666667],[-98.92027777777778,31.026944444444442],[-99.30222222222221,31.23222222222222],[-99.30222222222221,31.23222222222222],[-99.39750000000001,31.283055555555556],[-99.42222222222223,31.29638888888889],[-99.51944444444445,31.348055555555554],[-99.54222222222222,31.360277777777778],[-99.76138888888889,31.476388888888888],[-99.76138888888889,31.476388888888888],[-99.79527777777777,31.494444444444447],[-99.88277777777778,31.540555555555557],[-100.165,31.68861111111111],[-100.51027777777777,31.868333333333332],[-100.51027777777777,31.868333333333332],[-100.51027777777777,31.868333333333332],[-100.6588888888889,31.94527777777778],[-100.6588888888889,31.94527777777778],[-100.87805555555555,32.058055555555555],[-100.87805555555555,32.058055555555555],[-100.99166666666667,32.11472222222223],[-100.99972222222222,32.120555555555555],[-101.11333333333333,32.177499999999995],[-101.12222222222222,32.183055555555555],[-101.12222222222222,32.183055555555555],[-101.245,32.24583333333334],[-101.37666666666667,32.3125],[-101.42555555555556,32.33694444444445],[-101.54583333333333,32.39805555555556],[-101.62027777777777,32.43555555555555],[-101.62027777777777,32.43555555555555],[-101.78722222222223,32.51888888888889],[-101.90833333333335,32.580000000000005],[-101.98222222222222,32.61666666666667],[-101.98222222222222,32.61666666666667],[-102.10472222222222,32.677499999999995],[-102.10472222222222,32.677499999999995],[-102.34472222222222,32.796388888888885],[-102.34472222222222,32.796388888888885],[-102.48444444444445,32.86527777777778],[-102.535,32.89],[-102.60583333333332,32.92472222222222],[-102.60583333333332,32.92472222222222],[-102.65416666666667,32.948611111111106],[-102.72611111111111,32.98361111111111],[-102.77472222222222,33.007222222222225],[-102.8461111111111,33.04222222222222],[-102.8461111111111,33.04222222222222],[-102.89416666666668,33.065555555555555],[-102.89416666666668,33.065555555555555],[-103.01194444444444,33.1225],[-103.2038888888889,33.21527777777778],[-103.2525,33.23861111111111],[-103.32444444444444,33.27305555555555],[-103.32444444444444,33.27305555555555],[-103.37333333333332,33.29666666666667],[-103.44611111111111,33.33166666666667],[-103.49638888888889,33.355555555555554],[-103.61722222222221,33.413333333333334],[-103.61722222222221,33.413333333333334],[-103.61722222222221,33.413333333333334],[-103.69,33.448055555555555],[-103.81222222222222,33.505833333333335],[-103.93555555555555,33.564166666666665],[-103.93555555555555,33.564166666666665],[-103.93555555555555,33.564166666666665],[-103.93555555555555,33.564166666666665],[-103.93555555555555,33.564166666666665],[-103.99472222222222,33.592222222222226],[-104.11583333333333,33.64944444444444],[-104.23666666666666,33.70611111111111],[-104.53944444444444,33.846944444444446],[-104.53944444444444,33.846944444444446],[-104.66055555555556,33.903055555555554],[-104.85083333333333,33.990833333333335],[-104.85083333333333,33.990833333333335],[-104.85083333333333,33.990833333333335],[-104.85083333333333,33.990833333333335],[-105.35722222222222,34.222500000000004],[-105.35722222222222,34.222500000000004],[-105.35722222222222,34.222500000000004],[-105.40972222222223,34.24611111111111],[-105.48333333333333,34.279444444444444],[-105.60972222222222,34.33638888888889],[-105.60972222222222,34.33638888888889],[-105.60972222222222,34.33638888888889],[-105.87416666666665,34.42027777777778],[-106.11444444444444,34.48555555555556],[-106.38083333333333,34.556666666666665],[-106.38083333333333,34.556666666666665],[-107.05277777777778,34.733333333333334],[-107.30555555555556,34.79861111111111],[-107.30555555555556,34.79861111111111],[-107.30555555555556,34.79861111111111],[-107.50972222222222,34.85055555555556],[-107.50972222222222,34.85055555555556],[-107.64027777777778,34.88361111111111],[-107.69277777777778,34.897777777777776],[-107.77277777777778,34.91694444444444],[-107.82416666666666,34.93083333333333],[-107.82416666666666,34.93083333333333],[-107.95722222222223,34.96416666666667],[-108.03555555555555,34.983333333333334],[-108.03555555555555,34.983333333333334],[-108.30722222222222,35.05166666666666],[-108.30722222222222,35.05166666666666],[-108.35916666666667,35.06444444444444],[-108.35916666666667,35.06444444444444],[-108.4363888888889,35.083333333333336],[-108.74972222222222,35.16],[-108.74972222222222,35.16],[-108.74972222222222,35.16],[-108.74972222222222,35.16],[-108.74972222222222,35.16],[-109.62888888888888,35.32638888888889],[-109.67111111111112,35.335],[-109.67111111111112,35.335],[-109.75833333333334,35.34583333333334],[-109.75833333333334,35.34583333333334],[-109.94777777777779,35.374722222222225],[-109.94777777777779,35.374722222222225],[-110.01583333333333,35.384166666666665],[-110.01583333333333,35.384166666666665],[-110.20305555555557,35.41166666666666],[-110.33111111111111,35.43],[-110.33111111111111,35.43],[-110.33111111111111,35.43],[-110.46166666666667,35.44916666666666],[-110.46166666666667,35.44916666666666],[-110.46166666666667,35.44916666666666],[-110.58749999999999,35.467222222222226],[-110.58749999999999,35.467222222222226],[-110.84583333333333,35.50361111111111],[-110.9713888888889,35.520833333333336],[-110.9713888888889,35.520833333333336],[-111.04222222222222,35.530833333333334],[-111.04222222222222,35.530833333333334],[-111.04222222222222,35.530833333333334],[-111.29777777777778,35.56583333333333],[-111.35388888888889,35.57333333333334],[-111.42416666666666,35.58277777777778],[-111.42416666666666,35.58277777777778],[-111.42416666666666,35.58277777777778],[-111.48194444444445,35.590833333333336],[-111.48194444444445,35.590833333333336],[-111.68333333333334,35.617777777777775],[-111.68333333333334,35.617777777777775],[-111.73722222222223,35.624722222222225],[-111.81333333333333,35.63472222222222],[-111.81333333333333,35.63472222222222],[-111.86638888888888,35.64194444444444],[-111.99638888888889,35.65888888888889],[-112.06944444444444,35.66833333333333],[-112.06944444444444,35.66833333333333],[-112.19666666666667,35.68472222222222],[-112.19666666666667,35.68472222222222],[-112.19666666666667,35.68472222222222],[-112.25361111111111,35.69194444444444],[-112.25361111111111,35.69194444444444],[-112.32638888888889,35.70111111111111],[-112.32638888888889,35.70111111111111],[-112.38083333333333,35.70805555555556],[-112.38083333333333,35.70805555555556],[-112.38083333333333,35.70805555555556],[-112.38083333333333,35.70805555555556],[-112.63388888888889,35.74],[-112.63388888888889,35.74],[-112.76027777777777,35.75555555555555],[-112.76027777777777,35.75555555555555],[-112.76027777777777,35.75555555555555],[-112.76027777777777,35.75555555555555],[-113.26472222222222,35.81666666666667],[-113.52166666666666,35.846944444444446],[-113.52166666666666,35.846944444444446],[-113.52166666666666,35.846944444444446],[-113.52166666666666,35.846944444444446],[-113.78027777777778,35.87694444444445],[-113.90916666666668,35.89138888888889],[-113.90916666666668,35.89138888888889],[-113.90916666666668,35.89138888888889],[-114.2936111111111,35.93444444444444],[-114.2936111111111,35.93444444444444],[-114.4213888888889,35.94833333333333],[-114.55055555555555,35.962500000000006],[-114.55055555555555,35.962500000000006],[-114.55055555555555,35.962500000000006],[-114.67944444444444,35.97638888888889],[-115.05027777777778,36.0775],[-115.16777777777779,36.12861111111111],[-115.16777777777779,36.12861111111111],[-115.16777777777779,36.12861111111111],[-115.76305555555555,36.38583333333333],[-115.76305555555555,36.38583333333333],[-115.76305555555555,36.38583333333333],[-115.76305555555555,36.38583333333333],[-115.76305555555555,36.38583333333333],[-116.20666666666666,36.57416666666667],[-116.20666666666666,36.57416666666667],[-116.20666666666666,36.57416666666667],[-116.20666666666666,36.57416666666667],[-116.20666666666666,36.57416666666667],[-116.80749999999999,36.855000000000004],[-116.80749999999999,36.855000000000004],[-116.80749999999999,36.855000000000004],[-116.88277777777778,36.92305555555555],[-116.88277777777778,36.92305555555555],[-116.88277777777778,36.92305555555555],[-116.88277777777778,36.92305555555555],[-117.08472222222221,37.105555555555554],[-117.08472222222221,37.105555555555554],[-117.16000000000001,37.17305555555555],[-117.16000000000001,37.17305555555555],[-117.16000000000001,37.17305555555555],[-117.16000000000001,37.17305555555555],[-117.16000000000001,37.17305555555555],[-117.53472222222221,37.49138888888889],[-117.66472222222222,37.50611111111111],[-117.66472222222222,37.50611111111111],[-117.79472222222222,37.51694444444444],[-117.79472222222222,37.51694444444444],[-117.79472222222222,37.51694444444444],[-117.9238888888889,37.52722222222222],[-117.9238888888889,37.52722222222222],[-118.05416666666666,37.5375],[-118.05416666666666,37.5375],[-118.05416666666666,37.5375],[-118.05416666666666,37.5375],[-118.44916666666667,37.56805555555556],[-118.44916666666667,37.56805555555556],[-118.44916666666667,37.56805555555556],[-118.58388888888888,37.57805555555556],[-118.58388888888888,37.57805555555556],[-118.9725,37.60638888888889],[-118.9725,37.60638888888889],[-118.9725,37.60638888888889],[-119.24027777777778,37.625],[-119.24027777777778,37.625],[-119.24027777777778,37.625],[-119.37583333333333,37.634166666666665],[-119.37583333333333,37.634166666666665],[-119.37583333333333,37.634166666666665],[-119.77583333333334,37.660555555555554],[-119.77583333333334,37.660555555555554],[-120.04333333333334,37.677499999999995],[-120.04333333333334,37.677499999999995],[-120.04333333333334,37.677499999999995],[-120.17805555555556,37.68555555555555],[-120.17805555555556,37.68555555555555],[-120.17805555555556,37.68555555555555],[-120.31277777777777,37.69361111111111],[-120.35,37.7],[-120.35,37.7],[-120.35,37.7],[-120.35,37.7],[-120.71416666666667,37.66305555555555],[-120.83805555555556,37.64805555555556],[-120.83805555555556,37.64805555555556],[-120.83805555555556,37.64805555555556],[-120.83805555555556,37.64805555555556],[-120.96555555555555,37.632777777777775],[-120.96555555555555,37.632777777777775],[-120.96555555555555,37.632777777777775],[-121.46138888888889,37.57027777777778],[-121.46138888888889,37.57027777777778],[-121.46138888888889,37.57027777777778],[-121.46138888888889,37.57027777777778],[-121.57083333333333,37.55722222222222],[-121.57083333333333,37.55722222222222],[-121.57083333333333,37.55722222222222],[-121.67166666666667,37.53944444444444],[-121.67166666666667,37.53944444444444],[-121.67166666666667,37.53944444444444],[-121.94111111111111,37.4375],[-121.94111111111111,37.4375],[-122.00333333333333,37.46416666666667],[-122.00333333333333,37.46416666666667],[-122.06305555555555,37.489444444444445],[-122.06305555555555,37.489444444444445],[-122.06305555555555,37.489444444444445],[-122.16416666666667,37.532222222222224],[-122.16416666666667,37.532222222222224],[-122.16416666666667,37.532222222222224],[-122.16416666666667,37.532222222222224],[-122.30972222222222,37.593611111111116],[-122.30972222222222,37.593611111111116],[-122.30972222222222,37.593611111111116],[-122.30972222222222,37.593611111111116]],"type":"LineString"}
}
