{
  "id": 2031135463,
  "type": "Feature",
  "properties": {
    "geom:area": 0,
    "geom:bbox": "-122.480000,19.420000,-99.070000,37.660000",
    "geom:latitude": 28.87889479393101,
    "geom:longitude": -110.53835836773831,
    "src:alt_label": "swim-route",
    "src:geom": "swim",
    "swim:geom": "route",
    "wof:geomhash": "aece1ba02fe9f110d14419feadb935f5",
    "wof:id": 2031135463,
    "wof:repo": "sfomuseum-data-flights-2026-04"
  },
  "bbox": [
    -122.48,
    19.42,
    -99.07,
    37.66
  ],
  "geometry": {"coordinates":[[-122.38,37.62],[-122.48,37.66],[-122.48,37.66],[-122.48,37.65],[-122.48,37.59],[-122.48,37.59],[-122.48,37.56],[-122.48,37.51],[-122.47,37.5],[-122.47,37.49],[-122.43,37.46],[-122.43,37.46],[-122.41,37.44],[-122.38,37.42],[-122.36,37.4],[-122.34,37.39],[-122.29,37.35],[-122.2,37.29],[-122.15,37.26],[-122.04,37.19],[-121.97,37.15],[-121.91,37.11],[-121.8,37.03],[-121.78,37.02],[-121.71,36.98],[-121.59,36.9],[-121.53,36.86],[-121.39,36.78],[-121.33,36.73],[-121.25,36.68],[-121.13,36.61],[-121.1,36.59],[-120.95,36.49],[-120.78,36.37],[-120.59,36.25],[-120.55,36.22],[-120.5,36.19],[-119.98,35.83],[-119.96,35.82],[-119.7,35.62],[-119.38,35.37],[-119.21,35.24],[-118.57,34.75],[-118.4,34.61],[-118.12,34.39],[-118.07,34.36],[-117.73,34.08],[-117.53,33.92],[-117.12,33.69],[-116.71,33.47],[-116.41,33.3],[-116.12,33.13],[-115.34,32.69],[-115.32,32.68],[-115.24,32.63],[-115.17,32.55],[-114.84,32.38],[-113.72,31.57],[-113.3,31.37],[-113.3,31.3],[-112.61,30.69],[-112.13,30.47],[-111.1,29.72],[-110.35,29.17],[-109.35,28.4],[-108.77,27.94],[-108.73,27.92],[-107.48,26.95],[-107.45,26.92],[-106.75,26.27],[-106.41,25.95],[-106.23,25.79],[-105.9,25.65],[-105.53,25.31],[-104.88,24.72],[-103.9,23.95],[-103.04,23.2],[-102.69,22.89],[-101.75,21.56],[-101.66,21.51],[-101.28,21.27],[-100.95,21.07],[-100.95,21.07],[-100.57,20.8],[-100.51,20.75],[-100.38,20.66],[-100.37,20.65],[-100.25,20.57],[-100.01,20.39],[-99.76,20.21],[-99.61,20.05],[-99.6,19.83],[-99.6,19.78],[-99.08,19.42],[-99.07,19.43]],"type":"LineString"}
}
