{
  "id": 2031099595,
  "type": "Feature",
  "properties": {
    "geom:area": 0,
    "geom:bbox": "-122.351389,37.447500,-71.016667,43.288056",
    "geom:latitude": 41.53021271174164,
    "geom:longitude": -96.66655882404415,
    "src:alt_label": "swim-path",
    "src:geom": "swim",
    "swim:altitudes": [
      "004",
      "021",
      "021",
      "025",
      "051",
      "108",
      "108",
      "132",
      "132",
      "132",
      "201",
      "201",
      "201",
      "227",
      "259",
      "302",
      "313",
      "313",
      "313",
      "338C",
      "338C",
      "340C",
      "340C",
      "340C",
      "340C",
      "340C",
      "340C",
      "340C",
      "340C",
      "340C",
      "340C",
      "340C",
      "340C",
      "341C",
      "341C",
      "340C",
      "340C",
      "340C",
      "340C",
      "340C",
      "340C",
      "340C",
      "340C",
      "340C",
      "340C",
      "340C",
      "340C",
      "340C",
      "340C",
      "341C",
      "341C",
      "340C",
      "340C",
      "340C",
      "340C",
      "340C",
      "340C",
      "340C",
      "340C",
      "340C",
      "340C",
      "340C",
      "340C",
      "340C",
      "340C",
      "340C",
      "340C",
      "340C",
      "340C",
      "340C",
      "340C",
      "340C",
      "340C",
      "340C",
      "340C",
      "340C",
      "340C",
      "340C",
      "341C",
      "341C",
      "340C",
      "340C",
      "340C",
      "340C",
      "340C",
      "340C",
      "341C",
      "341C",
      "340C",
      "340C",
      "340C",
      "340C",
      "340C",
      "340C",
      "340",
      "340",
      "340",
      "341",
      "341",
      "327",
      "327",
      "327",
      "324",
      "324",
      "323",
      "323",
      "323",
      "320C",
      "320C",
      "320C",
      "320C",
      "320C",
      "320C",
      "320C",
      "320C",
      "320C",
      "320C",
      "320C",
      "320C",
      "320C",
      "320C",
      "320C",
      "320C",
      "320C",
      "320C",
      "320C",
      "320C",
      "320C",
      "320C",
      "320C",
      "320C",
      "320C",
      "320C",
      "320C",
      "320C",
      "320C",
      "320C",
      "320C",
      "320C",
      "320C",
      "320C",
      "320C",
      "320C",
      "326",
      "326",
      "326",
      "326",
      "340C",
      "340C",
      "340C",
      "340C",
      "340C",
      "340C",
      "340C",
      "340C",
      "340C",
      "340C",
      "340C",
      "340C",
      "340C",
      "340C",
      "340C",
      "340C",
      "340C",
      "340C",
      "340C",
      "340C",
      "340C",
      "340C",
      "340C",
      "340C",
      "340C",
      "340C",
      "340C",
      "341C",
      "340C",
      "340C",
      "340C",
      "340C",
      "340C",
      "340C",
      "340C",
      "340C",
      "340C",
      "340C",
      "340C",
      "340C",
      "340C",
      "340C",
      "340C",
      "340C",
      "340C",
      "340C",
      "340C",
      "340C",
      "340C",
      "340C",
      "340C",
      "340C",
      "340C",
      "340C",
      "340C",
      "340C",
      "340C",
      "341C",
      "341C",
      "340C",
      "340C",
      "340C",
      "340C",
      "340C",
      "340C",
      "340C",
      "340C",
      "340C",
      "340C",
      "340C",
      "340C",
      "340C",
      "340C",
      "340C",
      "340C",
      "340C",
      "340C",
      "340C",
      "340C",
      "340",
      "341",
      "341",
      "341",
      "340",
      "340",
      "340",
      "340",
      "340",
      "340",
      "340",
      "340",
      "340",
      "340",
      "340",
      "340",
      "340",
      "340",
      "340",
      "340",
      "340",
      "340",
      "340",
      "340",
      "340",
      "340",
      "340",
      "340",
      "340",
      "340",
      "340",
      "340",
      "340",
      "340",
      "340",
      "340",
      "340",
      "340",
      "340",
      "340",
      "340",
      "340",
      "340",
      "340",
      "340",
      "340",
      "340",
      "336",
      "336",
      "336",
      "329",
      "329",
      "327",
      "327",
      "320C",
      "320C",
      "320C",
      "320C",
      "320C",
      "321C",
      "321C",
      "321C",
      "321C",
      "321C",
      "320C",
      "320C",
      "320C",
      "320C",
      "320C",
      "320C",
      "320C",
      "320C",
      "320C",
      "320C",
      "320C",
      "320C",
      "320C",
      "320C",
      "320C",
      "321C",
      "320C",
      "320C",
      "320C",
      "320C",
      "320C",
      "320C",
      "320C",
      "320C",
      "320C",
      "320C",
      "320C",
      "320C",
      "320C",
      "320C",
      "320C",
      "320C",
      "320C",
      "320C",
      "320C",
      "320C",
      "320C",
      "320C",
      "320C",
      "320C",
      "320C",
      "320C",
      "320C",
      "320C",
      "320C",
      "320C",
      "320C",
      "320C",
      "320C",
      "320C",
      "320C",
      "320C",
      "320C",
      "320C",
      "320C",
      "320C",
      "320C",
      "320C",
      "320C",
      "320C",
      "320C",
      "320C",
      "320C",
      "320C",
      "320C",
      "320C",
      "320C",
      "320C",
      "321C",
      "321C",
      "320C",
      "320C",
      "320C",
      "320C",
      "320C",
      "320C",
      "320C",
      "320C",
      "320C",
      "321C",
      "320C",
      "320C",
      "320C",
      "320C",
      "320C",
      "320C",
      "320C",
      "320C",
      "320C",
      "320C",
      "320C",
      "320C",
      "320C",
      "320C",
      "320C",
      "320C",
      "320C",
      "320C",
      "320C",
      "320C",
      "320C",
      "320C",
      "320C",
      "320C",
      "320C",
      "320C",
      "320C",
      "320C",
      "320C",
      "320C",
      "320C",
      "320C",
      "320C",
      "320C",
      "320C",
      "320C",
      "320C",
      "320C",
      "320C",
      "320C",
      "320C",
      "320C",
      "320C",
      "320C",
      "320C",
      "320C",
      "320C",
      "320C",
      "320C",
      "320C",
      "320C",
      "320C",
      "320C",
      "320C",
      "320C",
      "320C",
      "320C",
      "320C",
      "320C",
      "320C",
      "320C",
      "320C",
      "320C",
      "320C",
      "320C",
      "320C",
      "320C",
      "320C",
      "320C",
      "320C",
      "320C",
      "320C",
      "320C",
      "320C",
      "320C",
      "320C",
      "320C",
      "320C",
      "320C",
      "320C",
      "320C",
      "320C",
      "320C",
      "320C",
      "320C",
      "320C",
      "320C",
      "320C",
      "320C",
      "320C",
      "320C",
      "320C",
      "320C",
      "320C",
      "320C",
      "320C",
      "320C",
      "320C",
      "320C",
      "320C",
      "320C",
      "320C",
      "320C",
      "320C",
      "320C",
      "320C",
      "320C",
      "320C",
      "320C",
      "320C",
      "320C",
      "320C",
      "320C",
      "320C",
      "320",
      "320",
      "320",
      "310",
      "310",
      "310",
      "273",
      "273",
      "273",
      "243",
      "243",
      "231",
      "231",
      "231",
      "211",
      "204",
      "204",
      "204",
      "182",
      "182",
      "164",
      "126",
      "114",
      "114",
      "111",
      "102",
      "102",
      "099",
      "095",
      "095",
      "066",
      "066",
      "066",
      "061",
      "061",
      "056",
      "056",
      "045",
      "030",
      "030",
      "026",
      "026",
      "002",
      "002",
      "002"
    ],
    "swim:geom": "path",
    "swim:speeds": [
      163,
      217,
      217,
      236,
      251,
      273,
      273,
      319,
      319,
      319,
      360,
      360,
      360,
      370,
      407,
      420,
      421,
      421,
      421,
      417,
      417,
      422,
      422,
      422,
      418,
      422,
      422,
      420,
      420,
      418,
      429,
      429,
      455,
      420,
      420,
      417,
      417,
      414,
      414,
      410,
      410,
      410,
      410,
      409,
      409,
      409,
      409,
      411,
      411,
      417,
      417,
      417,
      417,
      417,
      418,
      418,
      418,
      418,
      418,
      425,
      425,
      425,
      425,
      429,
      431,
      431,
      430,
      430,
      430,
      429,
      431,
      435,
      435,
      435,
      436,
      435,
      435,
      435,
      436,
      436,
      437,
      437,
      437,
      440,
      440,
      440,
      441,
      441,
      440,
      440,
      440,
      440,
      440,
      440,
      448,
      448,
      448,
      449,
      449,
      451,
      451,
      451,
      451,
      451,
      452,
      452,
      452,
      457,
      457,
      457,
      446,
      446,
      427,
      427,
      427,
      427,
      425,
      425,
      425,
      425,
      425,
      425,
      428,
      428,
      428,
      428,
      425,
      425,
      425,
      425,
      423,
      420,
      420,
      420,
      417,
      417,
      417,
      417,
      417,
      419,
      419,
      419,
      419,
      416,
      416,
      416,
      416,
      406,
      406,
      406,
      406,
      405,
      405,
      405,
      402,
      402,
      400,
      400,
      400,
      397,
      393,
      393,
      393,
      393,
      393,
      396,
      396,
      396,
      396,
      394,
      394,
      394,
      394,
      394,
      404,
      406,
      407,
      407,
      407,
      407,
      407,
      413,
      413,
      413,
      413,
      413,
      418,
      418,
      404,
      404,
      409,
      409,
      409,
      410,
      410,
      417,
      417,
      417,
      417,
      416,
      416,
      397,
      397,
      397,
      414,
      414,
      416,
      416,
      415,
      415,
      415,
      415,
      415,
      416,
      416,
      418,
      416,
      415,
      415,
      415,
      415,
      415,
      414,
      414,
      414,
      414,
      416,
      419,
      419,
      419,
      419,
      419,
      419,
      418,
      418,
      418,
      419,
      419,
      418,
      418,
      418,
      418,
      418,
      418,
      417,
      417,
      407,
      407,
      408,
      408,
      405,
      404,
      404,
      404,
      403,
      403,
      406,
      406,
      402,
      402,
      403,
      403,
      397,
      397,
      397,
      397,
      398,
      398,
      398,
      398,
      394,
      394,
      393,
      397,
      397,
      397,
      397,
      397,
      393,
      393,
      399,
      399,
      393,
      393,
      392,
      393,
      393,
      393,
      394,
      394,
      394,
      392,
      392,
      391,
      388,
      388,
      388,
      388,
      390,
      390,
      390,
      390,
      393,
      396,
      396,
      393,
      383,
      383,
      383,
      388,
      386,
      386,
      386,
      387,
      387,
      390,
      391,
      391,
      390,
      390,
      390,
      390,
      389,
      389,
      389,
      379,
      379,
      385,
      385,
      385,
      385,
      385,
      385,
      385,
      386,
      386,
      387,
      387,
      398,
      398,
      400,
      400,
      399,
      399,
      399,
      399,
      401,
      401,
      402,
      402,
      402,
      402,
      402,
      402,
      403,
      403,
      404,
      404,
      406,
      406,
      407,
      401,
      401,
      401,
      401,
      401,
      400,
      400,
      400,
      399,
      392,
      392,
      390,
      390,
      390,
      387,
      387,
      387,
      387,
      388,
      389,
      389,
      389,
      389,
      387,
      387,
      389,
      389,
      389,
      389,
      391,
      391,
      393,
      393,
      394,
      394,
      394,
      396,
      396,
      396,
      396,
      396,
      396,
      396,
      396,
      398,
      398,
      398,
      401,
      401,
      401,
      405,
      405,
      406,
      406,
      407,
      407,
      409,
      408,
      408,
      409,
      409,
      409,
      409,
      411,
      411,
      411,
      411,
      411,
      411,
      413,
      413,
      413,
      413,
      415,
      415,
      415,
      415,
      418,
      418,
      419,
      419,
      421,
      421,
      421,
      421,
      422,
      423,
      423,
      423,
      424,
      424,
      424,
      425,
      425,
      425,
      425,
      425,
      425,
      425,
      426,
      427,
      427,
      430,
      431,
      431,
      431,
      431,
      431,
      433,
      433,
      432,
      432,
      432,
      433,
      433,
      434,
      434,
      434,
      435,
      435,
      435,
      435,
      435,
      440,
      440,
      441,
      442,
      442,
      442,
      433,
      433,
      433,
      417,
      417,
      391,
      391,
      391,
      378,
      376,
      376,
      376,
      364,
      364,
      360,
      336,
      312,
      312,
      295,
      252,
      252,
      244,
      244,
      244,
      228,
      228,
      228,
      232,
      232,
      232,
      232,
      230,
      205,
      205,
      205,
      205,
      127,
      127,
      127
    ],
    "swim:timestamps": [
      1777032833,
      1777032881,
      1777032881,
      1777032904,
      1777032964,
      1777033096,
      1777033096,
      1777033216,
      1777033216,
      1777033216,
      1777033457,
      1777033457,
      1777033457,
      1777033577,
      1777033817,
      1777034118,
      1777034178,
      1777034178,
      1777034178,
      1777034358,
      1777034358,
      1777034598,
      1777034598,
      1777034598,
      1777034719,
      1777034771,
      1777034771,
      1777034831,
      1777034831,
      1777034839,
      1777034891,
      1777034891,
      1777034959,
      1777035019,
      1777035019,
      1777035072,
      1777035072,
      1777035132,
      1777035132,
      1777035252,
      1777035252,
      1777035312,
      1777035312,
      1777035319,
      1777035319,
      1777035552,
      1777035560,
      1777035612,
      1777035612,
      1777035733,
      1777035733,
      1777035740,
      1777035740,
      1777035800,
      1777035973,
      1777036093,
      1777036093,
      1777036093,
      1777036093,
      1777036754,
      1777036754,
      1777036754,
      1777036754,
      1777036875,
      1777036995,
      1777037055,
      1777037115,
      1777037115,
      1777037115,
      1777037175,
      1777037295,
      1777037415,
      1777037415,
      1777037415,
      1777037475,
      1777037596,
      1777037596,
      1777037596,
      1777037776,
      1777037776,
      1777037896,
      1777037896,
      1777037896,
      1777038016,
      1777038016,
      1777038016,
      1777038076,
      1777038076,
      1777038197,
      1777038197,
      1777038279,
      1777038279,
      1777038279,
      1777038279,
      1777038519,
      1777038519,
      1777038519,
      1777038557,
      1777038557,
      1777038759,
      1777038759,
      1777038759,
      1777038798,
      1777038798,
      1777038820,
      1777038820,
      1777038820,
      1777039000,
      1777039000,
      1777039000,
      1777039180,
      1777039180,
      1777039360,
      1777039360,
      1777039360,
      1777039360,
      1777039481,
      1777039481,
      1777039481,
      1777039541,
      1777039541,
      1777039541,
      1777039722,
      1777039722,
      1777039722,
      1777039722,
      1777039843,
      1777039843,
      1777039843,
      1777039843,
      1777039903,
      1777040083,
      1777040083,
      1777040083,
      1777040262,
      1777040262,
      1777040262,
      1777040322,
      1777040322,
      1777040442,
      1777040442,
      1777040442,
      1777040442,
      1777040622,
      1777040622,
      1777040622,
      1777040622,
      1777040863,
      1777040863,
      1777040863,
      1777040863,
      1777040983,
      1777040983,
      1777040983,
      1777041163,
      1777041163,
      1777041223,
      1777041223,
      1777041223,
      1777041283,
      1777041464,
      1777041464,
      1777041464,
      1777041464,
      1777041524,
      1777041644,
      1777041644,
      1777041644,
      1777041644,
      1777041944,
      1777041944,
      1777041944,
      1777042004,
      1777042004,
      1777042124,
      1777042185,
      1777042245,
      1777042245,
      1777042245,
      1777042365,
      1777042365,
      1777042485,
      1777042485,
      1777042545,
      1777042545,
      1777042545,
      1777042605,
      1777042605,
      1777042846,
      1777042846,
      1777042966,
      1777042966,
      1777042966,
      1777043026,
      1777043026,
      1777043266,
      1777043266,
      1777043266,
      1777043266,
      1777043386,
      1777043386,
      1777043458,
      1777043458,
      1777043458,
      1777043518,
      1777043518,
      1777043567,
      1777043567,
      1777043698,
      1777043807,
      1777043807,
      1777043807,
      1777043818,
      1777043878,
      1777043927,
      1777043991,
      1777043998,
      1777044058,
      1777044058,
      1777044107,
      1777044107,
      1777044107,
      1777044168,
      1777044168,
      1777044168,
      1777044168,
      1777044288,
      1777044408,
      1777044408,
      1777044408,
      1777044528,
      1777044528,
      1777044528,
      1777044592,
      1777044592,
      1777044592,
      1777044659,
      1777044659,
      1777044840,
      1777044840,
      1777044840,
      1777044840,
      1777044892,
      1777044892,
      1777044952,
      1777044952,
      1777045020,
      1777045020,
      1777045072,
      1777045072,
      1777045080,
      1777045140,
      1777045140,
      1777045140,
      1777045200,
      1777045200,
      1777045253,
      1777045253,
      1777045260,
      1777045260,
      1777045313,
      1777045313,
      1777045500,
      1777045500,
      1777045500,
      1777045500,
      1777045673,
      1777045673,
      1777045673,
      1777045673,
      1777045681,
      1777045741,
      1777045801,
      1777045853,
      1777045853,
      1777045853,
      1777045913,
      1777045913,
      1777045921,
      1777045921,
      1777046094,
      1777046094,
      1777046154,
      1777046154,
      1777046161,
      1777046214,
      1777046214,
      1777046214,
      1777046221,
      1777046221,
      1777046274,
      1777046514,
      1777046514,
      1777046522,
      1777046642,
      1777046642,
      1777046642,
      1777046694,
      1777046754,
      1777046754,
      1777046754,
      1777046754,
      1777046875,
      1777046894,
      1777046894,
      1777046935,
      1777047015,
      1777047015,
      1777047015,
      1777047055,
      1777047075,
      1777047075,
      1777047075,
      1777047115,
      1777047115,
      1777047175,
      1777047195,
      1777047195,
      1777047235,
      1777047235,
      1777047255,
      1777047255,
      1777047295,
      1777047295,
      1777047295,
      1777047375,
      1777047375,
      1777047435,
      1777047475,
      1777047475,
      1777047475,
      1777047475,
      1777047675,
      1777047675,
      1777047716,
      1777047716,
      1777047736,
      1777047736,
      1777047856,
      1777047856,
      1777047916,
      1777047916,
      1777048016,
      1777048016,
      1777048036,
      1777048036,
      1777048156,
      1777048156,
      1777048216,
      1777048276,
      1777048276,
      1777048276,
      1777048317,
      1777048317,
      1777048457,
      1777048457,
      1777048497,
      1777048497,
      1777048557,
      1777048557,
      1777048637,
      1777048857,
      1777048857,
      1777048857,
      1777049037,
      1777049037,
      1777049098,
      1777049098,
      1777049098,
      1777049158,
      1777049218,
      1777049218,
      1777049278,
      1777049278,
      1777049278,
      1777049458,
      1777049458,
      1777049458,
      1777049458,
      1777049578,
      1777049698,
      1777049698,
      1777049698,
      1777049698,
      1777049939,
      1777049939,
      1777050059,
      1777050059,
      1777050059,
      1777050059,
      1777050179,
      1777050179,
      1777050299,
      1777050299,
      1777050359,
      1777050359,
      1777050359,
      1777050479,
      1777050479,
      1777050479,
      1777050479,
      1777050539,
      1777050539,
      1777050539,
      1777050539,
      1777050660,
      1777050660,
      1777050660,
      1777050720,
      1777050720,
      1777050720,
      1777050840,
      1777050840,
      1777050900,
      1777050900,
      1777050960,
      1777050960,
      1777051002,
      1777051020,
      1777051020,
      1777051080,
      1777051080,
      1777051080,
      1777051122,
      1777051200,
      1777051200,
      1777051242,
      1777051242,
      1777051302,
      1777051302,
      1777051320,
      1777051362,
      1777051362,
      1777051362,
      1777051381,
      1777051422,
      1777051422,
      1777051422,
      1777051501,
      1777051501,
      1777051561,
      1777051561,
      1777051621,
      1777051621,
      1777051621,
      1777051662,
      1777051723,
      1777051741,
      1777051741,
      1777051741,
      1777051783,
      1777051801,
      1777051843,
      1777051861,
      1777051861,
      1777051903,
      1777051903,
      1777051921,
      1777051921,
      1777051921,
      1777051981,
      1777052023,
      1777052023,
      1777052143,
      1777052203,
      1777052203,
      1777052203,
      1777052282,
      1777052282,
      1777052323,
      1777052323,
      1777052342,
      1777052342,
      1777052342,
      1777052444,
      1777052444,
      1777052504,
      1777052504,
      1777052504,
      1777052564,
      1777052564,
      1777052624,
      1777052624,
      1777052624,
      1777052984,
      1777052984,
      1777053044,
      1777053105,
      1777053105,
      1777053105,
      1777053202,
      1777053202,
      1777053202,
      1777053285,
      1777053285,
      1777053322,
      1777053322,
      1777053322,
      1777053377,
      1777053405,
      1777053405,
      1777053405,
      1777053465,
      1777053465,
      1777053502,
      1777053622,
      1777053677,
      1777053677,
      1777053705,
      1777053765,
      1777053765,
      1777053802,
      1777053826,
      1777053826,
      1777053982,
      1777053982,
      1777053982,
      1777054006,
      1777054006,
      1777054066,
      1777054066,
      1777054126,
      1777054222,
      1777054222,
      1777054246,
      1777054246,
      1777054426,
      1777054426,
      1777054426
    ],
    "wof:geomhash": "741d8a903dc9b96582ffb3f181a8de98",
    "wof:id": 2031099595,
    "wof:repo": "sfomuseum-data-flights-2026-04"
  },
  "bbox": [
    -122.35138888888888,
    37.4475,
    -71.01666666666667,
    43.28805555555555
  ],
  "geometry": {"coordinates":[[-71.01666666666667,42.35],[-71.06666666666666,42.333333333333336],[-71.06666666666666,42.333333333333336],[-71.07888888888888,42.31805555555556],[-71.15277777777779,42.27972222222222],[-71.19388888888889,42.38611111111111],[-71.19388888888889,42.38611111111111],[-71.1825,42.53388888888889],[-71.1825,42.53388888888889],[-71.1825,42.53388888888889],[-71.45611111111111,42.815],[-71.45611111111111,42.815],[-71.45611111111111,42.815],[-71.72694444444444,42.865833333333335],[-72.3025,42.97083333333334],[-73.06361111111111,43.105000000000004],[-73.22,43.13194444444444],[-73.22,43.13194444444444],[-73.22,43.13194444444444],[-73.67333333333333,43.2025],[-73.67333333333333,43.2025],[-74.32,43.24916666666667],[-74.32,43.24916666666667],[-74.32,43.24916666666667],[-74.63722222222223,43.25805555555556],[-74.79277777777777,43.26277777777778],[-74.79277777777777,43.26277777777778],[-74.95194444444445,43.26555555555556],[-74.95194444444445,43.26555555555556],[-74.95583333333333,43.26583333333333],[-75.11027777777777,43.26166666666666],[-75.11027777777777,43.26166666666666],[-75.26777777777778,43.20333333333333],[-75.42694444444444,43.186388888888885],[-75.42694444444444,43.186388888888885],[-75.57888888888888,43.19194444444444],[-75.57888888888888,43.19194444444444],[-75.73472222222222,43.19833333333333],[-75.73472222222222,43.19833333333333],[-76.04638888888888,43.21027777777778],[-76.04638888888888,43.21027777777778],[-76.20194444444445,43.215833333333336],[-76.20194444444445,43.215833333333336],[-76.23388888888888,43.216944444444444],[-76.23388888888888,43.216944444444444],[-76.82277777777777,43.236111111111114],[-76.85333333333332,43.23722222222222],[-76.97972222222222,43.240833333333335],[-76.97972222222222,43.240833333333335],[-77.29666666666667,43.24944444444444],[-77.29666666666667,43.24944444444444],[-77.32944444444443,43.250277777777775],[-77.32944444444443,43.250277777777775],[-77.48916666666666,43.254444444444445],[-77.9225,43.263888888888886],[-78.24027777777778,43.269999999999996],[-78.24027777777778,43.269999999999996],[-78.24027777777778,43.269999999999996],[-78.24027777777778,43.269999999999996],[-80.03611111111111,43.28805555555555],[-80.03611111111111,43.28805555555555],[-80.03611111111111,43.28805555555555],[-80.03611111111111,43.28805555555555],[-80.36388888888888,43.28805555555555],[-80.69250000000001,43.2875],[-80.85805555555555,43.28666666666666],[-81.0225,43.285555555555554],[-81.0225,43.285555555555554],[-81.0225,43.285555555555554],[-81.16027777777778,43.28472222222222],[-81.48777777777778,43.28194444444444],[-81.82249999999999,43.27777777777778],[-81.82249999999999,43.27777777777778],[-81.82249999999999,43.27777777777778],[-81.98972222222223,43.275277777777774],[-82.31888888888888,43.269999999999996],[-82.31888888888888,43.269999999999996],[-82.31888888888888,43.269999999999996],[-82.81388888888888,43.245555555555555],[-82.81388888888888,43.245555555555555],[-83.13861111111112,43.193888888888885],[-83.13861111111112,43.193888888888885],[-83.13861111111112,43.193888888888885],[-83.46527777777779,43.14083333333333],[-83.46527777777779,43.14083333333333],[-83.46527777777779,43.14083333333333],[-83.65583333333333,43.10916666666667],[-83.65583333333333,43.10916666666667],[-83.9786111111111,43.055277777777775],[-83.9786111111111,43.055277777777775],[-84.19416666666667,43.01833333333333],[-84.19416666666667,43.01833333333333],[-84.19416666666667,43.01833333333333],[-84.19416666666667,43.01833333333333],[-84.85555555555555,42.903055555555554],[-84.85555555555555,42.903055555555554],[-84.85555555555555,42.903055555555554],[-84.95416666666667,42.88527777777778],[-84.95416666666667,42.88527777777778],[-85.52222222222223,42.79138888888889],[-85.52222222222223,42.79138888888889],[-85.52222222222223,42.79138888888889],[-85.62249999999999,42.79111111111111],[-85.62249999999999,42.79111111111111],[-85.69500000000001,42.79361111111111],[-85.69500000000001,42.79361111111111],[-85.69500000000001,42.79361111111111],[-86.22027777777778,42.80888888888889],[-86.22027777777778,42.80888888888889],[-86.22027777777778,42.80888888888889],[-86.73111111111112,42.82166666666667],[-86.73111111111112,42.82166666666667],[-87.22277777777778,42.831944444444446],[-87.22277777777778,42.831944444444446],[-87.22277777777778,42.831944444444446],[-87.22277777777778,42.831944444444446],[-87.53583333333333,42.837500000000006],[-87.53583333333333,42.837500000000006],[-87.53583333333333,42.837500000000006],[-87.69305555555556,42.839444444444446],[-87.69305555555556,42.839444444444446],[-87.69305555555556,42.839444444444446],[-88.165,42.845555555555556],[-88.165,42.845555555555556],[-88.165,42.845555555555556],[-88.165,42.845555555555556],[-88.48611111111111,42.848333333333336],[-88.48611111111111,42.848333333333336],[-88.48611111111111,42.848333333333336],[-88.48611111111111,42.848333333333336],[-88.64333333333335,42.849444444444444],[-89.12666666666667,42.85138888888889],[-89.12666666666667,42.85138888888889],[-89.12666666666667,42.85138888888889],[-89.5886111111111,42.842222222222226],[-89.5886111111111,42.842222222222226],[-89.5886111111111,42.842222222222226],[-89.74722222222222,42.841944444444444],[-89.74722222222222,42.841944444444444],[-90.07166666666666,42.84916666666667],[-90.07166666666666,42.84916666666667],[-90.07166666666666,42.84916666666667],[-90.07166666666666,42.84916666666667],[-90.55138888888888,42.845],[-90.55138888888888,42.845],[-90.55138888888888,42.845],[-90.55138888888888,42.845],[-91.16472222222222,42.83722222222222],[-91.16472222222222,42.83722222222222],[-91.16472222222222,42.83722222222222],[-91.16472222222222,42.83722222222222],[-91.46833333333333,42.831944444444446],[-91.46833333333333,42.831944444444446],[-91.46833333333333,42.831944444444446],[-91.94222222222223,42.82222222222222],[-91.94222222222223,42.82222222222222],[-92.09194444444444,42.81888888888889],[-92.09194444444444,42.81888888888889],[-92.09194444444444,42.81888888888889],[-92.24222222222222,42.81527777777777],[-92.68611111111112,42.80305555555555],[-92.68611111111112,42.80305555555555],[-92.68611111111112,42.80305555555555],[-92.68611111111112,42.80305555555555],[-92.83277777777778,42.79861111111111],[-93.13305555555554,42.78944444444444],[-93.13305555555554,42.78944444444444],[-93.13305555555554,42.78944444444444],[-93.13305555555554,42.78944444444444],[-93.87944444444443,42.76222222222222],[-93.87944444444443,42.76222222222222],[-93.87944444444443,42.76222222222222],[-94.02666666666667,42.75611111111111],[-94.02666666666667,42.75611111111111],[-94.33361111111111,42.74333333333333],[-94.48666666666666,42.73638888888889],[-94.63083333333333,42.730000000000004],[-94.63083333333333,42.730000000000004],[-94.63083333333333,42.730000000000004],[-94.93722222222223,42.71527777777778],[-94.93722222222223,42.71527777777778],[-95.2475,42.7],[-95.2475,42.7],[-95.40166666666667,42.69194444444444],[-95.40166666666667,42.69194444444444],[-95.40166666666667,42.69194444444444],[-95.55916666666667,42.68333333333333],[-95.55916666666667,42.68333333333333],[-96.17222222222223,42.64833333333333],[-96.17222222222223,42.64833333333333],[-96.48111111111112,42.62972222222222],[-96.48111111111112,42.62972222222222],[-96.48111111111112,42.62972222222222],[-96.63333333333334,42.62],[-96.63333333333334,42.62],[-97.25638888888889,42.578611111111115],[-97.25638888888889,42.578611111111115],[-97.25638888888889,42.578611111111115],[-97.25638888888889,42.578611111111115],[-97.56861111111111,42.556666666666665],[-97.56861111111111,42.556666666666665],[-97.76305555555555,42.54361111111111],[-97.76305555555555,42.54361111111111],[-97.76305555555555,42.54361111111111],[-97.92055555555557,42.530833333333334],[-97.92055555555557,42.530833333333334],[-98.06611111111111,42.519999999999996],[-98.06611111111111,42.519999999999996],[-98.38722222222223,42.49472222222222],[-98.6825,42.461111111111116],[-98.6825,42.461111111111116],[-98.6825,42.461111111111116],[-98.69500000000001,42.45777777777778],[-98.83305555555555,42.405],[-98.9563888888889,42.35027777777778],[-99.07166666666666,42.29805555555556],[-99.10416666666666,42.28388888888889],[-99.23944444444444,42.22666666666667],[-99.23944444444444,42.22666666666667],[-99.36277777777777,42.1875],[-99.36277777777777,42.1875],[-99.36277777777777,42.1875],[-99.50361111111111,42.14277777777778],[-99.50361111111111,42.14277777777778],[-99.50361111111111,42.14277777777778],[-99.50361111111111,42.14277777777778],[-99.79055555555556,42.05083333333333],[-100.07972222222222,41.95722222222223],[-100.07972222222222,41.95722222222223],[-100.07972222222222,41.95722222222223],[-100.35444444444444,41.86833333333333],[-100.35444444444444,41.86833333333333],[-100.35444444444444,41.86833333333333],[-100.51666666666667,41.831944444444446],[-100.51666666666667,41.831944444444446],[-100.51666666666667,41.831944444444446],[-100.67944444444444,41.796388888888885],[-100.67944444444444,41.796388888888885],[-101.12694444444443,41.69583333333333],[-101.12694444444443,41.69583333333333],[-101.12694444444443,41.69583333333333],[-101.12694444444443,41.69583333333333],[-101.25916666666667,41.66583333333333],[-101.25916666666667,41.66583333333333],[-101.40472222222223,41.6325],[-101.40472222222223,41.6325],[-101.55694444444444,41.59722222222222],[-101.55694444444444,41.59722222222222],[-101.68972222222223,41.56583333333333],[-101.68972222222223,41.56583333333333],[-101.69944444444445,41.564166666666665],[-101.83999999999999,41.53111111111111],[-101.83999999999999,41.53111111111111],[-101.83999999999999,41.53111111111111],[-101.98333333333333,41.4975],[-101.98333333333333,41.4975],[-102.11583333333333,41.466944444444444],[-102.11583333333333,41.466944444444444],[-102.1236111111111,41.46416666666667],[-102.1236111111111,41.46416666666667],[-102.25527777777778,41.433055555555555],[-102.25527777777778,41.433055555555555],[-102.70277777777778,41.325],[-102.70277777777778,41.325],[-102.70277777777778,41.325],[-102.70277777777778,41.325],[-103.09027777777777,41.22944444444445],[-103.09027777777777,41.22944444444445],[-103.09027777777777,41.22944444444445],[-103.09027777777777,41.22944444444445],[-103.11666666666666,41.223055555555554],[-103.255,41.18861111111111],[-103.39194444444445,41.154444444444444],[-103.5038888888889,41.126111111111115],[-103.5038888888889,41.126111111111115],[-103.5038888888889,41.126111111111115],[-103.64083333333333,41.09138888888889],[-103.64083333333333,41.09138888888889],[-103.66777777777779,41.085],[-103.66777777777779,41.085],[-104.05638888888889,41.00111111111111],[-104.05638888888889,41.00111111111111],[-104.19861111111112,41.00361111111111],[-104.19861111111112,41.00361111111111],[-104.22833333333334,41.00388888888889],[-104.34444444444443,41.00472222222222],[-104.34444444444443,41.00472222222222],[-104.34444444444443,41.00472222222222],[-104.37194444444444,41.00611111111111],[-104.37194444444444,41.00611111111111],[-104.48944444444444,41.0075],[-105.06222222222222,41.01222222222222],[-105.06222222222222,41.01222222222222],[-105.0936111111111,41.013888888888886],[-105.37916666666666,41.01583333333333],[-105.37916666666666,41.01583333333333],[-105.37916666666666,41.01583333333333],[-105.4888888888889,41.01611111111111],[-105.63416666666667,41.01555555555556],[-105.63416666666667,41.01555555555556],[-105.63416666666667,41.01555555555556],[-105.63416666666667,41.01555555555556],[-105.92527777777778,41.016666666666666],[-105.98833333333333,41.0175],[-105.98833333333333,41.0175],[-106.07111111111111,41.01694444444444],[-106.26777777777778,41.01722222222222],[-106.26777777777778,41.01722222222222],[-106.26777777777778,41.01722222222222],[-106.35444444444444,41.01722222222222],[-106.41250000000001,41.016666666666666],[-106.41250000000001,41.016666666666666],[-106.41250000000001,41.016666666666666],[-106.49583333333334,41.014722222222225],[-106.49583333333334,41.014722222222225],[-106.64,41.015],[-106.6975,41.015277777777776],[-106.6975,41.015277777777776],[-106.78222222222222,41.013888888888886],[-106.78222222222222,41.013888888888886],[-106.83916666666666,41.01444444444444],[-106.83916666666666,41.01444444444444],[-106.91611111111112,41.013888888888886],[-106.91611111111112,41.013888888888886],[-106.91611111111112,41.013888888888886],[-107.12444444444444,41.011944444444445],[-107.12444444444444,41.011944444444445],[-107.25972222222222,41.01027777777778],[-107.34555555555555,41.00972222222222],[-107.34555555555555,41.00972222222222],[-107.34555555555555,41.00972222222222],[-107.34555555555555,41.00972222222222],[-107.8261111111111,41.003055555555555],[-107.8261111111111,41.003055555555555],[-107.91194444444444,41.00138888888889],[-107.91194444444444,41.00138888888889],[-107.96777777777778,40.99444444444445],[-107.96777777777778,40.99444444444445],[-108.22666666666667,40.893055555555556],[-108.22666666666667,40.893055555555556],[-108.35222222222221,40.83361111111111],[-108.35222222222221,40.83361111111111],[-108.55138888888888,40.73916666666667],[-108.55138888888888,40.73916666666667],[-108.59777777777778,40.716944444444444],[-108.59777777777778,40.716944444444444],[-108.81888888888888,40.61055555555556],[-108.81888888888888,40.61055555555556],[-108.96777777777778,40.53861111111111],[-109.09027777777777,40.47888888888889],[-109.09027777777777,40.47888888888889],[-109.09027777777777,40.47888888888889],[-109.16555555555556,40.442499999999995],[-109.16555555555556,40.442499999999995],[-109.45916666666668,40.29861111111111],[-109.45916666666668,40.29861111111111],[-109.53416666666666,40.26166666666666],[-109.53416666666666,40.26166666666666],[-109.65722222222223,40.200833333333335],[-109.65722222222223,40.200833333333335],[-109.83,40.115],[-110.34777777777778,39.97555555555556],[-110.34777777777778,39.97555555555556],[-110.34777777777778,39.97555555555556],[-110.76472222222222,39.88944444444444],[-110.76472222222222,39.88944444444444],[-110.905,39.86],[-110.905,39.86],[-110.905,39.86],[-111.04305555555555,39.83111111111111],[-111.17750000000001,39.802499999999995],[-111.17750000000001,39.802499999999995],[-111.31138888888889,39.77388888888889],[-111.31138888888889,39.77388888888889],[-111.31138888888889,39.77388888888889],[-111.70722222222223,39.68861111111111],[-111.70722222222223,39.68861111111111],[-111.70722222222223,39.68861111111111],[-111.70722222222223,39.68861111111111],[-111.97611111111111,39.629444444444445],[-112.245,39.569722222222225],[-112.245,39.569722222222225],[-112.245,39.569722222222225],[-112.245,39.569722222222225],[-112.78777777777778,39.447222222222216],[-112.78777777777778,39.447222222222216],[-113.05444444444444,39.38583333333333],[-113.05444444444444,39.38583333333333],[-113.05444444444444,39.38583333333333],[-113.05444444444444,39.38583333333333],[-113.32416666666666,39.323055555555555],[-113.32416666666666,39.323055555555555],[-113.59305555555555,39.25944444444445],[-113.59305555555555,39.25944444444445],[-113.72722222222222,39.22777777777778],[-113.72722222222222,39.22777777777778],[-113.72722222222222,39.22777777777778],[-113.99694444444445,39.16305555555555],[-113.99694444444445,39.16305555555555],[-113.99694444444445,39.16305555555555],[-113.99694444444445,39.16305555555555],[-114.13388888888889,39.13],[-114.13388888888889,39.13],[-114.13388888888889,39.13],[-114.13388888888889,39.13],[-114.40444444444445,39.06388888888888],[-114.40444444444445,39.06388888888888],[-114.40444444444445,39.06388888888888],[-114.54166666666667,39.030277777777776],[-114.54166666666667,39.030277777777776],[-114.54166666666667,39.030277777777776],[-114.81833333333333,38.96138888888889],[-114.81833333333333,38.96138888888889],[-114.95555555555556,38.92722222222222],[-114.95555555555556,38.92722222222222],[-115.09333333333333,38.8925],[-115.09333333333333,38.8925],[-115.19444444444444,38.86805555555556],[-115.23083333333334,38.85777777777778],[-115.23083333333334,38.85777777777778],[-115.3711111111111,38.82222222222222],[-115.3711111111111,38.82222222222222],[-115.3711111111111,38.82222222222222],[-115.47222222222223,38.797777777777775],[-115.63861111111112,38.75333333333333],[-115.63861111111112,38.75333333333333],[-115.75111111111111,38.724722222222226],[-115.75111111111111,38.724722222222226],[-115.89,38.689166666666665],[-115.89,38.689166666666665],[-115.91833333333334,38.68111111111111],[-116.03083333333333,38.651666666666664],[-116.03083333333333,38.651666666666664],[-116.03083333333333,38.651666666666664],[-116.05805555555555,38.644444444444446],[-116.17277777777778,38.614444444444445],[-116.17277777777778,38.614444444444445],[-116.17277777777778,38.614444444444445],[-116.33944444444444,38.57027777777778],[-116.33944444444444,38.57027777777778],[-116.48194444444445,38.532222222222224],[-116.48194444444445,38.532222222222224],[-116.62222222222222,38.49472222222222],[-116.62222222222222,38.49472222222222],[-116.62222222222222,38.49472222222222],[-116.73722222222223,38.46388888888889],[-116.87944444444443,38.42527777777777],[-116.90694444444445,38.41777777777777],[-116.90694444444445,38.41777777777777],[-116.90694444444445,38.41777777777777],[-117.02166666666666,38.38666666666666],[-117.04777777777778,38.379444444444445],[-117.16666666666667,38.34722222222222],[-117.18694444444445,38.34166666666667],[-117.18694444444445,38.34166666666667],[-117.30944444444444,38.308055555555555],[-117.30944444444444,38.308055555555555],[-117.32666666666667,38.30333333333333],[-117.32666666666667,38.30333333333333],[-117.32666666666667,38.30333333333333],[-117.49388888888889,38.25694444444444],[-117.58388888888888,38.231944444444444],[-117.58388888888888,38.231944444444444],[-117.86749999999999,38.15222222222222],[-118.01138888888889,38.11194444444445],[-118.01138888888889,38.11194444444445],[-118.01138888888889,38.11194444444445],[-118.21194444444444,38.055],[-118.21194444444444,38.055],[-118.29916666666666,38.030277777777776],[-118.29916666666666,38.030277777777776],[-118.35333333333332,38.014722222222225],[-118.35333333333332,38.014722222222225],[-118.35333333333332,38.014722222222225],[-118.58611111111111,37.94777777777777],[-118.58611111111111,37.94777777777777],[-118.72888888888889,37.906666666666666],[-118.72888888888889,37.906666666666666],[-118.72888888888889,37.906666666666666],[-118.87805555555555,37.88333333333333],[-118.87805555555555,37.88333333333333],[-119.02833333333334,37.865833333333335],[-119.02833333333334,37.865833333333335],[-119.02833333333334,37.865833333333335],[-119.94333333333334,37.75694444444444],[-119.94333333333334,37.75694444444444],[-120.09666666666666,37.738055555555555],[-120.25277777777778,37.718333333333334],[-120.25277777777778,37.718333333333334],[-120.25277777777778,37.718333333333334],[-120.51666666666667,37.68333333333333],[-120.51666666666667,37.68333333333333],[-120.51666666666667,37.68333333333333],[-120.70583333333333,37.663888888888884],[-120.70583333333333,37.663888888888884],[-120.8,37.65],[-120.8,37.65],[-120.8,37.65],[-120.91666666666667,37.63333333333333],[-120.97361111111111,37.63166666666667],[-120.97361111111111,37.63166666666667],[-120.97361111111111,37.63166666666667],[-121.09777777777778,37.615],[-121.09777777777778,37.615],[-121.18333333333334,37.6],[-121.43333333333334,37.56666666666667],[-121.53333333333333,37.56666666666667],[-121.53333333333333,37.56666666666667],[-121.56972222222223,37.55722222222222],[-121.65805555555556,37.54277777777778],[-121.65805555555556,37.54277777777778],[-121.71666666666667,37.516666666666666],[-121.71972222222223,37.50388888888889],[-121.71972222222223,37.50388888888889],[-121.91666666666667,37.45],[-121.91666666666667,37.45],[-121.91666666666667,37.45],[-121.93611111111112,37.4475],[-121.93611111111112,37.4475],[-122.01416666666667,37.468611111111116],[-122.01416666666667,37.468611111111116],[-122.08277777777778,37.49777777777778],[-122.2,37.55],[-122.2,37.55],[-122.21416666666667,37.55333333333333],[-122.21416666666667,37.55333333333333],[-122.35138888888888,37.611111111111114],[-122.35138888888888,37.611111111111114],[-122.35138888888888,37.611111111111114]],"type":"LineString"}
}
