{
  "id": 2031099595,
  "type": "Feature",
  "properties": {
    "geom:area": 0,
    "geom:bbox": "-122.380000,37.490000,-71.010000,43.320000",
    "geom:latitude": 41.51309395846022,
    "geom:longitude": -96.82415423707764,
    "src:alt_label": "swim-route",
    "src:geom": "swim",
    "swim:geom": "route",
    "wof:geomhash": "888a9643a338e820dd312ec1c7981a77",
    "wof:id": 2031099595,
    "wof:repo": "sfomuseum-data-flights-2026-04"
  },
  "bbox": [
    -122.38,
    37.49,
    -71.01,
    43.32
  ],
  "geometry": {"coordinates":[[-71.01,42.36],[-71.21,42.41],[-71.21,42.41],[-71.25,42.42],[-71.33,42.44],[-71.33,42.44],[-71.37,42.45],[-71.42,42.46],[-71.46,42.47],[-71.47,42.47],[-71.54,42.49],[-71.6,42.5],[-71.76,42.54],[-71.97,42.59],[-72.1,42.62],[-72.27,42.65],[-72.35,42.67],[-72.64,42.74],[-72.89,42.79],[-73.01,42.81],[-73.32,42.88],[-73.45,42.91],[-73.62,42.94],[-73.95,43.01],[-74.12,43.05],[-74.47,43.12],[-74.47,43.12],[-74.8,43.19],[-75.14,43.25],[-76.77,43.3],[-78.88,43.32],[-79.26,43.32],[-79.99,43.32],[-81.43,43.3],[-82.28,43.27],[-82.71,43.26],[-83,43.22],[-83.29,43.17],[-83.57,43.12],[-84.69,42.93],[-84.93,42.89],[-85,42.88],[-85.5,42.79],[-86.22,42.81],[-87,42.83],[-87.38,42.83],[-89.31,42.85],[-89.4,42.85],[-89.67,42.85],[-91.62,42.83],[-93.18,42.79],[-96.25,42.64],[-97.78,42.54],[-98.69,42.47],[-99.21,42.24],[-99.44,42.16],[-100.08,41.96],[-100.34,41.87],[-101.54,41.6],[-103.25,41.19],[-104,41],[-104.57,41.01],[-105.21,41.01],[-105.66,41.02],[-107.12,41.01],[-108,41],[-109.13,40.46],[-109.52,40.27],[-109.85,40.11],[-109.96,40.06],[-110.17,40.04],[-111.57,39.72],[-111.78,39.7],[-113.32,39.35],[-117.28,38.32],[-118.76,37.9],[-119.1,37.86],[-119.61,37.8],[-119.72,37.78],[-119.82,37.77],[-119.92,37.76],[-120.02,37.75],[-120.31,37.71],[-120.4,37.7],[-120.4,37.7],[-120.57,37.68],[-120.69,37.67],[-120.75,37.66],[-120.79,37.65],[-120.8,37.65],[-120.96,37.63],[-121,37.63],[-121.01,37.63],[-121.07,37.62],[-121.17,37.61],[-121.26,37.59],[-121.39,37.58],[-121.41,37.58],[-121.6,37.55],[-121.61,37.55],[-121.62,37.55],[-121.72,37.53],[-121.8,37.51],[-121.88,37.49],[-121.89,37.49],[-122.01,37.53],[-122.08,37.54],[-122.18,37.57],[-122.18,37.57],[-122.28,37.59],[-122.33,37.61],[-122.36,37.61],[-122.38,37.62]],"type":"LineString"}
}
