{
  "id": 2015308373,
  "type": "Feature",
  "properties": {
    "geom:area": 0,
    "geom:bbox": "-122.405740,37.634940,-121.273710,37.960510",
    "geom:latitude": 37.83139529097348,
    "geom:longitude": -121.85414724703173,
    "src:alt_label": "swim-takeoff",
    "src:geom": "swim",
    "swim:elevations": [
      351,
      642,
      1045,
      1449,
      1857,
      2150,
      2432,
      2676,
      3228,
      3310,
      3613,
      3874,
      4055,
      4392,
      4705,
      5068,
      5358,
      5551,
      5878,
      6231,
      6478,
      6849,
      7054,
      7137
    ],
    "swim:geom": "takeoff",
    "swim:timestamps": [
      1776344418,
      1776344444,
      1776344473,
      1776344516,
      1776344549,
      1776344575,
      1776344596,
      1776344613,
      1776344660,
      1776344674,
      1776344708,
      1776344732,
      1776344747,
      1776344780,
      1776344804,
      1776344839,
      1776344869,
      1776344893,
      1776344922,
      1776344960,
      1776344987,
      1776345027,
      1776345052,
      1776345062
    ],
    "wof:geomhash": "e7bc301e339b345d3ad21a8ec29409a3",
    "wof:id": 2015308373,
    "wof:repo": "sfomuseum-data-flights-2026-04"
  },
  "bbox": [
    -122.40574,
    37.63494,
    -121.27371,
    37.96051
  ],
  "geometry": {"coordinates":[[-122.40574,37.63494],[-122.39966,37.65346],[-122.37191,37.66382],[-122.32274,37.68098],[-122.28162,37.69487],[-122.24479,37.70744],[-122.21543,37.7177],[-122.19229,37.72909],[-122.12675,37.76246],[-122.10691,37.77286],[-122.05318,37.80164],[-122.01306,37.82078],[-121.98452,37.82954],[-121.91719,37.84225],[-121.86764,37.85134],[-121.79225,37.86545],[-121.72644,37.8778],[-121.67334,37.88756],[-121.60562,37.90008],[-121.51921,37.91588],[-121.4567,37.92735],[-121.35908,37.94519],[-121.29853,37.95611],[-121.27371,37.96051]],"type":"LineString"}
}
