{
  "id": 2031136495,
  "type": "Feature",
  "properties": {
    "geom:area": 0,
    "geom:bbox": "-122.370278,37.661667,-83.305833,42.389444",
    "geom:latitude": 39.51509659494161,
    "geom:longitude": -102.5440300996531,
    "src:alt_label": "swim-path",
    "src:geom": "swim",
    "swim:altitudes": [
      "026",
      "026",
      "026",
      "053",
      "053",
      "109",
      "109",
      "109",
      "109",
      "130",
      "153",
      "153",
      "153",
      "153",
      "198",
      "198",
      "246",
      "295",
      "295",
      "295",
      "325",
      "328",
      "350",
      "350",
      "350",
      "351",
      "362",
      "370C",
      "370C",
      "370C",
      "370C",
      "370C",
      "370C",
      "370C",
      "370C",
      "370C",
      "370C",
      "370C",
      "370C",
      "370C",
      "370C",
      "370C",
      "370C",
      "370C",
      "370C",
      "370C",
      "370C",
      "370C",
      "370C",
      "370C",
      "370C",
      "370C",
      "370C",
      "370C",
      "370C",
      "370C",
      "370C",
      "370C",
      "370C",
      "370C",
      "370C",
      "370C",
      "370C",
      "370C",
      "370C",
      "370C",
      "370C",
      "370C",
      "370C",
      "370C",
      "370C",
      "370C",
      "370C",
      "370C",
      "370C",
      "370C",
      "370C",
      "370C",
      "370C",
      "370C",
      "370C",
      "370C",
      "370C",
      "370C",
      "370C",
      "370C",
      "370C",
      "370C",
      "370C",
      "370C",
      "370C",
      "370C",
      "370C",
      "370C",
      "370C",
      "370C",
      "370C",
      "370C",
      "370C",
      "370C",
      "370C",
      "370C",
      "370C",
      "370C",
      "370C",
      "370C",
      "370C",
      "370C",
      "370C",
      "370C",
      "370C",
      "370C",
      "370C",
      "370C",
      "370C",
      "370C",
      "370C",
      "370C",
      "370C",
      "370C",
      "370C",
      "370C",
      "370C",
      "370C",
      "370C",
      "370C",
      "370C",
      "370C",
      "339",
      "339",
      "290C",
      "283",
      "276",
      "273",
      "273",
      "255",
      "247",
      "239",
      "235",
      "230C",
      "230C",
      "230C",
      "230C",
      "230",
      "230",
      "230",
      "230",
      "230",
      "230",
      "230",
      "230",
      "229",
      "229",
      "211",
      "204",
      "193",
      "190",
      "179",
      "176",
      "136",
      "136",
      "128",
      "116",
      "106",
      "095",
      "084",
      "074",
      "074",
      "059",
      "046",
      "034",
      "024"
    ],
    "swim:geom": "path",
    "swim:speeds": [
      215,
      215,
      215,
      249,
      249,
      283,
      283,
      283,
      283,
      326,
      362,
      362,
      362,
      362,
      399,
      399,
      409,
      433,
      433,
      433,
      435,
      437,
      457,
      459,
      460,
      461,
      468,
      475,
      477,
      478,
      476,
      481,
      481,
      483,
      485,
      485,
      485,
      495,
      495,
      493,
      491,
      491,
      495,
      495,
      495,
      500,
      500,
      501,
      505,
      505,
      505,
      507,
      507,
      507,
      525,
      527,
      528,
      528,
      533,
      533,
      542,
      542,
      544,
      544,
      544,
      544,
      543,
      543,
      543,
      560,
      562,
      559,
      553,
      555,
      555,
      556,
      556,
      558,
      557,
      558,
      558,
      560,
      560,
      568,
      568,
      568,
      566,
      567,
      567,
      566,
      566,
      566,
      562,
      562,
      559,
      557,
      554,
      553,
      551,
      548,
      548,
      548,
      548,
      548,
      549,
      549,
      546,
      541,
      541,
      540,
      540,
      541,
      541,
      538,
      544,
      547,
      548,
      548,
      547,
      547,
      541,
      541,
      545,
      546,
      546,
      549,
      549,
      553,
      556,
      556,
      549,
      541,
      519,
      516,
      516,
      468,
      457,
      449,
      447,
      436,
      434,
      434,
      432,
      430,
      430,
      428,
      428,
      426,
      419,
      419,
      411,
      405,
      405,
      398,
      398,
      398,
      400,
      398,
      400,
      377,
      377,
      373,
      362,
      334,
      310,
      288,
      253,
      253,
      230,
      230,
      210,
      177
    ],
    "swim:timestamps": [
      1777414271,
      1777414271,
      1777414271,
      1777414331,
      1777414331,
      1777414451,
      1777414451,
      1777414451,
      1777414451,
      1777414511,
      1777414571,
      1777414571,
      1777414571,
      1777414571,
      1777414691,
      1777414691,
      1777414811,
      1777414992,
      1777414992,
      1777414992,
      1777415112,
      1777415139,
      1777415292,
      1777415319,
      1777415352,
      1777415412,
      1777415499,
      1777415619,
      1777415679,
      1777415713,
      1777415860,
      1777415980,
      1777415980,
      1777416040,
      1777416133,
      1777416133,
      1777416133,
      1777416400,
      1777416434,
      1777416581,
      1777416821,
      1777416821,
      1777417001,
      1777417001,
      1777417001,
      1777417181,
      1777417181,
      1777417241,
      1777417482,
      1777417482,
      1777417482,
      1777417602,
      1777417602,
      1777417602,
      1777418022,
      1777418083,
      1777418130,
      1777418143,
      1777418323,
      1777418323,
      1777418431,
      1777418431,
      1777418551,
      1777418623,
      1777418623,
      1777418743,
      1777418911,
      1777418911,
      1777418911,
      1777419164,
      1777419212,
      1777419332,
      1777419512,
      1777419632,
      1777419632,
      1777419693,
      1777419693,
      1777419753,
      1777419813,
      1777419873,
      1777419873,
      1777419933,
      1777419933,
      1777420293,
      1777420293,
      1777420293,
      1777420594,
      1777420654,
      1777420714,
      1777420954,
      1777420954,
      1777421109,
      1777421229,
      1777421349,
      1777421495,
      1777421615,
      1777421830,
      1777421856,
      1777422010,
      1777422263,
      1777422323,
      1777422323,
      1777422671,
      1777422683,
      1777422924,
      1777423044,
      1777423104,
      1777423284,
      1777423405,
      1777423512,
      1777423645,
      1777423693,
      1777423813,
      1777424113,
      1777424294,
      1777424414,
      1777424534,
      1777424598,
      1777424714,
      1777424714,
      1777425015,
      1777425015,
      1777425135,
      1777425255,
      1777425255,
      1777425320,
      1777425320,
      1777425435,
      1777425680,
      1777425680,
      1777426019,
      1777426101,
      1777426139,
      1777426161,
      1777426161,
      1777426259,
      1777426281,
      1777426320,
      1777426341,
      1777426380,
      1777426401,
      1777426401,
      1777426440,
      1777426500,
      1777426500,
      1777426582,
      1777426620,
      1777426702,
      1777426740,
      1777426740,
      1777426762,
      1777426797,
      1777426797,
      1777426860,
      1777426882,
      1777426921,
      1777426942,
      1777426966,
      1777426981,
      1777427101,
      1777427101,
      1777427123,
      1777427155,
      1777427209,
      1777427281,
      1777427332,
      1777427401,
      1777427401,
      1777427458,
      1777427512,
      1777427582,
      1777427648
    ],
    "wof:geomhash": "d0bc635ce62388b92ac3dd71ae1bb05b",
    "wof:id": 2031136495,
    "wof:repo": "sfomuseum-data-flights-2026-04"
  },
  "bbox": [
    -122.37027777777777,
    37.66166666666666,
    -83.30583333333333,
    42.38944444444444
  ],
  "geometry": {"coordinates":[[-122.37027777777777,37.66166666666666],[-122.37027777777777,37.66166666666666],[-122.37027777777777,37.66166666666666],[-122.29388888888889,37.68861111111111],[-122.29388888888889,37.68861111111111],[-122.12916666666666,37.76222222222222],[-122.12916666666666,37.76222222222222],[-122.12916666666666,37.76222222222222],[-122.12916666666666,37.76222222222222],[-122.03444444444445,37.80972222222222],[-121.91611111111112,37.84277777777778],[-121.91611111111112,37.84277777777778],[-121.91611111111112,37.84277777777778],[-121.91611111111112,37.84277777777778],[-121.65944444444445,37.890277777777776],[-121.65944444444445,37.890277777777776],[-121.37916666666666,37.94138888888889],[-120.94,38.01638888888889],[-120.94,38.01638888888889],[-120.94,38.01638888888889],[-120.6388888888889,38.062777777777775],[-120.58,38.07055555555556],[-120.17027777777778,38.132777777777775],[-120.10777777777777,38.13972222222222],[-120.01027777777777,38.15611111111111],[-119.85083333333333,38.17944444444444],[-119.62416666666665,38.211111111111116],[-119.29222222222222,38.25611111111111],[-119.12583333333333,38.28055555555555],[-119.02527777777777,38.29527777777778],[-118.63083333333333,38.348333333333336],[-118.27944444444444,38.39555555555555],[-118.27944444444444,38.39555555555555],[-118.1111111111111,38.41722222222222],[-117.83527777777778,38.4525],[-117.83527777777778,38.4525],[-117.83527777777778,38.4525],[-117.06638888888888,38.541666666666664],[-116.99388888888889,38.54833333333333],[-116.5411111111111,38.59055555555556],[-115.84888888888888,38.651944444444446],[-115.84888888888888,38.651944444444446],[-115.32222222222222,38.69499999999999],[-115.32222222222222,38.69499999999999],[-115.32222222222222,38.69499999999999],[-114.79055555555556,38.736666666666665],[-114.79055555555556,38.736666666666665],[-114.61277777777777,38.75],[-113.89694444444446,38.80083333333333],[-113.89694444444446,38.80083333333333],[-113.89694444444446,38.80083333333333],[-113.53583333333333,38.82472222222223],[-113.53583333333333,38.82472222222223],[-113.53583333333333,38.82472222222223],[-112.27638888888889,38.89972222222222],[-112.08666666666666,38.90972222222222],[-111.93611111111112,38.91722222222222],[-111.90111111111112,38.91916666666666],[-111.32916666666667,38.946666666666665],[-111.32916666666667,38.946666666666665],[-110.95694444444445,38.963055555555556],[-110.95694444444445,38.963055555555556],[-110.57,38.97916666666667],[-110.33694444444444,38.988055555555555],[-110.33694444444444,38.988055555555555],[-109.9475,39.00194444444445],[-109.41111111111111,39.009166666666665],[-109.41111111111111,39.009166666666665],[-109.41111111111111,39.009166666666665],[-108.58694444444444,39.016666666666666],[-108.42333333333333,39.01722222222222],[-108.025,39.0175],[-107.43611111111112,39.01611111111111],[-107.04055555555556,39.01361111111111],[-107.04055555555556,39.01361111111111],[-106.84472222222222,39.01166666666666],[-106.84472222222222,39.01166666666666],[-106.64333333333335,39.00944444444445],[-106.44444444444444,39.00666666666667],[-106.24583333333334,39.00388888888889],[-106.24583333333334,39.00388888888889],[-106.02972222222222,39.00055555555556],[-106.02972222222222,39.00055555555556],[-104.83666666666666,39.1],[-104.83666666666666,39.1],[-104.83666666666666,39.1],[-103.84722222222221,39.24],[-103.64944444444446,39.26694444444444],[-103.44861111111112,39.29388888888889],[-102.65055555555556,39.3975],[-102.65055555555556,39.3975],[-102.14555555555556,39.46027777777778],[-101.75055555555555,39.50805555555556],[-101.35277777777777,39.55416666666667],[-100.83722222222222,39.61138888888889],[-100.44388888888889,39.65361111111111],[-99.72722222222222,39.72777777777778],[-99.64527777777778,39.73583333333333],[-99.13916666666667,39.785],[-98.3125,39.86],[-98.11722222222221,39.87694444444445],[-98.11722222222221,39.87694444444445],[-96.97972222222222,39.968611111111116],[-96.94972222222222,39.97083333333334],[-96.16222222222223,40.02722222222222],[-95.76638888888888,40.053888888888885],[-95.57083333333333,40.06638888888889],[-94.98805555555556,40.10166666666667],[-94.59833333333333,40.12361111111111],[-94.24555555555555,40.14222222222222],[-93.81916666666666,40.16361111111111],[-93.66222222222223,40.17111111111111],[-93.27083333333333,40.18888888888888],[-92.27388888888889,40.2275],[-91.6825,40.24638888888889],[-91.28555555555555,40.257222222222225],[-90.88194444444444,40.26694444444444],[-90.68527777777778,40.27111111111111],[-90.28916666666666,40.27861111111111],[-90.28916666666666,40.27861111111111],[-89.31861111111111,40.29138888888889],[-89.31861111111111,40.29138888888889],[-88.92500000000001,40.29416666666666],[-88.52722222222222,40.295833333333334],[-88.52722222222222,40.295833333333334],[-88.3086111111111,40.296388888888885],[-88.3086111111111,40.296388888888885],[-87.92611111111111,40.29527777777778],[-87.1261111111111,40.363055555555555],[-87.1261111111111,40.363055555555555],[-85.99027777777778,40.54555555555555],[-85.74527777777777,40.60916666666667],[-85.62277777777777,40.64083333333333],[-85.56388888888888,40.65611111111111],[-85.56388888888888,40.65611111111111],[-85.34222222222222,40.79694444444444],[-85.29777777777778,40.83527777777778],[-85.22944444444444,40.888333333333335],[-85.18111111111112,40.919999999999995],[-85.10944444444443,40.96666666666667],[-85.06,40.99861111111111],[-85.06,40.99861111111111],[-84.98833333333333,41.044999999999995],[-84.86944444444444,41.12166666666667],[-84.86944444444444,41.12166666666667],[-84.70972222222223,41.23305555555556],[-84.64111111111112,41.283055555555556],[-84.48444444444445,41.397777777777776],[-84.41972222222223,41.45],[-84.41972222222223,41.45],[-84.38805555555557,41.48527777777778],[-84.32888888888888,41.55611111111111],[-84.32888888888888,41.55611111111111],[-84.26,41.63805555555555],[-84.23166666666667,41.67194444444444],[-84.16972222222223,41.73861111111111],[-84.14305555555556,41.75944444444445],[-84.0786111111111,41.80416666666667],[-84.06277777777777,41.815555555555555],[-83.85388888888889,41.96027777777778],[-83.85388888888889,41.96027777777778],[-83.81388888888888,41.987500000000004],[-83.75805555555556,42.028055555555554],[-83.66833333333334,42.08777777777778],[-83.57722222222222,42.15694444444444],[-83.515,42.21527777777778],[-83.46361111111112,42.28611111111111],[-83.46361111111112,42.28611111111111],[-83.42361111111111,42.346111111111114],[-83.37888888888888,42.38944444444444],[-83.30583333333333,42.367777777777775],[-83.31027777777777,42.30277777777778]],"type":"LineString"}
}
