{
  "id": 2015296957,
  "type": "Feature",
  "properties": {
    "geom:area": 0,
    "geom:bbox": "-122.538360,36.794340,-121.321350,37.664980",
    "geom:latitude": 37.18595691914021,
    "geom:longitude": -122.04460525811791,
    "src:alt_label": "swim-takeoff",
    "src:geom": "swim",
    "swim:elevations": [
      191,
      245,
      278,
      364,
      570,
      687,
      1097,
      1116,
      1563,
      1720,
      2247,
      2593,
      3137,
      3631,
      4001,
      4144,
      4573,
      4698,
      4996,
      5362,
      5687,
      5942,
      6228,
      6541,
      6772,
      6885,
      7266,
      7341,
      7422,
      7736,
      7850,
      7993,
      8253,
      8459,
      8595,
      8702,
      8724
    ],
    "swim:geom": "takeoff",
    "swim:timestamps": [
      1776265312,
      1776265317,
      1776265320,
      1776265333,
      1776265370,
      1776265383,
      1776265435,
      1776265440,
      1776265487,
      1776265501,
      1776265550,
      1776265574,
      1776265605,
      1776265640,
      1776265670,
      1776265680,
      1776265722,
      1776265752,
      1776265787,
      1776265818,
      1776265850,
      1776265878,
      1776265907,
      1776265941,
      1776265967,
      1776265983,
      1776266030,
      1776266040,
      1776266051,
      1776266098,
      1776266113,
      1776266138,
      1776266173,
      1776266206,
      1776266230,
      1776266246,
      1776266251
    ],
    "wof:geomhash": "40b220431ec4a9edf9fab278bee170fd",
    "wof:id": 2015296957,
    "wof:repo": "sfomuseum-data-flights-2026-04"
  },
  "bbox": [
    -122.53836,
    36.79434,
    -121.32135,
    37.66498
  ],
  "geometry": {"coordinates":[[-122.3907,37.62551],[-122.39453,37.62716],[-122.39724,37.62834],[-122.4079,37.63291],[-122.44403,37.64894],[-122.45766,37.65482],[-122.52257,37.66498],[-122.5288,37.66195],[-122.53836,37.60919],[-122.52932,37.592],[-122.49703,37.53173],[-122.48115,37.50111],[-122.46063,37.46256],[-122.43681,37.41941],[-122.41569,37.38166],[-122.40815,37.36838],[-122.36471,37.32043],[-122.31767,37.29261],[-122.25598,37.25694],[-122.20089,37.2255],[-122.14412,37.19283],[-122.09356,37.16358],[-122.04014,37.13252],[-121.97609,37.09536],[-121.92795,37.06731],[-121.89746,37.04959],[-121.80618,36.99623],[-121.78725,36.98513],[-121.76505,36.97212],[-121.67235,36.91811],[-121.64182,36.90023],[-121.59038,36.87016],[-121.51875,36.82788],[-121.43735,36.80738],[-121.37797,36.80075],[-121.33608,36.79587],[-121.32135,36.79434]],"type":"LineString"}
}
