{
  "id": 2031132185,
  "type": "Feature",
  "properties": {
    "geom:area": 0,
    "geom:bbox": "-123.575833,37.400000,-122.095833,45.640000",
    "geom:latitude": 41.246245330722445,
    "geom:longitude": -123.08184034041531,
    "src:alt_label": "swim-path",
    "src:geom": "swim",
    "swim:altitudes": [
      "048",
      "048",
      "059",
      "059",
      "106",
      "127",
      "127",
      "219",
      "219",
      "219",
      "244",
      "244",
      "278",
      "278",
      "278",
      "317",
      "317",
      "317",
      "317",
      "355",
      "370C",
      "370C",
      "370C",
      "370C",
      "370C",
      "370C",
      "370C",
      "370C",
      "370C",
      "370C",
      "370C",
      "370C",
      "370C",
      "370C",
      "370C",
      "370C",
      "370C",
      "370C",
      "370C",
      "370C",
      "370C",
      "370C",
      "370C",
      "370C",
      "370C",
      "370C",
      "370C",
      "370C",
      "370C",
      "370C",
      "349",
      "349",
      "349",
      "349",
      "337",
      "337",
      "337",
      "286",
      "286",
      "286",
      "286",
      "246",
      "246",
      "246",
      "246",
      "223",
      "210",
      "210",
      "210",
      "182",
      "182",
      "150",
      "142",
      "122",
      "122",
      "122",
      "119",
      "110",
      "110",
      "110",
      "110",
      "110C",
      "110C",
      "098",
      "098",
      "098",
      "098",
      "076",
      "076",
      "076",
      "070",
      "070",
      "055",
      "049",
      "049",
      "049",
      "039",
      "012",
      "012",
      "005",
      "005",
      "005",
      "002",
      "002"
    ],
    "swim:geom": "path",
    "swim:speeds": [
      257,
      257,
      259,
      259,
      300,
      339,
      339,
      411,
      411,
      411,
      426,
      426,
      453,
      453,
      453,
      493,
      493,
      493,
      493,
      496,
      504,
      504,
      505,
      505,
      505,
      505,
      505,
      504,
      504,
      504,
      504,
      506,
      509,
      509,
      506,
      506,
      506,
      506,
      499,
      499,
      497,
      497,
      496,
      496,
      496,
      486,
      486,
      486,
      486,
      485,
      483,
      483,
      483,
      483,
      479,
      479,
      479,
      443,
      443,
      443,
      443,
      411,
      411,
      411,
      411,
      391,
      370,
      370,
      370,
      348,
      348,
      322,
      316,
      292,
      292,
      292,
      282,
      274,
      274,
      251,
      251,
      255,
      255,
      250,
      250,
      250,
      250,
      235,
      235,
      235,
      233,
      233,
      227,
      204,
      204,
      204,
      201,
      156,
      156,
      150,
      150,
      150,
      152,
      152
    ],
    "swim:timestamps": [
      1777399966,
      1777399966,
      1777399992,
      1777399992,
      1777400112,
      1777400172,
      1777400172,
      1777400412,
      1777400412,
      1777400412,
      1777400472,
      1777400472,
      1777400593,
      1777400593,
      1777400593,
      1777400773,
      1777400773,
      1777400773,
      1777400773,
      1777400953,
      1777401073,
      1777401073,
      1777401133,
      1777401133,
      1777401133,
      1777401193,
      1777401193,
      1777401313,
      1777401374,
      1777401374,
      1777401437,
      1777401494,
      1777401618,
      1777401618,
      1777401914,
      1777401914,
      1777401914,
      1777401914,
      1777402038,
      1777402038,
      1777402094,
      1777402094,
      1777402155,
      1777402155,
      1777402155,
      1777402455,
      1777402455,
      1777402455,
      1777402455,
      1777402515,
      1777402695,
      1777402695,
      1777402695,
      1777402695,
      1777402759,
      1777402759,
      1777402759,
      1777403060,
      1777403060,
      1777403060,
      1777403060,
      1777403300,
      1777403300,
      1777403300,
      1777403300,
      1777403480,
      1777403540,
      1777403540,
      1777403540,
      1777403660,
      1777403660,
      1777403802,
      1777403841,
      1777403927,
      1777403927,
      1777403927,
      1777403961,
      1777403988,
      1777403988,
      1777404042,
      1777404042,
      1777404081,
      1777404081,
      1777404167,
      1777404167,
      1777404167,
      1777404167,
      1777404283,
      1777404283,
      1777404283,
      1777404321,
      1777404321,
      1777404403,
      1777404502,
      1777404502,
      1777404502,
      1777404562,
      1777404708,
      1777404708,
      1777404768,
      1777404768,
      1777404768,
      1777404802,
      1777404802
    ],
    "wof:geomhash": "a2ec284a6300de01f8cc9355d88c3c57",
    "wof:id": 2031132185,
    "wof:repo": "sfomuseum-data-flights-2026-04"
  },
  "bbox": [
    -123.57583333333334,
    37.4,
    -122.09583333333333,
    45.64
  ],
  "geometry": {"coordinates":[[-122.78305555555555,45.64],[-122.78305555555555,45.64],[-122.80916666666667,45.617777777777775],[-122.80916666666667,45.617777777777775],[-122.82805555555555,45.46277777777778],[-122.87694444444443,45.37722222222222],[-122.87694444444443,45.37722222222222],[-123.08,45.000277777777775],[-123.08,45.000277777777775],[-123.08,45.000277777777775],[-123.14694444444446,44.86666666666667],[-123.14694444444446,44.86666666666667],[-123.26333333333334,44.632777777777775],[-123.26333333333334,44.632777777777775],[-123.26333333333334,44.632777777777775],[-123.31861111111111,44.26027777777778],[-123.31861111111111,44.26027777777778],[-123.31861111111111,44.26027777777778],[-123.31861111111111,44.26027777777778],[-123.30222222222221,43.84111111111111],[-123.2911111111111,43.55888888888889],[-123.2911111111111,43.55888888888889],[-123.28666666666666,43.41888888888889],[-123.28666666666666,43.41888888888889],[-123.28666666666666,43.41888888888889],[-123.28111111111112,43.27722222222222],[-123.28111111111112,43.27722222222222],[-123.26972222222223,42.995555555555555],[-123.26444444444445,42.8575],[-123.26444444444445,42.8575],[-123.25888888888889,42.70166666666667],[-123.25305555555556,42.56111111111111],[-123.24277777777777,42.28055555555555],[-123.24277777777777,42.28055555555555],[-123.21722222222222,41.57805555555556],[-123.21722222222222,41.57805555555556],[-123.21722222222222,41.57805555555556],[-123.21722222222222,41.57805555555556],[-123.2075,41.285555555555554],[-123.2075,41.285555555555554],[-123.20444444444445,41.16083333333333],[-123.20444444444445,41.16083333333333],[-123.20111111111112,41.02111111111111],[-123.20111111111112,41.02111111111111],[-123.20111111111112,41.02111111111111],[-123.57583333333334,40.47805555555556],[-123.57583333333334,40.47805555555556],[-123.57583333333334,40.47805555555556],[-123.57583333333334,40.47805555555556],[-123.52638888888889,40.34777777777778],[-123.39444444444445,39.98361111111111],[-123.39444444444445,39.98361111111111],[-123.39444444444445,39.98361111111111],[-123.39444444444445,39.98361111111111],[-123.33777777777777,39.82805555555556],[-123.33777777777777,39.82805555555556],[-123.33777777777777,39.82805555555556],[-123.11555555555555,39.21194444444445],[-123.11555555555555,39.21194444444445],[-123.11555555555555,39.21194444444445],[-123.11555555555555,39.21194444444445],[-122.95611111111111,38.763888888888886],[-122.95611111111111,38.763888888888886],[-122.95611111111111,38.763888888888886],[-122.95611111111111,38.763888888888886],[-122.84333333333333,38.44166666666666],[-122.80833333333334,38.3425],[-122.80833333333334,38.3425],[-122.80833333333334,38.3425],[-122.74638888888889,38.15222222222222],[-122.74638888888889,38.15222222222222],[-122.68333333333334,37.93333333333333],[-122.66194444444444,37.89],[-122.55,37.78333333333333],[-122.55,37.78333333333333],[-122.55,37.78333333333333],[-122.53194444444445,37.76611111111111],[-122.5,37.733333333333334],[-122.5,37.733333333333334],[-122.45,37.68333333333333],[-122.45,37.68333333333333],[-122.415,37.656666666666666],[-122.415,37.656666666666666],[-122.33333333333333,37.56666666666667],[-122.33333333333333,37.56666666666667],[-122.33333333333333,37.56666666666667],[-122.33333333333333,37.56666666666667],[-122.26666666666667,37.45],[-122.26666666666667,37.45],[-122.26666666666667,37.45],[-122.25305555555556,37.42055555555555],[-122.25305555555556,37.42055555555555],[-122.13333333333334,37.4],[-122.09583333333333,37.47694444444445],[-122.09583333333333,37.47694444444445],[-122.09583333333333,37.47694444444445],[-122.1363888888889,37.52027777777778],[-122.28333333333333,37.583333333333336],[-122.28333333333333,37.583333333333336],[-122.33333333333333,37.6],[-122.33333333333333,37.6],[-122.33333333333333,37.6],[-122.35277777777777,37.611666666666665],[-122.35277777777777,37.611666666666665]],"type":"LineString"}
}
