{
  "id": 2031153919,
  "type": "Feature",
  "properties": {
    "geom:area": 0,
    "geom:bbox": "-122.526840,37.633060,-121.312640,37.989850",
    "geom:latitude": 37.91571579542781,
    "geom:longitude": -122.02067279533269,
    "src:alt_label": "swim-takeoff",
    "src:geom": "swim",
    "swim:elevations": [
      372,
      698,
      774,
      874,
      1316,
      1853,
      2246,
      2846,
      3100,
      3211,
      3360,
      3722,
      4002,
      4253,
      5169,
      5518,
      5792,
      6209,
      6424,
      6869,
      7099,
      7355,
      8282,
      8481,
      8702
    ],
    "swim:geom": "takeoff",
    "swim:timestamps": [
      1777534015,
      1777534043,
      1777534050,
      1777534062,
      1777534103,
      1777534137,
      1777534160,
      1777534197,
      1777534222,
      1777534242,
      1777534257,
      1777534284,
      1777534302,
      1777534320,
      1777534375,
      1777534408,
      1777534430,
      1777534462,
      1777534484,
      1777534523,
      1777534543,
      1777534570,
      1777534666,
      1777534689,
      1777534716
    ],
    "wof:geomhash": "d3a6122a9a6eed1c6006064eb12b227f",
    "wof:id": 2031153919,
    "wof:repo": "sfomuseum-data-flights-2026-04"
  },
  "bbox": [
    -122.52684,
    37.63306,
    -121.31264,
    37.98985
  ],
  "geometry": {"coordinates":[[-122.40852,37.63306],[-122.43409,37.64419],[-122.4412,37.64711],[-122.45429,37.65237],[-122.50478,37.67453],[-122.52602,37.71138],[-122.52684,37.73986],[-122.52474,37.78957],[-122.49937,37.81552],[-122.46538,37.82855],[-122.43859,37.84022],[-122.39187,37.8661],[-122.36011,37.88378],[-122.32725,37.90174],[-122.22345,37.95643],[-122.15187,37.97912],[-122.09709,37.98396],[-122.01753,37.98433],[-121.96073,37.9853],[-121.8583,37.98664],[-121.80345,37.98716],[-121.72969,37.98771],[-121.45924,37.98982],[-121.3925,37.98934],[-121.31264,37.98985]],"type":"LineString"}
}
