{
  "id": 2015360029,
  "type": "Feature",
  "properties": {
    "geom:area": 0,
    "geom:bbox": "-122.519444,37.633333,-114.895000,48.031111",
    "geom:latitude": 43.2010791697491,
    "geom:longitude": -119.28416348112715,
    "src:alt_label": "swim-path",
    "src:geom": "swim",
    "swim:altitudes": [
      "005",
      "005",
      "089",
      "089",
      "089",
      "214",
      "229",
      "286",
      "286",
      "309",
      "309",
      "309",
      "309",
      "336",
      "336",
      "356",
      "360C",
      "360C",
      "360C",
      "360C",
      "360C",
      "360C",
      "360C",
      "360C",
      "360C",
      "360C",
      "360C",
      "360C",
      "360C",
      "360C",
      "360C",
      "360C",
      "360C",
      "360C",
      "360C",
      "360C",
      "360C",
      "360C",
      "360C",
      "360C",
      "360C",
      "360C",
      "360C",
      "360C",
      "360C",
      "360C",
      "360C",
      "360C",
      "360C",
      "360C",
      "360C",
      "360C",
      "360C",
      "360C",
      "360C",
      "360C",
      "360C",
      "360C",
      "360C",
      "364",
      "370C",
      "370C",
      "370C",
      "370C",
      "370C",
      "370C",
      "370C",
      "370C",
      "370C",
      "370C",
      "370C",
      "370C",
      "370C",
      "370C",
      "370C",
      "370C",
      "370C",
      "370C",
      "370C",
      "370C",
      "370C"
    ],
    "swim:geom": "path",
    "swim:speeds": [
      171,
      171,
      274,
      274,
      274,
      423,
      426,
      463,
      463,
      488,
      488,
      488,
      488,
      486,
      486,
      485,
      484,
      484,
      484,
      483,
      475,
      475,
      475,
      475,
      476,
      479,
      479,
      479,
      479,
      479,
      481,
      481,
      479,
      479,
      465,
      465,
      465,
      474,
      460,
      459,
      459,
      459,
      456,
      456,
      458,
      467,
      467,
      469,
      469,
      468,
      469,
      470,
      470,
      469,
      467,
      467,
      466,
      468,
      468,
      470,
      459,
      457,
      457,
      459,
      460,
      460,
      464,
      464,
      465,
      467,
      467,
      473,
      476,
      476,
      476,
      478,
      478,
      480,
      488,
      488,
      490
    ],
    "swim:timestamps": [
      1776912840,
      1776912840,
      1776913067,
      1776913067,
      1776913067,
      1776913487,
      1776913548,
      1776913788,
      1776913788,
      1776913908,
      1776913908,
      1776913908,
      1776913908,
      1776914028,
      1776914028,
      1776914148,
      1776914208,
      1776914208,
      1776914208,
      1776914268,
      1776914509,
      1776914509,
      1776914509,
      1776914509,
      1776914629,
      1776914643,
      1776914643,
      1776914643,
      1776914703,
      1776914703,
      1776914989,
      1776914989,
      1776915064,
      1776915064,
      1776915109,
      1776915109,
      1776915109,
      1776915124,
      1776915169,
      1776915184,
      1776915184,
      1776915184,
      1776915229,
      1776915229,
      1776915469,
      1776915590,
      1776915590,
      1776915724,
      1776915724,
      1776915784,
      1776915905,
      1776915965,
      1776916106,
      1776916166,
      1776916226,
      1776916445,
      1776916466,
      1776916526,
      1776916526,
      1776916647,
      1776916707,
      1776916767,
      1776916767,
      1776917067,
      1776917094,
      1776917094,
      1776917487,
      1776917487,
      1776917574,
      1776917667,
      1776917667,
      1776917848,
      1776917995,
      1776917995,
      1776917995,
      1776918208,
      1776918208,
      1776918295,
      1776918508,
      1776918508,
      1776918568
    ],
    "wof:geomhash": "67a981ad42ff27750a7c5263988a7889",
    "wof:id": 2015360029,
    "wof:repo": "sfomuseum-data-flights-2026-04"
  },
  "bbox": [
    -122.51944444444445,
    37.63333333333333,
    -114.89500000000001,
    48.03111111111111
  ],
  "geometry": {"coordinates":[[-122.4,37.63333333333333],[-122.4,37.63333333333333],[-122.51944444444445,37.79888888888889],[-122.51944444444445,37.79888888888889],[-122.51944444444445,37.79888888888889],[-122.08138888888888,38.42194444444444],[-122.03805555555556,38.54194444444444],[-121.91055555555556,39.031666666666666],[-121.91055555555556,39.031666666666666],[-121.81027777777777,39.29055555555556],[-121.81027777777777,39.29055555555556],[-121.81027777777777,39.29055555555556],[-121.81027777777777,39.29055555555556],[-121.70972222222223,39.54666666666667],[-121.70972222222223,39.54666666666667],[-121.61055555555555,39.80444444444444],[-121.5611111111111,39.93083333333333],[-121.5611111111111,39.93083333333333],[-121.5611111111111,39.93083333333333],[-121.51027777777777,40.058055555555555],[-121.29916666666666,40.58638888888889],[-121.29916666666666,40.58638888888889],[-121.29916666666666,40.58638888888889],[-121.29916666666666,40.58638888888889],[-121.2063888888889,40.816111111111105],[-121.18833333333333,40.861666666666665],[-121.18833333333333,40.861666666666665],[-121.18833333333333,40.861666666666665],[-121.13583333333334,40.99],[-121.13583333333334,40.99],[-120.88305555555554,41.60305555555556],[-120.88305555555554,41.60305555555556],[-120.82083333333333,41.75388888888889],[-120.82083333333333,41.75388888888889],[-120.77972222222222,41.849444444444444],[-120.77972222222222,41.849444444444444],[-120.77972222222222,41.849444444444444],[-120.76555555555555,41.87777777777778],[-120.7275,41.97416666666667],[-120.71722222222222,41.99805555555556],[-120.71722222222222,41.99805555555556],[-120.71722222222222,41.99805555555556],[-120.67916666666667,42.08861111111111],[-120.67916666666667,42.08861111111111],[-120.44777777777779,42.559999999999995],[-120.2538888888889,42.77861111111111],[-120.2538888888889,42.77861111111111],[-120.04277777777777,43.01444444444444],[-120.04277777777777,43.01444444444444],[-119.94555555555556,43.12222222222222],[-119.74888888888889,43.33916666666667],[-119.64888888888889,43.448611111111106],[-119.4088888888889,43.70944444444445],[-119.30972222222222,43.81638888888889],[-119.2088888888889,43.925],[-118.84833333333333,44.30833333333333],[-118.80694444444444,44.35166666666667],[-118.7038888888889,44.46],[-118.7038888888889,44.46],[-118.49861111111112,44.674166666666665],[-118.39777777777779,44.77861111111111],[-118.29722222222222,44.8825],[-118.29722222222222,44.8825],[-117.78583333333333,45.403055555555554],[-117.73611111111111,45.45305555555556],[-117.73611111111111,45.45305555555556],[-117.03055555555555,46.150555555555556],[-117.03055555555555,46.150555555555556],[-116.88138888888888,46.29472222222222],[-116.70361111111112,46.46611111111111],[-116.70361111111112,46.46611111111111],[-116.36916666666666,46.78444444444444],[-116.09888888888888,47.03805555555555],[-116.09888888888888,47.03805555555555],[-116.09888888888888,47.03805555555555],[-115.68777777777778,47.41888888888889],[-115.68777777777778,47.41888888888889],[-115.48472222222222,47.581944444444446],[-115.03111111111112,47.92861111111111],[-115.03111111111112,47.92861111111111],[-114.89500000000001,48.03111111111111]],"type":"LineString"}
}
