{
  "id": 2031110123,
  "type": "Feature",
  "properties": {
    "geom:area": 0,
    "geom:bbox": "-122.392500,37.626389,-75.291111,44.454444",
    "geom:latitude": 42.20904292792362,
    "geom:longitude": -98.97950950003572,
    "src:alt_label": "swim-path",
    "src:geom": "swim",
    "swim:altitudes": [
      "006",
      "008",
      "008",
      "049",
      "104",
      "104",
      "120",
      "120",
      "145",
      "145",
      "190",
      "244",
      "244",
      "267",
      "267",
      "287",
      "287",
      "287",
      "287",
      "330C",
      "330C",
      "330C",
      "330C",
      "330C",
      "330C",
      "330C",
      "330C",
      "330C",
      "330C",
      "330C",
      "330C",
      "330C",
      "330C",
      "330C",
      "330C",
      "330C",
      "330C",
      "330C",
      "330C",
      "330C",
      "330C",
      "330C",
      "330C",
      "330C",
      "330C",
      "330C",
      "330C",
      "330C",
      "330C",
      "330C",
      "330C",
      "330C",
      "330C",
      "330C",
      "330C",
      "330C",
      "330C",
      "331C",
      "331C",
      "330C",
      "330C",
      "330C",
      "330C",
      "330C",
      "330C",
      "330C",
      "330C",
      "330C",
      "330C",
      "330C",
      "330C",
      "330C",
      "330C",
      "330C",
      "330C",
      "330C",
      "330C",
      "330C",
      "330C",
      "330C",
      "330C",
      "330C",
      "330C",
      "330C",
      "330C",
      "330C",
      "330C",
      "330C",
      "330C",
      "330C",
      "330C",
      "330C",
      "330C",
      "330C",
      "330C",
      "330C",
      "330C",
      "341",
      "341",
      "347",
      "347",
      "350C",
      "350C",
      "350C",
      "350C",
      "350C",
      "350C",
      "350C",
      "350C",
      "350C",
      "350C",
      "350C",
      "350C",
      "350C",
      "350C",
      "350C",
      "350C",
      "350C",
      "350C",
      "350C",
      "350C",
      "350C",
      "350C",
      "350C",
      "350C",
      "350C",
      "350C",
      "350C",
      "350C",
      "350C",
      "350C",
      "350C",
      "350C",
      "350C",
      "350C",
      "350C",
      "350C",
      "350C",
      "350C",
      "350C",
      "350C",
      "350C",
      "350C",
      "350C",
      "350C",
      "350C",
      "350C",
      "350C",
      "350C",
      "350C",
      "350C",
      "350C",
      "350C",
      "350C",
      "350C",
      "350C",
      "350C",
      "350C",
      "350C",
      "350C",
      "350C",
      "350C",
      "350C",
      "350C",
      "350C",
      "350C",
      "350C",
      "350C",
      "350C",
      "350C",
      "350C",
      "350C",
      "350C",
      "350C",
      "350C",
      "350C",
      "350C",
      "350C",
      "350C",
      "350C",
      "350C",
      "350C",
      "350C",
      "350C",
      "350C",
      "350C",
      "350C",
      "350C",
      "350C",
      "350C",
      "350C",
      "350C",
      "350C",
      "350",
      "350",
      "349",
      "340",
      "340",
      "270",
      "234",
      "234",
      "224",
      "194",
      "184",
      "177",
      "177",
      "169",
      "121",
      "121",
      "104",
      "104",
      "096",
      "087",
      "071",
      "058",
      "042",
      "031",
      "030",
      "030",
      "030",
      "030",
      "018",
      "011",
      "011",
      "009",
      "004",
      "004"
    ],
    "swim:geom": "path",
    "swim:speeds": [
      160,
      159,
      159,
      269,
      279,
      279,
      335,
      335,
      345,
      345,
      370,
      393,
      393,
      418,
      418,
      438,
      438,
      438,
      438,
      455,
      454,
      454,
      453,
      453,
      453,
      452,
      452,
      454,
      455,
      454,
      454,
      456,
      456,
      457,
      458,
      461,
      463,
      463,
      465,
      467,
      467,
      467,
      468,
      468,
      470,
      470,
      470,
      472,
      473,
      471,
      471,
      471,
      471,
      470,
      471,
      472,
      472,
      483,
      483,
      486,
      486,
      486,
      486,
      486,
      486,
      487,
      487,
      487,
      486,
      486,
      485,
      487,
      487,
      489,
      489,
      489,
      489,
      489,
      489,
      491,
      491,
      491,
      491,
      492,
      492,
      483,
      494,
      496,
      486,
      494,
      494,
      494,
      494,
      504,
      504,
      504,
      504,
      512,
      512,
      516,
      516,
      517,
      519,
      521,
      521,
      521,
      521,
      522,
      523,
      523,
      523,
      523,
      523,
      523,
      523,
      523,
      523,
      523,
      523,
      522,
      522,
      522,
      522,
      522,
      522,
      522,
      521,
      521,
      521,
      522,
      530,
      530,
      530,
      530,
      533,
      533,
      532,
      527,
      527,
      524,
      521,
      521,
      521,
      520,
      518,
      518,
      517,
      517,
      514,
      514,
      514,
      514,
      514,
      508,
      508,
      496,
      488,
      487,
      484,
      484,
      476,
      467,
      467,
      464,
      461,
      459,
      459,
      459,
      459,
      459,
      460,
      460,
      460,
      461,
      461,
      466,
      467,
      468,
      468,
      467,
      468,
      468,
      469,
      470,
      470,
      470,
      472,
      480,
      480,
      481,
      482,
      482,
      482,
      482,
      482,
      484,
      484,
      484,
      467,
      444,
      444,
      440,
      424,
      419,
      410,
      410,
      405,
      372,
      372,
      309,
      309,
      303,
      296,
      291,
      275,
      269,
      256,
      235,
      214,
      184,
      184,
      151,
      138,
      138,
      134,
      137,
      137
    ],
    "swim:timestamps": [
      1777181980,
      1777181987,
      1777181987,
      1777182107,
      1777182228,
      1777182228,
      1777182288,
      1777182288,
      1777182348,
      1777182348,
      1777182468,
      1777182648,
      1777182648,
      1777182768,
      1777182768,
      1777182888,
      1777182888,
      1777182888,
      1777182888,
      1777183174,
      1777183234,
      1777183294,
      1777183354,
      1777183354,
      1777183354,
      1777183368,
      1777183368,
      1777183474,
      1777183488,
      1777183534,
      1777183534,
      1777183608,
      1777183668,
      1777183774,
      1777183834,
      1777183848,
      1777183895,
      1777183895,
      1777183955,
      1777184075,
      1777184075,
      1777184088,
      1777184148,
      1777184148,
      1777184195,
      1777184195,
      1777184208,
      1777184268,
      1777184375,
      1777184495,
      1777184509,
      1777184555,
      1777184555,
      1777184569,
      1777184615,
      1777184675,
      1777184689,
      1777184809,
      1777184809,
      1777184915,
      1777185035,
      1777185095,
      1777185095,
      1777185155,
      1777185155,
      1777185395,
      1777185455,
      1777185455,
      1777185515,
      1777185515,
      1777185575,
      1777185875,
      1777185875,
      1777186056,
      1777186056,
      1777186116,
      1777186236,
      1777186236,
      1777186296,
      1777186596,
      1777186596,
      1777186596,
      1777186596,
      1777186656,
      1777186656,
      1777186775,
      1777186896,
      1777187016,
      1777187076,
      1777187196,
      1777187196,
      1777187196,
      1777187196,
      1777187376,
      1777187436,
      1777187496,
      1777187496,
      1777187676,
      1777187676,
      1777187736,
      1777187736,
      1777187796,
      1777187916,
      1777187976,
      1777188097,
      1777188097,
      1777188097,
      1777188336,
      1777188396,
      1777188456,
      1777188516,
      1777188516,
      1777188576,
      1777188576,
      1777188636,
      1777188756,
      1777188756,
      1777188756,
      1777188816,
      1777188876,
      1777189057,
      1777189057,
      1777189057,
      1777189117,
      1777189297,
      1777189297,
      1777189420,
      1777189420,
      1777189420,
      1777189480,
      1777190077,
      1777190077,
      1777190077,
      1777190077,
      1777190320,
      1777190320,
      1777190440,
      1777190620,
      1777190620,
      1777190680,
      1777190920,
      1777190920,
      1777190920,
      1777191040,
      1777191160,
      1777191160,
      1777191280,
      1777191280,
      1777191820,
      1777191820,
      1777191820,
      1777192361,
      1777192461,
      1777192943,
      1777192943,
      1777193182,
      1777193441,
      1777193501,
      1777193842,
      1777193922,
      1777194432,
      1777194682,
      1777194793,
      1777194973,
      1777195042,
      1777195153,
      1777195163,
      1777195225,
      1777195273,
      1777195273,
      1777195334,
      1777195394,
      1777195394,
      1777195453,
      1777195515,
      1777195693,
      1777195753,
      1777195814,
      1777195814,
      1777195996,
      1777196115,
      1777196172,
      1777196232,
      1777196292,
      1777196292,
      1777196352,
      1777196472,
      1777196592,
      1777196592,
      1777196712,
      1777196772,
      1777196893,
      1777196893,
      1777197073,
      1777197195,
      1777197253,
      1777197313,
      1777197313,
      1777197493,
      1777197673,
      1777197673,
      1777197733,
      1777197913,
      1777197973,
      1777198153,
      1777198153,
      1777198213,
      1777198394,
      1777198394,
      1777198474,
      1777198474,
      1777198514,
      1777198540,
      1777198606,
      1777198666,
      1777198726,
      1777198780,
      1777198814,
      1777198822,
      1777198874,
      1777198874,
      1777198994,
      1777199054,
      1777199054,
      1777199068,
      1777199114,
      1777199114
    ],
    "wof:geomhash": "7c96680fbbff5c0b245a4420c0118e2e",
    "wof:id": 2031110123,
    "wof:repo": "sfomuseum-data-flights-2026-04"
  },
  "bbox": [
    -122.39250000000001,
    37.62638888888889,
    -75.2911111111111,
    44.45444444444445
  ],
  "geometry": {"coordinates":[[-122.38333333333334,37.63333333333333],[-122.39250000000001,37.62638888888889],[-122.39250000000001,37.62638888888889],[-122.33694444444444,37.73888888888889],[-122.38527777777779,37.882222222222225],[-122.38527777777779,37.882222222222225],[-122.34027777777777,37.95805555555556],[-122.34027777777777,37.95805555555556],[-122.23194444444445,38.00194444444445],[-122.23194444444445,38.00194444444445],[-122.00416666666666,38.093333333333334],[-121.64444444444445,38.23638888888889],[-121.64444444444445,38.23638888888889],[-121.38666666666667,38.33638888888889],[-121.38666666666667,38.33638888888889],[-121.11388888888888,38.441111111111105],[-121.11388888888888,38.441111111111105],[-121.11388888888888,38.441111111111105],[-121.11388888888888,38.441111111111105],[-120.40111111111112,38.70638888888889],[-120.25722222222223,38.76111111111111],[-120.11305555555555,38.81583333333333],[-119.96666666666667,38.86805555555556],[-119.96666666666667,38.86805555555556],[-119.96666666666667,38.86805555555556],[-119.9263888888889,38.88583333333333],[-119.9263888888889,38.88583333333333],[-119.67305555555556,38.97666666666667],[-119.6438888888889,38.98888888888889],[-119.52694444444444,39.030277777777776],[-119.52694444444444,39.030277777777776],[-119.34722222222221,39.09638888888889],[-119.2,39.149166666666666],[-118.9325,39.24388888888889],[-118.78416666666666,39.296388888888885],[-118.75694444444444,39.306666666666665],[-118.63555555555556,39.349444444444444],[-118.63555555555556,39.349444444444444],[-118.49138888888889,39.4],[-118.18555555555555,39.506388888888885],[-118.18555555555555,39.506388888888885],[-118.15361111111112,39.5175],[-117.99916666666667,39.57055555555556],[-117.99916666666667,39.57055555555556],[-117.87694444444443,39.612500000000004],[-117.87694444444443,39.612500000000004],[-117.84444444444443,39.62361111111111],[-117.68805555555556,39.676944444444445],[-117.40861111111111,39.771388888888886],[-117.09777777777778,39.87555555555556],[-117.04888888888888,39.89194444444444],[-116.94333333333334,39.92666666666666],[-116.94333333333334,39.92666666666666],[-116.89444444444445,39.94305555555555],[-116.78583333333333,39.97888888888889],[-116.62972222222221,40.03],[-116.59444444444443,40.041666666666664],[-116.27277777777778,40.146388888888886],[-116.27277777777778,40.146388888888886],[-115.96722222222222,40.24444444444445],[-115.64194444444445,40.34805555555556],[-115.4786111111111,40.39944444444444],[-115.4786111111111,40.39944444444444],[-115.315,40.450833333333335],[-115.315,40.450833333333335],[-114.65527777777778,40.65416666666667],[-114.49083333333333,40.70416666666667],[-114.49083333333333,40.70416666666667],[-114.32527777777777,40.75388888888889],[-114.32527777777777,40.75388888888889],[-114.16194444444444,40.80305555555555],[-113.33083333333333,41.0475],[-113.33083333333333,41.0475],[-112.825,41.19277777777778],[-112.825,41.19277777777778],[-112.65666666666667,41.24055555555556],[-112.31611111111111,41.33583333333333],[-112.31611111111111,41.33583333333333],[-112.14305555555556,41.38388888888889],[-111.28472222222221,41.61694444444444],[-111.28472222222221,41.61694444444444],[-111.28472222222221,41.61694444444444],[-111.28472222222221,41.61694444444444],[-111.11194444444443,41.66305555555555],[-111.11194444444443,41.66305555555555],[-110.78861111111111,41.74944444444444],[-110.4388888888889,41.83916666666667],[-110.08944444444444,41.92861111111111],[-109.91222222222223,41.973888888888894],[-109.56,42.06166666666666],[-109.56,42.06166666666666],[-109.56,42.06166666666666],[-109.56,42.06166666666666],[-109.02222222222223,42.193888888888885],[-108.84166666666667,42.237500000000004],[-108.65972222222223,42.28111111111111],[-108.65972222222223,42.28111111111111],[-108.11472222222221,42.41],[-108.11472222222221,42.41],[-107.93027777777779,42.45277777777778],[-107.93027777777779,42.45277777777778],[-107.74361111111111,42.495555555555555],[-107.36861111111111,42.58083333333334],[-107.18083333333334,42.62361111111111],[-106.82249999999999,42.70277777777778],[-106.82249999999999,42.70277777777778],[-106.82249999999999,42.70277777777778],[-106.06777777777778,42.865833333333335],[-105.8761111111111,42.906388888888884],[-105.68527777777778,42.94638888888888],[-105.49333333333334,42.986111111111114],[-105.49333333333334,42.986111111111114],[-105.30388888888889,43.025],[-105.30388888888889,43.025],[-105.11166666666666,43.064166666666665],[-104.72555555555556,43.141666666666666],[-104.72555555555556,43.141666666666666],[-104.72555555555556,43.141666666666666],[-104.53444444444445,43.17944444444444],[-104.33999999999999,43.2175],[-103.76222222222222,43.328611111111115],[-103.76222222222222,43.328611111111115],[-103.76222222222222,43.328611111111115],[-103.56888888888888,43.365],[-102.9888888888889,43.471944444444446],[-102.9888888888889,43.471944444444446],[-102.60694444444444,43.54055555555556],[-102.60694444444444,43.54055555555556],[-102.60694444444444,43.54055555555556],[-102.415,43.574444444444445],[-100.44194444444445,43.902499999999996],[-100.44194444444445,43.902499999999996],[-100.44194444444445,43.902499999999996],[-100.44194444444445,43.902499999999996],[-99.60499999999999,44.030277777777776],[-99.60499999999999,44.030277777777776],[-99.205,44.08916666666667],[-98.61694444444444,44.1725],[-98.61694444444444,44.1725],[-98.42055555555557,44.2],[-97.62972222222221,44.30583333333333],[-97.62972222222221,44.30583333333333],[-97.62972222222221,44.30583333333333],[-97.23083333333334,44.356944444444444],[-96.83555555555554,44.406388888888884],[-96.83555555555554,44.406388888888884],[-96.43777777777778,44.45444444444445],[-96.43777777777778,44.45444444444445],[-94.64,44.37166666666667],[-94.64,44.37166666666667],[-94.64,44.37166666666667],[-92.89944444444446,44.18277777777777],[-92.55638888888889,44.1425],[-91.00611111111111,43.94555555555555],[-91.00611111111111,43.94555555555555],[-90.28833333333333,43.846944444444446],[-89.46694444444445,43.72805555555556],[-89.28555555555555,43.70111111111111],[-88.25944444444444,43.54194444444444],[-88.00194444444445,43.50055555555556],[-86.48611111111111,43.32944444444445],[-85.73833333333333,43.23722222222222],[-85.42500000000001,43.197222222222216],[-84.905,43.12861111111111],[-84.69472222222223,43.10027777777778],[-84.39083333333333,43.05833333333333],[-84.35444444444444,43.05333333333333],[-84.1825,43.02916666666667],[-84.03305555555555,43.00805555555556],[-84.03305555555555,43.00805555555556],[-83.86138888888888,42.983333333333334],[-83.69083333333333,42.95916666666667],[-83.69083333333333,42.95916666666667],[-83.51583333333333,42.9375],[-83.3775,42.919444444444444],[-82.89027777777778,42.76861111111111],[-82.72972222222222,42.71277777777778],[-82.56888888888888,42.656666666666666],[-82.56888888888888,42.656666666666666],[-82.09083333333332,42.487500000000004],[-81.75888888888889,42.368611111111115],[-81.61861111111111,42.31944444444445],[-81.45972222222223,42.26166666666666],[-81.30194444444444,42.20277777777778],[-81.30194444444444,42.20277777777778],[-81.1438888888889,42.14416666666666],[-80.8261111111111,42.027499999999996],[-80.50555555555556,41.907777777777774],[-80.50555555555556,41.907777777777774],[-80.18666666666667,41.7875],[-80.02583333333334,41.724444444444444],[-79.7088888888889,41.60055555555556],[-79.7088888888889,41.60055555555556],[-79.23388888888888,41.41583333333333],[-78.90305555555557,41.28472222222222],[-78.74777777777778,41.222500000000004],[-78.59166666666667,41.16],[-78.59166666666667,41.16],[-78.125,40.970555555555556],[-77.70166666666667,40.78],[-77.70166666666667,40.78],[-77.56527777777778,40.7175],[-77.15972222222223,40.53],[-77.02916666666667,40.469166666666666],[-76.61666666666666,40.33166666666667],[-76.61666666666666,40.33166666666667],[-76.48527777777778,40.294444444444444],[-76.08277777777778,40.17916666666667],[-76.08277777777778,40.17916666666667],[-75.93333333333334,40.13333333333333],[-75.93333333333334,40.13333333333333],[-75.87222222222222,40.11833333333333],[-75.81666666666666,40.1],[-75.73333333333333,40.05],[-75.68333333333334,39.983333333333334],[-75.63333333333334,39.916666666666664],[-75.6,39.86666666666667],[-75.57,39.833333333333336],[-75.55,39.833333333333336],[-75.49944444444445,39.816111111111105],[-75.49944444444445,39.816111111111105],[-75.38444444444445,39.83888888888889],[-75.33749999999999,39.848333333333336],[-75.33749999999999,39.848333333333336],[-75.31666666666666,39.85],[-75.2911111111111,39.8575],[-75.2911111111111,39.8575]],"type":"LineString"}
}
