{
  "id": 2031092329,
  "type": "Feature",
  "properties": {
    "geom:area": 0,
    "geom:bbox": "-122.324167,33.441389,-118.031111,37.597222",
    "geom:latitude": 35.29873518245698,
    "geom:longitude": -120.43327169840111,
    "src:alt_label": "swim-path",
    "src:geom": "swim",
    "swim:altitudes": [
      "102",
      "127",
      "156",
      "231",
      "249",
      "277",
      "320C",
      "320C",
      "320C",
      "320C",
      "320C",
      "320C",
      "320C",
      "320C",
      "304",
      "304",
      "294",
      "261",
      "261",
      "260",
      "260",
      "232",
      "227",
      "209",
      "168",
      "120",
      "106",
      "041",
      "041",
      "021",
      "006",
      "006"
    ],
    "swim:geom": "path",
    "swim:speeds": [
      288,
      309,
      314,
      386,
      396,
      417,
      417,
      417,
      431,
      431,
      410,
      410,
      411,
      411,
      382,
      382,
      372,
      340,
      340,
      338,
      359,
      337,
      322,
      329,
      322,
      301,
      292,
      254,
      254,
      162,
      143,
      143
    ],
    "swim:timestamps": [
      1776986886,
      1776986946,
      1776987006,
      1776987246,
      1776987307,
      1776987427,
      1776987607,
      1776987607,
      1776987847,
      1776987847,
      1776988148,
      1776988148,
      1776988391,
      1776988391,
      1776988752,
      1776988752,
      1776988809,
      1776988992,
      1776988992,
      1776989052,
      1776989187,
      1776989412,
      1776989432,
      1776989493,
      1776989653,
      1776989833,
      1776989893,
      1776990193,
      1776990193,
      1776990314,
      1776990434,
      1776990434
    ],
    "wof:geomhash": "419be803a7230d7209f5ce3f84ada6ec",
    "wof:id": 2031092329,
    "wof:repo": "sfomuseum-data-flights-2026-04"
  },
  "bbox": [
    -122.32416666666666,
    33.44138888888889,
    -118.03111111111112,
    37.59722222222222
  ],
  "geometry": {"coordinates":[[-118.03111111111112,33.467777777777776],[-118.12638888888888,33.44222222222222],[-118.23166666666667,33.44138888888889],[-118.61999999999999,33.62694444444445],[-118.71277777777777,33.7075],[-118.90444444444445,33.873333333333335],[-119.19361111111111,34.121944444444445],[-119.19361111111111,34.121944444444445],[-119.59916666666666,34.46555555555556],[-119.59916666666666,34.46555555555556],[-120.11666666666666,34.88305555555556],[-120.11666666666666,34.88305555555556],[-120.51166666666667,35.211666666666666],[-120.51166666666667,35.211666666666666],[-121.0363888888889,35.718333333333334],[-121.0363888888889,35.718333333333334],[-121.11138888888888,35.79833333333333],[-121.41388888888889,35.971111111111114],[-121.41388888888889,35.971111111111114],[-121.5225,36.00138888888889],[-121.7,36.13333333333333],[-121.70694444444445,36.5],[-121.71666666666667,36.53333333333333],[-121.78333333333333,36.6],[-121.9113888888889,36.80361111111111],[-121.99194444444444,37.05166666666666],[-122.0225,37.13027777777778],[-122.15472222222223,37.48027777777778],[-122.15472222222223,37.48027777777778],[-122.23333333333333,37.55888888888889],[-122.32416666666666,37.59722222222222],[-122.32416666666666,37.59722222222222]],"type":"LineString"}
}
