{
  "id": 2031121191,
  "type": "Feature",
  "properties": {
    "geom:area": 0,
    "geom:bbox": "-122.513889,35.997778,-114.876389,37.667778",
    "geom:latitude": 36.95758620253087,
    "geom:longitude": -118.59051570345638,
    "src:alt_label": "swim-path",
    "src:geom": "swim",
    "swim:altitudes": [
      "023",
      "023",
      "023",
      "023",
      "023",
      "023",
      "051",
      "051",
      "051",
      "051",
      "051",
      "051",
      "051",
      "163",
      "163",
      "190",
      "190",
      "190",
      "190",
      "190",
      "190",
      "190",
      "190",
      "190",
      "284",
      "284",
      "284",
      "284",
      "284",
      "284",
      "284",
      "284",
      "310C",
      "310C",
      "310C",
      "310C",
      "310C",
      "310C",
      "310C",
      "310C",
      "310C",
      "310C",
      "310C",
      "310C",
      "310C",
      "310C",
      "310C",
      "310C",
      "310C",
      "310C",
      "310C",
      "310C",
      "310C",
      "310C",
      "310C",
      "310C",
      "310C",
      "310C",
      "310C",
      "310C",
      "310C",
      "310C",
      "310C",
      "310C",
      "310C",
      "310C",
      "310C",
      "310C",
      "310C",
      "310C",
      "310C",
      "310C",
      "310C",
      "310C",
      "310C",
      "310C",
      "310C",
      "310C",
      "310C",
      "310C",
      "310C",
      "310C",
      "310C",
      "310C",
      "310C",
      "310C",
      "310C",
      "310C",
      "310C",
      "310C",
      "310C",
      "310C",
      "310C",
      "292",
      "292",
      "292",
      "292",
      "271C",
      "271C",
      "271C",
      "271C",
      "271C",
      "271C",
      "271C",
      "271C",
      "271C",
      "260",
      "260",
      "260",
      "260",
      "260",
      "260",
      "260",
      "260",
      "260",
      "260",
      "260",
      "253",
      "253",
      "253",
      "253",
      "253",
      "212",
      "212",
      "195",
      "195",
      "195",
      "190",
      "190",
      "190",
      "190",
      "190",
      "190",
      "190",
      "190",
      "190",
      "185",
      "185",
      "185",
      "155",
      "148",
      "148",
      "148",
      "148",
      "148",
      "148",
      "143",
      "143",
      "143",
      "137",
      "137",
      "137",
      "137",
      "137",
      "128",
      "128",
      "128",
      "115",
      "110",
      "110",
      "110",
      "110",
      "110",
      "093",
      "093",
      "093",
      "089",
      "089",
      "089",
      "089",
      "078",
      "078",
      "078",
      "078",
      "068",
      "068",
      "060",
      "060",
      "060",
      "060",
      "048",
      "048",
      "048",
      "043",
      "043",
      "038",
      "038",
      "038",
      "034",
      "034",
      "034",
      "034",
      "034",
      "034",
      "034"
    ],
    "swim:geom": "path",
    "swim:speeds": [
      194,
      194,
      194,
      194,
      194,
      194,
      234,
      234,
      234,
      234,
      234,
      234,
      234,
      383,
      383,
      392,
      392,
      392,
      392,
      392,
      392,
      392,
      392,
      392,
      476,
      476,
      476,
      476,
      476,
      476,
      476,
      476,
      485,
      485,
      485,
      485,
      485,
      484,
      484,
      484,
      484,
      484,
      484,
      484,
      483,
      483,
      483,
      483,
      483,
      483,
      483,
      485,
      485,
      485,
      486,
      486,
      486,
      486,
      486,
      486,
      487,
      487,
      487,
      487,
      487,
      488,
      488,
      488,
      488,
      488,
      488,
      488,
      488,
      488,
      488,
      488,
      488,
      488,
      487,
      487,
      487,
      487,
      487,
      487,
      486,
      486,
      486,
      486,
      486,
      486,
      486,
      486,
      486,
      447,
      447,
      447,
      447,
      426,
      426,
      426,
      426,
      426,
      426,
      426,
      426,
      426,
      422,
      422,
      422,
      422,
      422,
      422,
      422,
      422,
      422,
      422,
      422,
      416,
      416,
      416,
      416,
      416,
      381,
      381,
      382,
      382,
      382,
      360,
      360,
      360,
      360,
      360,
      360,
      360,
      356,
      356,
      343,
      343,
      343,
      288,
      265,
      265,
      265,
      265,
      265,
      265,
      269,
      269,
      269,
      270,
      270,
      270,
      270,
      270,
      258,
      258,
      258,
      255,
      257,
      257,
      257,
      257,
      257,
      257,
      257,
      257,
      253,
      253,
      253,
      253,
      250,
      250,
      250,
      250,
      232,
      232,
      208,
      208,
      208,
      208,
      170,
      170,
      170,
      173,
      173,
      172,
      172,
      172,
      164,
      164,
      164,
      164,
      164,
      164,
      164
    ],
    "swim:timestamps": [
      1777234263,
      1777234263,
      1777234263,
      1777234263,
      1777234263,
      1777234263,
      1777234323,
      1777234323,
      1777234323,
      1777234323,
      1777234323,
      1777234323,
      1777234323,
      1777234566,
      1777234566,
      1777234626,
      1777234626,
      1777234626,
      1777234626,
      1777234626,
      1777234626,
      1777234626,
      1777234626,
      1777234626,
      1777234926,
      1777234926,
      1777234926,
      1777234926,
      1777234926,
      1777234926,
      1777234926,
      1777234926,
      1777235405,
      1777235405,
      1777235405,
      1777235405,
      1777235405,
      1777235465,
      1777235465,
      1777235465,
      1777235465,
      1777235465,
      1777235465,
      1777235465,
      1777235645,
      1777235645,
      1777235645,
      1777235645,
      1777235645,
      1777235645,
      1777235645,
      1777235825,
      1777235825,
      1777235825,
      1777235888,
      1777235888,
      1777235888,
      1777235888,
      1777235888,
      1777235888,
      1777235948,
      1777235948,
      1777235948,
      1777235948,
      1777235948,
      1777236006,
      1777236006,
      1777236006,
      1777236006,
      1777236006,
      1777236006,
      1777236186,
      1777236186,
      1777236186,
      1777236186,
      1777236186,
      1777236186,
      1777236186,
      1777236308,
      1777236308,
      1777236308,
      1777236308,
      1777236308,
      1777236308,
      1777236428,
      1777236428,
      1777236428,
      1777236428,
      1777236428,
      1777236428,
      1777236428,
      1777236428,
      1777236428,
      1777236609,
      1777236609,
      1777236609,
      1777236609,
      1777236727,
      1777236727,
      1777236727,
      1777236727,
      1777236727,
      1777236727,
      1777236727,
      1777236727,
      1777236727,
      1777236909,
      1777236909,
      1777236909,
      1777236909,
      1777236933,
      1777236933,
      1777236933,
      1777236933,
      1777236933,
      1777236933,
      1777236933,
      1777236993,
      1777236993,
      1777236993,
      1777236993,
      1777236993,
      1777237120,
      1777237120,
      1777237174,
      1777237174,
      1777237174,
      1777237235,
      1777237235,
      1777237235,
      1777237235,
      1777237235,
      1777237235,
      1777237235,
      1777237270,
      1777237270,
      1777237295,
      1777237295,
      1777237295,
      1777237450,
      1777237488,
      1777237488,
      1777237488,
      1777237488,
      1777237488,
      1777237488,
      1777237510,
      1777237510,
      1777237510,
      1777237536,
      1777237536,
      1777237536,
      1777237536,
      1777237536,
      1777237596,
      1777237596,
      1777237596,
      1777237662,
      1777237690,
      1777237690,
      1777237690,
      1777237690,
      1777237690,
      1777237783,
      1777237783,
      1777237783,
      1777237811,
      1777237811,
      1777237811,
      1777237811,
      1777237871,
      1777237871,
      1777237871,
      1777237871,
      1777237931,
      1777237931,
      1777237991,
      1777237991,
      1777237991,
      1777237991,
      1777238079,
      1777238079,
      1777238079,
      1777238111,
      1777238111,
      1777238139,
      1777238139,
      1777238139,
      1777238171,
      1777238171,
      1777238171,
      1777238171,
      1777238171,
      1777238171,
      1777238171
    ],
    "wof:geomhash": "625510050d306e75cd263a6ff6e2f344",
    "wof:id": 2031121191,
    "wof:repo": "sfomuseum-data-flights-2026-04"
  },
  "bbox": [
    -122.51388888888889,
    35.99777777777778,
    -114.87638888888888,
    37.66777777777777
  ],
  "geometry": {"coordinates":[[-122.43694444444445,37.64611111111111],[-122.43694444444445,37.64611111111111],[-122.43694444444445,37.64611111111111],[-122.43694444444445,37.64611111111111],[-122.43694444444445,37.64611111111111],[-122.43694444444445,37.64611111111111],[-122.51388888888889,37.66777777777777],[-122.51388888888889,37.66777777777777],[-122.51388888888889,37.66777777777777],[-122.51388888888889,37.66777777777777],[-122.51388888888889,37.66777777777777],[-122.51388888888889,37.66777777777777],[-122.51388888888889,37.66777777777777],[-122.27972222222222,37.400277777777774],[-122.27972222222222,37.400277777777774],[-122.14472222222223,37.36833333333333],[-122.14472222222223,37.36833333333333],[-122.14472222222223,37.36833333333333],[-122.14472222222223,37.36833333333333],[-122.14472222222223,37.36833333333333],[-122.14472222222223,37.36833333333333],[-122.14472222222223,37.36833333333333],[-122.14472222222223,37.36833333333333],[-122.14472222222223,37.36833333333333],[-121.35166666666666,37.21055555555556],[-121.35166666666666,37.21055555555556],[-121.35166666666666,37.21055555555556],[-121.35166666666666,37.21055555555556],[-121.35166666666666,37.21055555555556],[-121.35166666666666,37.21055555555556],[-121.35166666666666,37.21055555555556],[-121.35166666666666,37.21055555555556],[-120.06583333333333,36.93861111111111],[-120.06583333333333,36.93861111111111],[-120.06583333333333,36.93861111111111],[-120.06583333333333,36.93861111111111],[-120.06583333333333,36.93861111111111],[-119.90166666666667,36.90888888888889],[-119.90166666666667,36.90888888888889],[-119.90166666666667,36.90888888888889],[-119.90166666666667,36.90888888888889],[-119.90166666666667,36.90888888888889],[-119.90166666666667,36.90888888888889],[-119.90166666666667,36.90888888888889],[-119.43055555555556,37.04944444444444],[-119.43055555555556,37.04944444444444],[-119.43055555555556,37.04944444444444],[-119.43055555555556,37.04944444444444],[-119.43055555555556,37.04944444444444],[-119.43055555555556,37.04944444444444],[-119.43055555555556,37.04944444444444],[-118.96055555555556,37.20055555555556],[-118.96055555555556,37.20055555555556],[-118.96055555555556,37.20055555555556],[-118.7786111111111,37.25805555555556],[-118.7786111111111,37.25805555555556],[-118.7786111111111,37.25805555555556],[-118.7786111111111,37.25805555555556],[-118.7786111111111,37.25805555555556],[-118.7786111111111,37.25805555555556],[-118.61277777777777,37.28472222222222],[-118.61277777777777,37.28472222222222],[-118.61277777777777,37.28472222222222],[-118.61277777777777,37.28472222222222],[-118.61277777777777,37.28472222222222],[-118.47,37.295833333333334],[-118.47,37.295833333333334],[-118.47,37.295833333333334],[-118.47,37.295833333333334],[-118.47,37.295833333333334],[-118.47,37.295833333333334],[-117.93333333333334,37.33555555555556],[-117.93333333333334,37.33555555555556],[-117.93333333333334,37.33555555555556],[-117.93333333333334,37.33555555555556],[-117.93333333333334,37.33555555555556],[-117.93333333333334,37.33555555555556],[-117.93333333333334,37.33555555555556],[-117.59833333333333,37.35916666666667],[-117.59833333333333,37.35916666666667],[-117.59833333333333,37.35916666666667],[-117.59833333333333,37.35916666666667],[-117.59833333333333,37.35916666666667],[-117.59833333333333,37.35916666666667],[-117.26305555555555,37.3675],[-117.26305555555555,37.3675],[-117.26305555555555,37.3675],[-117.26305555555555,37.3675],[-117.26305555555555,37.3675],[-117.26305555555555,37.3675],[-117.26305555555555,37.3675],[-117.26305555555555,37.3675],[-117.26305555555555,37.3675],[-116.89916666666667,37.1175],[-116.89916666666667,37.1175],[-116.89916666666667,37.1175],[-116.89916666666667,37.1175],[-116.72333333333333,36.92361111111111],[-116.72333333333333,36.92361111111111],[-116.72333333333333,36.92361111111111],[-116.72333333333333,36.92361111111111],[-116.72333333333333,36.92361111111111],[-116.72333333333333,36.92361111111111],[-116.72333333333333,36.92361111111111],[-116.72333333333333,36.92361111111111],[-116.72333333333333,36.92361111111111],[-116.47083333333333,36.6375],[-116.47083333333333,36.6375],[-116.47083333333333,36.6375],[-116.47083333333333,36.6375],[-116.42111111111112,36.60138888888889],[-116.42111111111112,36.60138888888889],[-116.42111111111112,36.60138888888889],[-116.42111111111112,36.60138888888889],[-116.42111111111112,36.60138888888889],[-116.42111111111112,36.60138888888889],[-116.42111111111112,36.60138888888889],[-116.3125,36.52388888888889],[-116.3125,36.52388888888889],[-116.3125,36.52388888888889],[-116.3125,36.52388888888889],[-116.3125,36.52388888888889],[-116.0975,36.37138888888889],[-116.0975,36.37138888888889],[-116.0075,36.30694444444444],[-116.0075,36.30694444444444],[-116.0075,36.30694444444444],[-115.91027777777778,36.239444444444445],[-115.91027777777778,36.239444444444445],[-115.91027777777778,36.239444444444445],[-115.91027777777778,36.239444444444445],[-115.91027777777778,36.239444444444445],[-115.91027777777778,36.239444444444445],[-115.91027777777778,36.239444444444445],[-115.8561111111111,36.20527777777778],[-115.8561111111111,36.20527777777778],[-115.81444444444445,36.17805555555555],[-115.81444444444445,36.17805555555555],[-115.81444444444445,36.17805555555555],[-115.5675,36.08222222222223],[-115.52222222222223,36.050555555555555],[-115.52222222222223,36.050555555555555],[-115.52222222222223,36.050555555555555],[-115.52222222222223,36.050555555555555],[-115.52222222222223,36.050555555555555],[-115.52222222222223,36.050555555555555],[-115.49888888888889,36.03361111111111],[-115.49888888888889,36.03361111111111],[-115.49888888888889,36.03361111111111],[-115.46638888888889,36.01],[-115.46638888888889,36.01],[-115.46638888888889,36.01],[-115.46638888888889,36.01],[-115.46638888888889,36.01],[-115.37916666666666,36.01361111111111],[-115.37916666666666,36.01361111111111],[-115.37916666666666,36.01361111111111],[-115.2825,36.013333333333335],[-115.24444444444444,36.01083333333333],[-115.24444444444444,36.01083333333333],[-115.24444444444444,36.01083333333333],[-115.24444444444444,36.01083333333333],[-115.24444444444444,36.01083333333333],[-115.10722222222222,36.00277777777778],[-115.10722222222222,36.00277777777778],[-115.10722222222222,36.00277777777778],[-115.06583333333333,36.00222222222222],[-115.06583333333333,36.00222222222222],[-115.06583333333333,36.00222222222222],[-115.06583333333333,36.00222222222222],[-114.98083333333334,35.99888888888889],[-114.98083333333334,35.99888888888889],[-114.98083333333334,35.99888888888889],[-114.98083333333334,35.99888888888889],[-114.89777777777779,35.99777777777778],[-114.89777777777779,35.99777777777778],[-114.87638888888888,36.03916666666667],[-114.87638888888888,36.03916666666667],[-114.87638888888888,36.03916666666667],[-114.87638888888888,36.03916666666667],[-114.9538888888889,36.07416666666667],[-114.9538888888889,36.07416666666667],[-114.9538888888889,36.07416666666667],[-114.98666666666666,36.07361111111111],[-114.98666666666666,36.07361111111111],[-115.01444444444445,36.073055555555555],[-115.01444444444445,36.073055555555555],[-115.01444444444445,36.073055555555555],[-115.04416666666667,36.07361111111111],[-115.04416666666667,36.07361111111111],[-115.04416666666667,36.07361111111111],[-115.04416666666667,36.07361111111111],[-115.04416666666667,36.07361111111111],[-115.04416666666667,36.07361111111111],[-115.04416666666667,36.07361111111111]],"type":"LineString"}
}
