{
  "id": 2015274497,
  "type": "Feature",
  "properties": {
    "geom:area": 0,
    "geom:bbox": "-122.527760,36.729480,-121.403390,37.657920",
    "geom:latitude": 37.21421384231665,
    "geom:longitude": -122.03607490027109,
    "src:alt_label": "swim-takeoff",
    "src:geom": "swim",
    "swim:elevations": [
      213,
      525,
      823,
      1126,
      1222,
      1577,
      1761,
      2165,
      2922,
      3101,
      3448,
      3719,
      3943,
      4343,
      4803,
      4975,
      5124,
      5446,
      5624,
      5803,
      5903,
      6373,
      6467,
      6545,
      6759,
      7136,
      7188,
      7358,
      7607,
      7826,
      7947,
      8026,
      8204,
      8374,
      8413,
      8455,
      8623,
      8872,
      8933
    ],
    "swim:geom": "takeoff",
    "swim:timestamps": [
      1775977933,
      1775977953,
      1775977973,
      1775978003,
      1775978016,
      1775978067,
      1775978079,
      1775978101,
      1775978144,
      1775978156,
      1775978174,
      1775978200,
      1775978231,
      1775978272,
      1775978296,
      1775978306,
      1775978316,
      1775978341,
      1775978362,
      1775978397,
      1775978406,
      1775978452,
      1775978462,
      1775978470,
      1775978500,
      1775978537,
      1775978543,
      1775978563,
      1775978603,
      1775978630,
      1775978648,
      1775978660,
      1775978681,
      1775978706,
      1775978721,
      1775978731,
      1775978755,
      1775978789,
      1775978798
    ],
    "wof:geomhash": "d0056ee5ff8676bfb1356dbc58312730",
    "wof:id": 2015274497,
    "wof:repo": "sfomuseum-data-flights-2026-04"
  },
  "bbox": [
    -122.52776,
    36.72948,
    -121.40339,
    37.65792
  ],
  "geometry": {"coordinates":[[-122.39208,37.6285],[-122.40862,37.63554],[-122.42562,37.64238],[-122.45012,37.65188],[-122.46194,37.6564],[-122.5201,37.65792],[-122.52776,37.646],[-122.52559,37.61993],[-122.50207,37.57007],[-122.49581,37.5558],[-122.48691,37.53342],[-122.47411,37.50099],[-122.43677,37.46509],[-122.36738,37.42296],[-122.32872,37.39799],[-122.31212,37.38735],[-122.29543,37.37697],[-122.25444,37.3517],[-122.21925,37.32953],[-122.15773,37.28895],[-122.14147,37.2783],[-122.05692,37.22333],[-122.03907,37.21173],[-122.02313,37.20152],[-121.96499,37.16465],[-121.90111,37.11465],[-121.891,37.10605],[-121.85624,37.0773],[-121.78408,37.01988],[-121.73346,36.98143],[-121.69929,36.9552],[-121.67649,36.93758],[-121.637,36.90676],[-121.58726,36.869],[-121.55769,36.84648],[-121.53862,36.83226],[-121.48887,36.79511],[-121.42146,36.74343],[-121.40339,36.72948]],"type":"LineString"}
}
