{
  "id": 2031147911,
  "type": "Feature",
  "properties": {
    "geom:area": 0,
    "geom:bbox": "-122.348010,36.727090,-121.882100,37.609790",
    "geom:latitude": 37.211162073355325,
    "geom:longitude": -122.06820963996307,
    "src:alt_label": "swim-approach",
    "src:geom": "swim",
    "swim:elevations": [
      5560,
      5262,
      5142,
      4810,
      4390,
      4305,
      3917,
      3508,
      3229,
      3163,
      3019,
      2963,
      2732,
      2534,
      2492,
      2350,
      2225,
      2083,
      1889,
      1688,
      1583,
      1319,
      1127,
      1006,
      814,
      747,
      617,
      534,
      306,
      206,
      71
    ],
    "swim:geom": "approach",
    "swim:timestamps": [
      1777559845,
      1777559877,
      1777559889,
      1777559921,
      1777559964,
      1777559971,
      1777560013,
      1777560054,
      1777560084,
      1777560100,
      1777560144,
      1777560160,
      1777560201,
      1777560220,
      1777560230,
      1777560265,
      1777560284,
      1777560304,
      1777560335,
      1777560370,
      1777560392,
      1777560445,
      1777560475,
      1777560499,
      1777560528,
      1777560543,
      1777560567,
      1777560583,
      1777560626,
      1777560652,
      1777560685
    ],
    "wof:geomhash": "a9232e6927ef2f074975735e5b36b619",
    "wof:id": 2031147911,
    "wof:repo": "sfomuseum-data-flights-2026-04"
  },
  "bbox": [
    -122.34801,
    36.72709,
    -121.8821,
    37.60979
  ],
  "geometry": {"coordinates":[[-121.8821,36.72709],[-121.90345,36.77504],[-121.90884,36.79437],[-121.92225,36.84184],[-121.93993,36.90642],[-121.94306,36.91791],[-121.96329,36.9779],[-121.98552,37.03522],[-122.00179,37.07643],[-122.01017,37.09775],[-122.03144,37.15284],[-122.03874,37.17128],[-122.05654,37.21756],[-122.06516,37.23917],[-122.07,37.25104],[-122.08559,37.29046],[-122.09357,37.31116],[-122.1022,37.33344],[-122.11571,37.36705],[-122.12887,37.40347],[-122.13612,37.42531],[-122.15395,37.47826],[-122.16374,37.50865],[-122.17227,37.53227],[-122.20258,37.54836],[-122.21915,37.55518],[-122.24573,37.5668],[-122.26189,37.57351],[-122.30344,37.59088],[-122.32376,37.59959],[-122.34801,37.60979]],"type":"LineString"}
}
