{
  "id": 2015336447,
  "type": "Feature",
  "properties": {
    "geom:area": 0,
    "geom:bbox": "-122.359370,37.452110,-121.274680,37.614400",
    "geom:latitude": 37.531984632647976,
    "geom:longitude": -121.82475754218221,
    "src:alt_label": "swim-approach",
    "src:geom": "swim",
    "swim:elevations": [
      4720,
      4450,
      4231,
      4109,
      4013,
      3828,
      3530,
      3505,
      3441,
      3303,
      3253,
      3129,
      2991,
      2819,
      2621,
      2567,
      2350,
      2157,
      2017,
      2002,
      1865,
      1829,
      1816,
      1563,
      1340,
      1219,
      1056,
      973,
      914,
      674,
      547,
      439,
      365,
      249,
      210,
      181,
      0
    ],
    "swim:geom": "approach",
    "swim:timestamps": [
      1776725242,
      1776725275,
      1776725302,
      1776725338,
      1776725360,
      1776725385,
      1776725426,
      1776725439,
      1776725460,
      1776725487,
      1776725499,
      1776725520,
      1776725541,
      1776725569,
      1776725601,
      1776725617,
      1776725659,
      1776725692,
      1776725727,
      1776725731,
      1776725756,
      1776725788,
      1776725794,
      1776725833,
      1776725872,
      1776725889,
      1776725917,
      1776725937,
      1776725949,
      1776725994,
      1776726018,
      1776726041,
      1776726056,
      1776726085,
      1776726095,
      1776726102,
      1776726145
    ],
    "wof:geomhash": "51fa92cad3ad00643c3403eaaa351db4",
    "wof:id": 2015336447,
    "wof:repo": "sfomuseum-data-flights-2026-04"
  },
  "bbox": [
    -122.35937,
    37.45211,
    -121.27468,
    37.6144
  ],
  "geometry": {"coordinates":[[-121.27468,37.59113],[-121.3319,37.5847],[-121.37879,37.57951],[-121.4397,37.57265],[-121.47502,37.5685],[-121.51448,37.5636],[-121.57909,37.55618],[-121.59775,37.55399],[-121.62811,37.54987],[-121.66341,37.5414],[-121.67883,37.53754],[-121.70585,37.53139],[-121.73033,37.52374],[-121.75668,37.50682],[-121.78669,37.48709],[-121.80175,37.47718],[-121.84133,37.45211],[-121.88519,37.45465],[-121.93209,37.46111],[-121.93855,37.462],[-121.97109,37.46615],[-122.01341,37.47182],[-122.02122,37.47328],[-122.06969,37.4923],[-122.11632,37.51221],[-122.13517,37.52015],[-122.16326,37.53198],[-122.18186,37.5398],[-122.19311,37.54455],[-122.2357,37.56243],[-122.25841,37.57209],[-122.27841,37.58046],[-122.2905,37.5855],[-122.31309,37.59503],[-122.32077,37.59827],[-122.32604,37.60047],[-122.35937,37.6144]],"type":"LineString"}
}
