{
  "id": 2031137855,
  "type": "Feature",
  "properties": {
    "geom:area": 0,
    "geom:bbox": "-122.563620,36.745230,-122.372880,37.669600",
    "geom:latitude": 37.249910070893165,
    "geom:longitude": -122.5153626822631,
    "src:alt_label": "swim-takeoff",
    "src:geom": "swim",
    "swim:elevations": [
      152,
      465,
      808,
      970,
      1254,
      1958,
      2158,
      3732,
      3873,
      4028,
      4676,
      5248,
      5809,
      6215,
      6514,
      6769,
      7144,
      7228,
      7782,
      8166,
      8583,
      8839,
      8839,
      8839,
      8839,
      8839
    ],
    "swim:geom": "takeoff",
    "swim:timestamps": [
      1777416747,
      1777416766,
      1777416787,
      1777416808,
      1777416832,
      1777416869,
      1777416878,
      1777416957,
      1777416967,
      1777416977,
      1777417012,
      1777417042,
      1777417078,
      1777417103,
      1777417122,
      1777417140,
      1777417166,
      1777417172,
      1777417213,
      1777417237,
      1777417262,
      1777417312,
      1777417348,
      1777417395,
      1777417427,
      1777417450
    ],
    "wof:geomhash": "fd28ee77a0f5b62165d2fd51add5c107",
    "wof:id": 2031137855,
    "wof:repo": "sfomuseum-data-flights-2026-04"
  },
  "bbox": [
    -122.56362,
    36.74523,
    -122.37288,
    37.6696
  ],
  "geometry": {"coordinates":[[-122.37808,37.62],[-122.39219,37.62613],[-122.40881,37.63328],[-122.42913,37.64204],[-122.45679,37.65407],[-122.50606,37.6696],[-122.52097,37.66654],[-122.55147,37.56788],[-122.5522,37.55371],[-122.55287,37.53854],[-122.55406,37.48358],[-122.55504,37.43528],[-122.55618,37.37617],[-122.55709,37.33389],[-122.55778,37.30112],[-122.55839,37.26979],[-122.55944,37.22433],[-122.55966,37.21366],[-122.5615,37.1396],[-122.56263,37.0952],[-122.56362,37.04998],[-122.53292,36.96318],[-122.49074,36.90635],[-122.43588,36.83173],[-122.39975,36.78233],[-122.37288,36.74523]],"type":"LineString"}
}
