{
  "id": 2015227883,
  "type": "Feature",
  "properties": {
    "geom:area": 0,
    "geom:bbox": "-122.380000,33.640000,-84.280000,38.450000",
    "geom:latitude": 37.13748204163179,
    "geom:longitude": -103.07046288449759,
    "src:alt_label": "swim-route",
    "src:geom": "swim",
    "swim:geom": "route",
    "wof:geomhash": "5ee4c3cac89abba6e765e92de9fa03da",
    "wof:id": 2015227883,
    "wof:repo": "sfomuseum-data-flights-2026-04"
  },
  "bbox": [
    -122.38,
    33.64,
    -84.28,
    38.45
  ],
  "geometry": {"coordinates":[[-84.43,33.64],[-84.28,33.68],[-84.28,33.81],[-84.53,33.81],[-84.62,33.82],[-84.62,33.82],[-85.19,33.82],[-85.2,33.82],[-85.42,33.83],[-85.65,33.84],[-86.04,33.95],[-86.05,33.96],[-86.76,34.16],[-87.11,34.26],[-87.15,34.27],[-89.6,34.92],[-89.98,35.02],[-90.18,35.08],[-91.19,35.39],[-92.07,35.66],[-93.09,35.96],[-94.12,36.25],[-94.64,36.44],[-95.09,36.61],[-96,36.94],[-96.99,37.21],[-97.73,37.41],[-98.4,37.59],[-99.65,37.77],[-100.73,37.92],[-101.56,38.04],[-102.69,38.2],[-103.57,38.25],[-103.89,38.27],[-104.43,38.29],[-104.58,38.3],[-104.99,38.33],[-105.09,38.34],[-105.38,38.36],[-105.76,38.38],[-107.04,38.45],[-108.24,38.45],[-108.44,38.45],[-108.61,38.45],[-108.93,38.45],[-109.45,38.43],[-109.98,38.44],[-111.32,38.45],[-111.85,38.44],[-112.35,38.44],[-113.85,38.42],[-116.33,38.33],[-116.8,38.25],[-117.27,38.17],[-118.76,37.9],[-118.98,37.87],[-119.1,37.86],[-119.53,37.81],[-119.9,37.76],[-119.99,37.75],[-120.07,37.74],[-120.4,37.7],[-120.42,37.7],[-120.49,37.69],[-120.69,37.67],[-120.75,37.66],[-120.78,37.66],[-120.83,37.65],[-120.96,37.63],[-121,37.63],[-121.08,37.62],[-121.18,37.6],[-121.26,37.59],[-121.39,37.58],[-121.41,37.58],[-121.6,37.55],[-121.61,37.55],[-121.62,37.55],[-121.69,37.53],[-121.8,37.51],[-121.81,37.51],[-121.88,37.49],[-122.08,37.54],[-122.09,37.55],[-122.18,37.57],[-122.28,37.59],[-122.33,37.61],[-122.36,37.61],[-122.38,37.62]],"type":"LineString"}
}
