{
  "id": 2015250419,
  "type": "Feature",
  "properties": {
    "geom:area": 0,
    "geom:bbox": "-122.345570,37.491810,-121.243870,37.608680",
    "geom:latitude": 37.54243269627612,
    "geom:longitude": -121.8014726280601,
    "src:alt_label": "swim-approach",
    "src:geom": "swim",
    "swim:elevations": [
      4720,
      4454,
      4415,
      4066,
      3834,
      3643,
      3463,
      3226,
      3196,
      2935,
      2808,
      2624,
      2520,
      2370,
      2280,
      2107,
      2042,
      1828,
      1754,
      1598,
      1526,
      1411,
      1282,
      1219,
      1156,
      1045,
      868,
      761,
      632,
      576,
      481,
      358,
      292,
      187,
      73
    ],
    "swim:geom": "approach",
    "swim:timestamps": [
      1775865118,
      1775865148,
      1775865151,
      1775865187,
      1775865237,
      1775865264,
      1775865298,
      1775865328,
      1775865340,
      1775865386,
      1775865403,
      1775865433,
      1775865451,
      1775865508,
      1775865538,
      1775865568,
      1775865580,
      1775865628,
      1775865658,
      1775865680,
      1775865695,
      1775865718,
      1775865745,
      1775865775,
      1775865808,
      1775865833,
      1775865865,
      1775865887,
      1775865911,
      1775865926,
      1775865947,
      1775865981,
      1775865999,
      1775866032,
      1775866057
    ],
    "wof:geomhash": "92e101cbbc8f2bcbbe19b4517c211a0b",
    "wof:id": 2015250419,
    "wof:repo": "sfomuseum-data-flights-2026-04"
  },
  "bbox": [
    -122.34557,
    37.49181,
    -121.24387,
    37.60868
  ],
  "geometry": {"coordinates":[[-121.24387,37.59545],[-121.29932,37.58823],[-121.30484,37.58765],[-121.37056,37.58041],[-121.45532,37.57067],[-121.49548,37.566],[-121.54318,37.56038],[-121.58478,37.55546],[-121.60138,37.55355],[-121.66175,37.5419],[-121.68346,37.53672],[-121.72183,37.52766],[-121.74433,37.52229],[-121.81496,37.50531],[-121.85191,37.49647],[-121.88497,37.49181],[-121.89721,37.49238],[-121.9508,37.4953],[-121.98462,37.49743],[-122.00877,37.49884],[-122.02515,37.49973],[-122.05017,37.5011],[-122.07987,37.50281],[-122.11119,37.51036],[-122.14428,37.52387],[-122.16823,37.53401],[-122.19908,37.54704],[-122.21926,37.55555],[-122.24032,37.56441],[-122.25256,37.56959],[-122.26827,37.57623],[-122.29253,37.58638],[-122.30507,37.59168],[-122.32803,37.60132],[-122.34557,37.60868]],"type":"LineString"}
}
