{
  "id": 2015279121,
  "type": "Feature",
  "properties": {
    "geom:area": 0,
    "geom:bbox": "-122.355110,36.735700,-121.887870,37.610350",
    "geom:latitude": 37.220263712864885,
    "geom:longitude": -122.14685011548126,
    "src:alt_label": "swim-approach",
    "src:geom": "swim",
    "swim:elevations": [
      5562,
      5413,
      5300,
      5062,
      4929,
      4493,
      4439,
      4132,
      3980,
      3783,
      3348,
      3353,
      3353,
      3327,
      3092,
      2856,
      2741,
      2743,
      2743,
      2582,
      2528,
      2347,
      2261,
      1970,
      1924,
      1830,
      1766,
      1676,
      1365,
      1304,
      1217,
      1128,
      1043,
      977,
      914,
      869,
      794,
      729,
      604,
      519,
      380,
      281,
      168,
      89,
      27
    ],
    "swim:geom": "approach",
    "swim:timestamps": [
      1776119172,
      1776119196,
      1776119232,
      1776119268,
      1776119282,
      1776119336,
      1776119344,
      1776119383,
      1776119404,
      1776119431,
      1776119487,
      1776119508,
      1776119548,
      1776119560,
      1776119587,
      1776119620,
      1776119645,
      1776119687,
      1776119705,
      1776119755,
      1776119776,
      1776119815,
      1776119827,
      1776119876,
      1776119883,
      1776119907,
      1776119919,
      1776119940,
      1776119997,
      1776120006,
      1776120030,
      1776120045,
      1776120060,
      1776120078,
      1776120104,
      1776120141,
      1776120170,
      1776120204,
      1776120237,
      1776120255,
      1776120295,
      1776120322,
      1776120352,
      1776120376,
      1776120391
    ],
    "wof:geomhash": "0bfa3854ba4dfa608e2c5cf1308f3305",
    "wof:id": 2015279121,
    "wof:repo": "sfomuseum-data-flights-2026-04"
  },
  "bbox": [
    -122.35511,
    36.7357,
    -121.88787,
    37.61035
  ],
  "geometry": {"coordinates":[[-121.88787,36.7357],[-121.90186,36.77103],[-121.91537,36.82094],[-121.9282,36.86448],[-121.93286,36.87985],[-121.97782,36.93067],[-121.98523,36.93822],[-122.01848,36.97296],[-122.03609,36.99162],[-122.05819,37.01502],[-122.10451,37.06268],[-122.12187,37.08018],[-122.15526,37.11444],[-122.16523,37.12483],[-122.18742,37.1479],[-122.21471,37.17666],[-122.23478,37.19786],[-122.26809,37.23321],[-122.28299,37.24902],[-122.32037,37.292],[-122.32039,37.31292],[-122.31213,37.34798],[-122.30125,37.35463],[-122.24466,37.35111],[-122.2369,37.35203],[-122.21282,37.36],[-122.20051,37.36428],[-122.17999,37.37148],[-122.14861,37.40848],[-122.14605,37.41603],[-122.13944,37.43597],[-122.13544,37.44835],[-122.1312,37.461],[-122.12753,37.47635],[-122.1403,37.49589],[-122.16373,37.5221],[-122.18588,37.53905],[-122.21622,37.55198],[-122.24348,37.56342],[-122.25778,37.56949],[-122.28652,37.58149],[-122.30579,37.58966],[-122.32706,37.59865],[-122.34427,37.60581],[-122.35511,37.61035]],"type":"LineString"}
}
