{
  "id": 2015212027,
  "type": "Feature",
  "properties": {
    "geom:area": 0,
    "geom:bbox": "-122.342790,36.758240,-121.898430,37.607460",
    "geom:latitude": 37.22519826783846,
    "geom:longitude": -122.07285182203344,
    "src:alt_label": "swim-approach",
    "src:geom": "swim",
    "swim:elevations": [
      5162,
      4863,
      4770,
      4389,
      4266,
      3972,
      3681,
      3567,
      3277,
      3000,
      2785,
      2660,
      2372,
      2016,
      1625,
      1448,
      1216,
      1219,
      1070,
      924,
      857,
      703,
      681,
      422,
      367,
      180,
      91
    ],
    "swim:geom": "approach",
    "swim:timestamps": [
      1775396962,
      1775396997,
      1775397008,
      1775397057,
      1775397071,
      1775397112,
      1775397148,
      1775397160,
      1775397198,
      1775397236,
      1775397261,
      1775397279,
      1775397312,
      1775397352,
      1775397388,
      1775397406,
      1775397440,
      1775397468,
      1775397507,
      1775397536,
      1775397556,
      1775397595,
      1775397612,
      1775397656,
      1775397664,
      1775397694,
      1775397721
    ],
    "wof:geomhash": "dadd4843a02c007cef16db0c868c2efc",
    "wof:id": 2015212027,
    "wof:repo": "sfomuseum-data-flights-2026-04"
  },
  "bbox": [
    -122.34279,
    36.75824,
    -121.89843,
    37.60746
  ],
  "geometry": {"coordinates":[[-121.89843,36.75824],[-121.91422,36.81255],[-121.91852,36.8279],[-121.93898,36.90182],[-121.94428,36.92149],[-121.96395,36.97995],[-121.98305,37.0292],[-121.98936,37.04565],[-122.00983,37.09771],[-122.03011,37.1488],[-122.0431,37.18188],[-122.05253,37.20625],[-122.06958,37.25024],[-122.08956,37.30061],[-122.1077,37.34627],[-122.11627,37.36817],[-122.13139,37.4116],[-122.14283,37.44552],[-122.15806,37.49178],[-122.16918,37.52526],[-122.18534,37.54286],[-122.23394,37.56223],[-122.25182,37.56944],[-122.291,37.58548],[-122.29755,37.58825],[-122.32166,37.59865],[-122.34279,37.60746]],"type":"LineString"}
}
