{
  "id": 2031109091,
  "type": "Feature",
  "properties": {
    "geom:area": 0,
    "geom:bbox": "-122.350220,36.718120,-121.875760,37.610640",
    "geom:latitude": 37.20684808857132,
    "geom:longitude": -122.06685057029138,
    "src:alt_label": "swim-approach",
    "src:geom": "swim",
    "swim:elevations": [
      5426,
      5322,
      5115,
      4909,
      4594,
      4427,
      4128,
      3918,
      3700,
      3335,
      3195,
      3064,
      2903,
      2678,
      2567,
      2438,
      2285,
      1965,
      1819,
      1648,
      1358,
      1161,
      1071,
      945,
      910,
      706,
      669,
      444,
      392,
      235,
      119,
      64
    ],
    "swim:geom": "approach",
    "swim:timestamps": [
      1777128599,
      1777128609,
      1777128631,
      1777128652,
      1777128685,
      1777128704,
      1777128738,
      1777128761,
      1777128784,
      1777128827,
      1777128855,
      1777128887,
      1777128920,
      1777128952,
      1777128968,
      1777129001,
      1777129026,
      1777129074,
      1777129095,
      1777129125,
      1777129163,
      1777129191,
      1777129204,
      1777129250,
      1777129283,
      1777129316,
      1777129324,
      1777129360,
      1777129368,
      1777129408,
      1777129436,
      1777129452
    ],
    "wof:geomhash": "d982454de9a5b365fdb7f9769edb36ae",
    "wof:id": 2031109091,
    "wof:repo": "sfomuseum-data-flights-2026-04"
  },
  "bbox": [
    -122.35022,
    36.71812,
    -121.87576,
    37.61064
  ],
  "geometry": {"coordinates":[[-121.87576,36.71812],[-121.88639,36.734],[-121.90189,36.76928],[-121.91163,36.80426],[-121.92593,36.85592],[-121.93382,36.88592],[-121.9485,36.93653],[-121.96097,36.97118],[-121.97387,37.0043],[-121.99814,37.06772],[-122.0123,37.10474],[-122.02816,37.14484],[-122.04383,37.18344],[-122.05833,37.22045],[-122.06539,37.23874],[-122.07983,37.27641],[-122.09005,37.30236],[-122.11058,37.35443],[-122.11967,37.3766],[-122.1302,37.40809],[-122.14364,37.44773],[-122.15317,37.47631],[-122.15752,37.48981],[-122.17515,37.53474],[-122.2102,37.55239],[-122.24353,37.56594],[-122.2506,37.56892],[-122.28059,37.58157],[-122.28658,37.58401],[-122.31717,37.59679],[-122.33853,37.60579],[-122.35022,37.61064]],"type":"LineString"}
}
