{
  "id": 2031149719,
  "type": "Feature",
  "properties": {
    "geom:area": 0,
    "geom:bbox": "-122.319444,37.500000,-77.466667,43.502500",
    "geom:latitude": 41.10462257063856,
    "geom:longitude": -99.76171292848636,
    "src:alt_label": "swim-path",
    "src:geom": "swim",
    "swim:altitudes": [
      "009",
      "009",
      "019",
      "019",
      "019",
      "098",
      "098",
      "118",
      "118",
      "118",
      "118",
      "142",
      "142",
      "142",
      "163",
      "163",
      "163",
      "163",
      "197",
      "197",
      "197",
      "215",
      "215",
      "215",
      "244",
      "244",
      "258",
      "258",
      "258",
      "258",
      "258",
      "258",
      "346",
      "346",
      "346",
      "346",
      "360",
      "360",
      "360",
      "360",
      "372",
      "372",
      "372",
      "380C",
      "380C",
      "380C",
      "380C",
      "380C",
      "380C",
      "380C",
      "380C",
      "380C",
      "380C",
      "380C",
      "380C",
      "380C",
      "380C",
      "380C",
      "380C",
      "380C",
      "380C",
      "380C",
      "380C",
      "380C",
      "380C",
      "380C",
      "380C",
      "380C",
      "380C",
      "380C",
      "380C",
      "380C",
      "380C",
      "380C",
      "380C",
      "380C",
      "380C",
      "380C",
      "380C",
      "380C",
      "380C",
      "380C",
      "380C",
      "380C",
      "380C",
      "380C",
      "380C",
      "380C",
      "380C",
      "380C",
      "380C",
      "380C",
      "380C",
      "380C",
      "380C",
      "380C",
      "380C",
      "380C",
      "380C",
      "380C",
      "380C",
      "380C",
      "380C",
      "380C",
      "380C",
      "380C",
      "380C",
      "380C",
      "380C",
      "380C",
      "380C",
      "380C",
      "380C",
      "380C",
      "380C",
      "380C",
      "380C",
      "380C",
      "380C",
      "380C",
      "380C",
      "380C",
      "380C",
      "380C",
      "380C",
      "380C",
      "380C",
      "380C",
      "380C",
      "380C",
      "380C",
      "380C",
      "380C",
      "396",
      "396",
      "396",
      "400C",
      "400C",
      "400C",
      "400C",
      "400C",
      "400C",
      "400C",
      "400C",
      "400C",
      "400C",
      "400C",
      "400C",
      "400C",
      "400C",
      "400C",
      "400C",
      "400C",
      "400C",
      "400C",
      "400C",
      "400C",
      "400C",
      "400C",
      "400C",
      "400C",
      "400C",
      "400C",
      "400C",
      "400C",
      "400C",
      "400C",
      "400C",
      "400C",
      "400C",
      "400C",
      "400C",
      "400C",
      "400C",
      "400C",
      "400C",
      "400C",
      "400C",
      "400C",
      "400C",
      "400C",
      "400C",
      "400C",
      "400C",
      "400C",
      "400C",
      "400C",
      "400C",
      "400C",
      "400C",
      "400C",
      "400C",
      "400C",
      "400C",
      "400C",
      "400C",
      "400C",
      "400C",
      "400C",
      "400C",
      "400C",
      "400C",
      "400C",
      "400C",
      "400C",
      "400C",
      "400C",
      "400C",
      "400C",
      "400C",
      "400C",
      "400C",
      "400C",
      "400C",
      "400C",
      "400C",
      "400C",
      "400C",
      "400C",
      "400C",
      "400C",
      "400C",
      "400C",
      "400C",
      "400C",
      "400C",
      "400C",
      "400C",
      "400C",
      "400C",
      "400C",
      "400C",
      "400C",
      "400C",
      "400C",
      "400C",
      "400C",
      "400C",
      "400C",
      "400C",
      "400C",
      "400C",
      "400C",
      "400C",
      "400C",
      "400C",
      "400C",
      "400C",
      "400C",
      "400C",
      "400C",
      "400C",
      "400C",
      "400C",
      "400C",
      "400C",
      "400C",
      "400C",
      "400C",
      "400C",
      "400C",
      "400C",
      "400C",
      "400C",
      "400C",
      "400C",
      "400C",
      "400C",
      "400C",
      "400C",
      "400C",
      "400C",
      "400C",
      "400C",
      "400C",
      "400C",
      "400C",
      "400C",
      "400C",
      "400C",
      "400C",
      "400C",
      "400C",
      "400C",
      "400C",
      "400C",
      "400C",
      "400C",
      "400C",
      "400C",
      "400C",
      "400C",
      "400C",
      "400C",
      "400C",
      "400C",
      "400C",
      "400C",
      "400C",
      "400C",
      "400C",
      "400C",
      "400C",
      "400C",
      "400C",
      "400C",
      "400C",
      "400C",
      "400C",
      "400C",
      "400C",
      "400C",
      "400C",
      "400C",
      "400C",
      "400C",
      "400C",
      "400C",
      "400C",
      "400C",
      "400C",
      "400C",
      "400C",
      "400C",
      "400C",
      "400C",
      "400C",
      "400C",
      "400C",
      "400C",
      "400C",
      "400C",
      "400C",
      "400C",
      "400C",
      "400C",
      "400C",
      "400C",
      "400C",
      "400C",
      "400C",
      "400C",
      "400C",
      "400C",
      "400C",
      "400C",
      "400C",
      "400C",
      "400C",
      "400C",
      "400C",
      "400C",
      "400C",
      "400C",
      "400C",
      "400C",
      "400C",
      "400C",
      "400C",
      "400C",
      "400C",
      "400C",
      "400C",
      "400C",
      "400C",
      "400C",
      "400C",
      "400C",
      "400C",
      "400C",
      "400C",
      "400C",
      "400C",
      "400C",
      "400C",
      "400C",
      "400C",
      "400C",
      "400C",
      "400C",
      "400C",
      "400C",
      "400C",
      "400C",
      "400C",
      "400C",
      "400C",
      "400C",
      "400C",
      "400C",
      "400C",
      "400C",
      "400C",
      "400C",
      "400C",
      "400C",
      "400C",
      "400C",
      "400C",
      "400C",
      "400C",
      "400C",
      "400C",
      "400C",
      "400C",
      "400C",
      "400C",
      "400C",
      "400C",
      "400C",
      "400C",
      "400C",
      "400C",
      "400C",
      "400C",
      "400C",
      "400C",
      "400C",
      "400C",
      "400C",
      "400C",
      "400C",
      "400C",
      "400C",
      "400C",
      "400C",
      "400C",
      "400C",
      "400C",
      "399C",
      "399C",
      "399C",
      "399C",
      "399C",
      "399C",
      "399C",
      "400C",
      "400C",
      "400C",
      "400C",
      "400C",
      "400C",
      "400C",
      "400C",
      "400C",
      "400C",
      "400C",
      "400C",
      "400C",
      "400C",
      "400C",
      "400C",
      "400C",
      "400C",
      "400C",
      "400C",
      "400C",
      "400C",
      "400C",
      "400",
      "400",
      "400",
      "388",
      "388",
      "388",
      "381C",
      "380C",
      "380C",
      "380C",
      "380C",
      "380C",
      "380C",
      "380C",
      "380C",
      "380C",
      "380C",
      "380C",
      "380C",
      "380C",
      "380C",
      "380C",
      "380C",
      "380C",
      "380C",
      "380C",
      "380C",
      "380C",
      "380C",
      "380C",
      "380C",
      "380C",
      "380C",
      "380C",
      "380C",
      "380C",
      "380C",
      "380C",
      "380C",
      "380C",
      "380C",
      "380C",
      "380C",
      "380C",
      "380C",
      "380C",
      "380C",
      "380C",
      "380C",
      "380C",
      "380C",
      "380C",
      "380C",
      "380C",
      "380C",
      "380C",
      "380C",
      "380C",
      "372",
      "372",
      "372",
      "372",
      "372",
      "303",
      "303",
      "303",
      "303",
      "303",
      "237",
      "237",
      "237",
      "237",
      "237",
      "237",
      "180",
      "180",
      "180",
      "175",
      "143",
      "143",
      "143",
      "143",
      "143",
      "126",
      "121",
      "121",
      "111",
      "111",
      "110",
      "106",
      "106",
      "106",
      "106",
      "101",
      "090",
      "090",
      "085",
      "085",
      "080",
      "080",
      "080",
      "080",
      "080",
      "060",
      "060",
      "050",
      "050",
      "050",
      "050",
      "050",
      "015",
      "015",
      "015",
      "008",
      "008"
    ],
    "swim:geom": "path",
    "swim:speeds": [
      166,
      166,
      173,
      173,
      173,
      250,
      250,
      264,
      264,
      264,
      264,
      358,
      358,
      358,
      384,
      384,
      384,
      384,
      374,
      374,
      374,
      387,
      387,
      387,
      405,
      405,
      412,
      412,
      412,
      412,
      412,
      412,
      434,
      434,
      434,
      434,
      435,
      435,
      435,
      435,
      435,
      435,
      435,
      434,
      434,
      434,
      435,
      439,
      439,
      440,
      440,
      440,
      441,
      441,
      441,
      442,
      443,
      443,
      443,
      442,
      441,
      441,
      441,
      439,
      439,
      439,
      437,
      438,
      438,
      438,
      438,
      442,
      442,
      442,
      442,
      442,
      442,
      442,
      442,
      442,
      442,
      442,
      442,
      443,
      441,
      441,
      441,
      440,
      440,
      440,
      440,
      438,
      438,
      436,
      436,
      436,
      436,
      435,
      435,
      435,
      435,
      435,
      435,
      438,
      438,
      439,
      440,
      440,
      440,
      443,
      443,
      443,
      442,
      444,
      444,
      444,
      444,
      444,
      444,
      444,
      446,
      446,
      446,
      445,
      445,
      443,
      443,
      443,
      442,
      442,
      442,
      442,
      442,
      440,
      440,
      440,
      439,
      439,
      439,
      439,
      438,
      438,
      438,
      441,
      441,
      441,
      441,
      441,
      440,
      440,
      440,
      440,
      440,
      440,
      440,
      440,
      449,
      449,
      446,
      443,
      443,
      443,
      439,
      439,
      436,
      436,
      436,
      439,
      439,
      438,
      439,
      439,
      439,
      440,
      440,
      440,
      440,
      440,
      440,
      441,
      441,
      441,
      441,
      441,
      441,
      441,
      441,
      441,
      441,
      441,
      440,
      440,
      439,
      438,
      439,
      439,
      439,
      439,
      440,
      440,
      440,
      440,
      440,
      440,
      441,
      441,
      440,
      440,
      440,
      439,
      439,
      439,
      439,
      442,
      442,
      442,
      442,
      441,
      441,
      440,
      440,
      440,
      439,
      441,
      441,
      442,
      442,
      445,
      453,
      453,
      453,
      455,
      455,
      455,
      455,
      454,
      454,
      454,
      453,
      453,
      449,
      449,
      444,
      444,
      443,
      443,
      439,
      439,
      442,
      442,
      446,
      446,
      447,
      447,
      445,
      440,
      440,
      440,
      440,
      440,
      441,
      441,
      441,
      441,
      441,
      441,
      441,
      441,
      441,
      441,
      441,
      441,
      441,
      441,
      441,
      441,
      441,
      441,
      441,
      441,
      441,
      441,
      442,
      442,
      442,
      442,
      443,
      443,
      443,
      443,
      438,
      438,
      438,
      438,
      438,
      438,
      438,
      438,
      438,
      441,
      441,
      441,
      441,
      441,
      445,
      445,
      444,
      444,
      444,
      444,
      443,
      443,
      443,
      443,
      445,
      445,
      447,
      447,
      445,
      445,
      445,
      447,
      447,
      448,
      448,
      448,
      448,
      448,
      446,
      446,
      446,
      446,
      446,
      447,
      447,
      447,
      447,
      447,
      447,
      447,
      448,
      448,
      448,
      448,
      448,
      446,
      446,
      446,
      446,
      446,
      441,
      441,
      441,
      439,
      439,
      439,
      439,
      439,
      443,
      443,
      443,
      443,
      443,
      443,
      443,
      443,
      442,
      442,
      443,
      444,
      444,
      444,
      444,
      444,
      444,
      442,
      442,
      442,
      442,
      442,
      442,
      445,
      447,
      447,
      447,
      447,
      447,
      447,
      441,
      441,
      441,
      440,
      440,
      440,
      440,
      437,
      437,
      437,
      432,
      432,
      431,
      431,
      431,
      431,
      430,
      430,
      430,
      427,
      427,
      427,
      425,
      425,
      424,
      424,
      424,
      424,
      424,
      424,
      424,
      430,
      430,
      430,
      412,
      412,
      412,
      412,
      402,
      402,
      403,
      409,
      409,
      409,
      408,
      408,
      408,
      408,
      406,
      406,
      406,
      409,
      409,
      409,
      408,
      408,
      408,
      412,
      412,
      412,
      412,
      413,
      413,
      411,
      414,
      414,
      414,
      414,
      423,
      423,
      423,
      429,
      429,
      429,
      431,
      431,
      431,
      446,
      455,
      455,
      455,
      455,
      455,
      454,
      454,
      449,
      449,
      449,
      449,
      430,
      430,
      429,
      430,
      430,
      430,
      429,
      429,
      429,
      430,
      431,
      431,
      431,
      431,
      431,
      431,
      431,
      430,
      430,
      430,
      430,
      430,
      430,
      430,
      430,
      430,
      430,
      430,
      430,
      430,
      430,
      429,
      429,
      429,
      429,
      429,
      429,
      429,
      429,
      429,
      430,
      430,
      430,
      430,
      430,
      444,
      444,
      444,
      444,
      444,
      408,
      408,
      408,
      408,
      408,
      408,
      383,
      383,
      383,
      373,
      363,
      363,
      363,
      363,
      363,
      345,
      339,
      339,
      318,
      318,
      272,
      252,
      252,
      252,
      252,
      246,
      248,
      248,
      244,
      244,
      244,
      244,
      244,
      244,
      244,
      235,
      235,
      235,
      235,
      235,
      220,
      220,
      168,
      168,
      168,
      151,
      151
    ],
    "swim:timestamps": [
      1777552814,
      1777552814,
      1777552844,
      1777552844,
      1777552844,
      1777553034,
      1777553034,
      1777553094,
      1777553094,
      1777553094,
      1777553094,
      1777553210,
      1777553210,
      1777553210,
      1777553275,
      1777553275,
      1777553275,
      1777553275,
      1777553395,
      1777553395,
      1777553395,
      1777553455,
      1777553455,
      1777553455,
      1777553575,
      1777553575,
      1777553630,
      1777553630,
      1777553630,
      1777553630,
      1777553630,
      1777553630,
      1777553996,
      1777553996,
      1777553996,
      1777553996,
      1777554048,
      1777554048,
      1777554048,
      1777554048,
      1777554108,
      1777554108,
      1777554116,
      1777554168,
      1777554168,
      1777554168,
      1777554236,
      1777554289,
      1777554289,
      1777554349,
      1777554349,
      1777554349,
      1777554589,
      1777554589,
      1777554589,
      1777554649,
      1777554709,
      1777554709,
      1777554709,
      1777554769,
      1777554829,
      1777554829,
      1777554829,
      1777554890,
      1777554890,
      1777554890,
      1777555010,
      1777555070,
      1777555070,
      1777555070,
      1777555070,
      1777555250,
      1777555250,
      1777555250,
      1777555250,
      1777555310,
      1777555370,
      1777555370,
      1777555431,
      1777555431,
      1777555431,
      1777555431,
      1777555431,
      1777555491,
      1777555611,
      1777555611,
      1777555611,
      1777555671,
      1777555671,
      1777555671,
      1777555671,
      1777555791,
      1777555791,
      1777555851,
      1777555851,
      1777555851,
      1777555851,
      1777555911,
      1777555911,
      1777556032,
      1777556032,
      1777556032,
      1777556032,
      1777556152,
      1777556152,
      1777556212,
      1777556272,
      1777556318,
      1777556318,
      1777556332,
      1777556332,
      1777556332,
      1777556378,
      1777556392,
      1777556392,
      1777556392,
      1777556392,
      1777556392,
      1777556438,
      1777556438,
      1777556512,
      1777556512,
      1777556512,
      1777556572,
      1777556572,
      1777556679,
      1777556679,
      1777556679,
      1777556694,
      1777556694,
      1777556753,
      1777556753,
      1777556753,
      1777556943,
      1777556943,
      1777556943,
      1777557063,
      1777557063,
      1777557063,
      1777557063,
      1777557123,
      1777557123,
      1777557123,
      1777557355,
      1777557355,
      1777557355,
      1777557355,
      1777557355,
      1777557484,
      1777557484,
      1777557484,
      1777557484,
      1777557535,
      1777557535,
      1777557604,
      1777557604,
      1777557664,
      1777557664,
      1777557724,
      1777557785,
      1777557785,
      1777557785,
      1777557896,
      1777557896,
      1777557965,
      1777557965,
      1777557965,
      1777558016,
      1777558016,
      1777558025,
      1777558076,
      1777558076,
      1777558076,
      1777558196,
      1777558196,
      1777558196,
      1777558196,
      1777558196,
      1777558196,
      1777558385,
      1777558385,
      1777558385,
      1777558385,
      1777558566,
      1777558566,
      1777558566,
      1777558566,
      1777558626,
      1777558686,
      1777558686,
      1777558746,
      1777558746,
      1777558866,
      1777558926,
      1777559046,
      1777559098,
      1777559098,
      1777559098,
      1777559227,
      1777559227,
      1777559227,
      1777559227,
      1777559287,
      1777559287,
      1777559407,
      1777559407,
      1777559467,
      1777559467,
      1777559527,
      1777559587,
      1777559587,
      1777559587,
      1777559587,
      1777559767,
      1777559767,
      1777559828,
      1777559828,
      1777559948,
      1777559948,
      1777560008,
      1777560008,
      1777560008,
      1777560128,
      1777560188,
      1777560188,
      1777560248,
      1777560248,
      1777560428,
      1777560489,
      1777560489,
      1777560489,
      1777560609,
      1777560609,
      1777560609,
      1777560609,
      1777560729,
      1777560729,
      1777560729,
      1777560789,
      1777560789,
      1777560849,
      1777560849,
      1777561029,
      1777561029,
      1777561150,
      1777561150,
      1777561182,
      1777561182,
      1777561242,
      1777561242,
      1777561330,
      1777561330,
      1777561390,
      1777561390,
      1777561450,
      1777561602,
      1777561602,
      1777561602,
      1777561602,
      1777561602,
      1777561723,
      1777561750,
      1777561750,
      1777561750,
      1777561750,
      1777561811,
      1777561811,
      1777562028,
      1777562028,
      1777562028,
      1777562028,
      1777562111,
      1777562111,
      1777562208,
      1777562208,
      1777562231,
      1777562231,
      1777562231,
      1777562383,
      1777562444,
      1777562444,
      1777562444,
      1777562564,
      1777562564,
      1777562564,
      1777562749,
      1777562864,
      1777562864,
      1777562864,
      1777562864,
      1777563044,
      1777563044,
      1777563105,
      1777563105,
      1777563165,
      1777563165,
      1777563345,
      1777563345,
      1777563345,
      1777563470,
      1777563470,
      1777563470,
      1777563470,
      1777563470,
      1777563826,
      1777563826,
      1777563886,
      1777563886,
      1777563886,
      1777563886,
      1777563946,
      1777564006,
      1777564006,
      1777564006,
      1777564066,
      1777564066,
      1777564126,
      1777564126,
      1777564186,
      1777564186,
      1777564186,
      1777564486,
      1777564486,
      1777564607,
      1777564607,
      1777564607,
      1777564607,
      1777564607,
      1777564847,
      1777564847,
      1777564847,
      1777564847,
      1777564847,
      1777564907,
      1777564967,
      1777564967,
      1777565027,
      1777565027,
      1777565027,
      1777565027,
      1777565087,
      1777565087,
      1777565087,
      1777565087,
      1777565087,
      1777565268,
      1777565268,
      1777565268,
      1777565268,
      1777565268,
      1777565508,
      1777565508,
      1777565508,
      1777565568,
      1777565568,
      1777565688,
      1777565688,
      1777565688,
      1777565748,
      1777565748,
      1777565748,
      1777565748,
      1777565808,
      1777565808,
      1777565808,
      1777565808,
      1777565868,
      1777565868,
      1777565929,
      1777566049,
      1777566049,
      1777566049,
      1777566049,
      1777566049,
      1777566049,
      1777566233,
      1777566233,
      1777566233,
      1777566233,
      1777566233,
      1777566233,
      1777566353,
      1777566413,
      1777566413,
      1777566413,
      1777566413,
      1777566413,
      1777566413,
      1777566654,
      1777566654,
      1777566654,
      1777566714,
      1777566714,
      1777566714,
      1777566714,
      1777566774,
      1777566774,
      1777566774,
      1777566834,
      1777566834,
      1777566894,
      1777566894,
      1777566894,
      1777566894,
      1777567134,
      1777567134,
      1777567134,
      1777567194,
      1777567194,
      1777567194,
      1777567255,
      1777567255,
      1777567315,
      1777567315,
      1777567315,
      1777567375,
      1777567375,
      1777567375,
      1777567375,
      1777567675,
      1777567675,
      1777567675,
      1777567735,
      1777567735,
      1777567735,
      1777567735,
      1777567876,
      1777567876,
      1777567915,
      1777567936,
      1777567936,
      1777567936,
      1777567996,
      1777567996,
      1777567996,
      1777567996,
      1777568036,
      1777568036,
      1777568036,
      1777568237,
      1777568237,
      1777568237,
      1777568309,
      1777568309,
      1777568309,
      1777568336,
      1777568336,
      1777568336,
      1777568336,
      1777568429,
      1777568429,
      1777568489,
      1777568516,
      1777568516,
      1777568516,
      1777568516,
      1777568549,
      1777568549,
      1777568549,
      1777568636,
      1777568636,
      1777568636,
      1777568697,
      1777568697,
      1777568697,
      1777568729,
      1777568757,
      1777568757,
      1777568757,
      1777568757,
      1777568789,
      1777568849,
      1777568849,
      1777568910,
      1777568910,
      1777568910,
      1777568910,
      1777568970,
      1777568970,
      1777568997,
      1777569030,
      1777569030,
      1777569030,
      1777569057,
      1777569057,
      1777569057,
      1777569117,
      1777569150,
      1777569150,
      1777569177,
      1777569177,
      1777569177,
      1777569177,
      1777569177,
      1777569297,
      1777569297,
      1777569297,
      1777569297,
      1777569357,
      1777569390,
      1777569390,
      1777569390,
      1777569390,
      1777569390,
      1777569390,
      1777569631,
      1777569631,
      1777569631,
      1777569691,
      1777569691,
      1777569691,
      1777569691,
      1777569811,
      1777569811,
      1777569811,
      1777569811,
      1777569811,
      1777569931,
      1777569931,
      1777569931,
      1777569931,
      1777569931,
      1777570111,
      1777570111,
      1777570111,
      1777570111,
      1777570111,
      1777570297,
      1777570297,
      1777570297,
      1777570297,
      1777570297,
      1777570297,
      1777570472,
      1777570472,
      1777570472,
      1777570482,
      1777570592,
      1777570592,
      1777570592,
      1777570592,
      1777570592,
      1777570652,
      1777570663,
      1777570663,
      1777570712,
      1777570712,
      1777570772,
      1777570832,
      1777570832,
      1777570832,
      1777570832,
      1777570843,
      1777570892,
      1777570892,
      1777570902,
      1777570902,
      1777570952,
      1777570952,
      1777570952,
      1777570952,
      1777570952,
      1777571084,
      1777571084,
      1777571133,
      1777571133,
      1777571133,
      1777571143,
      1777571143,
      1777571325,
      1777571325,
      1777571325,
      1777571385,
      1777571385
    ],
    "wof:geomhash": "2471768a63b88e3ec622e452e68d6c01",
    "wof:id": 2031149719,
    "wof:repo": "sfomuseum-data-flights-2026-04"
  },
  "bbox": [
    -122.31944444444444,
    37.5,
    -77.46666666666667,
    43.5025
  ],
  "geometry": {"coordinates":[[-77.46666666666667,38.96666666666667],[-77.46666666666667,38.96666666666667],[-77.46666666666667,39],[-77.46666666666667,39],[-77.46666666666667,39],[-77.60166666666666,39.16888888888889],[-77.60166666666666,39.16888888888889],[-77.65333333333334,39.23388888888889],[-77.65333333333334,39.23388888888889],[-77.65333333333334,39.23388888888889],[-77.65333333333334,39.23388888888889],[-77.76944444444445,39.37861111111111],[-77.76944444444445,39.37861111111111],[-77.76944444444445,39.37861111111111],[-77.83222222222221,39.487500000000004],[-77.83222222222221,39.487500000000004],[-77.83222222222221,39.487500000000004],[-77.83222222222221,39.487500000000004],[-78.035,39.59166666666667],[-78.035,39.59166666666667],[-78.035,39.59166666666667],[-78.17694444444444,39.635],[-78.17694444444444,39.635],[-78.17694444444444,39.635],[-78.43722222222223,39.71388888888889],[-78.43722222222223,39.71388888888889],[-78.5761111111111,39.755833333333335],[-78.5761111111111,39.755833333333335],[-78.5761111111111,39.755833333333335],[-78.5761111111111,39.755833333333335],[-78.5761111111111,39.755833333333335],[-78.5761111111111,39.755833333333335],[-79.44916666666667,40.020833333333336],[-79.44916666666667,40.020833333333336],[-79.44916666666667,40.020833333333336],[-79.44916666666667,40.020833333333336],[-79.58055555555555,40.08861111111111],[-79.58055555555555,40.08861111111111],[-79.58055555555555,40.08861111111111],[-79.58055555555555,40.08861111111111],[-79.71194444444444,40.155833333333334],[-79.71194444444444,40.155833333333334],[-79.71083333333334,40.155277777777776],[-79.84222222222222,40.221944444444446],[-79.84222222222222,40.221944444444446],[-79.84222222222222,40.221944444444446],[-79.97527777777778,40.28944444444444],[-80.1125,40.35888888888889],[-80.1125,40.35888888888889],[-80.24666666666667,40.42638888888889],[-80.24666666666667,40.42638888888889],[-80.24666666666667,40.42638888888889],[-80.76861111111111,40.68583333333333],[-80.76861111111111,40.68583333333333],[-80.76861111111111,40.68583333333333],[-80.90611111111112,40.75361111111111],[-81.0425,40.82055555555556],[-81.0425,40.82055555555556],[-81.0425,40.82055555555556],[-81.19694444444445,40.895833333333336],[-81.33333333333333,40.96194444444445],[-81.33333333333333,40.96194444444445],[-81.33333333333333,40.96194444444445],[-81.47583333333334,41.02111111111111],[-81.47583333333334,41.02111111111111],[-81.47583333333334,41.02111111111111],[-81.74138888888889,41.11361111111111],[-81.8913888888889,41.16583333333333],[-81.8913888888889,41.16583333333333],[-81.8913888888889,41.16583333333333],[-81.8913888888889,41.16583333333333],[-82.33916666666666,41.321111111111115],[-82.33916666666666,41.321111111111115],[-82.33916666666666,41.321111111111115],[-82.33916666666666,41.321111111111115],[-82.48694444444445,41.37166666666667],[-82.63527777777779,41.42222222222222],[-82.63527777777779,41.42222222222222],[-82.78694444444444,41.47361111111111],[-82.78694444444444,41.47361111111111],[-82.78694444444444,41.47361111111111],[-82.78694444444444,41.47361111111111],[-82.78694444444444,41.47361111111111],[-82.93583333333333,41.52388888888889],[-83.23055555555555,41.6225],[-83.23055555555555,41.6225],[-83.23055555555555,41.6225],[-83.38083333333333,41.67222222222222],[-83.38083333333333,41.67222222222222],[-83.38083333333333,41.67222222222222],[-83.38083333333333,41.67222222222222],[-83.67916666666667,41.77055555555555],[-83.67916666666667,41.77055555555555],[-83.82944444444443,41.81944444444445],[-83.82944444444443,41.81944444444445],[-83.82944444444443,41.81944444444445],[-83.82944444444443,41.81944444444445],[-83.9775,41.8675],[-83.9775,41.8675],[-84.27555555555556,41.96333333333334],[-84.27555555555556,41.96333333333334],[-84.27555555555556,41.96333333333334],[-84.27555555555556,41.96333333333334],[-84.58305555555555,42.061388888888885],[-84.58305555555555,42.061388888888885],[-84.73416666666667,42.10916666666667],[-84.88527777777779,42.156388888888884],[-85.00111111111111,42.19444444444444],[-85.00111111111111,42.19444444444444],[-85.0363888888889,42.203611111111115],[-85.0363888888889,42.203611111111115],[-85.0363888888889,42.203611111111115],[-85.15555555555557,42.24194444444444],[-85.19305555555556,42.25222222222222],[-85.19305555555556,42.25222222222222],[-85.19305555555556,42.25222222222222],[-85.19305555555556,42.25222222222222],[-85.19305555555556,42.25222222222222],[-85.31166666666667,42.288333333333334],[-85.31166666666667,42.288333333333334],[-85.49388888888889,42.344722222222224],[-85.49388888888889,42.344722222222224],[-85.49388888888889,42.344722222222224],[-85.65,42.39222222222222],[-85.65,42.39222222222222],[-85.93055555555556,42.47638888888889],[-85.93055555555556,42.47638888888889],[-85.93055555555556,42.47638888888889],[-85.96083333333334,42.486111111111114],[-85.96083333333334,42.486111111111114],[-86.11277777777777,42.531666666666666],[-86.11277777777777,42.531666666666666],[-86.11277777777777,42.531666666666666],[-86.61333333333333,42.67944444444444],[-86.61333333333333,42.67944444444444],[-86.61333333333333,42.67944444444444],[-86.91388888888889,42.76694444444444],[-86.91388888888889,42.76694444444444],[-86.91388888888889,42.76694444444444],[-86.91388888888889,42.76694444444444],[-87.06333333333333,42.809999999999995],[-87.06333333333333,42.809999999999995],[-87.06333333333333,42.809999999999995],[-87.66055555555556,42.97972222222222],[-87.66055555555556,42.97972222222222],[-87.66055555555556,42.97972222222222],[-87.66055555555556,42.97972222222222],[-87.66055555555556,42.97972222222222],[-88.01,43.077222222222225],[-88.01,43.077222222222225],[-88.01,43.077222222222225],[-88.01,43.077222222222225],[-88.13083333333333,43.11055555555556],[-88.13083333333333,43.11055555555556],[-88.32305555555556,43.163333333333334],[-88.32305555555556,43.163333333333334],[-88.47916666666667,43.19888888888889],[-88.47916666666667,43.19888888888889],[-88.64777777777779,43.21666666666667],[-88.815,43.23361111111111],[-88.815,43.23361111111111],[-88.815,43.23361111111111],[-89.11194444444443,43.26222222222222],[-89.11194444444443,43.26222222222222],[-89.31638888888888,43.28138888888889],[-89.31638888888888,43.28138888888889],[-89.31638888888888,43.28138888888889],[-89.44444444444444,43.29333333333333],[-89.44444444444444,43.29333333333333],[-89.48444444444445,43.29694444444444],[-89.6111111111111,43.308611111111105],[-89.6111111111111,43.308611111111105],[-89.6111111111111,43.308611111111105],[-89.94500000000001,43.33833333333334],[-89.94500000000001,43.33833333333334],[-89.94500000000001,43.33833333333334],[-89.94500000000001,43.33833333333334],[-89.94500000000001,43.33833333333334],[-89.94500000000001,43.33833333333334],[-90.45805555555556,43.3825],[-90.45805555555556,43.3825],[-90.45805555555556,43.3825],[-90.45805555555556,43.3825],[-90.98944444444444,43.42527777777777],[-90.98944444444444,43.42527777777777],[-90.98944444444444,43.42527777777777],[-90.98944444444444,43.42527777777777],[-91.15583333333333,43.43833333333333],[-91.32277777777777,43.450833333333335],[-91.32277777777777,43.450833333333335],[-91.49083333333333,43.46361111111111],[-91.49083333333333,43.46361111111111],[-91.81972222222223,43.487500000000004],[-91.98416666666667,43.49861111111111],[-92.31916666666666,43.501666666666665],[-92.45194444444445,43.50222222222222],[-92.45194444444445,43.50222222222222],[-92.45194444444445,43.50222222222222],[-92.82138888888889,43.5025],[-92.82138888888889,43.5025],[-92.82138888888889,43.5025],[-92.82138888888889,43.5025],[-92.99055555555556,43.5025],[-92.99055555555556,43.5025],[-93.32722222222222,43.50138888888889],[-93.32722222222222,43.50138888888889],[-93.49333333333334,43.500277777777775],[-93.49333333333334,43.500277777777775],[-93.6613888888889,43.49916666666667],[-93.82777777777777,43.49777777777778],[-93.82777777777777,43.49777777777778],[-93.82777777777777,43.49777777777778],[-93.82777777777777,43.49777777777778],[-94.33527777777778,43.49194444444444],[-94.33527777777778,43.49194444444444],[-94.50722222222223,43.489444444444445],[-94.50722222222223,43.489444444444445],[-94.8436111111111,43.48388888888889],[-94.8436111111111,43.48388888888889],[-95.01,43.48083333333334],[-95.01,43.48083333333334],[-95.01,43.48083333333334],[-95.34555555555555,43.47361111111111],[-95.515,43.469722222222224],[-95.515,43.469722222222224],[-95.68416666666667,43.45861111111111],[-95.68416666666667,43.45861111111111],[-96.19277777777778,43.41361111111111],[-96.35638888888889,43.37972222222222],[-96.35638888888889,43.37972222222222],[-96.35638888888889,43.37972222222222],[-96.66361111111112,43.25972222222222],[-96.66361111111112,43.25972222222222],[-96.66361111111112,43.25972222222222],[-96.66361111111112,43.25972222222222],[-96.97166666666666,43.14416666666666],[-96.97166666666666,43.14416666666666],[-96.97166666666666,43.14416666666666],[-97.12444444444444,43.08555555555556],[-97.12444444444444,43.08555555555556],[-97.2725,43.02861111111111],[-97.2725,43.02861111111111],[-97.71777777777778,42.85583333333334],[-97.71777777777778,42.85583333333334],[-98.01472222222222,42.73916666666667],[-98.01472222222222,42.73916666666667],[-98.08555555555554,42.711111111111116],[-98.08555555555554,42.711111111111116],[-98.2325,42.65277777777778],[-98.2325,42.65277777777778],[-98.44166666666668,42.56916666666667],[-98.44166666666668,42.56916666666667],[-98.5886111111111,42.51027777777778],[-98.5886111111111,42.51027777777778],[-98.74361111111111,42.46666666666667],[-99.16861111111112,42.43805555555555],[-99.16861111111112,42.43805555555555],[-99.16861111111112,42.43805555555555],[-99.16861111111112,42.43805555555555],[-99.16861111111112,42.43805555555555],[-99.49666666666667,42.415],[-99.56222222222222,42.41027777777778],[-99.56222222222222,42.41027777777778],[-99.56222222222222,42.41027777777778],[-99.56222222222222,42.41027777777778],[-99.72666666666667,42.39833333333333],[-99.72666666666667,42.39833333333333],[-100.3386111111111,42.35],[-100.3386111111111,42.35],[-100.3386111111111,42.35],[-100.3386111111111,42.35],[-100.58222222222221,42.33166666666667],[-100.58222222222221,42.33166666666667],[-100.83138888888888,42.31055555555555],[-100.83138888888888,42.31055555555555],[-100.90666666666667,42.30444444444444],[-100.90666666666667,42.30444444444444],[-100.90666666666667,42.30444444444444],[-101.30611111111111,42.27027777777778],[-101.47055555555556,42.25555555555555],[-101.47055555555556,42.25555555555555],[-101.47055555555556,42.25555555555555],[-101.79583333333333,42.225833333333334],[-101.79583333333333,42.225833333333334],[-101.79583333333333,42.225833333333334],[-102.31055555555555,42.17472222222222],[-102.63861111111112,42.14472222222222],[-102.63861111111112,42.14472222222222],[-102.63861111111112,42.14472222222222],[-102.63861111111112,42.14472222222222],[-103.12305555555555,42.09527777777778],[-103.12305555555555,42.09527777777778],[-103.28472222222221,42.07805555555556],[-103.28472222222221,42.07805555555556],[-103.44944444444445,42.06055555555555],[-103.44944444444445,42.06055555555555],[-103.93305555555555,42.0075],[-103.93305555555555,42.0075],[-103.93305555555555,42.0075],[-104.25361111111111,41.94138888888889],[-104.25361111111111,41.94138888888889],[-104.25361111111111,41.94138888888889],[-104.25361111111111,41.94138888888889],[-104.25361111111111,41.94138888888889],[-105.20083333333334,41.717222222222226],[-105.20083333333334,41.717222222222226],[-105.35666666666665,41.67944444444444],[-105.35666666666665,41.67944444444444],[-105.35666666666665,41.67944444444444],[-105.35666666666665,41.67944444444444],[-105.51472222222222,41.64083333333333],[-105.66972222222223,41.60277777777778],[-105.66972222222223,41.60277777777778],[-105.66972222222223,41.60277777777778],[-105.82944444444443,41.56333333333333],[-105.82944444444443,41.56333333333333],[-105.98722222222223,41.52388888888889],[-105.98722222222223,41.52388888888889],[-106.14055555555557,41.48527777777778],[-106.14055555555557,41.48527777777778],[-106.14055555555557,41.48527777777778],[-106.89611111111111,41.25222222222222],[-106.89611111111111,41.25222222222222],[-107.19888888888889,41.15416666666667],[-107.19888888888889,41.15416666666667],[-107.19888888888889,41.15416666666667],[-107.19888888888889,41.15416666666667],[-107.19888888888889,41.15416666666667],[-107.80194444444444,40.955555555555556],[-107.80194444444444,40.955555555555556],[-107.80194444444444,40.955555555555556],[-107.80194444444444,40.955555555555556],[-107.80194444444444,40.955555555555556],[-107.9525,40.90555555555555],[-108.10277777777777,40.855000000000004],[-108.10277777777777,40.855000000000004],[-108.25277777777778,40.80444444444444],[-108.25277777777778,40.80444444444444],[-108.25277777777778,40.80444444444444],[-108.25277777777778,40.80444444444444],[-108.40083333333334,40.754444444444445],[-108.40083333333334,40.754444444444445],[-108.40083333333334,40.754444444444445],[-108.40083333333334,40.754444444444445],[-108.40083333333334,40.754444444444445],[-108.83833333333332,40.60416666666667],[-108.83833333333332,40.60416666666667],[-108.83833333333332,40.60416666666667],[-108.83833333333332,40.60416666666667],[-108.83833333333332,40.60416666666667],[-109.41972222222223,40.40138888888889],[-109.41972222222223,40.40138888888889],[-109.41972222222223,40.40138888888889],[-109.56361111111111,40.35055555555556],[-109.56361111111111,40.35055555555556],[-109.85222222222221,40.24805555555556],[-109.85222222222221,40.24805555555556],[-109.85222222222221,40.24805555555556],[-109.99638888888889,40.19611111111111],[-109.99638888888889,40.19611111111111],[-109.99638888888889,40.19611111111111],[-109.99638888888889,40.19611111111111],[-110.1413888888889,40.14416666666666],[-110.1413888888889,40.14416666666666],[-110.1413888888889,40.14416666666666],[-110.1413888888889,40.14416666666666],[-110.28694444444444,40.094166666666666],[-110.28694444444444,40.094166666666666],[-110.43416666666667,40.04361111111111],[-110.72611111111111,39.942499999999995],[-110.72611111111111,39.942499999999995],[-110.72611111111111,39.942499999999995],[-110.72611111111111,39.942499999999995],[-110.72611111111111,39.942499999999995],[-110.72611111111111,39.942499999999995],[-111.19111111111111,39.778888888888886],[-111.19111111111111,39.778888888888886],[-111.19111111111111,39.778888888888886],[-111.19111111111111,39.778888888888886],[-111.19111111111111,39.778888888888886],[-111.19111111111111,39.778888888888886],[-111.4825,39.675],[-111.62916666666666,39.62222222222222],[-111.62916666666666,39.62222222222222],[-111.62916666666666,39.62222222222222],[-111.62916666666666,39.62222222222222],[-111.62916666666666,39.62222222222222],[-111.62916666666666,39.62222222222222],[-112.20555555555556,39.41277777777778],[-112.20555555555556,39.41277777777778],[-112.20555555555556,39.41277777777778],[-112.34833333333333,39.36027777777778],[-112.34833333333333,39.36027777777778],[-112.34833333333333,39.36027777777778],[-112.34833333333333,39.36027777777778],[-112.48833333333333,39.30916666666666],[-112.48833333333333,39.30916666666666],[-112.48833333333333,39.30916666666666],[-112.63555555555556,39.27305555555555],[-112.63555555555556,39.27305555555555],[-112.79083333333332,39.238055555555555],[-112.79083333333332,39.238055555555555],[-112.79083333333332,39.238055555555555],[-112.79083333333332,39.238055555555555],[-113.38111111111111,39.1025],[-113.38111111111111,39.1025],[-113.38111111111111,39.1025],[-113.525,39.06888888888889],[-113.525,39.06888888888889],[-113.525,39.06888888888889],[-113.66916666666667,39.03472222222222],[-113.66916666666667,39.03472222222222],[-113.81444444444445,39.00055555555556],[-113.81444444444445,39.00055555555556],[-113.81444444444445,39.00055555555556],[-113.95972222222223,38.96611111111111],[-113.95972222222223,38.96611111111111],[-113.95972222222223,38.96611111111111],[-113.95972222222223,38.96611111111111],[-114.68694444444445,38.78972222222222],[-114.68694444444445,38.78972222222222],[-114.68694444444445,38.78972222222222],[-114.82694444444444,38.75527777777778],[-114.82694444444444,38.75527777777778],[-114.82694444444444,38.75527777777778],[-114.82694444444444,38.75527777777778],[-115.12694444444443,38.79055555555556],[-115.12694444444443,38.79055555555556],[-115.23083333333334,38.77027777777778],[-115.26694444444445,38.76],[-115.26694444444445,38.76],[-115.26694444444445,38.76],[-115.40666666666667,38.730555555555554],[-115.40666666666667,38.730555555555554],[-115.40666666666667,38.730555555555554],[-115.40666666666667,38.730555555555554],[-115.5175,38.705555555555556],[-115.5175,38.705555555555556],[-115.5175,38.705555555555556],[-115.96638888888889,38.60944444444445],[-115.96638888888889,38.60944444444445],[-115.96638888888889,38.60944444444445],[-116.09944444444444,38.64972222222222],[-116.09944444444444,38.64972222222222],[-116.09944444444444,38.64972222222222],[-116.18083333333334,38.71333333333334],[-116.18083333333334,38.71333333333334],[-116.18083333333334,38.71333333333334],[-116.18083333333334,38.71333333333334],[-116.3325,38.82194444444445],[-116.3325,38.82194444444445],[-116.47500000000001,38.83527777777778],[-116.55194444444444,38.805277777777775],[-116.55194444444444,38.805277777777775],[-116.55194444444444,38.805277777777775],[-116.55194444444444,38.805277777777775],[-116.5936111111111,38.77166666666667],[-116.5936111111111,38.77166666666667],[-116.5936111111111,38.77166666666667],[-116.7238888888889,38.63722222222222],[-116.7238888888889,38.63722222222222],[-116.7238888888889,38.63722222222222],[-116.83638888888889,38.52194444444444],[-116.83638888888889,38.52194444444444],[-116.83638888888889,38.52194444444444],[-116.87527777777777,38.481388888888894],[-116.93138888888889,38.42222222222222],[-116.93138888888889,38.42222222222222],[-116.93138888888889,38.42222222222222],[-116.93138888888889,38.42222222222222],[-116.97194444444445,38.38],[-117.06833333333333,38.27916666666667],[-117.06833333333333,38.27916666666667],[-117.17861111111111,38.175],[-117.17861111111111,38.175],[-117.17861111111111,38.175],[-117.17861111111111,38.175],[-117.32472222222222,38.14388888888889],[-117.32472222222222,38.14388888888889],[-117.3888888888889,38.135555555555555],[-117.48194444444445,38.123333333333335],[-117.48194444444445,38.123333333333335],[-117.48194444444445,38.123333333333335],[-117.53972222222222,38.115833333333335],[-117.53972222222222,38.115833333333335],[-117.53972222222222,38.115833333333335],[-117.6863888888889,38.096111111111114],[-117.78138888888888,38.08361111111111],[-117.78138888888888,38.08361111111111],[-117.83916666666666,38.075833333333335],[-117.83916666666666,38.075833333333335],[-117.83916666666666,38.075833333333335],[-117.83916666666666,38.075833333333335],[-117.83916666666666,38.075833333333335],[-118.13722222222223,38.035],[-118.13722222222223,38.035],[-118.13722222222223,38.035],[-118.13722222222223,38.035],[-118.285,38.01444444444444],[-118.37777777777777,38.001666666666665],[-118.37777777777777,38.001666666666665],[-118.37777777777777,38.001666666666665],[-118.37777777777777,38.001666666666665],[-118.37777777777777,38.001666666666665],[-118.37777777777777,38.001666666666665],[-118.97416666666666,37.91638888888889],[-118.97416666666666,37.91638888888889],[-118.97416666666666,37.91638888888889],[-119.12305555555555,37.89472222222222],[-119.12305555555555,37.89472222222222],[-119.12305555555555,37.89472222222222],[-119.12305555555555,37.89472222222222],[-119.41194444444444,37.85194444444445],[-119.41194444444444,37.85194444444445],[-119.41194444444444,37.85194444444445],[-119.41194444444444,37.85194444444445],[-119.41194444444444,37.85194444444445],[-119.70861111111111,37.80722222222222],[-119.70861111111111,37.80722222222222],[-119.70861111111111,37.80722222222222],[-119.70861111111111,37.80722222222222],[-119.70861111111111,37.80722222222222],[-120.16194444444444,37.73722222222222],[-120.16194444444444,37.73722222222222],[-120.16194444444444,37.73722222222222],[-120.16194444444444,37.73722222222222],[-120.16194444444444,37.73722222222222],[-120.63333333333334,37.666666666666664],[-120.63333333333334,37.666666666666664],[-120.63333333333334,37.666666666666664],[-120.63333333333334,37.666666666666664],[-120.63333333333334,37.666666666666664],[-120.63333333333334,37.666666666666664],[-121.01638888888888,37.62583333333333],[-121.01638888888888,37.62583333333333],[-121.01638888888888,37.62583333333333],[-121.05,37.61666666666667],[-121.25555555555556,37.59388888888889],[-121.25555555555556,37.59388888888889],[-121.25555555555556,37.59388888888889],[-121.25555555555556,37.59388888888889],[-121.25555555555556,37.59388888888889],[-121.375,37.57972222222222],[-121.41666666666667,37.583333333333336],[-121.41666666666667,37.583333333333336],[-121.48972222222223,37.56638888888889],[-121.48972222222223,37.56638888888889],[-121.58527777777778,37.555277777777775],[-121.67361111111111,37.53916666666667],[-121.67361111111111,37.53916666666667],[-121.67361111111111,37.53916666666667],[-121.67361111111111,37.53916666666667],[-121.7,37.53333333333333],[-121.75611111111111,37.519444444444446],[-121.75611111111111,37.519444444444446],[-121.78333333333333,37.516666666666666],[-121.78333333333333,37.516666666666666],[-121.83666666666666,37.5],[-121.83666666666666,37.5],[-121.83666666666666,37.5],[-121.83666666666666,37.5],[-121.83666666666666,37.5],[-122.03333333333333,37.5],[-122.03333333333333,37.5],[-122.08305555555555,37.50277777777778],[-122.08305555555555,37.50277777777778],[-122.08305555555555,37.50277777777778],[-122.1,37.5],[-122.1,37.5],[-122.27333333333333,37.57833333333333],[-122.27333333333333,37.57833333333333],[-122.27333333333333,37.57833333333333],[-122.31944444444444,37.59777777777778],[-122.31944444444444,37.59777777777778]],"type":"LineString"}
}
