{
  "id": 2015208041,
  "type": "Feature",
  "properties": {
    "geom:area": 0,
    "geom:bbox": "-122.539470,36.720320,-121.431630,37.668830",
    "geom:latitude": 37.219377103180015,
    "geom:longitude": -122.0450313965734,
    "src:alt_label": "swim-takeoff",
    "src:geom": "swim",
    "swim:elevations": [
      334,
      608,
      1033,
      1165,
      1461,
      1947,
      2049,
      2294,
      2890,
      3273,
      3341,
      3461,
      3948,
      4232,
      4434,
      4571,
      4874,
      5274,
      5513,
      5790,
      6039,
      6224,
      6549,
      6718,
      6882,
      7142,
      7470,
      7652,
      7796,
      7855
    ],
    "swim:geom": "takeoff",
    "swim:timestamps": [
      1775314282,
      1775314306,
      1775314342,
      1775314365,
      1775314401,
      1775314438,
      1775314448,
      1775314470,
      1775314513,
      1775314555,
      1775314565,
      1775314591,
      1775314646,
      1775314676,
      1775314696,
      1775314712,
      1775314743,
      1775314786,
      1775314816,
      1775314846,
      1775314882,
      1775314905,
      1775314946,
      1775314967,
      1775314989,
      1775315029,
      1775315082,
      1775315119,
      1775315146,
      1775315161
    ],
    "wof:geomhash": "99991013b64dd148ea5a2bcb942d677b",
    "wof:id": 2015208041,
    "wof:repo": "sfomuseum-data-flights-2026-04"
  },
  "bbox": [
    -122.53947,
    36.72032,
    -121.43163,
    37.66883
  ],
  "geometry": {"coordinates":[[-122.41128,37.63392],[-122.4356,37.64457],[-122.47179,37.66044],[-122.49772,37.66883],[-122.53947,37.65095],[-122.53518,37.60901],[-122.52968,37.59875],[-122.51649,37.57235],[-122.48997,37.52047],[-122.45202,37.47536],[-122.43741,37.46601],[-122.39817,37.44123],[-122.31011,37.38511],[-122.25915,37.35248],[-122.22538,37.33048],[-122.19805,37.31218],[-122.14522,37.27732],[-122.06953,37.22811],[-122.01668,37.19391],[-121.96401,37.15963],[-121.89804,37.1168],[-121.85584,37.08928],[-121.78008,37.03967],[-121.74377,37.01406],[-121.70844,36.98121],[-121.64593,36.92206],[-121.56186,36.84239],[-121.50169,36.78562],[-121.4575,36.74399],[-121.43163,36.72032]],"type":"LineString"}
}
