{
  "id": 2015182399,
  "type": "Feature",
  "properties": {
    "geom:area": 0,
    "geom:bbox": "-122.407530,37.628140,-121.289470,38.014910",
    "geom:latitude": 37.80243711989264,
    "geom:longitude": -122.00241609965549,
    "src:alt_label": "swim-takeoff",
    "src:geom": "swim",
    "swim:elevations": [
      7361,
      213,
      343,
      733,
      961,
      1397,
      1619,
      2191,
      2383,
      2871,
      3094,
      3689,
      3963,
      4185,
      4679,
      4933,
      5052,
      5306
    ],
    "swim:geom": "takeoff",
    "swim:timestamps": [
      1775026810,
      1775112796,
      1775112806,
      1775112832,
      1775112847,
      1775112896,
      1775112913,
      1775112954,
      1775112965,
      1775112988,
      1775113001,
      1775113047,
      1775113068,
      1775113092,
      1775113132,
      1775113149,
      1775113160,
      1775113192
    ],
    "wof:geomhash": "4d07c67187e5482390594398e4027211",
    "wof:id": 2015182399,
    "wof:repo": "sfomuseum-data-flights-2026-04"
  },
  "bbox": [
    -122.40753,
    37.62814,
    -121.28947,
    38.01491
  ],
  "geometry": {"coordinates":[[-121.28947,37.93637],[-122.39733,37.62814],[-122.40537,37.63226],[-122.40753,37.65096],[-122.39643,37.65995],[-122.35989,37.69893],[-122.34599,37.71433],[-122.34281,37.76064],[-122.34962,37.77283],[-122.363,37.79752],[-122.37015,37.81205],[-122.38644,37.86627],[-122.38462,37.89403],[-122.37588,37.92754],[-122.31597,37.96848],[-122.28421,37.98101],[-122.26342,37.98937],[-122.1988,38.01491]],"type":"LineString"}
}
