{
  "id": 2031123993,
  "type": "Feature",
  "properties": {
    "geom:area": 0,
    "geom:bbox": "-122.400000,32.924444,-117.512500,37.588333",
    "geom:latitude": 35.12506944911182,
    "geom:longitude": -120.353213973535,
    "src:alt_label": "swim-path",
    "src:geom": "swim",
    "swim:altitudes": [
      "110",
      "167",
      "240",
      "261",
      "282",
      "303",
      "303",
      "380C",
      "380C",
      "380C",
      "380C",
      "380C",
      "379",
      "359",
      "350",
      "341",
      "341",
      "331",
      "331",
      "282",
      "272",
      "272",
      "262",
      "250",
      "239",
      "221",
      "221",
      "200",
      "200",
      "186",
      "185",
      "167",
      "167",
      "157",
      "148",
      "146",
      "146",
      "137",
      "127",
      "108",
      "107",
      "100",
      "100",
      "098",
      "087",
      "078",
      "060",
      "060",
      "053",
      "053",
      "053",
      "046",
      "046",
      "040",
      "040",
      "040",
      "018",
      "018",
      "010"
    ],
    "swim:geom": "path",
    "swim:speeds": [
      309,
      353,
      396,
      404,
      406,
      406,
      406,
      352,
      347,
      344,
      474,
      474,
      340,
      342,
      361,
      404,
      404,
      412,
      412,
      370,
      364,
      364,
      358,
      350,
      339,
      342,
      342,
      325,
      327,
      308,
      312,
      301,
      301,
      302,
      287,
      291,
      291,
      250,
      244,
      245,
      243,
      243,
      243,
      242,
      243,
      240,
      227,
      227,
      228,
      229,
      229,
      206,
      210,
      197,
      200,
      190,
      180,
      180,
      141
    ],
    "swim:timestamps": [
      1777351966,
      1777352086,
      1777352266,
      1777352326,
      1777352386,
      1777352446,
      1777352446,
      1777352867,
      1777352987,
      1777353168,
      1777353588,
      1777353588,
      1777354129,
      1777354249,
      1777354315,
      1777354369,
      1777354369,
      1777354430,
      1777354430,
      1777354730,
      1777354790,
      1777354790,
      1777354850,
      1777354915,
      1777355035,
      1777355155,
      1777355155,
      1777355294,
      1777355335,
      1777355438,
      1777355456,
      1777355576,
      1777355576,
      1777355636,
      1777355678,
      1777355696,
      1777355696,
      1777355744,
      1777355816,
      1777355919,
      1777355936,
      1777355985,
      1777355985,
      1777356056,
      1777356104,
      1777356164,
      1777356291,
      1777356291,
      1777356345,
      1777356356,
      1777356356,
      1777356405,
      1777356416,
      1777356465,
      1777356476,
      1777356525,
      1777356716,
      1777356716,
      1777356776
    ],
    "wof:geomhash": "99957d224d9602179e19b4eb6c8d8118",
    "wof:id": 2031123993,
    "wof:repo": "sfomuseum-data-flights-2026-04"
  },
  "bbox": [
    -122.4,
    32.92444444444444,
    -117.5125,
    37.58833333333334
  ],
  "geometry": {"coordinates":[[-117.5125,32.92444444444444],[-117.69277777777778,33.04],[-117.95555555555556,33.27194444444444],[-118.05083333333333,33.35166666666667],[-118.14777777777779,33.43277777777777],[-118.24361111111111,33.51277777777778],[-118.24361111111111,33.51277777777778],[-118.99333333333334,33.865],[-119.21166666666667,33.92805555555555],[-119.53444444444445,34.024166666666666],[-120.08666666666666,34.399166666666666],[-120.08666666666666,34.399166666666666],[-120.39111111111112,34.95333333333333],[-120.62138888888889,34.962500000000006],[-120.73972222222223,34.98861111111111],[-120.80055555555555,35.07333333333334],[-120.80055555555555,35.07333333333334],[-120.85805555555555,35.17777777777778],[-120.85805555555555,35.17777777777778],[-121.14222222222223,35.659444444444446],[-121.23166666666667,35.730000000000004],[-121.23166666666667,35.730000000000004],[-121.31888888888888,35.79972222222222],[-121.42194444444445,35.8825],[-121.5761111111111,36.02166666666667],[-121.62416666666665,36.18861111111111],[-121.62416666666665,36.18861111111111],[-121.68333333333334,36.416666666666664],[-121.69055555555556,36.459722222222226],[-121.78333333333333,36.6],[-121.79083333333332,36.61138888888889],[-121.89861111111112,36.75833333333333],[-121.89861111111112,36.75833333333333],[-121.92166666666667,36.84027777777778],[-121.93333333333334,36.916666666666664],[-121.94416666666667,36.920833333333334],[-121.94416666666667,36.920833333333334],[-121.96666666666667,36.983333333333334],[-122.03222222222222,37.038333333333334],[-122.15,37.11666666666667],[-122.16055555555556,37.12694444444445],[-122.23333333333333,37.13333333333333],[-122.23333333333333,37.13333333333333],[-122.31694444444445,37.165277777777774],[-122.36666666666666,37.21666666666667],[-122.4,37.28333333333333],[-122.33333333333333,37.4],[-122.33333333333333,37.4],[-122.26666666666667,37.416666666666664],[-122.26944444444445,37.416666666666664],[-122.26944444444445,37.416666666666664],[-122.2,37.416666666666664],[-122.19583333333334,37.42333333333333],[-122.13333333333334,37.43333333333333],[-122.12777777777777,37.43333333333333],[-122.1,37.483333333333334],[-122.25638888888889,37.56861111111112],[-122.25638888888889,37.56861111111112],[-122.30277777777778,37.58833333333334]],"type":"LineString"}
}
