{
  "id": 2031092283,
  "type": "Feature",
  "properties": {
    "geom:area": 0,
    "geom:bbox": "-157.850000,21.200000,-122.149722,37.609444",
    "geom:latitude": 29.58853459639622,
    "geom:longitude": -139.99772150123047,
    "src:alt_label": "swim-path",
    "src:geom": "swim",
    "swim:altitudes": [
      "028C",
      "028C",
      "028C",
      "097C",
      "106C",
      "106C",
      "191C",
      "191C",
      "191C",
      "191C",
      "211C",
      "211C",
      "220C",
      "220C",
      "220C",
      "231C",
      "241C",
      "263C",
      "271C",
      "285C",
      "285C",
      "285C",
      "315C",
      "315C",
      "331C",
      "331C",
      "339C",
      "339C",
      "339C",
      "350",
      "350",
      "350",
      "350",
      "350",
      "350",
      "350",
      "350",
      "350",
      "350",
      "350",
      "350",
      "350",
      "350",
      "350",
      "350C",
      "350C",
      "350C",
      "350C",
      "350C",
      "350C",
      "350C",
      "350C",
      "350C",
      "350C",
      "350",
      "350",
      "350",
      "350",
      "347",
      "347",
      "347",
      "337",
      "337",
      "321",
      "321",
      "321",
      "300",
      "300",
      "300",
      "160",
      "160",
      "160",
      "146",
      "146",
      "113",
      "113",
      "113",
      "113",
      "100",
      "100",
      "100",
      "100",
      "100",
      "099C",
      "061",
      "061",
      "061",
      "060",
      "060",
      "060",
      "048",
      "048",
      "048",
      "048",
      "048",
      "033",
      "033",
      "033",
      "003",
      "003",
      "003",
      "003",
      "003"
    ],
    "swim:geom": "path",
    "swim:speeds": [
      210,
      210,
      210,
      290,
      330,
      330,
      420,
      420,
      420,
      420,
      450,
      450,
      460,
      460,
      460,
      470,
      470,
      490,
      500,
      510,
      510,
      510,
      500,
      500,
      490,
      490,
      490,
      490,
      490,
      490,
      490,
      490,
      490,
      490,
      500,
      500,
      500,
      480,
      480,
      480,
      490,
      490,
      490,
      490,
      514,
      514,
      514,
      514,
      514,
      514,
      514,
      514,
      514,
      514,
      516,
      516,
      516,
      516,
      516,
      516,
      516,
      516,
      516,
      518,
      518,
      518,
      518,
      518,
      518,
      403,
      403,
      403,
      383,
      383,
      356,
      356,
      356,
      356,
      340,
      340,
      340,
      340,
      340,
      319,
      278,
      278,
      278,
      268,
      268,
      268,
      215,
      215,
      215,
      215,
      215,
      157,
      157,
      157,
      147,
      147,
      147,
      147,
      147
    ],
    "swim:timestamps": [
      1776936556,
      1776936556,
      1776936556,
      1776936736,
      1776936796,
      1776936796,
      1776937157,
      1776937157,
      1776937157,
      1776937157,
      1776937277,
      1776937277,
      1776937337,
      1776937337,
      1776937337,
      1776937397,
      1776937457,
      1776937637,
      1776937697,
      1776937817,
      1776937817,
      1776937817,
      1776937997,
      1776937997,
      1776938117,
      1776938117,
      1776938177,
      1776938177,
      1776938177,
      1776938417,
      1776938417,
      1776938598,
      1776938658,
      1776938658,
      1776938742,
      1776938742,
      1776938742,
      1776938862,
      1776938862,
      1776938862,
      1776938898,
      1776938922,
      1776938958,
      1776938958,
      1776950251,
      1776950251,
      1776950251,
      1776950251,
      1776950251,
      1776950431,
      1776950431,
      1776950431,
      1776950491,
      1776950491,
      1776950732,
      1776950732,
      1776950732,
      1776950732,
      1776950852,
      1776950852,
      1776950852,
      1776950912,
      1776950912,
      1776950972,
      1776950972,
      1776950972,
      1776951032,
      1776951032,
      1776951032,
      1776951392,
      1776951392,
      1776951392,
      1776951427,
      1776951427,
      1776951523,
      1776951523,
      1776951523,
      1776951523,
      1776951638,
      1776951638,
      1776951638,
      1776951638,
      1776951638,
      1776951692,
      1776951933,
      1776951933,
      1776951933,
      1776952057,
      1776952057,
      1776952057,
      1776952173,
      1776952173,
      1776952173,
      1776952173,
      1776952173,
      1776952293,
      1776952293,
      1776952293,
      1776952533,
      1776952533,
      1776952533,
      1776952533,
      1776952533
    ],
    "wof:geomhash": "3758a205a03217a52f661e625f3953bf",
    "wof:id": 2031092283,
    "wof:repo": "sfomuseum-data-flights-2026-04"
  },
  "bbox": [
    -157.85,
    21.2,
    -122.14972222222222,
    37.60944444444445
  ],
  "geometry": {"coordinates":[[-157.85,21.266666666666666],[-157.85,21.266666666666666],[-157.85,21.266666666666666],[-157.65,21.2],[-157.55,21.2],[-157.55,21.2],[-156.95,21.516666666666666],[-156.95,21.516666666666666],[-156.95,21.516666666666666],[-156.95,21.516666666666666],[-156.73333333333332,21.666666666666668],[-156.73333333333332,21.666666666666668],[-156.61666666666667,21.733333333333334],[-156.61666666666667,21.733333333333334],[-156.61666666666667,21.733333333333334],[-156.5,21.816666666666666],[-156.38333333333333,21.883333333333333],[-156.03333333333333,22.116666666666667],[-155.91666666666666,22.2],[-155.66666666666666,22.35],[-155.66666666666666,22.35],[-155.66666666666666,22.35],[-155.28333333333333,22.6],[-155.28333333333333,22.6],[-155.03333333333333,22.75],[-155.03333333333333,22.75],[-154.91666666666666,22.816666666666666],[-154.91666666666666,22.816666666666666],[-154.91666666666666,22.816666666666666],[-154.43333333333334,23.133333333333333],[-154.43333333333334,23.133333333333333],[-154.05,23.333333333333332],[-153.91666666666666,23.416666666666668],[-153.91666666666666,23.416666666666668],[-153.75,23.516666666666666],[-153.75,23.516666666666666],[-153.75,23.516666666666666],[-153.5,23.666666666666668],[-153.5,23.666666666666668],[-153.5,23.666666666666668],[-153.41666666666666,23.716666666666665],[-153.38333333333333,23.733333333333334],[-153.3,23.783333333333335],[-153.3,23.783333333333335],[-126.20694444444445,35.69833333333333],[-126.20694444444445,35.69833333333333],[-126.20694444444445,35.69833333333333],[-126.20694444444445,35.69833333333333],[-126.20694444444445,35.69833333333333],[-125.74083333333333,35.89388888888889],[-125.74083333333333,35.89388888888889],[-125.74083333333333,35.89388888888889],[-125.58972222222222,35.968611111111116],[-125.58972222222222,35.968611111111116],[-124.98416666666667,36.26416666666667],[-124.98416666666667,36.26416666666667],[-124.98416666666667,36.26416666666667],[-124.98416666666667,36.26416666666667],[-124.67916666666667,36.41083333333333],[-124.67916666666667,36.41083333333333],[-124.67916666666667,36.41083333333333],[-124.52555555555556,36.48444444444444],[-124.52555555555556,36.48444444444444],[-124.37222222222222,36.5575],[-124.37222222222222,36.5575],[-124.37222222222222,36.5575],[-124.21638888888889,36.63111111111111],[-124.21638888888889,36.63111111111111],[-124.21638888888889,36.63111111111111],[-123.3888888888889,37.01722222222222],[-123.3888888888889,37.01722222222222],[-123.3888888888889,37.01722222222222],[-123.31666666666666,37.05],[-123.31666666666666,37.05],[-123.13333333333334,37.13333333333333],[-123.13333333333334,37.13333333333333],[-123.13333333333334,37.13333333333333],[-123.13333333333334,37.13333333333333],[-122.93333333333334,37.21666666666667],[-122.93333333333334,37.21666666666667],[-122.93333333333334,37.21666666666667],[-122.93333333333334,37.21666666666667],[-122.93333333333334,37.21666666666667],[-122.85472222222222,37.25888888888889],[-122.4775,37.347500000000004],[-122.4775,37.347500000000004],[-122.4775,37.347500000000004],[-122.28333333333333,37.4],[-122.28333333333333,37.4],[-122.28333333333333,37.4],[-122.14972222222222,37.442499999999995],[-122.14972222222222,37.442499999999995],[-122.14972222222222,37.442499999999995],[-122.14972222222222,37.442499999999995],[-122.14972222222222,37.442499999999995],[-122.16194444444444,37.52611111111111],[-122.16194444444444,37.52611111111111],[-122.16194444444444,37.52611111111111],[-122.3475,37.60944444444445],[-122.3475,37.60944444444445],[-122.3475,37.60944444444445],[-122.3475,37.60944444444445],[-122.3475,37.60944444444445]],"type":"LineString"}
}
