{
  "id": 2015287149,
  "type": "Feature",
  "properties": {
    "geom:area": 0,
    "geom:bbox": "-123.103610,37.332490,-122.083990,38.490630",
    "geom:latitude": 37.783849648310635,
    "geom:longitude": -122.51198097815798,
    "src:alt_label": "swim-approach",
    "src:geom": "swim",
    "swim:elevations": [
      7243,
      7195,
      6963,
      6799,
      6644,
      6521,
      6433,
      6082,
      5953,
      5874,
      5768,
      5513,
      5422,
      5122,
      5090,
      4749,
      4463,
      4263,
      3821,
      3659,
      3624,
      3380,
      3355,
      3353,
      3353,
      3157,
      3019,
      2871,
      2773,
      2560,
      2333,
      2223,
      2163,
      2103,
      2008,
      1983,
      1912,
      1859,
      1829,
      1829,
      1829,
      1829,
      1829,
      1829,
      1798,
      1680,
      1583,
      1431,
      1370,
      1238,
      970,
      871,
      679,
      530,
      401,
      309,
      199,
      119,
      37,
      197
    ],
    "swim:geom": "approach",
    "swim:timestamps": [
      1776194247,
      1776194261,
      1776194307,
      1776194337,
      1776194369,
      1776194392,
      1776194404,
      1776194458,
      1776194483,
      1776194492,
      1776194505,
      1776194545,
      1776194560,
      1776194602,
      1776194610,
      1776194666,
      1776194697,
      1776194712,
      1776194757,
      1776194787,
      1776194802,
      1776194841,
      1776194855,
      1776194891,
      1776194917,
      1776194959,
      1776194983,
      1776195003,
      1776195012,
      1776195042,
      1776195085,
      1776195117,
      1776195135,
      1776195155,
      1776195194,
      1776195207,
      1776195232,
      1776195258,
      1776195288,
      1776195316,
      1776195339,
      1776195385,
      1776195415,
      1776195444,
      1776195468,
      1776195487,
      1776195520,
      1776195559,
      1776195574,
      1776195610,
      1776195650,
      1776195669,
      1776195705,
      1776195742,
      1776195775,
      1776195803,
      1776195836,
      1776195860,
      1776195882,
      1776195892
    ],
    "wof:geomhash": "3a4e341f07aa5272e122bee214892428",
    "wof:id": 2015287149,
    "wof:repo": "sfomuseum-data-flights-2026-04"
  },
  "bbox": [
    -123.10361,
    37.33249,
    -122.08399,
    38.49063
  ],
  "geometry": {"coordinates":[[-123.10361,38.49063],[-123.08064,38.47249],[-123.00825,38.41677],[-122.96135,38.37943],[-122.91303,38.34087],[-122.87653,38.31181],[-122.85983,38.29846],[-122.77805,38.23248],[-122.75844,38.19624],[-122.755,38.18202],[-122.74972,38.16118],[-122.73124,38.09892],[-122.72429,38.07565],[-122.70515,38.01023],[-122.70162,37.99787],[-122.67706,37.91354],[-122.64709,37.87387],[-122.6295,37.85806],[-122.57432,37.80642],[-122.53904,37.773],[-122.52203,37.7569],[-122.48221,37.71917],[-122.46773,37.70549],[-122.43015,37.67027],[-122.4036,37.64535],[-122.36116,37.60467],[-122.34496,37.57871],[-122.3344,37.55678],[-122.32966,37.54733],[-122.31166,37.51487],[-122.31531,37.4668],[-122.32534,37.43321],[-122.33901,37.41777],[-122.36055,37.40417],[-122.4008,37.37589],[-122.40471,37.36294],[-122.3913,37.33949],[-122.35772,37.33249],[-122.31695,37.33589],[-122.28,37.33929],[-122.2482,37.34385],[-122.19049,37.36116],[-122.15742,37.38042],[-122.1267,37.39929],[-122.11067,37.4212],[-122.10047,37.43955],[-122.08399,37.47095],[-122.10168,37.50317],[-122.1154,37.51097],[-122.14981,37.52612],[-122.18526,37.5412],[-122.20299,37.54865],[-122.23472,37.56204],[-122.26418,37.57448],[-122.28621,37.58376],[-122.30404,37.59128],[-122.32496,37.60001],[-122.33923,37.60603],[-122.35299,37.61182],[-122.35904,37.6143]],"type":"LineString"}
}
