{
  "id": 2015360031,
  "type": "Feature",
  "properties": {
    "geom:area": 0,
    "geom:bbox": "-122.525150,37.625890,-121.975250,38.471190",
    "geom:latitude": 38.02982917498179,
    "geom:longitude": -122.28645951238965,
    "src:alt_label": "swim-takeoff",
    "src:geom": "swim",
    "swim:elevations": [
      152,
      584,
      926,
      1164,
      1199,
      1693,
      2057,
      2265,
      2924,
      3186,
      3321,
      3442,
      3587,
      3915,
      4388,
      4466,
      4746,
      4910,
      5149,
      5426,
      5561,
      5778,
      5987,
      6230,
      6282,
      6500
    ],
    "swim:geom": "takeoff",
    "swim:timestamps": [
      1776879131,
      1776879164,
      1776879198,
      1776879237,
      1776879246,
      1776879298,
      1776879321,
      1776879336,
      1776879384,
      1776879407,
      1776879448,
      1776879466,
      1776879488,
      1776879515,
      1776879558,
      1776879565,
      1776879596,
      1776879617,
      1776879642,
      1776879675,
      1776879693,
      1776879716,
      1776879742,
      1776879775,
      1776879781,
      1776879813
    ],
    "wof:geomhash": "f053db5142a8bec82423b6e9c208731f",
    "wof:id": 2015360031,
    "wof:repo": "sfomuseum-data-flights-2026-04"
  },
  "bbox": [
    -122.52515,
    37.62589,
    -121.97525,
    38.47119
  ],
  "geometry": {"coordinates":[[-122.39169,37.62589],[-122.42207,37.63906],[-122.45335,37.65215],[-122.49341,37.6694],[-122.50366,37.67393],[-122.52515,37.7269],[-122.50804,37.75322],[-122.49659,37.76912],[-122.45991,37.82247],[-122.44274,37.84881],[-122.40714,37.90066],[-122.3892,37.92584],[-122.36575,37.95714],[-122.3357,37.99706],[-122.28889,38.05963],[-122.28096,38.07006],[-122.24377,38.11838],[-122.21904,38.14981],[-122.18732,38.18817],[-122.14153,38.24056],[-122.11686,38.26879],[-122.08501,38.30481],[-122.05201,38.34761],[-122.01589,38.40381],[-122.00947,38.41435],[-121.97525,38.47119]],"type":"LineString"}
}
