{
  "id": 2031140459,
  "type": "Feature",
  "properties": {
    "geom:area": 0,
    "geom:bbox": "-122.351620,37.492250,-121.250360,37.611210",
    "geom:latitude": 37.542489328718304,
    "geom:longitude": -121.80782573386561,
    "src:alt_label": "swim-approach",
    "src:geom": "swim",
    "swim:elevations": [
      4343,
      4087,
      3785,
      3482,
      3360,
      3077,
      2961,
      2646,
      2554,
      2434,
      2346,
      2299,
      2225,
      2124,
      1820,
      1607,
      1566,
      1308,
      935,
      909,
      638,
      547,
      489,
      373,
      188,
      80,
      60
    ],
    "swim:geom": "approach",
    "swim:timestamps": [
      1777494051,
      1777494079,
      1777494113,
      1777494144,
      1777494159,
      1777494226,
      1777494263,
      1777494315,
      1777494341,
      1777494362,
      1777494387,
      1777494396,
      1777494422,
      1777494450,
      1777494502,
      1777494536,
      1777494546,
      1777494585,
      1777494657,
      1777494661,
      1777494717,
      1777494738,
      1777494752,
      1777494783,
      1777494836,
      1777494868,
      1777494874
    ],
    "wof:geomhash": "e0d2537899d630e10e725636844fcb89",
    "wof:id": 2031140459,
    "wof:repo": "sfomuseum-data-flights-2026-04"
  },
  "bbox": [
    -122.35162,
    37.49225,
    -121.25036,
    37.61121
  ],
  "geometry": {"coordinates":[[-121.25036,37.59437],[-121.30761,37.58711],[-121.37605,37.57972],[-121.43895,37.57264],[-121.46812,37.56922],[-121.59395,37.55439],[-121.65396,37.54383],[-121.73951,37.52348],[-121.7814,37.51327],[-121.81393,37.50548],[-121.85095,37.49657],[-121.86424,37.49378],[-121.90248,37.49225],[-121.94074,37.49442],[-122.01025,37.49865],[-122.05573,37.50129],[-122.06857,37.50201],[-122.11547,37.51176],[-122.18582,37.54137],[-122.18989,37.54307],[-122.2417,37.56502],[-122.25948,37.57241],[-122.27054,37.5771],[-122.29148,37.58589],[-122.32649,37.60065],[-122.34748,37.60945],[-122.35162,37.61121]],"type":"LineString"}
}
