{
  "id": 2031128567,
  "type": "Feature",
  "properties": {
    "geom:area": 0,
    "geom:bbox": "-122.548950,36.718030,-121.444970,37.668920",
    "geom:latitude": 37.21221235624979,
    "geom:longitude": -122.0697528254542,
    "src:alt_label": "swim-takeoff",
    "src:geom": "swim",
    "swim:elevations": [
      183,
      244,
      645,
      840,
      1073,
      1311,
      1877,
      2201,
      2809,
      3133,
      3542,
      3721,
      4411,
      4527,
      4578,
      5179,
      5604,
      5849,
      5988,
      6502,
      6703,
      7045,
      7619,
      7658,
      8178,
      8482,
      8695,
      9211,
      9447,
      9449,
      9449,
      9449,
      9449
    ],
    "swim:geom": "takeoff",
    "swim:timestamps": [
      1777280915,
      1777280920,
      1777280955,
      1777280988,
      1777281008,
      1777281036,
      1777281083,
      1777281108,
      1777281144,
      1777281163,
      1777281208,
      1777281220,
      1777281266,
      1777281273,
      1777281276,
      1777281315,
      1777281348,
      1777281367,
      1777281378,
      1777281415,
      1777281429,
      1777281458,
      1777281507,
      1777281511,
      1777281558,
      1777281586,
      1777281603,
      1777281652,
      1777281682,
      1777281718,
      1777281746,
      1777281758,
      1777281765
    ],
    "wof:geomhash": "a5cb6ab58d6b92f62b8680668833cfae",
    "wof:id": 2031128567,
    "wof:repo": "sfomuseum-data-flights-2026-04"
  },
  "bbox": [
    -122.54895,
    36.71803,
    -121.44497,
    37.66892
  ],
  "geometry": {"coordinates":[[-122.38861,37.62431],[-122.39258,37.62586],[-122.42065,37.63792],[-122.45292,37.65267],[-122.47545,37.66251],[-122.51338,37.66892],[-122.54895,37.62339],[-122.53509,37.59334],[-122.50703,37.549],[-122.49391,37.52531],[-122.44842,37.46939],[-122.43022,37.45684],[-122.36129,37.40603],[-122.3503,37.39778],[-122.34564,37.39427],[-122.28452,37.34913],[-122.22844,37.30816],[-122.19561,37.28405],[-122.17636,37.26992],[-122.11008,37.22095],[-122.0852,37.20252],[-122.03288,37.16373],[-121.9413,37.09559],[-121.93362,37.08985],[-121.84242,37.02165],[-121.78755,36.98078],[-121.75506,36.95678],[-121.66027,36.88633],[-121.60206,36.84245],[-121.53248,36.78996],[-121.47891,36.74797],[-121.45742,36.72935],[-121.44497,36.71803]],"type":"LineString"}
}
