{
  "id": 2015241011,
  "type": "Feature",
  "properties": {
    "geom:area": 0,
    "geom:bbox": "-122.530833,32.683333,-116.950000,37.534167",
    "geom:latitude": 34.886125112228335,
    "geom:longitude": -119.88867712955975,
    "src:alt_label": "swim-path",
    "src:geom": "swim",
    "swim:altitudes": [
      "095",
      "147",
      "147",
      "201",
      "265",
      "370C",
      "370C",
      "370C",
      "370C",
      "370C",
      "370C",
      "370C",
      "370C",
      "370C",
      "370C",
      "370C",
      "370C",
      "370C",
      "370C",
      "370C",
      "367",
      "347",
      "347",
      "337",
      "311",
      "285",
      "269",
      "233",
      "233",
      "213",
      "194",
      "171",
      "148",
      "148",
      "130",
      "093",
      "093",
      "076",
      "066",
      "064",
      "044",
      "042",
      "042",
      "036",
      "029",
      "022",
      "013",
      "010",
      "001",
      "001"
    ],
    "swim:geom": "path",
    "swim:speeds": [
      279,
      318,
      318,
      340,
      396,
      466,
      466,
      466,
      458,
      458,
      460,
      462,
      463,
      463,
      463,
      469,
      469,
      474,
      473,
      472,
      472,
      479,
      479,
      484,
      484,
      476,
      446,
      416,
      416,
      398,
      387,
      375,
      358,
      358,
      349,
      286,
      286,
      290,
      267,
      263,
      183,
      177,
      177,
      149,
      141,
      145,
      144,
      144,
      144,
      144
    ],
    "swim:timestamps": [
      1775714478,
      1775714598,
      1775714598,
      1775714718,
      1775714898,
      1775715439,
      1775715439,
      1775715439,
      1775715799,
      1775715799,
      1775715859,
      1775715979,
      1775716039,
      1775716039,
      1775716039,
      1775716279,
      1775716279,
      1775716524,
      1775716645,
      1775716705,
      1775716825,
      1775716945,
      1775716945,
      1775717005,
      1775717065,
      1775717125,
      1775717185,
      1775717284,
      1775717284,
      1775717344,
      1775717404,
      1775717485,
      1775717545,
      1775717545,
      1775717605,
      1775717758,
      1775717758,
      1775717845,
      1775717878,
      1775717906,
      1775718058,
      1775718086,
      1775718086,
      1775718118,
      1775718178,
      1775718238,
      1775718298,
      1775718326,
      1775718386,
      1775718386
    ],
    "wof:geomhash": "60d8439cf5788b6d54bc2b75db1b0b2e",
    "wof:id": 2015241011,
    "wof:repo": "sfomuseum-data-flights-2026-04"
  },
  "bbox": [
    -122.53083333333333,
    32.68333333333333,
    -116.95,
    37.534166666666664
  ],
  "geometry": {"coordinates":[[-122.49555555555555,37.534166666666664],[-122.4975,37.36833333333333],[-122.4975,37.36833333333333],[-122.53083333333333,37.186388888888885],[-122.48166666666667,36.89416666666666],[-121.6375,36.031666666666666],[-121.6375,36.031666666666666],[-121.6375,36.031666666666666],[-120.99527777777777,35.47361111111111],[-120.99527777777777,35.47361111111111],[-120.86861111111111,35.4],[-120.58972222222222,35.23722222222222],[-120.46333333333334,35.16305555555555],[-120.46333333333334,35.16305555555555],[-120.46333333333334,35.16305555555555],[-119.95333333333333,34.86083333333333],[-119.95333333333333,34.86083333333333],[-119.42916666666667,34.54555555555555],[-119.17361111111111,34.390277777777776],[-119.045,34.31166666666666],[-118.79138888888889,34.15555555555555],[-118.53444444444445,33.99666666666667],[-118.53444444444445,33.99666666666667],[-118.40416666666667,33.91166666666666],[-118.2825,33.8175],[-118.16055555555556,33.723888888888894],[-118.07083333333333,33.65555555555555],[-117.88333333333334,33.5],[-117.88333333333334,33.5],[-117.78333333333333,33.416666666666664],[-117.7,33.35],[-117.60444444444444,33.25194444444445],[-117.52444444444444,33.17611111111111],[-117.52444444444444,33.17611111111111],[-117.4538888888889,33.10166666666667],[-117.28333333333333,32.9],[-117.28333333333333,32.9],[-117.21111111111111,32.81527777777777],[-117.15,32.8],[-117.1275,32.79277777777778],[-116.95,32.733333333333334],[-116.9575,32.71138888888889],[-116.9575,32.71138888888889],[-116.98333333333333,32.68333333333333],[-117.03333333333333,32.7],[-117.06666666666666,32.7],[-117.11666666666666,32.71666666666667],[-117.13361111111112,32.72],[-117.17888888888889,32.73083333333334],[-117.17888888888889,32.73083333333334]],"type":"LineString"}
}
