{
  "id": 2015254119,
  "type": "Feature",
  "properties": {
    "geom:area": 0,
    "geom:bbox": "-122.000710,36.757610,-121.897480,37.075350",
    "geom:latitude": 36.917685138035836,
    "geom:longitude": -121.94551862262958,
    "src:alt_label": "swim-approach",
    "src:geom": "swim",
    "swim:elevations": [
      4605,
      4388,
      4030,
      3865,
      3590,
      3445,
      3215,
      2979
    ],
    "swim:geom": "approach",
    "swim:timestamps": [
      1775835234,
      1775835258,
      1775835287,
      1775835308,
      1775835358,
      1775835388,
      1775835413,
      1775835446
    ],
    "wof:geomhash": "881f1c22a95a612699cce62fef130e83",
    "wof:id": 2015254119,
    "wof:repo": "sfomuseum-data-flights-2026-04"
  },
  "bbox": [
    -122.00071,
    36.75761,
    -121.89748,
    37.07535
  ],
  "geometry": {"coordinates":[[-121.89748,36.75761],[-121.90893,36.79742],[-121.92206,36.84367],[-121.93149,36.87759],[-121.95389,36.95573],[-121.97022,36.99734],[-121.9832,37.03047],[-122.00071,37.07535]],"type":"LineString"}
}
