{
  "id": 2015351555,
  "type": "Feature",
  "properties": {
    "geom:area": 0,
    "geom:bbox": "-122.403070,37.625970,-121.735520,38.505890",
    "geom:latitude": 38.01208400341379,
    "geom:longitude": -122.00720957263569,
    "src:alt_label": "swim-takeoff",
    "src:geom": "swim",
    "swim:elevations": [
      122,
      468,
      816,
      998,
      1238,
      1337,
      1744,
      2248,
      2289,
      2845,
      3545,
      3876,
      3947,
      4226,
      4565,
      4891,
      5503,
      5628,
      6111,
      6422,
      6623,
      6701,
      6738,
      6940,
      7034,
      7232,
      7561,
      7670,
      7822
    ],
    "swim:geom": "takeoff",
    "swim:timestamps": [
      1776774236,
      1776774260,
      1776774295,
      1776774316,
      1776774355,
      1776774377,
      1776774410,
      1776774446,
      1776774450,
      1776774485,
      1776774535,
      1776774566,
      1776774573,
      1776774602,
      1776774626,
      1776774643,
      1776774684,
      1776774694,
      1776774742,
      1776774774,
      1776774798,
      1776774806,
      1776774812,
      1776774835,
      1776774849,
      1776774878,
      1776774925,
      1776774943,
      1776774963
    ],
    "wof:geomhash": "0261562e9721b08fb1ee5115e3c85076",
    "wof:id": 2015351555,
    "wof:repo": "sfomuseum-data-flights-2026-04"
  },
  "bbox": [
    -122.40307,
    37.62597,
    -121.73552,
    38.50589
  ],
  "geometry": {"coordinates":[[-122.38628,37.62597],[-122.40307,37.6382],[-122.39061,37.66202],[-122.36817,37.66772],[-122.32405,37.68007],[-122.30475,37.69956],[-122.28155,37.73709],[-122.24597,37.7746],[-122.24197,37.77736],[-122.19531,37.80879],[-122.12849,37.85318],[-122.08285,37.88297],[-122.07307,37.88946],[-122.02659,37.92011],[-121.98717,37.94645],[-121.95926,37.96501],[-121.89412,38.00859],[-121.88109,38.02265],[-121.85289,38.10272],[-121.83624,38.15943],[-121.82331,38.20246],[-121.81894,38.2171],[-121.81578,38.22793],[-121.80397,38.26987],[-121.79734,38.29496],[-121.78293,38.34725],[-121.75717,38.43464],[-121.74707,38.46789],[-121.73552,38.50589]],"type":"LineString"}
}
