{
  "id": 2015351481,
  "type": "Feature",
  "properties": {
    "geom:area": 0,
    "geom:bbox": "-122.328889,37.687500,-121.740556,48.096944",
    "geom:latitude": 42.823803247830725,
    "geom:longitude": -121.973505640528,
    "src:alt_label": "swim-path",
    "src:geom": "swim",
    "swim:altitudes": [
      "051",
      "051",
      "167",
      "167",
      "188",
      "188",
      "188",
      "211",
      "229",
      "253",
      "253",
      "253",
      "273",
      "320C",
      "320C",
      "320C",
      "320C",
      "320C",
      "320C",
      "320C",
      "320C",
      "320C",
      "320C",
      "320C",
      "320C",
      "320C",
      "320C",
      "320C",
      "320C",
      "320C",
      "320C",
      "320C",
      "320C",
      "320C",
      "320C",
      "320C",
      "320C",
      "320C",
      "320C",
      "320C",
      "320C",
      "320C",
      "320C",
      "320C",
      "320C",
      "320C",
      "320C",
      "320C",
      "320C",
      "320C",
      "320C",
      "320C",
      "320C",
      "320C",
      "320C",
      "320C",
      "320C",
      "320C",
      "320C",
      "320C",
      "320C",
      "320C",
      "320C",
      "320C",
      "320C",
      "320C",
      "320C",
      "320C",
      "320C",
      "320C",
      "320C",
      "320C",
      "320C",
      "320C",
      "320C",
      "320C",
      "320C",
      "283",
      "283",
      "283",
      "280",
      "280",
      "277",
      "277",
      "266",
      "229",
      "229",
      "229"
    ],
    "swim:geom": "path",
    "swim:speeds": [
      262,
      262,
      361,
      361,
      386,
      386,
      386,
      405,
      432,
      438,
      438,
      438,
      438,
      466,
      466,
      466,
      466,
      468,
      468,
      468,
      476,
      476,
      476,
      476,
      478,
      478,
      478,
      476,
      476,
      476,
      482,
      484,
      486,
      486,
      487,
      489,
      492,
      492,
      492,
      492,
      495,
      495,
      495,
      502,
      511,
      511,
      511,
      513,
      515,
      515,
      515,
      514,
      514,
      514,
      514,
      514,
      513,
      512,
      512,
      509,
      509,
      509,
      509,
      514,
      514,
      514,
      510,
      510,
      510,
      499,
      497,
      497,
      497,
      494,
      493,
      490,
      490,
      466,
      466,
      466,
      452,
      452,
      452,
      452,
      450,
      422,
      422,
      422
    ],
    "swim:timestamps": [
      1776822276,
      1776822276,
      1776822517,
      1776822517,
      1776822577,
      1776822577,
      1776822577,
      1776822637,
      1776822697,
      1776822757,
      1776822757,
      1776822757,
      1776822817,
      1776823117,
      1776823117,
      1776823177,
      1776823177,
      1776823297,
      1776823297,
      1776823297,
      1776823538,
      1776823538,
      1776823598,
      1776823598,
      1776823718,
      1776823718,
      1776823718,
      1776823898,
      1776823898,
      1776823898,
      1776824018,
      1776824078,
      1776824138,
      1776824138,
      1776824198,
      1776824258,
      1776824319,
      1776824319,
      1776824319,
      1776824379,
      1776824562,
      1776824562,
      1776824562,
      1776824683,
      1776824743,
      1776824743,
      1776824743,
      1776824803,
      1776824863,
      1776824863,
      1776824863,
      1776824983,
      1776824983,
      1776825103,
      1776825103,
      1776825103,
      1776825163,
      1776825223,
      1776825223,
      1776825343,
      1776825343,
      1776825343,
      1776825583,
      1776825703,
      1776825703,
      1776825703,
      1776825884,
      1776825884,
      1776825884,
      1776826184,
      1776826244,
      1776826244,
      1776826244,
      1776826304,
      1776826364,
      1776826484,
      1776826484,
      1776826664,
      1776826664,
      1776826664,
      1776826844,
      1776826844,
      1776826904,
      1776826904,
      1776826964,
      1776827085,
      1776827085,
      1776827085
    ],
    "wof:geomhash": "48f9fe79ff22dadad832017bfa0225ec",
    "wof:id": 2015351481,
    "wof:repo": "sfomuseum-data-flights-2026-04"
  },
  "bbox": [
    -122.32888888888888,
    37.6875,
    -121.74055555555556,
    48.096944444444446
  ],
  "geometry": {"coordinates":[[-122.29805555555555,37.6875],[-122.29805555555555,37.6875],[-122.0025,37.924166666666665],[-122.0025,37.924166666666665],[-122.03111111111112,38.02861111111111],[-122.03111111111112,38.02861111111111],[-122.03111111111112,38.02861111111111],[-122.06055555555555,38.138333333333335],[-122.09083333333332,38.253055555555555],[-122.10916666666667,38.37416666666667],[-122.10916666666667,38.37416666666667],[-122.10916666666667,38.37416666666667],[-122.09916666666666,38.48277777777778],[-122.03805555555556,39.112500000000004],[-122.03805555555556,39.112500000000004],[-122.02527777777777,39.24333333333333],[-122.02527777777777,39.24333333333333],[-121.99944444444445,39.50333333333333],[-121.99944444444445,39.50333333333333],[-121.99944444444445,39.50333333333333],[-121.94833333333334,40.018055555555556],[-121.94833333333334,40.018055555555556],[-121.93527777777778,40.14888888888889],[-121.93527777777778,40.14888888888889],[-121.90611111111112,40.43805555555555],[-121.90611111111112,40.43805555555555],[-121.90611111111112,40.43805555555555],[-121.86555555555555,40.83277777777778],[-121.86555555555555,40.83277777777778],[-121.86555555555555,40.83277777777778],[-121.8386111111111,41.09861111111111],[-121.82388888888889,41.23861111111111],[-121.81,41.374722222222225],[-121.81,41.374722222222225],[-121.79583333333333,41.50944444444445],[-121.78166666666667,41.644999999999996],[-121.76722222222222,41.78361111111111],[-121.76722222222222,41.78361111111111],[-121.76722222222222,41.78361111111111],[-121.7525,41.919444444444444],[-121.74055555555556,42.31861111111112],[-121.74055555555556,42.31861111111112],[-121.74055555555556,42.31861111111112],[-121.76222222222222,42.59638888888889],[-121.77388888888889,42.738055555555555],[-121.77388888888889,42.738055555555555],[-121.77388888888889,42.738055555555555],[-121.78527777777778,42.88138888888889],[-121.7975,43.025555555555556],[-121.7975,43.025555555555556],[-121.7975,43.025555555555556],[-121.81861111111111,43.30916666666666],[-121.81861111111111,43.30916666666666],[-121.84194444444444,43.593611111111116],[-121.84194444444444,43.593611111111116],[-121.84194444444444,43.593611111111116],[-121.85333333333332,43.73722222222222],[-121.865,43.882777777777775],[-121.865,43.882777777777775],[-121.88777777777779,44.165277777777774],[-121.88777777777779,44.165277777777774],[-121.88777777777779,44.165277777777774],[-121.935,44.73277777777778],[-121.95944444444444,45.02333333333333],[-121.95944444444444,45.02333333333333],[-121.95944444444444,45.02333333333333],[-121.99555555555555,45.446666666666665],[-121.99555555555555,45.446666666666665],[-121.99555555555555,45.446666666666665],[-122.07138888888889,46.14388888888889],[-122.08749999999999,46.282222222222224],[-122.08749999999999,46.282222222222224],[-122.08749999999999,46.282222222222224],[-122.10277777777777,46.419444444444444],[-122.11833333333333,46.55472222222222],[-122.14916666666667,46.825],[-122.14916666666667,46.825],[-122.19527777777778,47.22694444444445],[-122.19527777777778,47.22694444444445],[-122.19527777777778,47.22694444444445],[-122.24055555555556,47.61],[-122.24055555555556,47.61],[-122.25527777777778,47.7325],[-122.25527777777778,47.7325],[-122.27055555555556,47.86083333333333],[-122.32888888888888,48.096944444444446],[-122.32888888888888,48.096944444444446],[-122.32888888888888,48.096944444444446]],"type":"LineString"}
}
