{
  "id": 2031116277,
  "type": "Feature",
  "properties": {
    "geom:area": 0,
    "geom:bbox": "-122.380000,33.640000,-84.280000,38.240000",
    "geom:latitude": 36.77380998405849,
    "geom:longitude": -103.10454236612205,
    "src:alt_label": "swim-route",
    "src:geom": "swim",
    "swim:geom": "route",
    "wof:geomhash": "a697bc24c21d68bc82f986943f3816ef",
    "wof:id": 2031116277,
    "wof:repo": "sfomuseum-data-flights-2026-04"
  },
  "bbox": [
    -122.38,
    33.64,
    -84.28,
    38.24
  ],
  "geometry": {"coordinates":[[-84.43,33.64],[-84.28,33.68],[-84.28,33.81],[-84.53,33.81],[-84.62,33.82],[-84.62,33.82],[-85.19,33.82],[-85.2,33.82],[-85.42,33.83],[-85.65,33.84],[-86.04,33.95],[-86.4,34.05],[-87.11,34.26],[-88.1,34.53],[-88.61,34.66],[-89.14,34.8],[-89.6,34.92],[-89.79,34.97],[-89.98,35.02],[-90.38,35.12],[-91.18,35.34],[-91.45,35.41],[-92.24,35.62],[-93.09,35.83],[-93.31,35.88],[-94.9,36.26],[-96.69,36.65],[-97.16,36.75],[-97.74,36.8],[-99.93,36.98],[-100.97,37.04],[-101.83,37.12],[-102.28,37.16],[-102.54,37.18],[-103.37,37.24],[-103.6,37.26],[-104.38,37.35],[-104.71,37.39],[-105.73,37.5],[-106.22,37.55],[-106.83,37.61],[-107.24,37.65],[-108.56,37.78],[-108.93,37.81],[-109.08,37.82],[-109.41,37.86],[-109.72,37.89],[-110.55,37.97],[-111.52,38.05],[-112.35,38.12],[-114.02,38.23],[-114.19,38.24],[-117.22,38.03],[-117.45,38.01],[-118.33,37.94],[-118.76,37.9],[-119.1,37.86],[-119.61,37.8],[-119.72,37.78],[-119.82,37.77],[-119.97,37.75],[-120.39,37.7],[-120.4,37.7],[-120.57,37.68],[-120.69,37.67],[-120.75,37.66],[-120.79,37.65],[-120.8,37.65],[-120.96,37.63],[-121,37.63],[-121.01,37.63],[-121.07,37.62],[-121.17,37.61],[-121.26,37.59],[-121.39,37.58],[-121.41,37.58],[-121.6,37.55],[-121.61,37.55],[-121.62,37.55],[-121.72,37.53],[-121.8,37.51],[-121.88,37.49],[-121.89,37.49],[-122.01,37.53],[-122.08,37.54],[-122.18,37.57],[-122.18,37.57],[-122.28,37.59],[-122.33,37.61],[-122.36,37.61],[-122.38,37.62]],"type":"LineString"}
}
