{
  "id": 2015308877,
  "type": "Feature",
  "properties": {
    "geom:area": 0,
    "geom:bbox": "-122.399670,37.629760,-121.244300,37.963990",
    "geom:latitude": 37.829687005430394,
    "geom:longitude": -121.84246992669836,
    "src:alt_label": "swim-takeoff",
    "src:geom": "swim",
    "swim:elevations": [
      195,
      756,
      1099,
      1295,
      1601,
      1903,
      2521,
      2662,
      3051,
      3232,
      3345,
      3490,
      3949,
      4331,
      4717,
      4977,
      5121,
      5347,
      5427,
      5931,
      6203,
      6506,
      6679,
      6829,
      6950,
      7028,
      7273
    ],
    "swim:geom": "takeoff",
    "swim:timestamps": [
      1776375940,
      1776375986,
      1776376016,
      1776376043,
      1776376076,
      1776376098,
      1776376138,
      1776376152,
      1776376176,
      1776376195,
      1776376219,
      1776376234,
      1776376274,
      1776376309,
      1776376340,
      1776376367,
      1776376380,
      1776376403,
      1776376413,
      1776376466,
      1776376496,
      1776376527,
      1776376551,
      1776376568,
      1776376579,
      1776376592,
      1776376620
    ],
    "wof:geomhash": "801ff6b37d7bb5696abc44030d924d35",
    "wof:id": 2015308877,
    "wof:repo": "sfomuseum-data-flights-2026-04"
  },
  "bbox": [
    -122.39967,
    37.62976,
    -121.2443,
    37.96399
  ],
  "geometry": {"coordinates":[[-122.39598,37.62976],[-122.39967,37.65889],[-122.37007,37.66739],[-122.33973,37.67731],[-122.29759,37.69118],[-122.26653,37.7009],[-122.20993,37.72036],[-122.19184,37.72952],[-122.15988,37.74611],[-122.13402,37.75941],[-122.09868,37.77772],[-122.07484,37.79024],[-122.00457,37.81589],[-121.93367,37.83004],[-121.87071,37.84194],[-121.8158,37.85253],[-121.78816,37.858],[-121.74013,37.86753],[-121.71738,37.87206],[-121.6009,37.89497],[-121.53545,37.90776],[-121.46321,37.92176],[-121.40792,37.93248],[-121.36934,37.93995],[-121.3412,37.94537],[-121.31269,37.95088],[-121.2443,37.96399]],"type":"LineString"}
}
