{
  "id": 2031105507,
  "type": "Feature",
  "properties": {
    "geom:area": 0,
    "geom:bbox": "-122.462500,27.776389,-82.542500,37.656389",
    "geom:latitude": 32.042270085491424,
    "geom:longitude": -102.6492325097121,
    "src:alt_label": "swim-path",
    "src:geom": "swim",
    "swim:altitudes": [
      "034",
      "200",
      "267",
      "350C",
      "350C",
      "330C",
      "330C",
      "330C",
      "330C",
      "330C",
      "330C",
      "330C",
      "330C",
      "330C",
      "330C",
      "330C",
      "330",
      "340",
      "340",
      "349C",
      "350C",
      "350C",
      "350C",
      "350C",
      "350C",
      "350C",
      "350C",
      "350C",
      "350C",
      "350C",
      "350C",
      "350C",
      "350C",
      "350C",
      "350C",
      "350C",
      "350C",
      "350C",
      "350C",
      "350C",
      "350C",
      "350C",
      "350C",
      "350C",
      "350C",
      "350C",
      "350C",
      "350C",
      "350C",
      "350C",
      "350C",
      "350C",
      "350C",
      "350C",
      "350C",
      "350C",
      "350C",
      "350C",
      "350C",
      "350C",
      "350C",
      "350C",
      "350C",
      "350C",
      "350C",
      "350C",
      "350C",
      "350C",
      "350C",
      "350C",
      "350C",
      "350C",
      "350C",
      "350C",
      "350C",
      "350C",
      "350C",
      "350C",
      "350C",
      "350C",
      "350C",
      "350C",
      "350C",
      "350C",
      "350C",
      "350C",
      "350C",
      "350C",
      "350C",
      "350C",
      "350C",
      "350C",
      "350C",
      "350C",
      "350C",
      "350C",
      "350C",
      "350C",
      "350C",
      "350C",
      "350C",
      "350C",
      "350C",
      "350C",
      "350C",
      "350C",
      "350C",
      "350C",
      "350C",
      "350C",
      "350C",
      "350C",
      "350C",
      "350C",
      "350C",
      "350C",
      "350C",
      "350C",
      "350C",
      "352",
      "354",
      "359",
      "362",
      "370C",
      "370C",
      "370C",
      "370C",
      "370C",
      "370C",
      "366",
      "360C",
      "360C",
      "360C",
      "360C",
      "360C",
      "360C",
      "360C",
      "360C",
      "360C",
      "360C",
      "360C",
      "360C",
      "360C",
      "360C",
      "360C",
      "360C",
      "360C",
      "360C",
      "360C",
      "360C",
      "360C",
      "360C",
      "360C",
      "360C",
      "360C",
      "360C",
      "360C",
      "360C",
      "360C",
      "360C",
      "360C",
      "360",
      "355",
      "353",
      "350C",
      "350C",
      "350C",
      "350C",
      "350C",
      "350C",
      "350C",
      "350C",
      "350C",
      "350C",
      "350C",
      "350C",
      "350C",
      "350C",
      "350C",
      "350C",
      "350",
      "350",
      "331",
      "322",
      "310",
      "304",
      "294",
      "294",
      "293",
      "284",
      "265",
      "250",
      "250",
      "239",
      "239",
      "220",
      "216",
      "193",
      "174",
      "153",
      "135",
      "132",
      "128",
      "128",
      "111",
      "099C",
      "100",
      "096",
      "092",
      "085",
      "083",
      "078",
      "061",
      "055",
      "042",
      "029",
      "030",
      "030",
      "030",
      "016",
      "007",
      "100",
      "100"
    ],
    "swim:geom": "path",
    "swim:speeds": [
      184,
      436,
      510,
      513,
      508,
      526,
      526,
      527,
      528,
      530,
      530,
      530,
      530,
      530,
      531,
      530,
      528,
      535,
      535,
      549,
      553,
      554,
      554,
      554,
      554,
      555,
      556,
      555,
      555,
      555,
      556,
      557,
      557,
      557,
      557,
      554,
      553,
      555,
      555,
      557,
      560,
      560,
      560,
      560,
      559,
      558,
      542,
      535,
      535,
      535,
      534,
      532,
      532,
      531,
      531,
      534,
      529,
      531,
      531,
      528,
      528,
      527,
      528,
      528,
      518,
      537,
      537,
      536,
      550,
      546,
      551,
      552,
      554,
      552,
      552,
      555,
      552,
      554,
      553,
      553,
      553,
      554,
      554,
      556,
      555,
      554,
      554,
      555,
      555,
      552,
      555,
      555,
      555,
      555,
      550,
      548,
      546,
      546,
      544,
      544,
      544,
      545,
      545,
      544,
      544,
      543,
      543,
      542,
      542,
      541,
      541,
      540,
      538,
      535,
      535,
      535,
      534,
      533,
      532,
      530,
      530,
      530,
      530,
      529,
      528,
      527,
      524,
      523,
      523,
      521,
      520,
      520,
      520,
      520,
      519,
      519,
      517,
      500,
      496,
      496,
      490,
      491,
      498,
      498,
      494,
      476,
      476,
      480,
      482,
      486,
      490,
      499,
      493,
      489,
      493,
      493,
      491,
      488,
      493,
      491,
      498,
      505,
      508,
      510,
      505,
      503,
      503,
      503,
      503,
      505,
      505,
      507,
      509,
      509,
      509,
      508,
      506,
      502,
      501,
      499,
      497,
      497,
      482,
      484,
      494,
      495,
      499,
      499,
      499,
      502,
      502,
      497,
      495,
      443,
      443,
      443,
      443,
      433,
      421,
      404,
      386,
      389,
      387,
      387,
      378,
      352,
      305,
      296,
      285,
      281,
      280,
      274,
      269,
      265,
      264,
      244,
      229,
      231,
      211,
      167,
      167,
      163,
      163
    ],
    "swim:timestamps": [
      1777097162,
      1777097703,
      1777098063,
      1777098603,
      1777098663,
      1777099024,
      1777099024,
      1777099264,
      1777099324,
      1777099449,
      1777099510,
      1777099750,
      1777099750,
      1777099810,
      1777099930,
      1777099990,
      1777100050,
      1777100170,
      1777100170,
      1777100269,
      1777100329,
      1777100389,
      1777100410,
      1777100410,
      1777100446,
      1777100530,
      1777100566,
      1777100590,
      1777100650,
      1777100688,
      1777100710,
      1777100806,
      1777100806,
      1777100866,
      1777100891,
      1777101049,
      1777101108,
      1777101227,
      1777101227,
      1777101347,
      1777101528,
      1777101648,
      1777101710,
      1777101710,
      1777101770,
      1777101887,
      1777102010,
      1777102067,
      1777102127,
      1777102247,
      1777102370,
      1777102549,
      1777102549,
      1777102610,
      1777102670,
      1777102730,
      1777102790,
      1777102908,
      1777102908,
      1777103029,
      1777103088,
      1777103148,
      1777103209,
      1777103268,
      1777103331,
      1777103389,
      1777103389,
      1777103409,
      1777103448,
      1777103469,
      1777103510,
      1777103570,
      1777103589,
      1777103631,
      1777103691,
      1777103767,
      1777103809,
      1777103889,
      1777103929,
      1777103929,
      1777103989,
      1777104170,
      1777104231,
      1777104307,
      1777104471,
      1777104548,
      1777104548,
      1777104589,
      1777104649,
      1777104670,
      1777104769,
      1777104829,
      1777104889,
      1777104908,
      1777105210,
      1777105268,
      1777105328,
      1777105328,
      1777105520,
      1777105570,
      1777105580,
      1777105630,
      1777105640,
      1777105690,
      1777105700,
      1777105870,
      1777105930,
      1777105940,
      1777105990,
      1777106060,
      1777106060,
      1777106110,
      1777106180,
      1777106290,
      1777106290,
      1777106300,
      1777106350,
      1777106360,
      1777106411,
      1777106531,
      1777106540,
      1777106591,
      1777106600,
      1777106651,
      1777106771,
      1777106831,
      1777107011,
      1777107071,
      1777107071,
      1777107131,
      1777107311,
      1777107311,
      1777107371,
      1777107491,
      1777107551,
      1777107551,
      1777107611,
      1777107851,
      1777107911,
      1777107911,
      1777108091,
      1777108211,
      1777108392,
      1777108392,
      1777108452,
      1777108692,
      1777108692,
      1777108872,
      1777108932,
      1777108992,
      1777109096,
      1777109112,
      1777109156,
      1777109172,
      1777109216,
      1777109216,
      1777109397,
      1777109412,
      1777109532,
      1777109577,
      1777109652,
      1777109772,
      1777109817,
      1777109832,
      1777109892,
      1777109937,
      1777109937,
      1777109952,
      1777109997,
      1777110057,
      1777110132,
      1777110192,
      1777110297,
      1777110373,
      1777110417,
      1777110493,
      1777110553,
      1777110597,
      1777110613,
      1777110673,
      1777110733,
      1777110733,
      1777110844,
      1777110904,
      1777111024,
      1777111078,
      1777111138,
      1777111138,
      1777111144,
      1777111204,
      1777111318,
      1777111438,
      1777111504,
      1777111625,
      1777111625,
      1777111678,
      1777111685,
      1777111745,
      1777111798,
      1777111858,
      1777111903,
      1777111918,
      1777111925,
      1777111925,
      1777111978,
      1777112038,
      1777112068,
      1777112098,
      1777112120,
      1777112158,
      1777112165,
      1777112185,
      1777112285,
      1777112300,
      1777112345,
      1777112405,
      1777112428,
      1777112466,
      1777112485,
      1777112593,
      1777112653,
      1777112706,
      1777112706
    ],
    "wof:geomhash": "4a50affa85134597d4ad116688959129",
    "wof:id": 2031105507,
    "wof:repo": "sfomuseum-data-flights-2026-04"
  },
  "bbox": [
    -122.4625,
    27.77638888888889,
    -82.5425,
    37.656388888888884
  ],
  "geometry": {"coordinates":[[-122.4625,37.656388888888884],[-121.81416666666667,37.13138888888889],[-120.94694444444445,36.73555555555556],[-119.55555555555556,36.077222222222225],[-119.40611111111112,36.005],[-118.36722222222221,35.812777777777775],[-118.36722222222221,35.812777777777775],[-117.66000000000001,35.69444444444444],[-117.46916666666667,35.661944444444444],[-117.11,35.599444444444444],[-116.93277777777779,35.568333333333335],[-116.22361111111111,35.440555555555555],[-116.22361111111111,35.440555555555555],[-116.04694444444445,35.408055555555556],[-115.69666666666667,35.34305555555556],[-115.51833333333333,35.309444444444445],[-115.3461111111111,35.27638888888889],[-114.99555555555555,35.20888888888889],[-114.99555555555555,35.20888888888889],[-114.70805555555556,35.152499999999996],[-114.52555555555556,35.11638888888889],[-114.34444444444443,35.08027777777778],[-114.26888888888888,35.06527777777777],[-114.26888888888888,35.06527777777777],[-114.16166666666668,35.04361111111111],[-113.88305555555554,34.986666666666665],[-113.77666666666667,34.96472222222223],[-113.7038888888889,34.94972222222222],[-113.52277777777778,34.9125],[-113.41611111111112,34.89],[-113.34222222222222,34.87444444444444],[-113.05472222222222,34.81388888888888],[-113.05472222222222,34.81388888888888],[-112.87277777777777,34.775277777777774],[-112.80055555555555,34.75972222222222],[-112.33527777777778,34.65888888888889],[-112.1525,34.61833333333333],[-111.78916666666666,34.5375],[-111.78916666666666,34.5375],[-111.42166666666667,34.45472222222222],[-110.87444444444444,34.32833333333333],[-110.53055555555555,34.24777777777778],[-110.34944444444444,34.20472222222222],[-110.34944444444444,34.20472222222222],[-110.16833333333334,34.16166666666666],[-109.79194444444444,34.07083333333334],[-109.4675,33.967222222222226],[-109.3275,33.876666666666665],[-109.18527777777778,33.78444444444444],[-108.905,33.60027777777778],[-108.62527777777777,33.416666666666664],[-108.20805555555556,33.13972222222222],[-108.20805555555556,33.13972222222222],[-108.07194444444444,33.04722222222222],[-107.92916666666667,32.95111111111111],[-107.7911111111111,32.8575],[-107.65694444444445,32.76638888888889],[-107.39083333333333,32.584722222222226],[-107.39083333333333,32.584722222222226],[-107.11916666666666,32.3975],[-106.98416666666667,32.30444444444444],[-106.86138888888888,32.219166666666666],[-106.72638888888889,32.126666666666665],[-106.59222222222222,32.0325],[-106.4525,31.933611111111112],[-106.32583333333334,31.845555555555553],[-106.32583333333334,31.845555555555553],[-106.27472222222222,31.81888888888889],[-106.13777777777779,31.802777777777777],[-106.09722222222221,31.797777777777778],[-105.9575,31.78777777777778],[-105.7775,31.77111111111111],[-105.7363888888889,31.767777777777777],[-105.60638888888889,31.75638888888889],[-105.42583333333334,31.740000000000002],[-105.19888888888889,31.718888888888888],[-105.06583333333333,31.70722222222222],[-104.84027777777777,31.685555555555556],[-104.70472222222223,31.674166666666668],[-104.70472222222223,31.674166666666668],[-104.52444444444444,31.65722222222222],[-103.98305555555555,31.602777777777778],[-103.80305555555556,31.584444444444443],[-103.58277777777778,31.560833333333335],[-103.11638888888888,31.5125],[-102.86638888888888,31.484722222222224],[-102.86638888888888,31.484722222222224],[-102.75833333333334,31.473055555555554],[-102.57222222222222,31.451944444444443],[-102.5,31.44388888888889],[-102.1913888888889,31.40972222222222],[-102.01055555555556,31.38861111111111],[-101.84472222222222,31.36861111111111],[-101.77361111111111,31.360277777777778],[-100.9113888888889,31.254166666666666],[-100.735,31.231944444444444],[-100.5586111111111,31.209444444444443],[-100.5586111111111,31.209444444444443],[-100.00194444444445,31.13611111111111],[-99.8625,31.1175],[-99.82777777777777,31.11277777777778],[-99.68611111111112,31.093333333333334],[-99.65,31.08861111111111],[-99.51361111111112,31.06972222222222],[-99.47694444444444,31.064722222222223],[-98.97166666666666,30.99416666666667],[-98.80027777777778,30.96972222222222],[-98.78333333333333,30.96722222222222],[-98.62722222222222,30.944444444444446],[-98.4563888888889,30.919722222222223],[-98.4563888888889,30.919722222222223],[-98.28611111111111,30.89472222222222],[-98.11472222222221,30.869444444444444],[-97.77888888888889,30.8125],[-97.77888888888889,30.8125],[-97.74277777777777,30.80611111111111],[-97.61055555555555,30.783055555555556],[-97.57805555555555,30.776944444444442],[-97.44666666666667,30.753611111111113],[-97.11694444444444,30.694444444444446],[-97.08444444444444,30.688333333333333],[-96.9538888888889,30.66444444444444],[-96.9175,30.657777777777778],[-96.7863888888889,30.63361111111111],[-96.45583333333333,30.571944444444444],[-96.2911111111111,30.541111111111114],[-95.78222222222222,30.448055555555555],[-95.61861111111111,30.420833333333334],[-95.61861111111111,30.420833333333334],[-95.45055555555555,30.391944444444444],[-94.96083333333334,30.30638888888889],[-94.96083333333334,30.30638888888889],[-94.79583333333333,30.271944444444443],[-94.4713888888889,30.203611111111112],[-94.32416666666666,30.172777777777778],[-94.32416666666666,30.172777777777778],[-94.165,30.139444444444443],[-93.5436111111111,30.005555555555556],[-93.3913888888889,29.97222222222222],[-93.3913888888889,29.97222222222222],[-92.93722222222223,29.871944444444445],[-92.63305555555554,29.80388888888889],[-92.17416666666666,29.699166666666667],[-92.17416666666666,29.699166666666667],[-92.01888888888888,29.66333333333333],[-91.42055555555557,29.523888888888887],[-91.42055555555557,29.523888888888887],[-90.9786111111111,29.41888888888889],[-90.83,29.383055555555558],[-90.68222222222222,29.34722222222222],[-90.41027777777778,29.27861111111111],[-90.37638888888888,29.272499999999997],[-90.25805555555556,29.240277777777777],[-90.22666666666667,29.235833333333336],[-90.10805555555555,29.203333333333333],[-90.10805555555555,29.203333333333333],[-89.66472222222222,29.09472222222222],[-89.635,29.08861111111111],[-89.33611111111111,29.013055555555557],[-89.21527777777779,28.981944444444444],[-89.03333333333333,28.935833333333335],[-88.72500000000001,28.85638888888889],[-88.60638888888889,28.825555555555557],[-88.56944444444444,28.815833333333334],[-88.415,28.775277777777777],[-88.30138888888888,28.745555555555555],[-88.30138888888888,28.745555555555555],[-88.26305555555555,28.735277777777778],[-88.14888888888889,28.705277777777777],[-87.995,28.66444444444444],[-87.80749999999999,28.614444444444445],[-87.65666666666667,28.574166666666667],[-87.38111111111111,28.499722222222225],[-87.19472222222223,28.448888888888888],[-87.0736111111111,28.41583333333333],[-86.89027777777778,28.365555555555556],[-86.7388888888889,28.323888888888888],[-86.61722222222221,28.300833333333333],[-86.58694444444444,28.29638888888889],[-86.43222222222222,28.272222222222222],[-86.28055555555555,28.248333333333335],[-86.28055555555555,28.248333333333335],[-86.00055555555555,28.203888888888887],[-85.85,28.179722222222225],[-85.54083333333332,28.14388888888889],[-85.40027777777779,28.131666666666668],[-85.2425,28.11722222222222],[-85.2425,28.11722222222222],[-85.22888888888889,28.116111111111113],[-85.07083333333333,28.101666666666667],[-84.77083333333333,28.073888888888888],[-84.44777777777779,28.043055555555558],[-84.27277777777778,28.02611111111111],[-83.97888888888889,27.997222222222224],[-83.97888888888889,27.997222222222224],[-83.86749999999999,27.98611111111111],[-83.83999999999999,27.983333333333334],[-83.70305555555557,27.96944444444444],[-83.59972222222221,27.95861111111111],[-83.4725,27.945555555555554],[-83.36666666666666,27.933333333333334],[-83.35138888888888,27.93305555555556],[-83.32694444444444,27.930555555555557],[-83.32694444444444,27.930555555555557],[-83.23416666666667,27.920833333333334],[-83.12333333333332,27.934444444444445],[-83.06666666666666,27.95],[-83.03388888888888,27.953611111111112],[-83,27.933333333333334],[-82.95305555555557,27.91916666666667],[-82.93777777777778,27.912499999999998],[-82.91666666666667,27.9],[-82.78888888888889,27.849444444444444],[-82.76666666666667,27.833333333333332],[-82.71333333333334,27.819166666666668],[-82.64194444444445,27.791111111111114],[-82.61666666666666,27.783333333333335],[-82.57111111111111,27.77638888888889],[-82.55,27.783333333333335],[-82.55,27.883333333333333],[-82.55,27.933333333333334],[-82.5425,27.964166666666667],[-82.5425,27.964166666666667]],"type":"LineString"}
}
