{
  "id": 2015283147,
  "type": "Feature",
  "properties": {
    "geom:area": 0,
    "geom:bbox": "-123.461730,37.623890,-122.387140,37.730110",
    "geom:latitude": 37.69677427781459,
    "geom:longitude": -122.91996607108997,
    "src:alt_label": "swim-takeoff",
    "src:geom": "swim",
    "swim:elevations": [
      122,
      519,
      645,
      916,
      1072,
      1234,
      1741,
      2139,
      2288,
      2614,
      2705,
      3290,
      3422,
      3738,
      3985,
      4356,
      4548,
      4962,
      5295,
      5718,
      6008,
      6269,
      6462
    ],
    "swim:geom": "takeoff",
    "swim:timestamps": [
      1776101775,
      1776101809,
      1776101821,
      1776101848,
      1776101871,
      1776101901,
      1776101939,
      1776101964,
      1776101974,
      1776101997,
      1776102003,
      1776102057,
      1776102083,
      1776102118,
      1776102138,
      1776102171,
      1776102187,
      1776102224,
      1776102255,
      1776102298,
      1776102327,
      1776102355,
      1776102375
    ],
    "wof:geomhash": "fc21da1aa498eb0121abac2c833ff885",
    "wof:id": 2015283147,
    "wof:repo": "sfomuseum-data-flights-2026-04"
  },
  "bbox": [
    -123.46173,
    37.62389,
    -122.38714,
    37.73011
  ],
  "geometry": {"coordinates":[[-122.38714,37.62389],[-122.41454,37.63587],[-122.42352,37.63987],[-122.44633,37.64986],[-122.46789,37.65934],[-122.50375,37.67348],[-122.56044,37.67825],[-122.60034,37.68072],[-122.6167,37.68176],[-122.65324,37.68405],[-122.66292,37.68462],[-122.75377,37.69004],[-122.80398,37.69304],[-122.877,37.69726],[-122.91896,37.69975],[-122.99044,37.70377],[-123.0262,37.70591],[-123.10911,37.71063],[-123.18061,37.71461],[-123.28004,37.72021],[-123.34713,37.72398],[-123.41372,37.72759],[-123.46173,37.73011]],"type":"LineString"}
}
