{
  "id": 2031152777,
  "type": "Feature",
  "properties": {
    "geom:area": 0,
    "geom:bbox": "-122.380000,37.620000,-70.930000,42.800000",
    "geom:latitude": 41.171048518432755,
    "geom:longitude": -96.58062069335273,
    "src:alt_label": "swim-route",
    "src:geom": "swim",
    "swim:geom": "route",
    "wof:geomhash": "3f8bbc34ce4aa8742f2e6ac6f5dc8258",
    "wof:id": 2031152777,
    "wof:repo": "sfomuseum-data-flights-2026-04"
  },
  "bbox": [
    -122.38,
    37.62,
    -70.93,
    42.8
  ],
  "geometry": {"coordinates":[[-122.38,37.62],[-122.27,37.69],[-122.22,37.72],[-122.21,37.72],[-122.16,37.75],[-122.12,37.76],[-122.09,37.78],[-122.02,37.82],[-122.01,37.82],[-122,37.83],[-121.94,37.85],[-121.77,37.92],[-121.75,37.93],[-121.51,38.02],[-121.45,38.04],[-121.41,38.06],[-121.23,38.13],[-121.23,38.13],[-121.04,38.21],[-120.97,38.21],[-120.79,38.24],[-120.74,38.25],[-120.62,38.26],[-120.2,38.32],[-120.04,38.34],[-119.88,38.37],[-119.73,38.39],[-119.23,38.45],[-119.22,38.45],[-119.03,38.47],[-118.23,38.57],[-118,38.6],[-117.3,38.68],[-117.29,38.68],[-116.16,38.85],[-113.32,39.21],[-112.51,39.3],[-111.43,39.63],[-110.59,39.75],[-110.55,39.75],[-109.15,40.17],[-108.92,40.24],[-108.46,40.37],[-108,40.5],[-105.63,40.81],[-105.37,40.85],[-104.97,40.89],[-104.58,40.94],[-104,41],[-103.39,41.09],[-102.87,41.16],[-101.3,41.35],[-100.65,41.43],[-100,41.5],[-99.03,41.43],[-98.35,41.38],[-98.29,41.38],[-96.04,41.57],[-93.44,41.73],[-93.41,41.73],[-92.34,41.8],[-89.88,42.1],[-88.58,42.24],[-87,42.39],[-86.55,42.43],[-86.1,42.47],[-85,42.55],[-84.61,42.49],[-83.44,42.64],[-80.77,42.7],[-80.43,42.76],[-78.49,42.8],[-78.28,42.8],[-76.68,42.8],[-74.55,42.77],[-74.45,42.76],[-74.14,42.76],[-73.81,42.75],[-73.51,42.74],[-73.11,42.74],[-72.8,42.7],[-72.63,42.68],[-72.32,42.65],[-72.04,42.61],[-71.84,42.59],[-71.82,42.59],[-71.78,42.58],[-71.61,42.55],[-71.59,42.55],[-71.43,42.52],[-71.37,42.5],[-71.35,42.5],[-71.25,42.48],[-71.16,42.46],[-71.16,42.46],[-71.06,42.45],[-71.03,42.45],[-70.99,42.39],[-70.96,42.35],[-70.95,42.34],[-70.93,42.31],[-70.95,42.27],[-70.97,42.24],[-70.98,42.21],[-70.99,42.18],[-70.99,42.2],[-71,42.28],[-71.01,42.35],[-71.01,42.36]],"type":"LineString"}
}
