{
  "id": 2015312851,
  "type": "Feature",
  "properties": {
    "geom:area": 0,
    "geom:bbox": "-123.477100,36.942450,-122.666710,37.285230",
    "geom:latitude": 37.13937562313182,
    "geom:longitude": -123.07817269715095,
    "src:alt_label": "swim-approach",
    "src:geom": "swim",
    "swim:elevations": [
      7032,
      6699,
      6497,
      6211,
      5911,
      5609,
      5245,
      4885,
      4473,
      4001,
      3652,
      3476,
      3048,
      3048,
      3048,
      3048,
      3048,
      3048
    ],
    "swim:geom": "approach",
    "swim:timestamps": [
      1776495147,
      1776495172,
      1776495187,
      1776495208,
      1776495232,
      1776495256,
      1776495284,
      1776495311,
      1776495344,
      1776495381,
      1776495408,
      1776495420,
      1776495478,
      1776495496,
      1776495526,
      1776495540,
      1776495554,
      1776495577
    ],
    "wof:geomhash": "6608f8b23225dbdb18135ae8d66d52ce",
    "wof:id": 2015312851,
    "wof:repo": "sfomuseum-data-flights-2026-04"
  },
  "bbox": [
    -123.4771,
    36.94245,
    -122.66671,
    37.28523
  ],
  "geometry": {"coordinates":[[-123.4771,36.94245],[-123.4229,36.97065],[-123.38972,36.9885],[-123.34528,37.01126],[-123.29452,37.03734],[-123.24653,37.06211],[-123.18778,37.09212],[-123.13349,37.11985],[-123.0694,37.15274],[-123.0001,37.18798],[-122.94911,37.21399],[-122.92705,37.22518],[-122.81999,37.26722],[-122.78625,37.27529],[-122.73719,37.28523],[-122.71655,37.28177],[-122.6972,37.27475],[-122.66671,37.26336]],"type":"LineString"}
}
