{
  "id": 2015245051,
  "type": "Feature",
  "properties": {
    "geom:area": 0,
    "geom:bbox": "-122.380000,37.490000,-77.460000,39.130000",
    "geom:latitude": 38.507124420136826,
    "geom:longitude": -99.97045399897259,
    "src:alt_label": "swim-route",
    "src:geom": "swim",
    "swim:geom": "route",
    "wof:geomhash": "d8a1a0bdd58cb8d4a4d7917e13b82ec9",
    "wof:id": 2015245051,
    "wof:repo": "sfomuseum-data-flights-2026-04"
  },
  "bbox": [
    -122.38,
    37.49,
    -77.46,
    39.13
  ],
  "geometry": {"coordinates":[[-77.46,38.95],[-77.55,38.93],[-77.58,38.92],[-77.58,38.92],[-77.61,38.92],[-77.64,38.91],[-77.67,38.9],[-77.67,38.9],[-77.68,38.9],[-77.71,38.9],[-77.71,38.9],[-77.74,38.89],[-77.77,38.89],[-77.79,38.89],[-77.93,38.87],[-77.97,38.89],[-78.1,38.93],[-78.17,38.95],[-78.17,38.95],[-78.21,38.96],[-78.22,38.96],[-78.26,38.96],[-78.3,38.97],[-78.38,38.97],[-78.42,38.97],[-78.62,38.99],[-78.71,38.99],[-78.85,39],[-78.86,39],[-78.88,39],[-79.01,39.01],[-79.08,39.01],[-79.17,39.02],[-79.18,39.02],[-79.36,39.03],[-79.37,39.03],[-79.7,39.05],[-80.3,39.09],[-80.43,39.1],[-80.79,39.12],[-83.67,39.13],[-83.99,39.12],[-86.22,39.07],[-86.55,39.06],[-88.11,39],[-89.97,38.89],[-90.48,38.86],[-91.31,38.75],[-92.69,38.56],[-94.6,38.27],[-95.41,38.14],[-95.71,38.07],[-97.75,38.18],[-97.98,38.19],[-98.19,38.2],[-100.55,38.28],[-100.87,38.42],[-101.24,38.55],[-101.63,38.52],[-101.77,38.55],[-103.69,38.37],[-103.72,38.36],[-104.43,38.29],[-105.76,38.38],[-107.04,38.45],[-108.24,38.45],[-108.44,38.45],[-109.98,38.43],[-110.09,38.43],[-110.55,38.43],[-111.85,38.44],[-113.86,38.41],[-114.8,38.39],[-116.05,38.56],[-116.33,38.33],[-117.27,38.12],[-117.27,38.12],[-117.77,38],[-118.76,37.9],[-119.1,37.86],[-119.42,37.82],[-119.54,37.81],[-119.99,37.75],[-120.04,37.74],[-120.26,37.72],[-120.28,37.72],[-120.38,37.7],[-120.4,37.7],[-120.75,37.66],[-120.78,37.66],[-120.83,37.65],[-120.96,37.63],[-121,37.63],[-121.08,37.62],[-121.18,37.6],[-121.26,37.59],[-121.39,37.58],[-121.41,37.58],[-121.6,37.55],[-121.61,37.55],[-121.62,37.55],[-121.7,37.53],[-121.8,37.51],[-121.83,37.5],[-121.88,37.49],[-122.08,37.54],[-122.14,37.56],[-122.18,37.57],[-122.28,37.59],[-122.33,37.61],[-122.36,37.61],[-122.38,37.62]],"type":"LineString"}
}
